{"type":"FeatureCollection","features":[{"type":"Feature","properties":{"provinceCode":"41","nameTh":"อุดรธานี","nameEn":"Udon Thani"},"geometry":{"type":"Polygon","coordinates":[[[102.0832264,17.6343232],[102.0781544,17.6464093],[102.0722808,17.6456838],[102.0675748,17.6490932],[102.0613626,17.6569863],[102.054839,17.6571172],[102.0523432,17.6531091],[102.0485218,17.6531809],[102.0424093,17.6490125],[102.0364316,17.6502914],[102.0362793,17.6562668],[102.0392156,17.6639685],[102.0332915,17.6665744],[102.0264147,17.6768721],[102.0293923,17.6855954],[102.0296561,17.7001995],[102.0256513,17.71744],[102.0232888,17.7217372],[102.0213054,17.7388262],[102.0176345,17.7471389],[102.0186195,17.7512105],[102.0235228,17.7545787],[102.0244164,17.7669924],[102.0296988,17.7756259],[102.028032,17.777293],[102.0297564,17.7858653],[102.0403547,17.7851847],[102.045727,17.7901416],[102.0450356,17.7928524],[102.0398785,17.7965451],[102.0396067,17.800228],[102.03642,17.8057016],[102.0384059,17.8106136],[102.0428021,17.8129529],[102.0476135,17.8200983],[102.0507078,17.8338979],[102.0492439,17.8370191],[102.0520039,17.8471041],[102.0486202,17.8554376],[102.0499802,17.8665232],[102.0523999,17.8717847],[102.0462366,17.8770728],[102.0436308,17.881688],[102.0378605,17.8855861],[102.0359954,17.8979742],[102.0385705,17.9030808],[102.0387925,17.9076537],[102.032208,17.9222332],[102.0331821,17.9260943],[102.0306351,17.933011],[102.0307549,17.9447258],[102.0244583,17.955697],[102.0240339,17.964857],[102.0270798,17.9688862],[102.0249335,17.9717569],[102.0239864,17.9772729],[102.0157361,17.9809063],[102.0256408,17.9913495],[102.0423529,17.9894035],[102.0389022,17.99413],[102.0376191,18.0052406],[102.0392519,18.0177497],[102.0372284,18.0226374],[102.0468104,18.028817],[102.0495841,18.0337552],[102.0540093,18.0362517],[102.0547515,18.0405657],[102.052531,18.0508199],[102.0558057,18.0601599],[102.055353,18.0688759],[102.0524588,18.0762033],[102.0551399,18.086169],[102.0578537,18.0863392],[102.060315,18.0843051],[102.0664401,18.0851829],[102.0676839,18.0833738],[102.0718962,18.0850849],[102.0802362,18.0823578],[102.0836677,18.0789592],[102.094985,18.0803845],[102.0963838,18.0830098],[102.1002591,18.0818903],[102.1020207,18.0782229],[102.0996513,18.0725653],[102.1083683,18.0673834],[102.1082645,18.0587498],[102.1131484,18.0543001],[102.1117872,18.0420371],[102.1042768,18.0334675],[102.1041773,18.0293558],[102.1077959,18.0260489],[102.1272437,18.0347723],[102.1426806,18.0352683],[102.1447924,18.0332619],[102.1434891,18.029456],[102.1446371,18.0259028],[102.1411208,18.02097],[102.142071,18.0194095],[102.1404624,18.0156499],[102.1422575,18.0126975],[102.1398822,18.0069722],[102.1457067,18.0040208],[102.1455192,17.9999108],[102.1482332,17.9960276],[102.1485678,17.9922449],[102.1543403,17.9927753],[102.1557108,17.9901136],[102.1637351,18.0012261],[102.1699159,18.0068694],[102.1826054,18.0138269],[102.1870267,18.0143155],[102.2032965,18.0221719],[102.2059898,18.0207522],[102.2004353,18.0150124],[102.2044292,18.0087096],[102.2065929,18.0075842],[102.2075724,18.0086305],[102.2085011,18.0067104],[102.211974,18.0073859],[102.2143914,18.0055106],[102.2174684,18.0056944],[102.2188661,18.0075978],[102.2220115,18.0080198],[102.2247899,18.0053988],[102.2313331,18.0057468],[102.2348658,18.0042768],[102.2357889,18.0009784],[102.2386486,18.0017861],[102.2411911,17.9999505],[102.241068,17.998117],[102.2443351,17.997618],[102.245511,17.992221],[102.2537254,17.9903204],[102.2599389,17.9857858],[102.2632869,17.9858098],[102.2759284,17.9806174],[102.2796655,17.9836852],[102.2814709,17.9932399],[102.2901145,17.9851763],[102.2895325,17.9831829],[102.2955353,17.9831214],[102.2957804,17.9805818],[102.2920924,17.9755826],[102.2910736,17.9713804],[102.2978109,17.9675703],[102.2985413,17.9605941],[102.3037505,17.9571664],[102.309184,17.9470419],[102.3192422,17.9407925],[102.3204195,17.9370249],[102.3232181,17.9349169],[102.3361964,17.9341116],[102.3420552,17.9298984],[102.3433176,17.9258121],[102.3457418,17.9270003],[102.3490708,17.9238513],[102.3557617,17.9243648],[102.3572109,17.9164747],[102.3598497,17.9161],[102.359161,17.9181777],[102.3608552,17.9191331],[102.361307,17.9168141],[102.3642739,17.917489],[102.3662372,17.915282],[102.367054,17.9110396],[102.3648211,17.9107741],[102.3640362,17.9079759],[102.3678441,17.9063284],[102.3676842,17.9040002],[102.3698752,17.9048075],[102.3733367,17.9015307],[102.3776024,17.9005773],[102.3780557,17.8978595],[102.3801878,17.8965099],[102.3872584,17.8984294],[102.3868467,17.895696],[102.3900345,17.8944117],[102.3895221,17.8917177],[102.39216,17.886469],[102.3954664,17.8840956],[102.3959126,17.8815032],[102.400183,17.8766021],[102.3981895,17.8708873],[102.3957436,17.8696454],[102.3983274,17.8665542],[102.3955112,17.8644374],[102.4005914,17.8619098],[102.4002903,17.8588244],[102.4031342,17.8552058],[102.4015171,17.8527499],[102.4032908,17.8522225],[102.4009796,17.8509839],[102.4022461,17.8497435],[102.4004591,17.8496402],[102.4018788,17.8483075],[102.3993142,17.8482057],[102.4001789,17.8466629],[102.3985252,17.8464625],[102.4001279,17.843554],[102.4061344,17.8427514],[102.4073588,17.8403393],[102.4098415,17.8411344],[102.4089572,17.8400155],[102.4106591,17.8370438],[102.409013,17.8347063],[102.4100694,17.8330594],[102.412201,17.8326947],[102.412802,17.8300103],[102.415764,17.8305864],[102.4171973,17.8268682],[102.4188601,17.8272034],[102.4181446,17.8258598],[102.4234012,17.8247791],[102.4219347,17.8235965],[102.4248123,17.8205457],[102.4249582,17.8217862],[102.4268376,17.8212932],[102.4279149,17.8196019],[102.4322214,17.8217701],[102.4337216,17.8205319],[102.437579,17.8219866],[102.4385403,17.819987],[102.4411301,17.8206976],[102.4406162,17.8164709],[102.4382183,17.8171536],[102.4394517,17.8148575],[102.4373363,17.8149379],[102.4383175,17.8133239],[102.4359269,17.8120883],[102.4376994,17.8102706],[102.4340541,17.8118119],[102.431594,17.808667],[102.4344644,17.8065971],[102.4335096,17.802885],[102.4307376,17.8024432],[102.4316319,17.8009166],[102.4302713,17.7991598],[102.4330618,17.7989902],[102.4319168,17.7962512],[102.4307584,17.7972038],[102.4288981,17.7956989],[102.4299343,17.7920134],[102.4314473,17.7922761],[102.4315401,17.7946152],[102.4337369,17.7938333],[102.4345292,17.7906635],[102.4328802,17.7900693],[102.4340484,17.7876447],[102.4380836,17.7844572],[102.4403065,17.785704],[102.4398037,17.7840668],[102.4428217,17.7838881],[102.4409375,17.7834137],[102.44039,17.7811848],[102.4392719,17.7823797],[102.4393771,17.7793372],[102.4372246,17.77811],[102.4370389,17.7756121],[102.4393276,17.7741035],[102.4387411,17.7702174],[102.440514,17.7695618],[102.4396242,17.767798],[102.4445586,17.7674067],[102.445145,17.7692867],[102.4492037,17.7712797],[102.4522932,17.7682878],[102.4521932,17.7613941],[102.4586605,17.7583514],[102.4604383,17.7595082],[102.4689786,17.752978],[102.4755163,17.7548975],[102.4767105,17.7571871],[102.4901841,17.7572832],[102.4920091,17.7556701],[102.4954117,17.759733],[102.5025361,17.7576413],[102.5123024,17.7619104],[102.5201208,17.7629855],[102.5253368,17.7630003],[102.5325937,17.7595494],[102.5369006,17.7546123],[102.5385631,17.749602],[102.538044,17.7455276],[102.5403888,17.7429482],[102.5699609,17.7185918],[102.5763589,17.7154732],[102.5757115,17.7128772],[102.5794503,17.7110445],[102.5844525,17.7040951],[102.5946979,17.6972401],[102.6056639,17.6923513],[102.6118737,17.6834749],[102.6004137,17.6808236],[102.5968756,17.6708279],[102.6001897,17.6615565],[102.5999164,17.6573626],[102.6030093,17.653634],[102.6015313,17.6503741],[102.603168,17.6432442],[102.6014746,17.6415294],[102.6027143,17.639225],[102.6020335,17.6348074],[102.5971487,17.6296557],[102.5958042,17.6229436],[102.6055181,17.6252812],[102.6136913,17.6247446],[102.6469664,17.6142753],[102.6466134,17.6095671],[102.6495553,17.603703],[102.6469362,17.5988829],[102.6477751,17.5949874],[102.6505964,17.5937981],[102.6680004,17.596269],[102.6712951,17.5994997],[102.6729787,17.6050165],[102.6873467,17.6110774],[102.6945068,17.6210237],[102.6989998,17.620128],[102.7042607,17.6123209],[102.712605,17.60567],[102.7173165,17.6040433],[102.7315495,17.6035362],[102.7355439,17.6078154],[102.7378719,17.6172148],[102.7409145,17.6204422],[102.7434756,17.6189943],[102.7430978,17.6171924],[102.7452817,17.616679],[102.7482996,17.6182034],[102.7490082,17.6203031],[102.7503436,17.6198541],[102.749111,17.6232205],[102.7545237,17.6232307],[102.7561378,17.6203697],[102.7664708,17.6199264],[102.7683491,17.6226664],[102.7642677,17.6285973],[102.7649591,17.6305474],[102.7633956,17.6331027],[102.7647222,17.633748],[102.7615272,17.6371808],[102.7623384,17.6382122],[102.761016,17.638691],[102.7625178,17.6394559],[102.7602803,17.641976],[102.764522,17.6456395],[102.7688108,17.6435048],[102.7694842,17.6451947],[102.7710254,17.6446732],[102.7707437,17.6457686],[102.7744056,17.6472837],[102.7767766,17.6563328],[102.7746651,17.6581137],[102.7757266,17.6584063],[102.7739234,17.661759],[102.7747869,17.6633958],[102.7738608,17.6624637],[102.7730026,17.6639738],[102.7768832,17.664802],[102.7760514,17.6674526],[102.7780509,17.6700439],[102.7803702,17.6700279],[102.7801697,17.6738161],[102.7828268,17.6759551],[102.781708,17.6773652],[102.7834632,17.6781702],[102.7841262,17.6825045],[102.7886429,17.6822424],[102.7973642,17.6867228],[102.8011649,17.6842804],[102.8097082,17.6846786],[102.8307231,17.6934891],[102.8303272,17.6954408],[102.8331512,17.6980951],[102.8356644,17.7053076],[102.8328671,17.7156389],[102.8354224,17.7154817],[102.834736,17.7175823],[102.8371058,17.7166685],[102.842025,17.7204037],[102.8464,17.726878],[102.850029,17.7282121],[102.8477827,17.7302444],[102.848201,17.7338808],[102.846851,17.7350448],[102.8488359,17.7345067],[102.8479241,17.7365313],[102.8496078,17.7371047],[102.8445803,17.7400413],[102.8443924,17.7425949],[102.8424159,17.7419184],[102.8415773,17.7444229],[102.84326,17.7442634],[102.8427888,17.7458307],[102.8445122,17.7455242],[102.846512,17.7491812],[102.850175,17.7493754],[102.8498657,17.7530965],[102.8479124,17.7547406],[102.8491364,17.7560925],[102.8466623,17.7565406],[102.8481264,17.7593757],[102.8454603,17.7616269],[102.847112,17.7635755],[102.8491142,17.763457],[102.8489532,17.7652293],[102.850271,17.7641221],[102.8513403,17.7651567],[102.8509817,17.7682897],[102.8493983,17.7672139],[102.8485186,17.769599],[102.8493368,17.7710199],[102.8530083,17.7688743],[102.8541696,17.7760456],[102.8510444,17.7760675],[102.8514091,17.7779292],[102.8474065,17.7781289],[102.8449871,17.7800058],[102.8435899,17.7846993],[102.8490405,17.7831146],[102.8505666,17.7859998],[102.8435679,17.7914213],[102.8406707,17.7913311],[102.8421333,17.7930429],[102.8385711,17.7939989],[102.8409857,17.7954601],[102.8397111,17.7967328],[102.8426317,17.7973493],[102.8413968,17.7997069],[102.8427135,17.8057456],[102.8408527,17.8071073],[102.8362234,17.8050172],[102.8339134,17.8055586],[102.832371,17.809563],[102.8279567,17.8093515],[102.8260646,17.8136217],[102.8336522,17.81098],[102.8355144,17.8138397],[102.8389247,17.8111986],[102.8398175,17.8138455],[102.8367958,17.8171655],[102.8408981,17.8205562],[102.8361337,17.8198611],[102.8356095,17.8216537],[102.8394986,17.8247222],[102.8437414,17.8258949],[102.8463301,17.8243541],[102.8510426,17.8268179],[102.8439539,17.8365232],[102.8494683,17.839728],[102.8518032,17.8380663],[102.8511409,17.8362231],[102.8528656,17.8361934],[102.8530868,17.8400534],[102.8551827,17.8391749],[102.8560794,17.8416987],[102.8569174,17.8398056],[102.8569533,17.8429522],[102.8596175,17.8415463],[102.8613664,17.8443156],[102.8634558,17.8435564],[102.8631352,17.8449615],[102.8646497,17.845157],[102.865646,17.8436908],[102.8691414,17.8464954],[102.8649083,17.8478577],[102.8651266,17.8492342],[102.8677486,17.8496213],[102.8646224,17.8514447],[102.8672571,17.8518692],[102.8650463,17.8556251],[102.8676518,17.8557945],[102.8674159,17.8575536],[102.8688233,17.8578184],[102.8705627,17.8568904],[102.8698859,17.8550194],[102.8712765,17.8580645],[102.8734278,17.8573344],[102.8726537,17.8623784],[102.8705057,17.8634643],[102.8743045,17.8647033],[102.8727658,17.8665152],[102.8741832,17.8671827],[102.8722304,17.8680159],[102.8738172,17.8704078],[102.8717068,17.8710583],[102.8737479,17.872811],[102.8706948,17.8752148],[102.8684137,17.8740375],[102.8676809,17.8760626],[102.8691381,17.8780223],[102.8687983,17.8815055],[102.8708714,17.8815547],[102.8714745,17.8831581],[102.8696092,17.8879046],[102.8720786,17.8885049],[102.8716159,17.8901345],[102.8749341,17.8926092],[102.8769686,17.8925596],[102.8759915,17.8950074],[102.8821073,17.8939522],[102.883417,17.8983083],[102.889769,17.8956416],[102.8913955,17.8921269],[102.8938485,17.8911765],[102.9182626,17.8903648],[102.9208732,17.8932587],[102.9274164,17.8930541],[102.9336877,17.8876786],[102.9341842,17.8854057],[102.9366926,17.8846274],[102.9358351,17.8778689],[102.9369865,17.8754851],[102.9423243,17.8708531],[102.9416985,17.862244],[102.9441879,17.8554563],[102.9516348,17.8502737],[102.9548455,17.8442266],[102.9556445,17.8364057],[102.9616372,17.8332503],[102.9610299,17.8273417],[102.9654201,17.8274502],[102.9688915,17.8236899],[102.9817977,17.8299849],[102.9825712,17.8366658],[102.9883919,17.8434566],[102.9932281,17.8443343],[103.0041807,17.8420708],[103.0044437,17.8623399],[103.0121053,17.8621706],[103.0102269,17.869102],[103.0132487,17.8722503],[103.0124772,17.875808],[103.0153067,17.8775747],[103.0170541,17.8754371],[103.0248944,17.8770877],[103.0252653,17.875819],[103.0264095,17.8770533],[103.0302257,17.8742366],[103.0382867,17.8776672],[103.039327,17.8819574],[103.0413582,17.8831646],[103.0388188,17.8870852],[103.0395579,17.8887627],[103.0371174,17.890164],[103.0380187,17.8915969],[103.044519,17.8929808],[103.0436555,17.891569],[103.0449847,17.8894531],[103.0430038,17.8894883],[103.044324,17.885326],[103.0457039,17.8843486],[103.0463505,17.8856537],[103.0475127,17.8824971],[103.0518467,17.8800535],[103.0587229,17.8796019],[103.0713372,17.8838323],[103.0728223,17.8858137],[103.0779955,17.8857432],[103.0785795,17.8828299],[103.0819087,17.8795669],[103.0823669,17.8738581],[103.0865602,17.8753997],[103.0953106,17.8658611],[103.0964492,17.8691591],[103.0998147,17.8702418],[103.101481,17.8610928],[103.1005898,17.8565954],[103.1038411,17.8583656],[103.1085215,17.8543967],[103.109194,17.8565887],[103.1070522,17.8577677],[103.107365,17.8612976],[103.1139861,17.8612205],[103.1162928,17.8511095],[103.1193015,17.8493591],[103.1163644,17.8464307],[103.1170755,17.844359],[103.1223875,17.8465765],[103.1279606,17.8435694],[103.1270058,17.8398549],[103.129392,17.8378489],[103.1256071,17.8356389],[103.1265943,17.8337815],[103.1247138,17.8341912],[103.1228059,17.8320119],[103.1242919,17.8316458],[103.1241819,17.830067],[103.1278633,17.8297909],[103.1271094,17.8264577],[103.1302763,17.8256119],[103.1319207,17.8272502],[103.1324676,17.8253074],[103.1355984,17.8246939],[103.1352215,17.8225889],[103.1323693,17.8227563],[103.1348334,17.818862],[103.1320289,17.8156904],[103.133998,17.8145307],[103.1367473,17.8173345],[103.1398084,17.8119198],[103.1504277,17.8037796],[103.1545331,17.8026676],[103.1601828,17.806116],[103.1674143,17.8157136],[103.1681737,17.8245659],[103.171514,17.8301831],[103.1725557,17.838464],[103.1774313,17.8499651],[103.1749533,17.8536228],[103.1782681,17.8551152],[103.1777588,17.8562368],[103.1794887,17.8562917],[103.1804417,17.8588568],[103.1830706,17.8580821],[103.1831191,17.861554],[103.1845223,17.8610641],[103.1850188,17.8636495],[103.1863947,17.8626767],[103.1893631,17.8660462],[103.1886338,17.8679862],[103.190905,17.8716766],[103.1922037,17.8687514],[103.1934282,17.8698527],[103.1947808,17.8676697],[103.1960206,17.8692755],[103.1968757,17.8666501],[103.1999176,17.8658099],[103.2056602,17.8706794],[103.2079667,17.8707241],[103.2083344,17.8731998],[103.2208164,17.8704924],[103.2272246,17.873239],[103.2300047,17.8779469],[103.2391425,17.8795602],[103.2384537,17.8841302],[103.2405879,17.8856699],[103.2458642,17.8811876],[103.2550662,17.8769469],[103.2585597,17.8711151],[103.2661956,17.8654529],[103.2673704,17.8625029],[103.2659061,17.8569987],[103.2692277,17.8494834],[103.2890641,17.8339749],[103.2910201,17.8307118],[103.3002504,17.827075],[103.3031506,17.827103],[103.3044111,17.828994],[103.3119007,17.8251516],[103.3230747,17.8263899],[103.329166,17.8242126],[103.3329075,17.8281304],[103.3401963,17.8414357],[103.3422979,17.8510254],[103.3444244,17.8505113],[103.352583,17.8549991],[103.3567132,17.8540776],[103.3612484,17.8584633],[103.3667593,17.8577148],[103.3687945,17.861588],[103.3761818,17.8666118],[103.3734794,17.8751092],[103.3776101,17.8729591],[103.3827586,17.8741361],[103.3897036,17.8699164],[103.3902969,17.87344],[103.3940935,17.8758924],[103.3979508,17.8850241],[103.3979422,17.8976065],[103.393985,17.9010747],[103.3974916,17.9023738],[103.3953728,17.9041223],[103.3962999,17.9049724],[103.3994377,17.9030607],[103.3988273,17.9045294],[103.4077299,17.9044331],[103.4089866,17.9016034],[103.4129989,17.9008405],[103.4138425,17.8976337],[103.4118359,17.8967311],[103.4110025,17.8930411],[103.4139189,17.8911758],[103.4138647,17.8871988],[103.4177212,17.8822285],[103.416361,17.8792918],[103.4148479,17.8813614],[103.4093461,17.87766],[103.4075206,17.8792865],[103.4056114,17.8773879],[103.4032185,17.8679829],[103.4081389,17.8610099],[103.4069023,17.8587279],[103.4020104,17.8570514],[103.3952483,17.8572656],[103.3937132,17.8556898],[103.39719,17.8516506],[103.398304,17.8459205],[103.4050139,17.8499535],[103.4138775,17.8427818],[103.4204723,17.8432512],[103.422502,17.84173],[103.4180846,17.8402882],[103.4169669,17.8363954],[103.413231,17.8341938],[103.408927,17.8357515],[103.4022646,17.8430146],[103.4046922,17.8366487],[103.4016841,17.8311793],[103.3998299,17.8305878],[103.3948396,17.8328173],[103.3990332,17.8403423],[103.3976201,17.8427424],[103.3861749,17.8427232],[103.38015,17.839945],[103.3800538,17.8372888],[103.3875459,17.8329932],[103.3900225,17.829211],[103.3865896,17.8210159],[103.382379,17.819415],[103.3807235,17.8219404],[103.3792634,17.8217188],[103.3797621,17.815887],[103.3772865,17.8159972],[103.3773354,17.8143412],[103.376278,17.815259],[103.3748352,17.8136163],[103.3755382,17.8122439],[103.3767863,17.8135759],[103.3811447,17.812616],[103.3819222,17.809288],[103.380002,17.8099017],[103.3801948,17.8074039],[103.377737,17.8090394],[103.3755272,17.8055618],[103.377262,17.8036374],[103.3740167,17.8024762],[103.3787987,17.7960119],[103.3758577,17.7949038],[103.3769919,17.7927893],[103.3750373,17.7920018],[103.3730722,17.7937959],[103.3702865,17.7891621],[103.3713679,17.7921148],[103.3690149,17.7946673],[103.3668609,17.7901858],[103.3671756,17.7888151],[103.3681992,17.790362],[103.3691779,17.789124],[103.3691787,17.7855394],[103.3680458,17.7864089],[103.3675544,17.7845333],[103.3703157,17.7844359],[103.3710924,17.7813578],[103.367924,17.7808351],[103.3697509,17.7768457],[103.3695104,17.7785925],[103.3736231,17.7783655],[103.3732154,17.7767001],[103.3767482,17.7746178],[103.3766954,17.7721628],[103.3807142,17.7695999],[103.3770397,17.7639079],[103.3842561,17.7530107],[103.3877652,17.7524851],[103.3891345,17.7544046],[103.3930836,17.7535301],[103.391725,17.7552996],[103.394037,17.7563957],[103.3954564,17.7539462],[103.3978879,17.7582624],[103.4013408,17.7575402],[103.4093073,17.7338391],[103.4041731,17.7335232],[103.4050465,17.7322208],[103.4078002,17.7331734],[103.4075378,17.7303074],[103.4106101,17.7293022],[103.4046663,17.7253759],[103.4082704,17.7212954],[103.4044353,17.7217171],[103.4044217,17.7197429],[103.4031018,17.7204836],[103.4008054,17.7185185],[103.4027829,17.7170733],[103.402687,17.7125676],[103.4050152,17.714477],[103.4060954,17.7111939],[103.4031753,17.710636],[103.4050199,17.7094551],[103.4039973,17.7070614],[103.4060885,17.7060285],[103.4046362,17.7056579],[103.4058632,17.7015516],[103.4036441,17.7025074],[103.4028074,17.699853],[103.4034422,17.6983088],[103.4052829,17.6989314],[103.4028963,17.6963119],[103.4056522,17.6961868],[103.4057051,17.6940992],[103.4015111,17.6923392],[103.4030429,17.6912244],[103.4015675,17.6896551],[103.4030935,17.689023],[103.4008925,17.6848957],[103.4038117,17.6839958],[103.4026328,17.6815824],[103.4038087,17.6816122],[103.4037938,17.678977],[103.4023975,17.6778617],[103.4049343,17.6772701],[103.4035938,17.6755021],[103.4057151,17.6746737],[103.4035861,17.6732138],[103.4051447,17.6732775],[103.4073214,17.6682581],[103.4041622,17.6661617],[103.4041192,17.6614673],[103.4021865,17.6610209],[103.4010254,17.6582969],[103.4030762,17.6543439],[103.4008565,17.6542256],[103.3991393,17.6518705],[103.3983313,17.6475856],[103.3996271,17.6466597],[103.3981839,17.6427763],[103.400924,17.6411884],[103.4015499,17.6348956],[103.3982482,17.6253653],[103.399363,17.6222969],[103.401742,17.6210077],[103.3972676,17.6178932],[103.4005886,17.6125597],[103.3985359,17.6112689],[103.3991533,17.6094145],[103.4028163,17.6064308],[103.4020597,17.6042081],[103.4041422,17.6044919],[103.4037025,17.6030454],[103.4066123,17.6038173],[103.4059056,17.6021841],[103.4075508,17.6022227],[103.4058838,17.5994645],[103.4086363,17.6007641],[103.409942,17.5997165],[103.4089208,17.598375],[103.4112104,17.5950632],[103.4087374,17.5953017],[103.4091336,17.5925489],[103.4077423,17.5914892],[103.4062491,17.5936888],[103.4030863,17.5909705],[103.4013366,17.5925926],[103.3984624,17.5924011],[103.3991133,17.5950978],[103.3973001,17.594377],[103.3968017,17.5958434],[103.3943405,17.594278],[103.39363,17.5913631],[103.3911712,17.592322],[103.3913466,17.5941075],[103.3844273,17.594696],[103.3841469,17.5909934],[103.3812653,17.5893857],[103.3799883,17.5926247],[103.3760996,17.5927954],[103.3763514,17.5865956],[103.3783661,17.5876797],[103.3787672,17.5852045],[103.3754272,17.5846358],[103.3779219,17.5827781],[103.3780812,17.5804144],[103.3764445,17.5810336],[103.3743005,17.5791647],[103.3743769,17.5806079],[103.3714479,17.5805049],[103.3708687,17.5850129],[103.3681567,17.5856045],[103.3671382,17.5881554],[103.3656536,17.5873082],[103.3627491,17.590299],[103.3611624,17.5881295],[103.3604907,17.5916772],[103.3551132,17.5897685],[103.3536068,17.5851611],[103.350226,17.5878338],[103.3497355,17.5839764],[103.3476115,17.5853227],[103.3477987,17.5827784],[103.3436075,17.5783704],[103.3403928,17.5788893],[103.3399529,17.5772174],[103.3377987,17.5783089],[103.3390689,17.5764182],[103.3366174,17.5769023],[103.3384796,17.5752927],[103.3371151,17.5730144],[103.3403671,17.5709714],[103.3390123,17.5692045],[103.3404503,17.5695262],[103.3395162,17.5675755],[103.3366296,17.5674217],[103.336273,17.5615822],[103.3343643,17.5605851],[103.3356052,17.5579416],[103.3342996,17.5571361],[103.3323119,17.558575],[103.3316083,17.5540354],[103.3294638,17.5523943],[103.3312202,17.5510893],[103.3280035,17.5497418],[103.3234792,17.5545615],[103.3215505,17.5538276],[103.3223745,17.550759],[103.3203694,17.5488354],[103.3217832,17.5478145],[103.3214195,17.5455714],[103.3190917,17.5459746],[103.318974,17.538524],[103.3175081,17.5384766],[103.3178316,17.5355947],[103.316742,17.5367078],[103.3159515,17.5364458],[103.3177862,17.5341092],[103.315537,17.5348443],[103.3169579,17.5323538],[103.3147697,17.5321223],[103.3168168,17.5300273],[103.3171547,17.528178],[103.3152614,17.5264172],[103.3170673,17.5263701],[103.3169628,17.5238665],[103.313334,17.5218439],[103.313846,17.5198782],[103.31182,17.5201871],[103.3050732,17.5131728],[103.3026266,17.5126202],[103.3012745,17.5108586],[103.3026316,17.5090841],[103.3001914,17.5050744],[103.2986908,17.5055568],[103.2950033,17.5010543],[103.2899988,17.5017395],[103.2884691,17.4996364],[103.2903603,17.4985679],[103.2866549,17.4980243],[103.2865511,17.4960173],[103.2889272,17.496208],[103.2876663,17.4950724],[103.2878009,17.4902076],[103.2911102,17.4874988],[103.2891054,17.4856874],[103.2905286,17.484453],[103.285429,17.4818943],[103.2854823,17.4802506],[103.2883661,17.4759465],[103.2871538,17.4751294],[103.2882025,17.4734784],[103.2866296,17.4727722],[103.2881188,17.4720167],[103.2874054,17.4705608],[103.2901888,17.468056],[103.2878878,17.4671547],[103.2873347,17.4624947],[103.2850163,17.4625822],[103.285743,17.4600205],[103.2869744,17.4610187],[103.2863075,17.4581606],[103.2850083,17.457131],[103.2844384,17.4590001],[103.2821563,17.458856],[103.2808062,17.4566518],[103.281256,17.4505489],[103.2777484,17.4485626],[103.2773074,17.4468338],[103.2787905,17.445995],[103.2750722,17.4450809],[103.2762198,17.4440854],[103.274492,17.4434265],[103.2756506,17.4429332],[103.2745858,17.4397982],[103.2771158,17.4383513],[103.2759255,17.4374926],[103.2773904,17.4336063],[103.2809842,17.4318812],[103.2804788,17.4278019],[103.2835799,17.4263298],[103.2818672,17.4241993],[103.2828396,17.4231049],[103.2813028,17.4226924],[103.282899,17.4180513],[103.2813131,17.415721],[103.2851705,17.415472],[103.2850564,17.4126381],[103.287871,17.4121883],[103.2884424,17.4070783],[103.2930938,17.4035042],[103.2948938,17.3982706],[103.3013816,17.3952799],[103.3015249,17.3898867],[103.2978335,17.3891416],[103.2955905,17.3866776],[103.2912171,17.3777209],[103.2920399,17.3758346],[103.2908042,17.3741058],[103.288064,17.3748021],[103.2881097,17.3713323],[103.2831965,17.36895],[103.2834774,17.3656921],[103.2813271,17.3618749],[103.2823302,17.3602991],[103.2791878,17.3578344],[103.2788026,17.3552557],[103.2750679,17.3536923],[103.2763652,17.3506514],[103.2723832,17.3492851],[103.271558,17.3413635],[103.2731406,17.3382992],[103.2711611,17.3381949],[103.2713483,17.3367213],[103.2689013,17.3352263],[103.2712087,17.3325449],[103.2671452,17.3305473],[103.2670092,17.3284373],[103.2568836,17.3276752],[103.2574915,17.325927],[103.255459,17.3248407],[103.2564668,17.3227587],[103.2548133,17.3214922],[103.256102,17.3203816],[103.2507015,17.3128628],[103.2528734,17.3101642],[103.2571203,17.3095894],[103.2587792,17.3053554],[103.2574172,17.3026064],[103.2604635,17.2958486],[103.2629484,17.2945873],[103.2612572,17.2929984],[103.2621398,17.2904041],[103.2657825,17.2860841],[103.2672904,17.2861997],[103.2689755,17.2826702],[103.274468,17.280243],[103.2729073,17.2766773],[103.2734104,17.2727523],[103.2811986,17.2666416],[103.284025,17.266744],[103.2843333,17.2697836],[103.2865575,17.2711887],[103.2886982,17.2698518],[103.288699,17.267187],[103.2939485,17.2679646],[103.2934869,17.2701637],[103.2958251,17.2707366],[103.2982171,17.2706833],[103.2981356,17.2682496],[103.2995008,17.2695888],[103.3014554,17.2680566],[103.3071881,17.2708237],[103.3072662,17.2676156],[103.3141724,17.2675571],[103.3136616,17.2657958],[103.3167166,17.2631054],[103.3225726,17.2625561],[103.324577,17.2642945],[103.3249358,17.2623504],[103.327706,17.2618252],[103.3285736,17.2567978],[103.3363236,17.2584425],[103.3372059,17.2551901],[103.338744,17.2564165],[103.3456885,17.2541057],[103.3480872,17.255803],[103.3518229,17.2552344],[103.3553194,17.2508399],[103.3530688,17.249195],[103.3539588,17.2481589],[103.3522586,17.2443017],[103.3543824,17.244456],[103.3551821,17.242382],[103.358412,17.2426622],[103.3577441,17.2401066],[103.3611993,17.2358727],[103.3657791,17.2345718],[103.3693751,17.2358259],[103.3698374,17.237545],[103.3735811,17.2352032],[103.3758564,17.236837],[103.3829235,17.2278527],[103.3854739,17.2282853],[103.3858784,17.2302402],[103.3927127,17.2264634],[103.3949538,17.2275922],[103.3966909,17.2235412],[103.4007576,17.2247716],[103.4022554,17.2229554],[103.4017199,17.2206766],[103.4047027,17.220582],[103.4075689,17.2166986],[103.4103328,17.2171355],[103.416916,17.2123856],[103.4199594,17.2144884],[103.4194921,17.2168136],[103.4214701,17.2193902],[103.4278168,17.2212228],[103.4308327,17.220021],[103.4304952,17.2164403],[103.4359487,17.2154256],[103.4371141,17.2137597],[103.4404877,17.2132538],[103.4472371,17.2173388],[103.4503375,17.2156679],[103.4499091,17.2139878],[103.4516211,17.212565],[103.4571946,17.2152211],[103.4591342,17.2178121],[103.4636039,17.2175994],[103.4685095,17.2230325],[103.4702597,17.2299164],[103.4728241,17.2255771],[103.4717105,17.2216908],[103.4746029,17.2177885],[103.5080746,17.2005977],[103.5474891,17.1748886],[103.5548801,17.1718806],[103.5590347,17.1659163],[103.5661327,17.1612049],[103.5678634,17.1571888],[103.5721867,17.1571199],[103.5809046,17.1620765],[103.590844,17.1712702],[103.6010654,17.1692614],[103.6060138,17.1611311],[103.6112639,17.1584283],[103.6138751,17.1504272],[103.6195229,17.1508769],[103.6218707,17.1492549],[103.6234263,17.1414201],[103.6284008,17.1356925],[103.6362434,17.1207527],[103.6377648,17.1118794],[103.6448421,17.1146995],[103.656393,17.114075],[103.6638596,17.1103258],[103.6681182,17.1057923],[103.6657543,17.1023186],[103.6625849,17.0898827],[103.6560818,17.0835162],[103.6541504,17.0738403],[103.6555234,17.0689019],[103.6616511,17.0658772],[103.6620123,17.0609468],[103.6663397,17.0544913],[103.6598625,17.0368995],[103.6597783,17.0284368],[103.6621202,17.0196152],[103.6504395,17.0212491],[103.6466948,17.0239662],[103.6526039,17.0396092],[103.6529498,17.0474491],[103.6487027,17.0529711],[103.645137,17.0549349],[103.6432892,17.0542272],[103.6399697,17.0582339],[103.6390104,17.0705493],[103.6318888,17.0759909],[103.6278168,17.0764858],[103.6287261,17.0791809],[103.6265067,17.0805944],[103.6269744,17.0824367],[103.6244766,17.0843974],[103.6247468,17.0859326],[103.6213954,17.0877063],[103.620709,17.0928875],[103.6178334,17.0923969],[103.6159849,17.095055],[103.6111687,17.0945199],[103.6114994,17.0960621],[103.6092385,17.0962294],[103.6071991,17.0996487],[103.6042812,17.0972244],[103.6048363,17.0954432],[103.601996,17.0951258],[103.601248,17.1000587],[103.5997566,17.0967399],[103.5938031,17.0957713],[103.5917125,17.0937809],[103.5878382,17.0950502],[103.5877355,17.1003792],[103.5859689,17.0991499],[103.5789579,17.1019254],[103.5765699,17.099279],[103.5772744,17.0962295],[103.5750425,17.094094],[103.5752701,17.0908906],[103.5747148,17.092703],[103.572956,17.0909931],[103.5696578,17.0916808],[103.5696558,17.0936271],[103.5662747,17.0921459],[103.5641134,17.0936768],[103.5619415,17.0933929],[103.5602965,17.0878331],[103.5582082,17.0863416],[103.5480272,17.0887854],[103.5491584,17.0837813],[103.5477193,17.0795862],[103.5397553,17.0788106],[103.5382886,17.076307],[103.5406962,17.0745505],[103.5350328,17.0709309],[103.5371461,17.0658457],[103.5297532,17.0624349],[103.5270289,17.0632926],[103.5253566,17.0585754],[103.5198009,17.0592418],[103.5197941,17.0566698],[103.5166069,17.0527756],[103.5195268,17.0516083],[103.5188327,17.0496756],[103.5171314,17.0483726],[103.5141135,17.0505991],[103.511939,17.0498866],[103.5074159,17.0441003],[103.514268,17.0435089],[103.5154674,17.0414895],[103.5112428,17.0362953],[103.5186709,17.0341672],[103.5152512,17.0269774],[103.5168694,17.0251718],[103.5163163,17.019807],[103.5195474,17.0068645],[103.5179924,17.0031506],[103.5200463,16.9987678],[103.5153556,16.9958888],[103.5136562,16.9893865],[103.5067653,16.9866407],[103.5055735,16.9831196],[103.5019795,16.9826129],[103.5033432,16.9805741],[103.5028799,16.9748849],[103.5016185,16.9723518],[103.4981124,16.972087],[103.5003519,16.9682692],[103.4962138,16.9705558],[103.4943791,16.9699125],[103.4959626,16.9677434],[103.4948277,16.966118],[103.4970295,16.9641423],[103.4945006,16.9633568],[103.4915851,16.9571278],[103.4940486,16.9523901],[103.4924254,16.9472901],[103.4877187,16.9430078],[103.4867442,16.9401809],[103.4874016,16.9320565],[103.4938038,16.9274088],[103.492775,16.9227444],[103.4904496,16.9209743],[103.4905798,16.9130665],[103.4880804,16.9110865],[103.4916615,16.9070266],[103.4909925,16.9027594],[103.4890376,16.9019829],[103.4842342,16.9037843],[103.4826199,16.897397],[103.4781913,16.8915067],[103.4796544,16.8872137],[103.4744351,16.8837224],[103.4715008,16.8864636],[103.4700459,16.8750868],[103.4644057,16.874465],[103.4596176,16.868191],[103.454847,16.8655529],[103.4504682,16.8522878],[103.4432202,16.8473513],[103.4433585,16.8439932],[103.4494929,16.8375808],[103.4497287,16.834482],[103.4417922,16.8258681],[103.4366869,16.8174153],[103.4216253,16.803074],[103.4127407,16.8083808],[103.4178954,16.817906],[103.415958,16.8308837],[103.410364,16.8426053],[103.4093443,16.8496068],[103.4007614,16.8548065],[103.4126207,16.8619867],[103.4106921,16.8714909],[103.4039034,16.8835101],[103.3970249,16.8886887],[103.395223,16.8941292],[103.389573,16.8963658],[103.3850507,16.9028125],[103.380198,16.9062948],[103.3739467,16.902891],[103.3709685,16.9030155],[103.3673243,16.9081357],[103.349637,16.9213637],[103.3301198,16.9240712],[103.3045233,16.9221233],[103.2892559,16.9244048],[103.2855674,16.9268371],[103.2849869,16.9309846],[103.2796703,16.9340431],[103.2792829,16.9392148],[103.2771631,16.9418967],[103.2575996,16.9490014],[103.2398032,16.9613912],[103.2394903,16.9593854],[103.2375605,16.960002],[103.2365341,16.9582128],[103.2331808,16.9603672],[103.2319756,16.9599255],[103.2327707,16.9586873],[103.2302104,16.9577988],[103.2274207,16.9629832],[103.2234962,16.966334],[103.2213309,16.9657235],[103.2211079,16.9678626],[103.2132773,16.9638279],[103.2136164,16.9598181],[103.211231,16.958273],[103.2065093,16.9602429],[103.2036831,16.9581754],[103.2016904,16.9540598],[103.2022212,16.95161],[103.1983965,16.9481961],[103.197359,16.9508605],[103.19408,16.9490386],[103.1892681,16.9499603],[103.1852381,16.947041],[103.1821903,16.9475577],[103.1826439,16.9520468],[103.1773962,16.9540409],[103.1756786,16.9562905],[103.1763278,16.9528446],[103.1725236,16.9525071],[103.1698081,16.9501666],[103.1675343,16.951745],[103.163972,16.9512161],[103.1642727,16.9484532],[103.1602583,16.9466516],[103.1563017,16.9498912],[103.1554005,16.9483511],[103.1518048,16.9481869],[103.1480671,16.9512841],[103.1465289,16.9507789],[103.1384661,16.9548899],[103.1352173,16.9541948],[103.1323826,16.9571835],[103.1283089,16.954969],[103.127587,16.9573253],[103.1228381,16.9594023],[103.1215992,16.9622045],[103.1194795,16.9609805],[103.1175116,16.9624431],[103.1167027,16.9603093],[103.1153885,16.9606252],[103.1159991,16.9593032],[103.1135077,16.9583263],[103.1151556,16.955536],[103.1131146,16.9558099],[103.1121779,16.9497945],[103.1099151,16.9482215],[103.1090321,16.9437249],[103.1108816,16.9415425],[103.1088806,16.9423974],[103.1068853,16.9383186],[103.1022528,16.93919],[103.1024125,16.9345428],[103.1002349,16.9346429],[103.0996501,16.9323056],[103.1011496,16.9322361],[103.0983867,16.930871],[103.1001726,16.9282716],[103.0970331,16.9250729],[103.0989895,16.9217852],[103.0968778,16.9187465],[103.097235,16.9161864],[103.0985842,16.9163946],[103.0967932,16.9152344],[103.0979189,16.9121993],[103.0963918,16.9103042],[103.0921628,16.9103054],[103.0867068,16.9051466],[103.0837952,16.8991985],[103.078953,16.897967],[103.0742107,16.9019403],[103.0720412,16.901689],[103.063564,16.8950396],[103.0619196,16.8913346],[103.0575781,16.8884001],[103.0545065,16.8888312],[103.0526694,16.8856649],[103.0424879,16.8881701],[103.028198,16.8782207],[103.026029,16.8723582],[103.021903,16.8727452],[103.0163631,16.8700241],[103.0094519,16.8701717],[103.0072723,16.8646161],[103.0018214,16.8649276],[103.0012272,16.8629838],[102.9956477,16.8596828],[102.9816835,16.8566044],[102.9745201,16.8500102],[102.9670872,16.8464993],[102.9633575,16.8465518],[102.9546193,16.8404478],[102.950136,16.8417296],[102.941587,16.8362796],[102.9262563,16.8383452],[102.9214219,16.8374455],[102.9187002,16.835242],[102.916377,16.8364381],[102.9163591,16.8380772],[102.9125324,16.8385862],[102.8955223,16.8603267],[102.89017,16.8648345],[102.8886248,16.8645368],[102.8885208,16.8673669],[102.8865625,16.8675477],[102.8870492,16.8695078],[102.8847245,16.8710912],[102.883466,16.8749762],[102.8776338,16.8723602],[102.8756967,16.8729713],[102.873194,16.8811962],[102.870535,16.8801339],[102.8689885,16.8814727],[102.8663312,16.8789262],[102.8625019,16.8798115],[102.860088,16.8835608],[102.8579139,16.8818008],[102.8545279,16.8830465],[102.8486658,16.8774917],[102.8484112,16.8733056],[102.8414645,16.8727313],[102.8422892,16.8693356],[102.8403949,16.8683074],[102.8378446,16.8704208],[102.8352776,16.8701682],[102.8285656,16.8665314],[102.8284557,16.8639233],[102.8240258,16.8626168],[102.819512,16.86997],[102.8218826,16.8713431],[102.822488,16.8751043],[102.8196881,16.8762091],[102.8182229,16.8790293],[102.8194141,16.8811008],[102.8185603,16.8800422],[102.815642,16.8824601],[102.8134208,16.8891692],[102.812389,16.8886056],[102.8102312,16.8915624],[102.8123687,16.8971148],[102.8113055,16.9025575],[102.8124527,16.9042074],[102.8090917,16.9087672],[102.810638,16.9121849],[102.8092508,16.9164789],[102.8107302,16.9159791],[102.8131605,16.9202386],[102.8119039,16.9233137],[102.816931,16.926223],[102.81777,16.9341751],[102.8208159,16.9376717],[102.8163811,16.940825],[102.8138625,16.9455274],[102.8088354,16.9466264],[102.8043725,16.9519683],[102.8042641,16.9552327],[102.8061429,16.9598807],[102.8095344,16.9611356],[102.8097285,16.9631],[102.8148999,16.9648468],[102.8162477,16.9677922],[102.8189356,16.9686044],[102.8227779,16.9728501],[102.817444,16.9754864],[102.816401,16.9806393],[102.8122974,16.9810415],[102.8119783,16.9826308],[102.8047902,16.9871961],[102.8011763,16.9877051],[102.8011935,16.990737],[102.7977017,16.9940007],[102.797949,16.9985366],[102.7957274,16.9991116],[102.7949624,17.0081695],[102.7926094,17.0086479],[102.7871754,17.015919],[102.7810922,17.0164908],[102.7777345,17.019411],[102.7765022,17.0229193],[102.7643877,17.0255198],[102.7616015,17.0281046],[102.7594978,17.0341175],[102.7505664,17.0418103],[102.7446824,17.0413989],[102.7377309,17.0471403],[102.7328094,17.0469063],[102.7234603,17.0494323],[102.7179373,17.0538348],[102.7156484,17.0583144],[102.717259,17.0655952],[102.7149527,17.0730579],[102.7089758,17.080368],[102.7097046,17.0870092],[102.7037193,17.0882043],[102.700047,17.0868958],[102.6984373,17.0720394],[102.69594,17.0663327],[102.6907527,17.0647487],[102.6827534,17.0526257],[102.6793479,17.0512539],[102.679719,17.0378209],[102.6775883,17.032369],[102.6819362,17.0279696],[102.6791696,17.0249908],[102.6819538,17.017186],[102.6765774,17.0029981],[102.6693468,16.9936761],[102.6625986,16.9972067],[102.6483696,17.0001182],[102.609084,17.0274289],[102.5861154,17.0370615],[102.5688015,17.0468613],[102.5643354,17.0516986],[102.5432937,17.0669321],[102.5192517,17.1001843],[102.5042046,17.1462681],[102.4828004,17.177004],[102.4691931,17.2027045],[102.4710407,17.2021371],[102.4754588,17.2045148],[102.4803817,17.20364],[102.4911524,17.2075318],[102.4898325,17.2111344],[102.4908185,17.2194701],[102.502174,17.2300923],[102.5228717,17.2250388],[102.5273757,17.2251751],[102.5353851,17.2286083],[102.5383048,17.2255014],[102.5672895,17.2326884],[102.5697808,17.2365137],[102.5744206,17.2336386],[102.5781895,17.2401607],[102.5850104,17.2414911],[102.5844058,17.2455073],[102.5906248,17.2516868],[102.5911226,17.2592982],[102.5946393,17.2638133],[102.5925245,17.2658363],[102.5766614,17.2647638],[102.5782715,17.2691691],[102.5736503,17.2702973],[102.5610427,17.2688878],[102.5483857,17.2769048],[102.5435621,17.2753987],[102.5386479,17.2761979],[102.5261736,17.2712566],[102.5201501,17.2739097],[102.5168024,17.2727063],[102.5105896,17.2752597],[102.5015753,17.2718933],[102.4869863,17.2831186],[102.4622104,17.2870661],[102.4378482,17.282143],[102.4410378,17.325645],[102.4364198,17.3432059],[102.4312041,17.3538843],[102.4275874,17.3664911],[102.3986086,17.4146332],[102.3708144,17.4952763],[102.3658022,17.5034584],[102.3666549,17.5062544],[102.3646922,17.5062081],[102.3618754,17.5137853],[102.3490251,17.5267562],[102.3444019,17.536638],[102.3324807,17.5509363],[102.3344961,17.5681214],[102.3333714,17.5790135],[102.3258344,17.5981688],[102.3235827,17.62746],[102.3190502,17.6478209],[102.3179423,17.6791827],[102.3028671,17.6743668],[102.2999403,17.6796841],[102.3013474,17.6797729],[102.3017647,17.6818664],[102.2996702,17.6812796],[102.2992649,17.6835145],[102.2979562,17.6831478],[102.2960098,17.6861433],[102.2894394,17.688152],[102.2883683,17.691433],[102.2864919,17.6922062],[102.283451,17.6908012],[102.2821196,17.6859923],[102.2806261,17.685357],[102.2757161,17.6886671],[102.2720979,17.6889966],[102.2721286,17.6902352],[102.2665273,17.6905604],[102.2625725,17.6895242],[102.262073,17.6817195],[102.2694073,17.6626682],[102.2450821,17.6506722],[102.2292936,17.6523987],[102.2238962,17.651162],[102.2076494,17.6570967],[102.2008745,17.655175],[102.1936962,17.6578302],[102.186717,17.6572085],[102.1741641,17.6603006],[102.1701215,17.6637446],[102.1650928,17.6637936],[102.1638967,17.6660693],[102.1609881,17.6654196],[102.1578826,17.6683988],[102.1494081,17.6659112],[102.1497547,17.6632134],[102.1427271,17.6588861],[102.1420185,17.655143],[102.1383943,17.6521315],[102.1391696,17.6491796],[102.1322196,17.6471431],[102.1337582,17.644408],[102.132284,17.6419494],[102.1332965,17.6405745],[102.1306045,17.6392252],[102.1303051,17.6363432],[102.1279778,17.6350187],[102.1196374,17.6327686],[102.1180747,17.6359248],[102.114882,17.6360842],[102.1120684,17.6388784],[102.109993,17.6384],[102.1067094,17.6428404],[102.1045599,17.642585],[102.1061206,17.6463127],[102.1046166,17.6472589],[102.0990838,17.6456605],[102.0913927,17.6406837],[102.0909571,17.6380397],[102.0873156,17.6369702],[102.0860942,17.6340951],[102.0832264,17.6343232]]]}}]}