{"type":"FeatureCollection","features":[{"type":"Feature","properties":{"id":"TH-LAO-3410102","nameTh":"อุดรธานี","type":"city_municipality"},"geometry":{"type":"Polygon","coordinates":[[[102.7924392,17.4351605],[102.807827,17.4318902],[102.8090768,17.4309382],[102.8257991,17.3907237],[102.8256368,17.3771803],[102.8247356,17.3746819],[102.8186282,17.3677292],[102.8138351,17.3630752],[102.7886009,17.3556358],[102.7864069,17.3554207],[102.7838158,17.3560249],[102.7690852,17.361442],[102.7670789,17.3628653],[102.7583349,17.3702687],[102.7568865,17.3718559],[102.7522194,17.3822997],[102.7524447,17.38274],[102.7638817,17.3871939],[102.7653623,17.3879643],[102.765888,17.3885863],[102.7661777,17.3893772],[102.766073,17.4165532],[102.7665049,17.4179301],[102.7678862,17.4193326],[102.7912831,17.4349584],[102.7924392,17.4351605]]]}}]}