{"type":"FeatureCollection","features":[{"type":"Feature","properties":{"provinceCode":"62","nameTh":"กำแพงเพชร","nameEn":"Kamphaeng Phet"},"geometry":{"type":"Polygon","coordinates":[[[99.4365743,16.8721761],[99.4230578,16.8829766],[99.4171829,16.876299],[99.4110595,16.8724813],[99.3934501,16.8710382],[99.3832079,16.8663055],[99.3786678,16.8590096],[99.3807709,16.8544522],[99.3779695,16.8478426],[99.3788706,16.8460164],[99.3858076,16.8438711],[99.3854009,16.841056],[99.3872511,16.8381931],[99.3846107,16.8306302],[99.3876165,16.8262793],[99.3839931,16.8220467],[99.3820376,16.8218045],[99.38833,16.813215],[99.3853851,16.8078457],[99.3813169,16.8078701],[99.3732005,16.8037396],[99.3695637,16.8035459],[99.3547426,16.8109195],[99.3507214,16.8108094],[99.3457545,16.813348],[99.3342835,16.8113121],[99.3246629,16.813243],[99.3224915,16.811705],[99.3153373,16.7941305],[99.3102314,16.7941774],[99.3042397,16.7869515],[99.2978993,16.7891509],[99.2918438,16.7850265],[99.2941754,16.7798266],[99.2950599,16.7720899],[99.3040461,16.7701148],[99.3056363,16.7679559],[99.3047302,16.7591791],[99.3027654,16.7552417],[99.3038319,16.7497136],[99.3019441,16.7457576],[99.302472,16.7396151],[99.2988108,16.7348757],[99.29835,16.7306194],[99.2962365,16.7296334],[99.2976718,16.7278315],[99.2953313,16.7232743],[99.2957302,16.7197976],[99.2878971,16.7149073],[99.2869128,16.7109201],[99.2829412,16.7062902],[99.2825421,16.7024669],[99.2851591,16.6958134],[99.2820087,16.6934646],[99.282249,16.6897353],[99.277301,16.6858774],[99.2716459,16.6848678],[99.2710666,16.6826908],[99.2748498,16.6778412],[99.2724506,16.6741923],[99.2719461,16.6687707],[99.2654014,16.6711604],[99.2579234,16.66523],[99.2535996,16.6658878],[99.2469484,16.6629019],[99.2483861,16.6572693],[99.245435,16.6557224],[99.247098,16.6517034],[99.2461967,16.6502027],[99.2478675,16.6483595],[99.247639,16.6463829],[99.2457606,16.6455547],[99.2472664,16.6441966],[99.2462523,16.6419841],[99.243573,16.6425319],[99.2411542,16.6406532],[99.2437935,16.636233],[99.2415726,16.6307538],[99.2438149,16.6268885],[99.2415404,16.6236399],[99.2443406,16.6219848],[99.2429459,16.6187669],[99.2463469,16.6178622],[99.2465401,16.6122489],[99.250617,16.6093599],[99.2520976,16.6053296],[99.2555094,16.6035612],[99.2520118,16.5990784],[99.2525911,16.5946572],[99.2501449,16.5908117],[99.2545652,16.5839842],[99.2544794,16.579172],[99.2565822,16.5774239],[99.2539215,16.5742978],[99.2563677,16.5670584],[99.2531004,16.5609084],[99.2488088,16.559407],[99.2450538,16.5546764],[99.2478648,16.5494658],[99.2455794,16.5461821],[99.2433264,16.5458426],[99.2420835,16.5394167],[99.2389812,16.5380879],[99.2401308,16.5336262],[99.2365152,16.5320731],[99.2304534,16.5346136],[99.2242414,16.5332765],[99.2193813,16.5277738],[99.2045689,16.532071],[99.1993117,16.5313716],[99.1968226,16.536905],[99.1906643,16.5390751],[99.1887009,16.534488],[99.1913617,16.5310116],[99.1800427,16.5321635],[99.1786051,16.5307647],[99.1805041,16.5281008],[99.1794956,16.5263625],[99.1757083,16.5257762],[99.1705799,16.5213019],[99.1675973,16.5105735],[99.1717386,16.5119621],[99.1741633,16.5111186],[99.1661489,16.5030951],[99.1637134,16.5022413],[99.1637134,16.5054816],[99.1620612,16.5065514],[99.1589391,16.5030231],[99.1557649,16.5042276],[99.1544584,16.4994223],[99.1508067,16.5029202],[99.1478133,16.4994535],[99.1438651,16.4985997],[99.1399598,16.5003793],[99.1378784,16.4934972],[99.1350715,16.4941992],[99.1340589,16.4895468],[99.1296816,16.4893616],[99.1304755,16.4865881],[99.1254305,16.4852505],[99.1280166,16.4824959],[99.1248965,16.481975],[99.1226649,16.4749585],[99.1194248,16.4762548],[99.1189956,16.4774482],[99.1213131,16.4778186],[99.12009,16.4789297],[99.1151547,16.478189],[99.1132665,16.4796293],[99.1103482,16.4779112],[99.1072767,16.4809942],[99.1058783,16.4764411],[99.0999673,16.4776273],[99.1003411,16.4743169],[99.0988264,16.4728285],[99.0955297,16.4758624],[99.0840963,16.469474],[99.0744695,16.4671181],[99.070399,16.4621456],[99.0642932,16.4585054],[99.0619151,16.4517421],[99.0552992,16.4470731],[99.0544192,16.4444272],[99.0492293,16.4409932],[99.0454183,16.4414335],[99.0404713,16.4379305],[99.0309761,16.4263985],[99.0307696,16.4216844],[99.0243338,16.4231033],[99.0198007,16.4185418],[99.0193615,16.3924546],[99.0163881,16.3867057],[99.0219688,16.3821609],[99.031628,16.3850352],[99.0367696,16.3832276],[99.0418847,16.3749013],[99.0407732,16.3688351],[99.0430341,16.3642842],[99.0417841,16.3569097],[99.0448126,16.3537316],[99.0414585,16.3446466],[99.0426336,16.3389329],[99.0516009,16.3339283],[99.0519539,16.3236829],[99.0531012,16.3231113],[99.050183,16.3160484],[99.0533742,16.3090312],[99.0508632,16.3042458],[99.0443073,16.299776],[99.0420808,16.2921259],[99.0467028,16.2824397],[99.045446,16.276318],[99.0477473,16.2703387],[99.0485629,16.2601384],[99.0532782,16.2549551],[99.0549193,16.2469031],[99.0639924,16.2410577],[99.0652334,16.2356699],[99.0722735,16.229449],[99.0742358,16.2220086],[99.0793221,16.2188974],[99.081309,16.2093745],[99.0803587,16.2019806],[99.0737035,16.1967987],[99.0733994,16.1875662],[99.0701996,16.1819983],[99.0680598,16.1654937],[99.0561017,16.1648104],[99.0553874,16.1630454],[99.0508341,16.1613335],[99.0492173,16.1444254],[99.0507806,16.1420739],[99.0501331,16.1379494],[99.0532815,16.1348278],[99.0686597,16.132309],[99.0749417,16.1269521],[99.0806457,16.1248368],[99.0831575,16.1146808],[99.0895992,16.1147438],[99.0943562,16.1025965],[99.1065668,16.1022458],[99.1089695,16.0925819],[99.1066915,16.090242],[99.106447,16.0870847],[99.1093689,16.0819359],[99.1140822,16.0803579],[99.1146426,16.0766156],[99.1174252,16.0746447],[99.1133361,16.0643958],[99.1145493,16.0604161],[99.1086109,16.0554268],[99.1055508,16.0495001],[99.0975218,16.0478443],[99.0872454,16.0424728],[99.0865701,16.0319099],[99.0832766,16.0222882],[99.082152,16.0059238],[99.0870037,15.9949643],[99.088593,15.9797219],[99.0860681,15.9724304],[99.081924,15.9702137],[99.0794635,15.9639564],[99.0745764,15.9623219],[99.0744203,15.9541777],[99.0752392,15.9515117],[99.0798533,15.9504862],[99.0806629,15.9486503],[99.0863139,15.948112],[99.0889868,15.9452122],[99.0903634,15.937505],[99.0945019,15.9346669],[99.0969952,15.9304735],[99.0957126,15.9246422],[99.0862209,15.9146358],[99.0857575,15.8999872],[99.0883222,15.8970563],[99.0884248,15.8921789],[99.0858223,15.8849508],[99.0894449,15.8855439],[99.092485,15.8829045],[99.0954932,15.8826275],[99.0999176,15.8891983],[99.1048755,15.8909163],[99.1071227,15.8953376],[99.1151814,15.8999223],[99.1284951,15.9120625],[99.1302834,15.9117125],[99.1304273,15.9090521],[99.137592,15.9055882],[99.1458442,15.9077762],[99.1531054,15.9138691],[99.1544088,15.9166101],[99.1533664,15.919942],[99.1565461,15.9198467],[99.1616593,15.9245885],[99.163736,15.9239367],[99.1641673,15.9261498],[99.1737215,15.9282515],[99.1724608,15.9372812],[99.1861522,15.9282951],[99.1913969,15.9317468],[99.1919166,15.937518],[99.1945075,15.9377267],[99.1954862,15.9395096],[99.1947993,15.9420796],[99.1925515,15.9428685],[99.1942476,15.9454156],[99.2042238,15.936253],[99.2046616,15.9430955],[99.2069803,15.9469066],[99.2099623,15.9483763],[99.2125106,15.9441267],[99.2176138,15.9434476],[99.2136234,15.9390144],[99.2195555,15.9367069],[99.2206565,15.9443896],[99.2226153,15.9446607],[99.2254466,15.9368462],[99.2312579,15.9332918],[99.2342522,15.9282558],[99.2518919,15.9170453],[99.2589186,15.9147822],[99.2661851,15.9075366],[99.2679752,15.9073007],[99.2681944,15.9121442],[99.2712862,15.9119514],[99.2734914,15.908374],[99.2738612,15.903794],[99.2784186,15.9032241],[99.2813911,15.8979464],[99.2870714,15.8964973],[99.2895932,15.8916028],[99.2923054,15.8936454],[99.2921036,15.9002159],[99.288906,15.9017411],[99.2899322,15.9050307],[99.2944199,15.9029189],[99.295121,15.9072041],[99.297347,15.9089286],[99.301924,15.9078611],[99.3044643,15.9036383],[99.3102195,15.9045715],[99.3117921,15.907178],[99.3103899,15.9173709],[99.3127541,15.9190457],[99.3187693,15.9167426],[99.3201604,15.9178093],[99.3187705,15.9249922],[99.3196552,15.9274475],[99.3276197,15.9206398],[99.3257262,15.916116],[99.3291282,15.9117292],[99.3338047,15.9115908],[99.3433319,15.9200512],[99.3517651,15.9246278],[99.3580516,15.9259791],[99.3735544,15.9154243],[99.3917487,15.9172223],[99.3945872,15.9146145],[99.4017231,15.9139589],[99.4043404,15.9105656],[99.4150967,15.9105089],[99.417779,15.9150062],[99.4205573,15.9146686],[99.4215769,15.9173619],[99.4256105,15.9203226],[99.4299922,15.9149202],[99.4311004,15.9094466],[99.4365142,15.9111032],[99.4394466,15.9064488],[99.4474208,15.9024237],[99.4492714,15.9050975],[99.4556316,15.9041694],[99.4605448,15.9053788],[99.4663145,15.9006768],[99.4769589,15.9023843],[99.4757644,15.9062347],[99.4815578,15.9107971],[99.4783601,15.9175495],[99.4785245,15.9219379],[99.4931103,15.9242837],[99.5022418,15.9283552],[99.5127662,15.9233757],[99.5237669,15.9255362],[99.5262983,15.9217794],[99.5312045,15.9203421],[99.5325732,15.9245071],[99.5385549,15.9248246],[99.5463034,15.9209418],[99.5467404,15.9189546],[99.5497971,15.9187752],[99.5490453,15.9165043],[99.554126,15.9158388],[99.5534347,15.9118448],[99.5559685,15.908624],[99.5550886,15.9071424],[99.5577334,15.9061844],[99.5621126,15.9071629],[99.5646153,15.9053962],[99.569116,15.9059331],[99.5705823,15.9044083],[99.5710214,15.9057566],[99.5726662,15.9042675],[99.5734537,15.9058645],[99.5758849,15.9059669],[99.5763231,15.9046207],[99.5779951,15.9055225],[99.5812023,15.9033307],[99.5854023,15.9067146],[99.5926537,15.9063838],[99.5974501,15.9035793],[99.598816,15.897575],[99.6061802,15.8986357],[99.6102052,15.8959354],[99.6098907,15.8939789],[99.6119631,15.8926199],[99.616586,15.8924579],[99.6203934,15.8879328],[99.6241166,15.887303],[99.625234,15.8818687],[99.6290511,15.876105],[99.6303978,15.881075],[99.6337913,15.8849557],[99.635913,15.885419],[99.6377763,15.8833812],[99.6454161,15.8862778],[99.6581715,15.8789261],[99.6617187,15.8751541],[99.6617571,15.8703731],[99.6578797,15.8621496],[99.6624313,15.859835],[99.663613,15.8553068],[99.6752083,15.8613353],[99.6829084,15.8631741],[99.6855567,15.8689966],[99.6978241,15.8773637],[99.7019455,15.8752392],[99.7234517,15.8730562],[99.7327085,15.8653876],[99.736739,15.8585686],[99.7397376,15.8574351],[99.743795,15.8583266],[99.743306,15.8616445],[99.7469214,15.8670498],[99.7474977,15.8754935],[99.7510088,15.8812985],[99.7635401,15.8948508],[99.7695373,15.8970311],[99.7735273,15.9031134],[99.7679941,15.9159794],[99.7691754,15.921852],[99.7825366,15.9248083],[99.7858722,15.9274088],[99.795359,15.9216327],[99.8049823,15.9206014],[99.8069547,15.9238627],[99.8046961,15.9301082],[99.8071963,15.9441039],[99.8187542,15.94718],[99.8251853,15.9505538],[99.8282116,15.9581018],[99.8282603,15.9628709],[99.8338134,15.9650734],[99.8474541,15.9818286],[99.846253,15.997497],[99.8473432,15.9987392],[99.8450784,16.0058914],[99.8451765,16.0234802],[99.8580854,16.0302826],[99.8720267,16.0322768],[99.8755425,16.0341432],[99.8736726,16.0369442],[99.8839175,16.0396382],[99.8855336,16.0385356],[99.8878045,16.039506],[99.8886416,16.038132],[99.8950394,16.039451],[99.8951188,16.043085],[99.9038194,16.0449261],[99.9044414,16.0464649],[99.9025883,16.0477745],[99.9102012,16.051673],[99.9112387,16.0490057],[99.9162103,16.0487897],[99.9227232,16.0528163],[99.9269733,16.0515337],[99.9313592,16.0529014],[99.9314548,16.0547734],[99.935063,16.0560349],[99.9334938,16.0603608],[99.9414489,16.0690302],[99.9408667,16.0719225],[99.9480905,16.0759108],[99.9583327,16.0863317],[99.9581699,16.0900179],[99.9644713,16.0968457],[99.9633215,16.09853],[99.9733979,16.1086947],[99.9728856,16.1102787],[99.9784448,16.1127945],[99.9777802,16.1136467],[99.981727,16.117129],[99.9879528,16.1172898],[99.9874398,16.1205442],[99.9889589,16.1202885],[99.9894204,16.1222508],[99.9964713,16.1230061],[99.9977306,16.1276902],[99.996803,16.1332714],[100.0033823,16.1396456],[100.0047678,16.1392364],[100.006206,16.1427776],[100.0098379,16.1436312],[100.0147765,16.1491201],[100.0167169,16.1488781],[100.0162711,16.1545254],[100.0216224,16.1624712],[100.0241843,16.1754178],[100.0221614,16.1888415],[100.0338561,16.1963679],[100.038254,16.1962777],[100.0417615,16.1997666],[100.041238,16.2017413],[100.0451994,16.2036022],[100.0446906,16.2055932],[100.0467906,16.2071788],[100.0470903,16.2102636],[100.0356789,16.222093],[100.0268708,16.2418835],[100.0213333,16.2506266],[100.0214122,16.2529963],[100.026773,16.2578875],[100.0271602,16.2677481],[100.0311702,16.2793514],[100.0266643,16.2907757],[100.0191334,16.2969761],[100.0212823,16.3128698],[100.0161804,16.3192899],[100.0129006,16.3203714],[100.0146231,16.3299393],[100.0128317,16.3326095],[100.0075792,16.3326865],[100.0055838,16.3348857],[100.0054846,16.3393992],[100.0018487,16.3427852],[99.9978193,16.3535728],[99.9954094,16.3562646],[99.994873,16.3637244],[99.9864885,16.3722634],[99.9836919,16.379109],[99.9866639,16.389373],[99.9940571,16.4031166],[99.9948575,16.4165082],[99.9996893,16.4229011],[100.0034171,16.4331908],[100.0000735,16.4463186],[100.0008229,16.4534087],[100.0101448,16.4707428],[100.0345848,16.5016995],[100.0263126,16.5115617],[100.0249391,16.5201975],[100.0202502,16.52161],[100.0187726,16.5201701],[100.0106223,16.5212073],[100.0116731,16.5302053],[100.0084084,16.530092],[100.012189,16.5396179],[100.0116339,16.5540785],[100.0140159,16.5597849],[100.0110948,16.5627155],[100.0148884,16.5825245],[100.0108376,16.5812221],[100.0080254,16.5859044],[100.0059146,16.5858902],[100.0040003,16.5790737],[99.9975415,16.5783334],[99.9962303,16.5795345],[99.9928591,16.5771882],[99.986354,16.5783257],[99.9844455,16.5746291],[99.9708678,16.5798969],[99.9426123,16.5743733],[99.9254488,16.5787392],[99.9241413,16.5866807],[99.9144883,16.6038108],[99.9153669,16.609513],[99.9121395,16.6132046],[99.9051476,16.6305038],[99.9027873,16.6307349],[99.8995277,16.636732],[99.8983932,16.6479095],[99.8962421,16.6492092],[99.8958688,16.6518045],[99.8974287,16.6580443],[99.8934919,16.6608437],[99.8945848,16.6642847],[99.8902419,16.667636],[99.8887373,16.6710856],[99.888535,16.6795392],[99.8918024,16.686404],[99.8847183,16.6938576],[99.8882999,16.6949249],[99.8905,16.6975713],[99.8851522,16.7011149],[99.8966694,16.7055443],[99.8922045,16.7082556],[99.8886403,16.7150444],[99.8836944,16.7110978],[99.8729179,16.7153548],[99.8755266,16.7182136],[99.8717114,16.7250164],[99.86583,16.7238672],[99.8601365,16.7311771],[99.8566946,16.7289763],[99.8534102,16.7352719],[99.8470676,16.7268459],[99.8450014,16.7152081],[99.8419301,16.7162633],[99.8354346,16.7138234],[99.8326471,16.7147737],[99.8290833,16.7174381],[99.8283148,16.7241817],[99.8221564,16.720313],[99.8142394,16.7203945],[99.8119434,16.7154275],[99.8057401,16.7134337],[99.8034773,16.7104468],[99.8092265,16.7036593],[99.8098528,16.6987523],[99.8037136,16.6984719],[99.800765,16.6916945],[99.7943416,16.6888018],[99.7929883,16.686621],[99.7855291,16.6851738],[99.7763933,16.6876424],[99.7726941,16.6833812],[99.7691676,16.6827174],[99.7596033,16.684911],[99.7593371,16.7106177],[99.7556349,16.721589],[99.7501191,16.7208911],[99.7483241,16.7233286],[99.749159,16.7255387],[99.7416342,16.729597],[99.7425556,16.7350341],[99.7457006,16.7385777],[99.7449477,16.7440902],[99.740974,16.740459],[99.7365928,16.7400852],[99.7332323,16.7326718],[99.7299509,16.7295196],[99.7230842,16.7274391],[99.7197632,16.7225636],[99.7145866,16.7213381],[99.708779,16.7247892],[99.7050185,16.7222573],[99.7058449,16.719299],[99.7043417,16.717329],[99.7015676,16.7186167],[99.6970093,16.7165543],[99.6951871,16.7176087],[99.6954866,16.7210364],[99.6936419,16.7226674],[99.6953405,16.7286939],[99.6932512,16.7318073],[99.6752225,16.7276086],[99.674711,16.7295151],[99.6722069,16.7302905],[99.6704731,16.7356807],[99.6654782,16.737725],[99.6642741,16.7397784],[99.658763,16.7406032],[99.6583714,16.7430856],[99.6538286,16.7464643],[99.6471101,16.7464731],[99.6460296,16.7431347],[99.6431633,16.7435977],[99.6375659,16.7494696],[99.6358591,16.7488473],[99.6324498,16.7512204],[99.6307237,16.7556777],[99.6222096,16.7569673],[99.62141,16.7602982],[99.612233,16.7697964],[99.6103405,16.7735758],[99.6115758,16.7754808],[99.6105565,16.7763441],[99.6086827,16.7747201],[99.6073523,16.7783186],[99.6056536,16.7784349],[99.6057363,16.7808566],[99.6044151,16.7812306],[99.605397,16.7846054],[99.6024214,16.7867844],[99.6027573,16.7891745],[99.6015643,16.7885576],[99.5988804,16.7910749],[99.5983374,16.7898532],[99.593983,16.7906032],[99.5893765,16.7964556],[99.5892872,16.7989656],[99.5851939,16.7989564],[99.5855538,16.8014346],[99.5819608,16.8032937],[99.5822681,16.8049623],[99.5796078,16.8075012],[99.5783679,16.8072039],[99.5797681,16.8088888],[99.5781906,16.8114612],[99.5801083,16.8128092],[99.5788018,16.8165314],[99.5813007,16.8194162],[99.5766381,16.8256063],[99.5767399,16.8274773],[99.5749042,16.8281293],[99.5738853,16.8301063],[99.5750439,16.8317286],[99.5723396,16.8351241],[99.573748,16.8399337],[99.5726105,16.8411095],[99.5741708,16.8422156],[99.5725807,16.8426957],[99.5744506,16.8463545],[99.5721959,16.8480351],[99.5737415,16.8492078],[99.5707507,16.8595356],[99.5657844,16.8587601],[99.5658318,16.8543399],[99.5595258,16.853087],[99.5565136,16.8556238],[99.556779,16.8580926],[99.5500363,16.8614137],[99.5490614,16.8636942],[99.5448341,16.8624408],[99.5424404,16.8577363],[99.5442325,16.8499623],[99.5416655,16.8397991],[99.537619,16.8374115],[99.5348642,16.8270647],[99.5306518,16.8252743],[99.5297309,16.8351652],[99.5241392,16.8445222],[99.5228919,16.8524535],[99.5170212,16.8583191],[99.5132411,16.873181],[99.5128797,16.8795538],[99.5142164,16.8824934],[99.4973518,16.89256],[99.492056,16.9058853],[99.4886633,16.9105143],[99.4840267,16.9094678],[99.4826119,16.9071432],[99.4797035,16.9081188],[99.4738747,16.9053347],[99.4664629,16.8963031],[99.4655246,16.8934033],[99.4667542,16.8895774],[99.4630989,16.8867007],[99.4600469,16.8811917],[99.4496794,16.8751204],[99.4475631,16.8698925],[99.4365743,16.8721761]]]}}]}