{"type":"FeatureCollection","features":[{"type":"Feature","properties":{"provinceCode":"17","nameTh":"สิงห์บุรี","nameEn":"Sing Buri"},"geometry":{"type":"Polygon","coordinates":[[[100.4751714,14.7230116],[100.4695209,14.7216056],[100.4685668,14.7237996],[100.4650309,14.7251951],[100.4635817,14.7219916],[100.4614735,14.7234676],[100.4593974,14.722072],[100.4555806,14.7258646],[100.4508841,14.7237115],[100.4455545,14.7241737],[100.4459193,14.7256519],[100.4445408,14.7250654],[100.4430254,14.726727],[100.4376608,14.7267155],[100.4375891,14.7278117],[100.4320604,14.7267207],[100.4308853,14.7284324],[100.4283348,14.7270345],[100.4226925,14.7286079],[100.416299,14.7254798],[100.4149107,14.7275994],[100.4162393,14.734297],[100.4132718,14.737972],[100.4166254,14.7425947],[100.4149088,14.7472218],[100.4167545,14.7515791],[100.4082658,14.7547],[100.4050216,14.7574579],[100.3995401,14.7541441],[100.3988579,14.7520785],[100.393418,14.7524564],[100.3932017,14.7507504],[100.3923599,14.7522049],[100.3887185,14.7518836],[100.3869227,14.7456917],[100.3814577,14.7445535],[100.3784112,14.7463369],[100.3757116,14.7456272],[100.373596,14.7484167],[100.3709819,14.7489652],[100.3711727,14.7552031],[100.3613753,14.7602246],[100.3600957,14.7637232],[100.3563648,14.7606305],[100.3518152,14.7634438],[100.3502075,14.767031],[100.3511198,14.7677343],[100.3453612,14.773771],[100.347021,14.7749924],[100.345768,14.7765866],[100.3498068,14.7783478],[100.3495251,14.7801677],[100.3431615,14.781829],[100.3422637,14.7868617],[100.3356406,14.7903088],[100.3365818,14.7944276],[100.3287312,14.8023697],[100.3110769,14.7976916],[100.3097057,14.7956036],[100.3142036,14.7928945],[100.3143276,14.7898452],[100.3040111,14.7881482],[100.2993447,14.789827],[100.297394,14.7883994],[100.2954122,14.7807977],[100.2902915,14.7850825],[100.2778211,14.7903557],[100.272457,14.7994936],[100.2663012,14.7957062],[100.250999,14.7963154],[100.2424749,14.7979527],[100.2424841,14.7992147],[100.236293,14.7994824],[100.2361834,14.8005825],[100.2321587,14.8003071],[100.231758,14.7983965],[100.2292323,14.7973305],[100.2185129,14.796927],[100.2160903,14.7991183],[100.2146097,14.8068374],[100.2042489,14.809541],[100.2092244,14.8221593],[100.2095604,14.8339969],[100.2187542,14.844081],[100.2163233,14.8495998],[100.2184424,14.853316],[100.2178642,14.8593788],[100.2214636,14.864906],[100.2162113,14.8726831],[100.2238037,14.8800123],[100.2244455,14.8823441],[100.2224233,14.885567],[100.2184091,14.8860117],[100.2134504,14.8836361],[100.2096906,14.884385],[100.2076441,14.8870942],[100.2062473,14.8952559],[100.208183,14.8972694],[100.2154848,14.898112],[100.2179066,14.9010667],[100.2229635,14.9028891],[100.2206682,14.9085036],[100.216827,14.9106814],[100.1949768,14.9039404],[100.1866785,14.9077746],[100.1863263,14.919308],[100.1825138,14.9240613],[100.1822903,14.9346392],[100.1866727,14.937201],[100.1940413,14.9374569],[100.1977258,14.9393208],[100.2026951,14.9534561],[100.2076822,14.9533171],[100.2080166,14.951464],[100.2124867,14.9528229],[100.2240978,14.9507208],[100.2243452,14.9475709],[100.2276397,14.9489443],[100.2289629,14.945943],[100.2379266,14.9505821],[100.2445093,14.945938],[100.2503597,14.947969],[100.2518003,14.9458455],[100.2577848,14.9473825],[100.2600292,14.9446992],[100.2634561,14.9479413],[100.2655031,14.9476713],[100.2658265,14.9499405],[100.2720848,14.951009],[100.2732593,14.9534317],[100.2724329,14.9580021],[100.2745313,14.960595],[100.2781362,14.9612243],[100.278846,14.959651],[100.2830255,14.9599905],[100.2836666,14.9581665],[100.285868,14.9588251],[100.2872757,14.9574919],[100.2921444,14.9598853],[100.2889019,14.9627777],[100.2893186,14.96803],[100.2868104,14.9676289],[100.2863485,14.972458],[100.2891355,14.9731866],[100.2859221,14.9828469],[100.2829126,14.9832622],[100.2815709,14.9863048],[100.280454,14.9860284],[100.2815254,14.9883706],[100.2801857,14.99132],[100.2767101,14.9897767],[100.2750498,14.9908253],[100.2752789,14.9957684],[100.2709109,15.000772],[100.2680719,15.0104347],[100.2634138,15.0115361],[100.2558366,15.0076138],[100.2499759,15.0125567],[100.2506492,15.0187323],[100.2472454,15.0169815],[100.2426495,15.0180673],[100.245899,15.0210177],[100.2449709,15.0236393],[100.2404648,15.0245978],[100.2399636,15.0216186],[100.2372748,15.0209912],[100.2319019,15.0258007],[100.2293037,15.0261365],[100.2275274,15.0231967],[100.2237527,15.024757],[100.2214786,15.0291352],[100.2230128,15.0302928],[100.221972,15.0333282],[100.2188351,15.0333934],[100.2187079,15.0454022],[100.221463,15.0477901],[100.2323614,15.0475161],[100.2356077,15.0493215],[100.2385049,15.0479734],[100.2394688,15.0498363],[100.2416762,15.048773],[100.242697,15.0507567],[100.2435755,15.0428054],[100.2461529,15.0445598],[100.2472643,15.0416255],[100.2504978,15.0419207],[100.250997,15.0370627],[100.2550004,15.0375112],[100.2547956,15.0395693],[100.2586662,15.0412665],[100.2553532,15.0459839],[100.256114,15.0486349],[100.2594603,15.0499015],[100.2623079,15.0566664],[100.2651986,15.0567495],[100.2651618,15.0606141],[100.2732708,15.0630604],[100.2774916,15.0662555],[100.2800763,15.0637512],[100.2885473,15.0659152],[100.2935069,15.0643175],[100.2949313,15.0705556],[100.2934502,15.0743317],[100.3004845,15.0761746],[100.2998678,15.0792686],[100.302664,15.080021],[100.3034491,15.0829313],[100.3081389,15.0829212],[100.3114714,15.0848584],[100.3121654,15.0828341],[100.3139322,15.0831849],[100.3145097,15.0869896],[100.3191062,15.087349],[100.3188267,15.0889237],[100.332238,15.0924497],[100.3319718,15.0963426],[100.3341905,15.0971139],[100.3340483,15.099199],[100.3392616,15.0998618],[100.3388405,15.1032544],[100.3418683,15.1037109],[100.3418839,15.1075703],[100.3474323,15.1080126],[100.3467405,15.1136457],[100.3518458,15.1157389],[100.3511344,15.1178787],[100.3532898,15.1187946],[100.3577699,15.1117184],[100.3590927,15.1125782],[100.3661746,15.1041284],[100.3635953,15.1019325],[100.364837,15.1003476],[100.3673274,15.1022377],[100.3682067,15.1006452],[100.3670898,15.1002319],[100.3678553,15.0980124],[100.3663674,15.0975476],[100.3682956,15.0836327],[100.3704413,15.0841274],[100.373811,15.0771874],[100.3758135,15.0780893],[100.3772665,15.0751555],[100.3800105,15.0767941],[100.3814307,15.0723371],[100.3837948,15.0731049],[100.3857667,15.0695107],[100.3890811,15.0703578],[100.3898594,15.0678394],[100.3925467,15.0687244],[100.393906,15.0664511],[100.3977781,15.0690889],[100.3966721,15.070239],[100.3976472,15.0708487],[100.3996688,15.0714038],[100.4009205,15.0695774],[100.4070171,15.0707434],[100.4086137,15.0665107],[100.4144463,15.0671726],[100.4137958,15.0694524],[100.4200244,15.0712846],[100.4216526,15.0666723],[100.4278929,15.0684042],[100.4275314,15.0705145],[100.4351723,15.0704127],[100.4334951,15.0671758],[100.4324136,15.0561329],[100.4380907,15.052815],[100.440314,15.0532044],[100.4415044,15.0476547],[100.4393154,15.0470326],[100.439673,15.0457575],[100.4439008,15.0458261],[100.4494412,15.0495968],[100.448392,15.0523197],[100.451392,15.0556393],[100.4576517,15.0552469],[100.4568536,15.0531409],[100.4599363,15.0526967],[100.4543916,15.049463],[100.4562167,15.0460851],[100.4573126,15.0465894],[100.4573078,15.0419582],[100.4620527,15.041582],[100.4629751,15.0326751],[100.4657551,15.0326822],[100.4655093,15.0273049],[100.4634195,15.0222833],[100.4621028,15.0222097],[100.4619812,15.0182645],[100.4544296,15.0182025],[100.45549,15.0134355],[100.4526031,15.0131051],[100.4508097,15.0020667],[100.4542269,15.001525],[100.4535182,14.9999001],[100.4504882,15.0005993],[100.4499142,14.9986043],[100.4527502,14.9965715],[100.4528164,14.9945464],[100.4511161,14.9930164],[100.4518617,14.9891352],[100.4489213,14.988657],[100.4479711,14.9858449],[100.4517134,14.9803267],[100.4505089,14.9799724],[100.4517674,14.9738168],[100.4503727,14.9736494],[100.4502601,14.9714986],[100.4506302,14.9686729],[100.4527975,14.9684216],[100.4526156,14.9638394],[100.4470077,14.9637201],[100.4478978,14.9490344],[100.4495455,14.9467168],[100.4509006,14.9493158],[100.4526959,14.9491495],[100.4532191,14.9473917],[100.4529411,14.9518243],[100.4557816,14.9513371],[100.456002,14.949202],[100.4490704,14.9424652],[100.4498788,14.9406094],[100.4475414,14.9399884],[100.4470991,14.938101],[100.4448163,14.9374495],[100.4437343,14.9396356],[100.4387521,14.9361817],[100.4385467,14.9323158],[100.4315024,14.9288216],[100.4291829,14.9317983],[100.4270064,14.930653],[100.4261731,14.9319846],[100.4242834,14.9311524],[100.423659,14.9327309],[100.4214282,14.9313115],[100.421041,14.9285094],[100.4225025,14.9274387],[100.4205881,14.9267578],[100.421994,14.9226178],[100.4250108,14.9209096],[100.4252382,14.9177716],[100.4273581,14.9161647],[100.4247095,14.9155133],[100.4222906,14.9050026],[100.4249598,14.9024303],[100.4249283,14.8972073],[100.4271567,14.8951045],[100.425892,14.8935824],[100.4279087,14.8934693],[100.4288119,14.8889764],[100.426962,14.885603],[100.430453,14.8805205],[100.4328854,14.8815852],[100.434492,14.8794909],[100.4395656,14.8802651],[100.4394247,14.87573],[100.4501547,14.8747793],[100.4474525,14.8695644],[100.4510536,14.8640015],[100.4495876,14.862623],[100.4485515,14.8648649],[100.4460872,14.8647819],[100.4463058,14.8581575],[100.4582936,14.8568754],[100.459425,14.8513934],[100.4582975,14.8457267],[100.4601966,14.8428841],[100.4551606,14.8382573],[100.4565873,14.8373109],[100.4563948,14.8339687],[100.4627164,14.8311292],[100.4664786,14.8272339],[100.4652874,14.8225119],[100.4713236,14.8229159],[100.473993,14.8170838],[100.4742933,14.8155556],[100.4727031,14.8148759],[100.4740268,14.8117965],[100.472543,14.8111993],[100.4731729,14.8078276],[100.4719393,14.8078231],[100.4758689,14.7975735],[100.4727193,14.7949102],[100.4738669,14.7928064],[100.4729276,14.7903982],[100.4748056,14.7884723],[100.4733955,14.7757715],[100.4758765,14.7716795],[100.4751908,14.7674062],[100.4775172,14.7665891],[100.4767764,14.7634068],[100.4793504,14.7629224],[100.4795369,14.7596159],[100.4834001,14.7601055],[100.4842392,14.7576348],[100.4869876,14.7580426],[100.4893006,14.7529289],[100.4873658,14.7469847],[100.4831924,14.7447307],[100.4846948,14.7394582],[100.4830193,14.7380579],[100.4779057,14.7384945],[100.4774024,14.7328834],[100.4734671,14.7306875],[100.4751714,14.7230116]]]}}]}