{"type":"FeatureCollection","features":[{"type":"Feature","properties":{"id":"TH-LAO-4170102","nameTh":"สิงห์บุรี","type":"town_municipality"},"geometry":{"type":"Polygon","coordinates":[[[100.4093792,14.8772509],[100.4075875,14.8661245],[100.4038324,14.8660519],[100.3993371,14.867597],[100.3980281,14.8688206],[100.3994229,14.8700339],[100.4019817,14.8783293],[100.392535,14.8969308],[100.390518,14.8983305],[100.3878358,14.8987504],[100.3871062,14.9132394],[100.3901693,14.9118501],[100.4014184,14.9122545],[100.4029205,14.9120056],[100.4038217,14.9114873],[100.4064181,14.9080141],[100.4073513,14.8994036],[100.4095616,14.8994398],[100.4103985,14.8997613],[100.412952,14.901669],[100.4151836,14.9041262],[100.418134,14.9021148],[100.4170504,14.9005544],[100.4142287,14.8976358],[100.4102912,14.8953237],[100.4134347,14.8892996],[100.4187777,14.8858365],[100.4193141,14.8852765],[100.4198506,14.8832857],[100.4267492,14.8804446],[100.4254189,14.8799158],[100.4246786,14.8789929],[100.422168,14.8784226],[100.4184344,14.8741713],[100.4171577,14.8755089],[100.414808,14.8769917],[100.4129412,14.8774065],[100.4093792,14.8772509]]]}},{"type":"Feature","properties":{"id":"TH-LAO-4170201","nameTh":"บางระจัน","type":"town_municipality"},"geometry":{"type":"Polygon","coordinates":[[[100.2600292,14.9446992],[100.2595284,14.945521],[100.2588153,14.9456818],[100.2589608,14.9463071],[100.2586061,14.9464246],[100.2586397,14.9468272],[100.2578028,14.9470231],[100.2577848,14.9473825],[100.2548109,14.9471998],[100.2571987,14.9306573],[100.2702075,14.9278531],[100.2712133,14.9245098],[100.2720582,14.923004],[100.2738177,14.920972],[100.3167921,14.8831755],[100.3195655,14.8795516],[100.323739,14.8718524],[100.3255361,14.8699185],[100.3283685,14.8683579],[100.3601534,14.8596162],[100.3609976,14.8612375],[100.3620885,14.8621159],[100.3651898,14.8637665],[100.3661193,14.8627794],[100.3673281,14.8642831],[100.3647178,14.866455],[100.3601929,14.8685173],[100.355255,14.8689852],[100.3489679,14.869063],[100.3353932,14.8728764],[100.3331562,14.8738459],[100.3251257,14.8831833],[100.3279876,14.8826182],[100.3441023,14.8830615],[100.3160089,14.909314],[100.309526,14.9035702],[100.3068894,14.9054364],[100.2995669,14.9091429],[100.2970886,14.9112164],[100.2854263,14.9280215],[100.2841389,14.9291826],[100.2819743,14.9298176],[100.2804482,14.9296647],[100.2789273,14.9288846],[100.2773931,14.9269667],[100.2804428,14.9408345],[100.270304,14.941389],[100.2688878,14.9419799],[100.2681475,14.9425811],[100.2676004,14.9438769],[100.2669132,14.9501471],[100.2658265,14.9499405],[100.2658596,14.9484165],[100.2656378,14.9484183],[100.2655031,14.9476713],[100.2634561,14.9479413],[100.2631526,14.9472034],[100.2600292,14.9446992]]]}}]}