{"type":"FeatureCollection","features":[{"type":"Feature","properties":{"provinceCode":"34","nameTh":"อุบลราชธานี","nameEn":"Ubon Ratchathani"},"geometry":{"type":"Polygon","coordinates":[[[104.5661125,15.5563788],[104.5564737,15.5569167],[104.55299,15.555394],[104.548263,15.5433441],[104.546153,15.5422542],[104.5424392,15.5443453],[104.5359455,15.5520916],[104.5276067,15.5507573],[104.5254845,15.5554564],[104.5263845,15.5581835],[104.5218046,15.5582334],[104.5141915,15.5620469],[104.5110903,15.5597159],[104.5100132,15.5614398],[104.5120142,15.5639323],[104.5082896,15.5677771],[104.5004256,15.5687235],[104.4985422,15.5678716],[104.501094,15.5650218],[104.5000866,15.5587612],[104.4945963,15.5560043],[104.489994,15.5496154],[104.4843026,15.5466659],[104.4834231,15.542837],[104.4852954,15.540377],[104.4811845,15.5370469],[104.4733777,15.5393027],[104.4701395,15.5438602],[104.4654535,15.5429192],[104.457976,15.5475697],[104.4523389,15.5463911],[104.4416792,15.5548263],[104.4355054,15.5485587],[104.4310222,15.5387705],[104.4274859,15.5399918],[104.4194153,15.5358885],[104.4133903,15.5360227],[104.4051289,15.5408422],[104.400329,15.5460707],[104.3859162,15.5362507],[104.3832238,15.5277169],[104.3855017,15.5256028],[104.3852165,15.5162459],[104.387336,15.5103547],[104.3835242,15.4937863],[104.3903918,15.4904153],[104.3794956,15.4737779],[104.3715842,15.4580491],[104.3861887,15.4426782],[104.3873718,15.4163251],[104.3919679,15.405685],[104.390059,15.4031746],[104.3828221,15.4008983],[104.3822514,15.3948123],[104.3919238,15.3859993],[104.3965602,15.3861658],[104.402616,15.3893017],[104.4074183,15.3876724],[104.4115197,15.3826609],[104.4182885,15.3659105],[104.4235283,15.3693123],[104.4307121,15.3671647],[104.4335922,15.3679431],[104.4339344,15.3726207],[104.4292433,15.376787],[104.4318809,15.3780281],[104.4368896,15.3732191],[104.4385384,15.3601948],[104.4334959,15.3468825],[104.4371359,15.3448506],[104.4434404,15.348639],[104.4469211,15.3445225],[104.4458835,15.3416161],[104.4407375,15.3369954],[104.4347222,15.3335745],[104.433012,15.328487],[104.4310439,15.3271256],[104.4249783,15.3258906],[104.4183078,15.3279649],[104.4163547,15.3271669],[104.41319,15.3297765],[104.4088922,15.3244711],[104.406729,15.2893058],[104.4533975,15.2787746],[104.4718458,15.2679103],[104.5041624,15.2676623],[104.5065007,15.263647],[104.5170469,15.2551777],[104.5249241,15.2524689],[104.576811,15.2519706],[104.5780425,15.253714],[104.5754033,15.2570472],[104.5820354,15.25744],[104.5869217,15.2646095],[104.5897675,15.2656997],[104.5903783,15.2685838],[104.5922487,15.2664708],[104.6015534,15.268859],[104.6053699,15.2728399],[104.60911,15.2820559],[104.613757,15.2749161],[104.613493,15.2656933],[104.6155407,15.2636267],[104.6192308,15.2651914],[104.6178431,15.2714461],[104.6210553,15.2752996],[104.6328582,15.2697246],[104.6369739,15.2703971],[104.6408754,15.2735971],[104.6445608,15.2677728],[104.6457388,15.2520495],[104.6442773,15.2441134],[104.6465674,15.2390398],[104.6582839,15.2387264],[104.6633477,15.232199],[104.665367,15.2318666],[104.6624833,15.2407453],[104.6540222,15.2433472],[104.6521212,15.2464675],[104.6535315,15.2493369],[104.6588841,15.2519231],[104.6580128,15.2583797],[104.664609,15.2578332],[104.6705517,15.2525745],[104.6772796,15.2388589],[104.6792795,15.2263512],[104.6839442,15.2235645],[104.6934415,15.2262463],[104.6958588,15.22444],[104.6962958,15.2215746],[104.694662,15.2196731],[104.6855103,15.2198856],[104.6824685,15.2180611],[104.6828735,15.2122382],[104.6884991,15.2090767],[104.6893068,15.2071307],[104.6868822,15.2040371],[104.6812974,15.2055822],[104.6806474,15.2031743],[104.6820562,15.2009231],[104.6871464,15.1996457],[104.6948629,15.2040781],[104.7035471,15.2008369],[104.7044373,15.1972231],[104.6986818,15.1906417],[104.6994506,15.1876991],[104.7025226,15.1855679],[104.7079099,15.1869157],[104.7128329,15.1949564],[104.7178134,15.1918485],[104.7182176,15.1882424],[104.7142001,15.1825969],[104.7072792,15.1815462],[104.7000277,15.1744726],[104.697512,15.1654067],[104.6982171,15.1580525],[104.7055179,15.1579304],[104.7251836,15.1709422],[104.7307756,15.1698639],[104.7359347,15.1654851],[104.7364236,15.1619659],[104.7347742,15.1583306],[104.7199874,15.1479305],[104.7043155,15.1308605],[104.6894284,15.1281714],[104.6860487,15.1238959],[104.6793349,15.1231749],[104.6811449,15.1188536],[104.6761012,15.1134883],[104.6807871,15.1085272],[104.6729436,15.1041017],[104.670203,15.0987416],[104.6717007,15.0947633],[104.6764759,15.0930069],[104.6788911,15.0944094],[104.680187,15.1005275],[104.6887259,15.1000403],[104.6899089,15.0963436],[104.6847524,15.0943024],[104.676251,15.0853118],[104.6785235,15.0836047],[104.6838487,15.0858498],[104.6931157,15.0830931],[104.6858522,15.0727217],[104.6863185,15.0641018],[104.6893009,15.0612603],[104.6891729,15.0585876],[104.6865915,15.0567637],[104.6841719,15.0511375],[104.6802276,15.04851],[104.6807366,15.0465883],[104.6850108,15.0452223],[104.6862523,15.0428722],[104.6821198,15.0398532],[104.6828569,15.0370446],[104.6813726,15.0353058],[104.6761102,15.040551],[104.6741036,15.0405362],[104.673044,15.0379865],[104.6753526,15.033766],[104.6694132,15.0323871],[104.6739409,15.0298754],[104.6718708,15.0202611],[104.6738983,15.0193639],[104.6739757,15.017364],[104.6760336,15.0188974],[104.6774762,15.0181258],[104.6766906,15.0156079],[104.679272,15.0114255],[104.6787181,15.0099761],[104.681921,15.0107699],[104.6819995,15.0058032],[104.6843661,15.0047612],[104.6831429,15.0008428],[104.6851381,14.9948315],[104.6819757,14.9876699],[104.68449,14.9860179],[104.6843778,14.9798031],[104.6821891,14.9772357],[104.6847106,14.9726948],[104.6876662,14.9719784],[104.6884739,14.9674007],[104.686241,14.9653267],[104.6839546,14.9523949],[104.6879341,14.9458667],[104.6956255,14.9420496],[104.699747,14.9359733],[104.7046661,14.9363276],[104.7190136,14.9320745],[104.7204924,14.9256051],[104.7273225,14.9313464],[104.7273439,14.934198],[104.7348681,14.9382268],[104.7348429,14.9363635],[104.7403003,14.9334228],[104.743735,14.9278332],[104.7544069,14.9203092],[104.7566031,14.9218011],[104.7625807,14.9206741],[104.7617396,14.9139431],[104.767889,14.9135977],[104.7716251,14.9113516],[104.7779242,14.8988373],[104.7849593,14.8971913],[104.8001684,14.8977498],[104.8026546,14.8990716],[104.8053755,14.8978188],[104.8047841,14.8920479],[104.8069951,14.8867826],[104.8110854,14.8829955],[104.8104872,14.8687762],[104.8125496,14.8660639],[104.8142649,14.8577998],[104.8165729,14.8555651],[104.8111225,14.8525098],[104.8103552,14.8480168],[104.8102423,14.8448192],[104.8134973,14.8400644],[104.8144791,14.8345521],[104.8065559,14.8303411],[104.7988683,14.8191839],[104.7980174,14.80491],[104.8088212,14.7968082],[104.8154162,14.7891486],[104.8178953,14.7778421],[104.8172179,14.761693],[104.8203339,14.7529523],[104.8337007,14.7419203],[104.8424568,14.7371991],[104.8442763,14.726967],[104.8500181,14.7186936],[104.8678669,14.7036853],[104.8764954,14.7001937],[104.8764886,14.6900426],[104.8779455,14.6868246],[104.87631,14.6817665],[104.8765324,14.6722487],[104.8812978,14.6651536],[104.8863116,14.6619709],[104.8878961,14.6562132],[104.8911177,14.6520025],[104.8887515,14.6509741],[104.8868977,14.6546919],[104.8795546,14.6560595],[104.8767096,14.6611274],[104.8708256,14.6607295],[104.8666826,14.6634318],[104.8615853,14.6621046],[104.8568533,14.6581082],[104.8539998,14.6609934],[104.8483906,14.6591049],[104.8478278,14.6576592],[104.8501112,14.6566124],[104.8502938,14.6549101],[104.8475495,14.6522395],[104.8474267,14.6475827],[104.8438692,14.6451947],[104.8427691,14.6421321],[104.8409588,14.6422813],[104.8415707,14.6394738],[104.8393727,14.6403235],[104.8396228,14.6377577],[104.8364284,14.6369342],[104.8389651,14.6321851],[104.8364236,14.6310373],[104.837882,14.6265261],[104.83604,14.6209713],[104.8377771,14.6169904],[104.8353536,14.6171069],[104.832765,14.6124421],[104.8286174,14.6108721],[104.8271114,14.6079918],[104.8257325,14.5994953],[104.8291209,14.5938849],[104.8280451,14.5922301],[104.827495,14.5940549],[104.8259106,14.5934515],[104.8281911,14.588871],[104.8262751,14.586139],[104.8289134,14.5804828],[104.8277386,14.5768801],[104.8245754,14.5766583],[104.8250869,14.5749854],[104.8232268,14.5750196],[104.825353,14.5705268],[104.8226994,14.5698464],[104.8234313,14.5676992],[104.8196264,14.5656967],[104.8209922,14.5606043],[104.8188263,14.559347],[104.8190116,14.5554631],[104.817462,14.5559918],[104.8155322,14.5512397],[104.8180664,14.5503201],[104.8179575,14.5488512],[104.8193685,14.549872],[104.8219596,14.54679],[104.8208701,14.5412139],[104.8234358,14.5376094],[104.8264584,14.53681],[104.8285917,14.5323042],[104.8277338,14.5307685],[104.832642,14.5297704],[104.8329707,14.5269738],[104.836539,14.5253042],[104.8393623,14.5193807],[104.8420663,14.5184677],[104.8419338,14.5169738],[104.8446143,14.5168938],[104.8486206,14.5124356],[104.8487696,14.5093726],[104.8537316,14.5074396],[104.8534673,14.5057713],[104.8571203,14.5057632],[104.8566713,14.5028938],[104.8591042,14.50138],[104.857834,14.5007222],[104.8601339,14.5010744],[104.8620083,14.4990514],[104.8605982,14.4959501],[104.8615518,14.4928668],[104.8588443,14.4880041],[104.8603024,14.4835054],[104.8584727,14.4815818],[104.860158,14.4769655],[104.859054,14.4757852],[104.8598208,14.4719694],[104.8511429,14.4664619],[104.8500476,14.459814],[104.8462996,14.4583931],[104.8452138,14.45357],[104.8398778,14.4530875],[104.8400089,14.4518518],[104.8381324,14.4515055],[104.8389341,14.4506529],[104.834428,14.4494074],[104.8344622,14.4480741],[104.8327144,14.4492699],[104.8291822,14.4448911],[104.8289997,14.441177],[104.8352265,14.4334966],[104.8384015,14.426808],[104.8499073,14.4255989],[104.8512986,14.4238976],[104.8598076,14.4299616],[104.8662634,14.4298243],[104.8676478,14.433107],[104.8763907,14.4370621],[104.8963598,14.4165911],[104.9067047,14.411708],[104.9085397,14.4055022],[104.9071055,14.3991778],[104.9187186,14.3991842],[104.9220914,14.4014661],[104.9326486,14.3934686],[104.9367872,14.392387],[104.941823,14.3852114],[104.9462502,14.382535],[104.9553454,14.381297],[104.9580407,14.3912762],[104.9649474,14.3888191],[104.9690564,14.392095],[104.9724566,14.392335],[104.9900471,14.3788598],[104.9943819,14.3796692],[104.9950061,14.3736564],[105.0013552,14.3660185],[105.0026661,14.3619915],[104.9985734,14.3506894],[104.9927161,14.3430976],[104.9932061,14.3275492],[104.9914707,14.3223264],[104.9852857,14.3202375],[104.9844892,14.3182923],[104.9910953,14.3112672],[105.0027639,14.302689],[105.0049534,14.2907561],[105.0153798,14.2766618],[105.0153824,14.2725783],[105.0201452,14.2638978],[105.0266395,14.2648409],[105.0209373,14.2514348],[105.022792,14.2413496],[105.0267823,14.2376601],[105.0315197,14.2378641],[105.0320959,14.2343219],[105.0367083,14.230509],[105.0461682,14.2272206],[105.0481528,14.218123],[105.0514004,14.214431],[105.0765595,14.2130646],[105.0824705,14.209568],[105.0858961,14.2103286],[105.0934133,14.2157655],[105.102539,14.2131352],[105.1073834,14.2134506],[105.1110662,14.2157727],[105.1150784,14.2214524],[105.1266784,14.2248429],[105.1419497,14.2372431],[105.1527769,14.2517857],[105.1537633,14.2577922],[105.1511575,14.2596068],[105.1447555,14.2589405],[105.1438816,14.261093],[105.1533091,14.2689693],[105.1501006,14.2769981],[105.150877,14.2834693],[105.1533921,14.2871646],[105.160271,14.2891662],[105.1608044,14.3009981],[105.169174,14.3044553],[105.1709412,14.3090133],[105.1742829,14.3106701],[105.1767497,14.3147065],[105.1760162,14.3212397],[105.1684739,14.3257027],[105.1672077,14.3283551],[105.1683735,14.3349423],[105.1757555,14.3455349],[105.1814379,14.3423468],[105.1860644,14.3419759],[105.1980461,14.3484514],[105.203895,14.344011],[105.210135,14.342799],[105.216722,14.334948],[105.220974,14.33676],[105.224851,14.333784],[105.228168,14.333482],[105.233587,14.336846],[105.235689,14.350003],[105.241108,14.350046],[105.246107,14.354144],[105.246948,14.358544],[105.251295,14.361565],[105.261151,14.362125],[105.266477,14.360702],[105.275586,14.353843],[105.279277,14.353326],[105.28208,14.35449],[105.283855,14.365792],[105.289367,14.364929],[105.291236,14.367862],[105.295954,14.368725],[105.303475,14.366137],[105.305064,14.375109],[105.320293,14.397454],[105.323376,14.398101],[105.329589,14.395211],[105.338652,14.387878],[105.340567,14.384297],[105.342389,14.384254],[105.352386,14.387533],[105.361122,14.387878],[105.372146,14.399309],[105.37607,14.397799],[105.381863,14.400128],[105.386721,14.396117],[105.387002,14.410567],[105.392935,14.406469],[105.400456,14.409661],[105.404006,14.414665],[105.403492,14.420747],[105.407416,14.424802],[105.407463,14.428986],[105.413162,14.428728],[105.422272,14.420618],[105.42372,14.416434],[105.429139,14.416089],[105.430307,14.42463],[105.434417,14.427779],[105.44007,14.427951],[105.441705,14.429978],[105.44376,14.4421],[105.44932,14.448096],[105.449974,14.452107],[105.456,14.454092],[105.457822,14.461899],[105.461232,14.466644],[105.469547,14.470397],[105.474032,14.481397],[105.47847,14.486142],[105.479731,14.493044],[105.487673,14.500592],[105.482254,14.503439],[105.480665,14.506286],[105.483281,14.505898],[105.496922,14.512757],[105.500589,14.512655],[105.500823,14.520463],[105.507923,14.523483],[105.516659,14.538365],[105.522358,14.538538],[105.526376,14.536122],[105.524087,14.541256],[105.524133,14.551436],[105.533476,14.553248],[105.534925,14.559158],[105.530393,14.566104],[105.528945,14.571841],[105.536326,14.57883],[105.538849,14.583488],[105.535625,14.592159],[105.531701,14.592806],[105.528945,14.595222],[105.530113,14.608595],[105.542259,14.619768],[105.537354,14.623047],[105.529926,14.623176],[105.524507,14.633098],[105.530533,14.640431],[105.528151,14.647161],[105.5175,14.652079],[105.519275,14.654667],[105.516192,14.65924],[105.516379,14.666271],[105.52745,14.679386],[105.520583,14.688962],[105.51708,14.690947],[105.515211,14.696253],[105.518061,14.699661],[105.52362,14.700696],[105.524787,14.704104],[105.524227,14.7101],[105.52063,14.714069],[105.522031,14.718987],[105.519882,14.727097],[105.530066,14.730721],[105.546557,14.731368],[105.54366,14.738701],[105.541044,14.740168],[105.530954,14.740039],[105.526282,14.742972],[105.52119,14.749141],[105.515678,14.750481],[105.512595,14.753242],[105.517547,14.762387],[105.512408,14.765665],[105.51409,14.773429],[105.515398,14.775414],[105.520443,14.777225],[105.525115,14.782402],[105.525021,14.784127],[105.515211,14.791288],[105.520163,14.794739],[105.513062,14.796809],[105.511194,14.799139],[105.516986,14.808801],[105.519322,14.823122],[105.522779,14.82502],[105.537074,14.819499],[105.543054,14.829852],[105.553705,14.835114],[105.555854,14.839083],[105.559871,14.8396],[105.558376,14.842534],[105.551369,14.845467],[105.546791,14.858408],[105.54268,14.86229],[105.542867,14.866862],[105.547165,14.870572],[105.54922,14.874886],[105.55875,14.876007],[105.570523,14.881097],[105.579959,14.87894],[105.576689,14.89723],[105.564169,14.910947],[105.55819,14.924061],[105.551369,14.923026],[105.545296,14.92639],[105.547538,14.928547],[105.553051,14.94166],[105.55193,14.94675],[105.552957,14.952186],[105.556601,14.956068],[105.561086,14.954256],[105.567159,14.955723],[105.569121,14.954084],[105.569495,14.950546],[105.583229,14.941315],[105.584631,14.945974],[105.592292,14.955464],[105.594721,14.962107],[105.603597,14.96504],[105.606587,14.971252],[105.611913,14.973236],[105.618079,14.972287],[105.624152,14.975738],[105.620975,14.976342],[105.619294,14.979793],[105.613408,14.983848],[105.606213,14.992992],[105.583136,14.998686],[105.57482,14.998341],[105.573115,15.000847],[105.573956,15.004989],[105.572835,15.006196],[105.572648,15.012753],[105.574143,15.015945],[105.5719,15.02138],[105.565267,15.023882],[105.564426,15.029404],[105.557138,15.028886],[105.552093,15.030698],[105.546954,15.038376],[105.546861,15.044674],[105.551906,15.047262],[105.554989,15.054509],[105.554242,15.06374],[105.551999,15.064775],[105.548075,15.063826],[105.544245,15.068312],[105.54004,15.06883],[105.536957,15.063481],[105.532659,15.065379],[105.526866,15.062101],[105.519672,15.064689],[105.513412,15.063395],[105.513599,15.077889],[105.516215,15.082634],[105.515281,15.084618],[105.495754,15.093847],[105.489867,15.093761],[105.47959,15.099541],[105.481739,15.103769],[105.482673,15.111878],[105.470527,15.120937],[105.4665409,15.1307689],[105.4683555,15.13336],[105.47604,15.137587],[105.483234,15.148458],[105.48641,15.150183],[105.469593,15.156395],[105.469499,15.159156],[105.473143,15.167265],[105.478656,15.167869],[105.476226,15.175375],[105.474358,15.176669],[105.476133,15.180206],[105.478749,15.181414],[105.482393,15.187022],[105.487718,15.189006],[105.489681,15.193664],[105.491456,15.193837],[105.493605,15.190731],[105.495286,15.193147],[105.49538,15.194527],[105.491269,15.197202],[105.494352,15.204707],[105.508647,15.211352],[105.51173,15.216873],[105.516028,15.218685],[105.516215,15.221791],[105.521728,15.231367],[105.530884,15.24172],[105.531071,15.244222],[105.534061,15.244049],[105.53976,15.252069],[105.548169,15.253191],[105.552654,15.252156],[105.556484,15.248621],[105.557326,15.249999],[105.554803,15.256124],[105.560502,15.26225],[105.579002,15.258454],[105.581898,15.259834],[105.590961,15.271222],[105.592362,15.27381],[105.591615,15.278211],[105.586009,15.287701],[105.582178,15.304524],[105.582272,15.309011],[105.584888,15.314532],[105.577507,15.320313],[105.5746446,15.3289865],[105.565734,15.324109],[105.553215,15.321348],[105.5396077,15.3245401],[105.5198845,15.3225202],[105.5083033,15.3184822],[105.496221,15.320747],[105.485197,15.329978],[105.473051,15.335586],[105.469127,15.342057],[105.467632,15.350339],[105.4761539,15.3689572],[105.494072,15.386402],[105.524438,15.393215],[105.540228,15.392179],[105.552934,15.396321],[105.555363,15.398823],[105.56125,15.39865],[105.578721,15.408227],[105.588905,15.420478],[105.595165,15.436438],[105.597594,15.448085],[105.59638,15.455937],[105.597594,15.462752],[105.602079,15.472156],[105.60264,15.478627],[105.596754,15.497693],[105.593251,15.504227],[105.592813,15.509892],[105.606836,15.539757],[105.607888,15.546231],[105.621561,15.558452],[105.624892,15.56347],[105.627959,15.579009],[105.627171,15.595439],[105.628573,15.605232],[105.636812,15.633801],[105.636812,15.651121],[105.634708,15.662614],[105.626469,15.67621],[105.611482,15.690212],[105.607625,15.697496],[105.601051,15.720481],[105.590183,15.72736],[105.559419,15.739257],[105.555387,15.748079],[105.5472314,15.7507628],[105.53777,15.748241],[105.532511,15.748727],[105.523307,15.75601],[105.515507,15.757224],[105.509547,15.765722],[105.504025,15.767179],[105.495611,15.766287],[105.473261,15.751719],[105.466599,15.74557],[105.442934,15.753095],[105.437588,15.7535],[105.433468,15.755361],[105.420584,15.773086],[105.419006,15.778994],[105.420759,15.785873],[105.41962,15.789434],[105.410154,15.794452],[105.401652,15.794614],[105.39429,15.802384],[105.390433,15.808696],[105.389644,15.82375],[105.385963,15.836618],[105.378162,15.846816],[105.372728,15.85758],[105.371063,15.865431],[105.3604441,15.884903],[105.352219,15.906302],[105.346346,15.909054],[105.343454,15.912291],[105.342227,15.922246],[105.347836,15.931877],[105.349764,15.942884],[105.3517089,15.9462213],[105.361509,15.953486],[105.367119,15.968944],[105.373692,15.973962],[105.374569,15.980437],[105.376935,15.983512],[105.392712,15.991444],[105.417166,15.985778],[105.425142,15.990715],[105.425405,15.995895],[105.423106,16.001433],[105.424078,16.005261],[105.41786,16.012139],[105.407885,16.016146],[105.364358,16.020692],[105.352828,16.028885],[105.312086,16.029603],[105.308977,16.034388],[105.298096,16.038993],[105.288509,16.038754],[105.262536,16.043898],[105.240254,16.044256],[105.211107,16.049639],[105.153395,16.070154],[105.147176,16.07464],[105.138432,16.075178],[105.133639,16.079664],[105.124636,16.079903],[105.119778,16.077212],[105.106305,16.088396],[105.101188,16.090609],[105.08642,16.089293],[105.08506,16.088336],[105.085902,16.085585],[105.082922,16.085705],[105.0602608,16.0981491],[105.0566403,16.0933484],[105.0504117,16.0952741],[105.0436489,16.095197],[105.0418004,16.0937615],[105.0380799,16.0852128],[105.0362829,16.0846926],[105.0353147,16.0780494],[105.0287566,16.0725338],[105.0279528,16.0659717],[105.025291,16.0635385],[105.0257961,16.0560225],[105.0240321,16.0522197],[105.0063238,16.0310664],[105.0032918,16.0205231],[105.0048951,16.0093768],[105.0096268,15.9998242],[105.02042,15.9941795],[105.0255446,15.9859048],[105.0256369,15.9816819],[105.0225619,15.9748114],[105.0128079,15.9664177],[104.9981444,15.946922],[105.0038954,15.9395279],[105.0036548,15.934231],[104.995768,15.9182158],[104.9825599,15.9011724],[104.9739447,15.8741914],[104.971179,15.8724314],[104.9634111,15.8609745],[104.9653879,15.8350713],[104.9634923,15.8284508],[104.9665825,15.8187383],[104.9664703,15.8109366],[104.959937,15.7919193],[104.9546937,15.786209],[104.939371,15.7769575],[104.9181829,15.7679705],[104.9073922,15.7614243],[104.9038889,15.7535616],[104.9028538,15.747058],[104.9063718,15.7388604],[104.9062026,15.7252441],[104.8983082,15.7109631],[104.8968468,15.6992094],[104.8912605,15.6897826],[104.8931506,15.6817741],[104.8944685,15.6816167],[104.8949362,15.6535243],[104.9249944,15.6434987],[104.9286074,15.6450533],[104.933355,15.6401281],[104.9335385,15.6381438],[104.929662,15.6360093],[104.9312465,15.6300915],[104.9270442,15.6260906],[104.9292357,15.6226198],[104.9313207,15.6221666],[104.9308031,15.6189692],[104.9259231,15.6177966],[104.9237638,15.6152555],[104.9258479,15.6138391],[104.9240565,15.6080751],[104.9267265,15.6066094],[104.925739,15.6023013],[104.9237599,15.6003372],[104.9182227,15.6015699],[104.9144626,15.5995008],[104.9117576,15.59551],[104.9086077,15.5976055],[104.9084054,15.5943861],[104.9047915,15.5930619],[104.9032923,15.5898753],[104.9011586,15.5904547],[104.8999853,15.5874443],[104.8966047,15.5865415],[104.8943328,15.5811286],[104.8917071,15.5791742],[104.8927934,15.5782147],[104.8875227,15.5761275],[104.8845545,15.5720709],[104.8851353,15.5706172],[104.8876917,15.5730355],[104.8878443,15.5689105],[104.8908219,15.5686671],[104.8957703,15.5639162],[104.8909144,15.5617695],[104.8899341,15.5574285],[104.8912549,15.5557923],[104.887241,15.5513354],[104.8889646,15.5481797],[104.8878958,15.5468219],[104.8859263,15.5482105],[104.887544,15.5450266],[104.8823162,15.5472506],[104.8814628,15.5391669],[104.8786885,15.5371328],[104.8747422,15.5399697],[104.869811,15.5383367],[104.8702133,15.5424158],[104.8742137,15.5464254],[104.8695558,15.5504829],[104.8655487,15.5487649],[104.8646154,15.5524713],[104.8663115,15.5554102],[104.8634384,15.5573013],[104.8658912,15.5584357],[104.8653447,15.5619826],[104.8708375,15.5607144],[104.8766712,15.5625493],[104.874836,15.5654966],[104.8670187,15.568083],[104.8670162,15.5738054],[104.8619536,15.5780184],[104.8618217,15.5805592],[104.85924,15.5779244],[104.8505328,15.5781717],[104.8488876,15.5796531],[104.8475057,15.5736301],[104.8438623,15.5778884],[104.8446107,15.584404],[104.8375897,15.5809767],[104.8359133,15.5817319],[104.8380634,15.584498],[104.8374908,15.5918737],[104.8301782,15.5914203],[104.8295015,15.5875909],[104.8318722,15.5842981],[104.8226289,15.5858177],[104.8214444,15.5894549],[104.8127806,15.596587],[104.8141907,15.5973874],[104.8161667,15.595477],[104.816591,15.5973277],[104.8152326,15.5999496],[104.8109707,15.6015438],[104.812738,15.604226],[104.8111495,15.6063624],[104.8071915,15.6035004],[104.8061084,15.6007336],[104.8031613,15.6008842],[104.8035496,15.5991879],[104.8054454,15.5991328],[104.8009998,15.5976472],[104.8010218,15.5960654],[104.803774,15.5958364],[104.8026993,15.5937329],[104.7952315,15.5955402],[104.7956004,15.5975812],[104.7929186,15.5991341],[104.7935105,15.6021481],[104.7894335,15.6007495],[104.7905878,15.6033217],[104.7866554,15.6046046],[104.7893535,15.6085227],[104.7851539,15.6121003],[104.7875375,15.6156414],[104.7879217,15.6210122],[104.7856349,15.6224567],[104.7844025,15.6216241],[104.7855474,15.6189013],[104.7841288,15.6200529],[104.7805084,15.6186096],[104.7811898,15.620438],[104.7786116,15.6217361],[104.7796354,15.6232094],[104.7781484,15.6240492],[104.7772168,15.6288865],[104.7692743,15.6302342],[104.7684214,15.6335485],[104.7663508,15.6331587],[104.7648827,15.634602],[104.7657608,15.6355194],[104.7636511,15.6363416],[104.7606883,15.6359771],[104.7604845,15.6328345],[104.7564085,15.635181],[104.7570979,15.6369896],[104.7533922,15.6410504],[104.7497881,15.6413463],[104.7500612,15.6429116],[104.7462521,15.6413664],[104.7434681,15.6524252],[104.7408912,15.6524258],[104.7407534,15.6564344],[104.7422367,15.6581287],[104.7401722,15.6588017],[104.7398404,15.6568048],[104.7334115,15.6559568],[104.7355079,15.6523221],[104.728735,15.6478101],[104.7273317,15.6488191],[104.7281324,15.6514863],[104.7218393,15.6515295],[104.7227146,15.6540917],[104.7207726,15.6573413],[104.7144108,15.6606874],[104.7119771,15.6607022],[104.7103091,15.658492],[104.7055441,15.659206],[104.7028526,15.6572046],[104.6992527,15.6588345],[104.6972678,15.6575338],[104.6962453,15.6588559],[104.6945883,15.6581991],[104.6834298,15.6710225],[104.6773278,15.6722638],[104.6726914,15.6756485],[104.6653977,15.6754161],[104.6638933,15.6732362],[104.6626574,15.6746544],[104.6607555,15.6738201],[104.6610462,15.6758035],[104.6580501,15.6758863],[104.6575348,15.6783891],[104.6551944,15.6751609],[104.6485821,15.6790499],[104.6474295,15.6774812],[104.6430886,15.6859273],[104.6410105,15.6874341],[104.6388046,15.6850477],[104.6392833,15.6861825],[104.6356609,15.6891276],[104.6346378,15.6867099],[104.6320126,15.6892178],[104.6289092,15.6876887],[104.6254728,15.6894399],[104.6227057,15.6875424],[104.6211101,15.6881415],[104.6113747,15.6833141],[104.6027652,15.6736232],[104.6022748,15.671337],[104.6040799,15.6683913],[104.61055,15.6635649],[104.6173125,15.6626169],[104.6246357,15.6644844],[104.6291607,15.6627531],[104.6374325,15.6469653],[104.6304619,15.6435071],[104.627791,15.6457292],[104.6269032,15.6444076],[104.6256711,15.6453055],[104.6240123,15.6424928],[104.6222603,15.6418418],[104.6214366,15.6432093],[104.6144608,15.6397466],[104.6107648,15.6297799],[104.6145466,15.6299012],[104.616519,15.6247089],[104.609436,15.6157849],[104.603333,15.6124805],[104.5943873,15.6118927],[104.5799388,15.6049733],[104.5780956,15.5969172],[104.5842964,15.5890044],[104.5859117,15.5666929],[104.5808012,15.5647279],[104.5758071,15.5649151],[104.5661125,15.5563788]]]}}]}