{"type":"FeatureCollection","features":[{"type":"Feature","properties":{"id":"TH-LAO-4341501","nameTh":"วารินชำราบ","type":"town_municipality"},"geometry":{"type":"Polygon","coordinates":[[[104.8738703,15.2227284],[104.8748767,15.2071304],[104.868933,15.2061675],[104.8695996,15.1828067],[104.8698449,15.1821157],[104.8582256,15.1815772],[104.8447394,15.1920763],[104.8426985,15.2084318],[104.8443847,15.2099282],[104.8458939,15.2118683],[104.8485607,15.216394],[104.8502627,15.2207043],[104.8518987,15.2223152],[104.8534636,15.2226199],[104.8576997,15.2216945],[104.8634314,15.2214997],[104.864657,15.2211848],[104.8700224,15.2217523],[104.8738703,15.2227284]]]}},{"type":"Feature","properties":{"id":"TH-LAO-3340102","nameTh":"อุบลราชธานี","type":"city_municipality"},"geometry":{"type":"Polygon","coordinates":[[[104.8250279,15.2476887],[104.830395,15.2569128],[104.8355663,15.2706891],[104.841671,15.2752948],[104.8481726,15.2771061],[104.8522925,15.2774786],[104.8570991,15.2612135],[104.8544759,15.2609935],[104.8537516,15.2552981],[104.8547119,15.2548996],[104.8575443,15.2548504],[104.8569693,15.2529509],[104.8559832,15.2529381],[104.8560369,15.2485078],[104.8552108,15.2470483],[104.8552644,15.2418313],[104.8544061,15.24091],[104.8544236,15.2397933],[104.8641479,15.2395203],[104.8643863,15.2411429],[104.866932,15.2451178],[104.8844683,15.2601318],[104.8843557,15.2557949],[104.8839801,15.2553705],[104.8848063,15.2545683],[104.8862466,15.2543561],[104.8887706,15.2528656],[104.8891353,15.2522239],[104.8892855,15.2507747],[104.8871827,15.2500502],[104.8818183,15.2498017],[104.8800373,15.2483526],[104.8786425,15.2466136],[104.8776555,15.2431977],[104.8802089,15.2418313],[104.8809385,15.2381254],[104.8873758,15.2377114],[104.8892426,15.2368211],[104.8929775,15.2329815],[104.8913588,15.2327046],[104.8898981,15.2319422],[104.884184,15.2276804],[104.8796989,15.224893],[104.8745161,15.2228665],[104.8713027,15.2219988],[104.864657,15.2211848],[104.8634314,15.2214997],[104.8576997,15.2216945],[104.8534636,15.2226199],[104.8518987,15.2223152],[104.8502627,15.2207043],[104.8485607,15.216394],[104.8458939,15.2118683],[104.8443847,15.2099282],[104.8426985,15.2084318],[104.8420869,15.2094292],[104.8395856,15.2109267],[104.8387327,15.2121612],[104.8377034,15.2159923],[104.8363212,15.218447],[104.8339096,15.2208733],[104.8335126,15.2231719],[104.8344537,15.2295426],[104.8345566,15.238552],[104.8321156,15.2419002],[104.8250279,15.2476887]]]}}]}