{"type":"FeatureCollection","features":[{"type":"Feature","properties":{"provinceCode":"75","nameTh":"สมุทรสงคราม","nameEn":"Samut Songkhram"},"geometry":{"type":"Polygon","coordinates":[[[100.0291313,13.5087752],[100.0343298,13.5051155],[100.0425534,13.5037056],[100.0419873,13.4986475],[100.0464862,13.4970325],[100.0733223,13.4563464],[100.0784732,13.4375313],[100.0787728,13.4253678],[100.1623,13.2198305],[99.9538841,13.2971092],[99.9429593,13.2958586],[99.9358279,13.2930745],[99.9333233,13.2883286],[99.9339146,13.2851475],[99.926446,13.2829751],[99.9229111,13.2839806],[99.9211076,13.28237],[99.9184373,13.2851849],[99.9146998,13.2819045],[99.9115267,13.2808486],[99.9096036,13.2821167],[99.9074907,13.2773273],[99.909308,13.2741894],[99.9080479,13.271215],[99.9099655,13.2706489],[99.9107686,13.2679181],[99.9078055,13.2639314],[99.8991436,13.2672138],[99.8934582,13.2660917],[99.8921579,13.2638472],[99.8900633,13.2649253],[99.8885145,13.2633699],[99.8865525,13.2638524],[99.8863335,13.2607729],[99.8842178,13.2609903],[99.8814779,13.2584993],[99.8847914,13.2526614],[99.8873378,13.2524422],[99.8871857,13.2508056],[99.8911499,13.2483279],[99.8932492,13.2444543],[99.892323,13.2429972],[99.8897179,13.2420946],[99.8885741,13.2444392],[99.8827459,13.2468931],[99.8806117,13.2497021],[99.8776215,13.249774],[99.8771995,13.2512899],[99.8704253,13.2498906],[99.8678094,13.2474722],[99.8656874,13.2479989],[99.860351,13.2444222],[99.8523018,13.3071446],[99.8548113,13.3262261],[99.860156,13.3390444],[99.858841,13.3410616],[99.8696738,13.3826211],[99.8914073,13.4325293],[99.8909277,13.449235],[99.8874945,13.4549966],[99.8911989,13.4651393],[99.8892365,13.4700861],[99.8954091,13.4746995],[99.8965204,13.4775142],[99.8954245,13.4815695],[99.8999684,13.4889994],[99.9130485,13.4965986],[99.9146317,13.4994338],[99.9190755,13.5006572],[99.913208,13.5108063],[99.9253318,13.5151994],[99.9341388,13.5023879],[99.9560929,13.5017771],[99.9566756,13.4989302],[99.9551833,13.4974394],[99.9606883,13.4974601],[99.9665698,13.4855042],[99.9682581,13.4863151],[99.9684823,13.4905487],[99.9738895,13.4900825],[99.9898326,13.5013601],[99.9889571,13.5042444],[99.9903216,13.5050755],[99.9916754,13.5025405],[99.9933017,13.5036692],[99.995786,13.5019629],[99.9964889,13.5030707],[99.9990923,13.5009265],[100.0085996,13.5162492],[100.0116642,13.5122593],[100.024286,13.5067037],[100.0291313,13.5087752]]]}}]}