{"type":"FeatureCollection","features":[{"type":"Feature","properties":{"provinceCode":"31","nameTh":"บุรีรัมย์","nameEn":"Buri Ram"},"geometry":{"type":"Polygon","coordinates":[[[103.2706518,14.7158474],[103.2679709,14.7164922],[103.2674685,14.7183432],[103.2653845,14.7177827],[103.2668423,14.7160114],[103.2658359,14.7142968],[103.2688949,14.7114043],[103.2666544,14.7074863],[103.2676479,14.705751],[103.2695958,14.7062316],[103.2687877,14.7007347],[103.2664596,14.6986384],[103.2657542,14.6936933],[103.2584501,14.6897657],[103.257765,14.6870471],[103.2584492,14.6858437],[103.260849,14.6870285],[103.2617936,14.6848622],[103.2598624,14.6828371],[103.2614677,14.6817318],[103.2566477,14.6825737],[103.2582906,14.6797676],[103.2568865,14.6778774],[103.2584596,14.6780746],[103.2567671,14.6746302],[103.2596746,14.6711065],[103.2527894,14.6691241],[103.2543625,14.6677683],[103.2541345,14.665289],[103.2525399,14.6637684],[103.249847,14.665276],[103.2488344,14.6600876],[103.2449466,14.6590146],[103.242892,14.6500257],[103.2391316,14.6508301],[103.237482,14.6484998],[103.2339375,14.6480178],[103.2335674,14.6428679],[103.2305311,14.6421802],[103.2295065,14.6393333],[103.2303474,14.6323899],[103.2345954,14.6293753],[103.2343152,14.6263097],[103.2365548,14.6249489],[103.2354198,14.624168],[103.2385392,14.6176491],[103.2360961,14.6160311],[103.232448,14.6081667],[103.2288347,14.6096735],[103.22869,14.6078724],[103.2264464,14.6088311],[103.2256596,14.6065358],[103.2224549,14.6068371],[103.2221515,14.6024713],[103.2208191,14.6015649],[103.2227106,14.6005025],[103.2187515,14.6005823],[103.2177836,14.5970948],[103.2161905,14.5973181],[103.2150514,14.5940653],[103.2129901,14.5941409],[103.2140215,14.5898419],[103.2117876,14.5872869],[103.2119464,14.5814045],[103.2103645,14.58039],[103.2105283,14.575116],[103.2139269,14.5759661],[103.2160847,14.5690215],[103.2175114,14.5690476],[103.2168526,14.5677313],[103.2221903,14.5650518],[103.2198486,14.5567934],[103.2206921,14.5521195],[103.222112,14.5513902],[103.2211889,14.549145],[103.2232505,14.546629],[103.2205043,14.543841],[103.2175,14.5456802],[103.2174769,14.5443364],[103.213628,14.5448081],[103.2109998,14.5423695],[103.2129908,14.5322512],[103.2148121,14.5304949],[103.2128598,14.5297459],[103.2133044,14.5274706],[103.2162288,14.5259907],[103.2155247,14.5234813],[103.2196277,14.5207344],[103.2210351,14.5178078],[103.2206537,14.5154255],[103.2187099,14.515186],[103.2171415,14.5123507],[103.2180607,14.5082518],[103.2136558,14.5050169],[103.2153308,14.5005023],[103.2177164,14.4993944],[103.2194045,14.5003663],[103.2201582,14.4985669],[103.2218382,14.4995429],[103.2220253,14.4975708],[103.2258429,14.495243],[103.223999,14.4903521],[103.2346893,14.4827318],[103.2334737,14.4810317],[103.2355893,14.4803799],[103.2341806,14.4762685],[103.2354008,14.4736683],[103.2337577,14.4681345],[103.2359581,14.4669171],[103.2357093,14.4637489],[103.2396127,14.4616228],[103.2389026,14.4523464],[103.2447787,14.4479267],[103.2466563,14.4417533],[103.2436371,14.4397905],[103.2454212,14.437103],[103.2451566,14.4306633],[103.2387257,14.4207936],[103.235788,14.4107402],[103.2312453,14.4081857],[103.2216554,14.4068587],[103.2225921,14.4055561],[103.220457,14.4030873],[103.2245295,14.3977257],[103.2320604,14.3957645],[103.2341536,14.39338],[103.2295883,14.3839512],[103.2259583,14.3812932],[103.2241001,14.3819684],[103.2213832,14.3785882],[103.2210644,14.3747207],[103.2229799,14.3698564],[103.2192617,14.3595933],[103.2233907,14.3530955],[103.2208808,14.349361],[103.2231687,14.3403252],[103.2259732,14.3376157],[103.2261993,14.3267099],[103.2189296,14.3235903],[103.214636,14.328129],[103.2029195,14.326973],[103.1883879,14.334452],[103.1688132,14.3348519],[103.1613223,14.3309824],[103.1536104,14.3138719],[103.1465385,14.3248484],[103.1419206,14.3263238],[103.1286138,14.3198343],[103.1283598,14.3130463],[103.130606,14.3066293],[103.1240909,14.3026828],[103.1152844,14.2996184],[103.0984233,14.2995067],[103.0884268,14.2960704],[103.083529,14.2965099],[103.0791235,14.2938773],[103.0738832,14.2858358],[103.0572852,14.2850322],[103.055573,14.2813356],[103.0568556,14.2743196],[103.0381981,14.2517524],[103.0318699,14.2502283],[103.0331698,14.2390512],[103.0220781,14.2285059],[103.0170912,14.2312311],[103.0132755,14.2308243],[103.0097877,14.2241813],[102.9972019,14.2135188],[102.9895538,14.2131394],[102.9861041,14.2148873],[102.9715769,14.2104822],[102.9635334,14.2124189],[102.9539741,14.2083069],[102.9518635,14.2050909],[102.9558603,14.2006384],[102.9561679,14.1967371],[102.9512624,14.1960062],[102.9447111,14.1985029],[102.9388319,14.19539],[102.9408106,14.1861953],[102.9364765,14.1800807],[102.9267508,14.1729033],[102.9046225,14.1645917],[102.8969085,14.1636971],[102.8937542,14.1660585],[102.8909325,14.1725808],[102.882446,14.1758887],[102.8786588,14.1757327],[102.8729296,14.1681598],[102.8734445,14.1503501],[102.8731441,14.1477076],[102.8714061,14.1466881],[102.8597116,14.1490184],[102.8483927,14.1581836],[102.8415477,14.1570289],[102.8381681,14.1630729],[102.8306579,14.1675981],[102.8289628,14.1650078],[102.832557,14.1597336],[102.8318918,14.1578299],[102.8293061,14.1577467],[102.8175688,14.1665058],[102.8150534,14.1701927],[102.8123406,14.1607168],[102.8033671,14.1573622],[102.7925273,14.160563],[102.7821485,14.1524384],[102.7775376,14.1551822],[102.7673932,14.1413911],[102.7625032,14.138476],[102.7553961,14.1370191],[102.7443168,14.1391401],[102.7278547,14.1384764],[102.6967012,14.1300799],[102.6882084,14.1344657],[102.6910019,14.1425191],[102.6891604,14.1470506],[102.6684711,14.1586619],[102.6605166,14.1541426],[102.6555452,14.1599785],[102.6542755,14.1651095],[102.6525877,14.1652451],[102.6445724,14.1604156],[102.6383999,14.1498057],[102.6335782,14.1488983],[102.6270034,14.1527589],[102.6127569,14.1695885],[102.6081278,14.1714898],[102.5926705,14.1667077],[102.5866046,14.1576788],[102.5685237,14.1490856],[102.5502245,14.134842],[102.5332007,14.137705],[102.5255101,14.1426137],[102.5213531,14.1433599],[102.5161436,14.1412953],[102.5079899,14.133102],[102.5028969,14.1322681],[102.498698,14.1366437],[102.491955,14.1357011],[102.4885758,14.140443],[102.4830026,14.142473],[102.4770974,14.1354247],[102.476251,14.1320497],[102.4725558,14.1313273],[102.4604235,14.1366067],[102.4560922,14.1361898],[102.4546626,14.1421408],[102.4528541,14.1437678],[102.4483252,14.1417227],[102.443074,14.1436871],[102.4383555,14.1433753],[102.4329554,14.1473018],[102.432931,14.1521471],[102.4386605,14.1621707],[102.438311,14.1671454],[102.4400152,14.1722631],[102.45318,14.1937294],[102.468838,14.1919099],[102.4738055,14.1990123],[102.4769364,14.200028],[102.4863316,14.1893315],[102.4988192,14.1860753],[102.5040957,14.1886942],[102.5121782,14.2012171],[102.5383211,14.2021696],[102.5423129,14.2057759],[102.5487388,14.2166005],[102.5578107,14.2176311],[102.5779026,14.2267309],[102.588986,14.2362678],[102.6002272,14.2422801],[102.6133196,14.2560908],[102.6264883,14.266201],[102.6466072,14.278492],[102.6585396,14.2821942],[102.6862954,14.2991738],[102.6772543,14.302244],[102.6725964,14.3097728],[102.665877,14.3166789],[102.6427991,14.3266047],[102.6332877,14.3265776],[102.6208143,14.3198189],[102.6026613,14.3225171],[102.5981619,14.3281661],[102.5894278,14.3324051],[102.5872563,14.3350704],[102.5883331,14.348427],[102.5834629,14.3579775],[102.5740921,14.3630156],[102.5691386,14.3624981],[102.5629427,14.3751354],[102.5622295,14.385703],[102.5637772,14.3979685],[102.5693398,14.4151487],[102.5694626,14.4267162],[102.5833751,14.4457264],[102.5993837,14.4476009],[102.6013091,14.4563831],[102.6049859,14.4593239],[102.6071074,14.4649859],[102.6105985,14.4940871],[102.6014875,14.4966705],[102.5733177,14.4988013],[102.530707,14.5062686],[102.5108316,14.5066605],[102.4933402,14.5046678],[102.4870359,14.5072007],[102.481348,14.5119687],[102.4835116,14.5224049],[102.4914043,14.5324913],[102.4938378,14.5424523],[102.4932055,14.5527329],[102.4948719,14.5584308],[102.4936414,14.5606806],[102.4955017,14.5648021],[102.4832551,14.571089],[102.4666764,14.5860971],[102.471113,14.5914118],[102.4711515,14.6145456],[102.4746991,14.6316653],[102.4754585,14.6553887],[102.469198,14.6754643],[102.4683465,14.6835134],[102.4600646,14.699059],[102.460109,14.7085761],[102.4621678,14.7151995],[102.4677226,14.7224079],[102.474711,14.7273885],[102.4769059,14.7318516],[102.4764166,14.7492408],[102.4724032,14.763253],[102.4693577,14.7645321],[102.4681547,14.7627774],[102.4674081,14.7640701],[102.4600626,14.765323],[102.4597936,14.7667942],[102.4562215,14.7665981],[102.4542954,14.7694199],[102.4523558,14.7692584],[102.4468868,14.7782844],[102.4438357,14.7792595],[102.4458957,14.7856376],[102.4400535,14.7965265],[102.4397003,14.802],[102.4451732,14.8014447],[102.447051,14.8197093],[102.4489599,14.8236209],[102.4578993,14.8350979],[102.4707314,14.8166653],[102.5020369,14.8022443],[102.5092863,14.8057179],[102.5179741,14.8066276],[102.5331813,14.8132942],[102.5384407,14.8234684],[102.541315,14.8254602],[102.5411999,14.8295056],[102.5493838,14.8450148],[102.5501486,14.8486377],[102.547859,14.8548207],[102.5507567,14.8554657],[102.5524716,14.8623188],[102.5528158,14.8657788],[102.5468555,14.8677943],[102.5455367,14.8702548],[102.5457013,14.8741059],[102.5507601,14.8810245],[102.5456219,14.8875901],[102.5407101,14.8888715],[102.5421327,14.8963238],[102.5439825,14.8959049],[102.5458709,14.899711],[102.5460021,14.9027372],[102.5438608,14.9043687],[102.5572876,14.9108455],[102.5614941,14.9178],[102.561115,14.9195451],[102.5676054,14.9273189],[102.5654177,14.9306511],[102.5655875,14.9352383],[102.5635336,14.9377322],[102.5520258,14.9409487],[102.5457876,14.9468773],[102.5583172,14.9567224],[102.5703596,14.9578561],[102.6008187,14.9353715],[102.6371788,14.9360307],[102.6966125,14.9337202],[102.7094752,14.9565977],[102.710512,14.979628],[102.7139632,14.9852001],[102.7204604,14.9861815],[102.7293791,14.9955862],[102.7333298,14.9961218],[102.7339112,14.9979897],[102.7374605,14.9996849],[102.7368716,15.0010793],[102.7813056,15.0123376],[102.7790547,15.0212832],[102.7798025,15.0254958],[102.8008955,15.03727],[102.8025891,15.0398274],[102.8046471,15.0398084],[102.7962023,15.0453378],[102.7967174,15.0485982],[102.798801,15.0490634],[102.7927565,15.0509127],[102.7898738,15.0557339],[102.7884813,15.0554112],[102.7892416,15.0532181],[102.7867603,15.0525324],[102.7859298,15.0572598],[102.7878005,15.0597023],[102.7850304,15.0617694],[102.7855682,15.0638613],[102.7825608,15.0625667],[102.7836251,15.0649016],[102.7817023,15.0661514],[102.7850763,15.0674177],[102.7850304,15.0691427],[102.7781058,15.0691815],[102.775122,15.0656556],[102.7742499,15.0712931],[102.7705108,15.0730754],[102.7716296,15.0754828],[102.7695978,15.0752225],[102.7673356,15.0715262],[102.7644155,15.0719493],[102.7650249,15.0774835],[102.7613025,15.0782824],[102.7626604,15.0809652],[102.7640684,15.0802843],[102.766388,15.0828612],[102.7691002,15.0828336],[102.7800041,15.0902487],[102.7870962,15.101504],[102.7865824,15.1043361],[102.7939214,15.1101512],[102.7966264,15.1155948],[102.8081762,15.127418],[102.8094618,15.1348566],[102.8159857,15.1373011],[102.8166206,15.1426134],[102.8219574,15.1467489],[102.8236956,15.1550489],[102.8273528,15.1566898],[102.8362187,15.1570498],[102.8404253,15.1620455],[102.8466391,15.1659934],[102.8469789,15.1689286],[102.8547216,15.1692964],[102.8550154,15.1657558],[102.8600157,15.1661148],[102.8657496,15.1642204],[102.8702465,15.1677103],[102.8714868,15.1714879],[102.8747773,15.1705817],[102.8779868,15.1760313],[102.8871606,15.1846727],[102.8895626,15.1850378],[102.8896432,15.1826868],[102.8965451,15.1788652],[102.8989385,15.1754268],[102.9024705,15.1796023],[102.9081034,15.1811482],[102.9082113,15.1841952],[102.917311,15.188292],[102.9173892,15.1823973],[102.9226532,15.1829866],[102.9230352,15.1850946],[102.9284797,15.1852752],[102.9297931,15.1825028],[102.9321592,15.1821498],[102.93768,15.1832311],[102.946937,15.1889552],[102.953405,15.1891313],[102.9615087,15.192995],[102.9656049,15.1921782],[102.9745626,15.2069238],[102.9616299,15.2156556],[102.9590158,15.2194663],[102.9608985,15.2382133],[102.9567409,15.252152],[102.960733,15.2583873],[102.9608734,15.2636499],[102.9555741,15.2691701],[102.9551142,15.2723453],[102.9678785,15.2909394],[102.9647425,15.297756],[102.9530184,15.3085346],[102.952112,15.3129994],[102.9544632,15.3154586],[102.9582028,15.3147047],[102.9589617,15.3167529],[102.9647694,15.3154625],[102.9680015,15.3176817],[102.9743352,15.3180866],[102.9766715,15.3206641],[102.984832,15.3216083],[102.9837915,15.3338748],[102.9801572,15.3346695],[102.9787135,15.3366636],[102.9791213,15.3419288],[102.9774121,15.3440712],[102.9856693,15.3610446],[102.9863581,15.3739473],[102.9700889,15.3748807],[102.9625162,15.3774948],[102.9550974,15.382734],[102.952576,15.3943966],[102.9539245,15.3998825],[102.951835,15.4009682],[102.9517385,15.4035756],[102.9565191,15.4059503],[102.9572379,15.4105445],[102.9598622,15.410322],[102.9617822,15.4067393],[102.9578311,15.4050141],[102.9580714,15.4034756],[102.9619412,15.4034751],[102.9640365,15.4065747],[102.9670584,15.4075193],[102.9647389,15.4091378],[102.9667076,15.4116096],[102.9664353,15.4172757],[102.9647194,15.4192734],[102.970474,15.4196418],[102.9702214,15.4265674],[102.9764879,15.4294421],[102.979342,15.4280581],[102.9792079,15.4238051],[102.9762806,15.4211149],[102.9781501,15.4169844],[102.9833813,15.4167834],[102.9835909,15.4194323],[102.9800419,15.4242186],[102.9810758,15.426767],[102.9835966,15.426906],[102.9888363,15.4227493],[102.9859659,15.4181855],[102.9934035,15.414392],[103.0014181,15.4278605],[103.0124451,15.4297003],[103.0116251,15.432384],[103.0066047,15.4332176],[103.0100693,15.4365086],[103.0097997,15.4381221],[103.0058797,15.4389084],[103.0006069,15.4498221],[102.995937,15.4526685],[102.9943408,15.4570999],[102.9976902,15.459452],[102.9936669,15.4625435],[102.9932381,15.4688873],[102.9904495,15.4666381],[102.985118,15.4669122],[102.978341,15.4821817],[102.9750607,15.4811017],[102.9746484,15.4779695],[102.9724347,15.4769912],[102.9671677,15.4779757],[102.9662121,15.4852191],[102.9612329,15.4847531],[102.9581552,15.483128],[102.9609732,15.4815255],[102.9608828,15.4790923],[102.9541393,15.4783247],[102.9523816,15.4794934],[102.9505229,15.4770798],[102.9481726,15.4785755],[102.9490055,15.4817684],[102.9464682,15.4827628],[102.9433677,15.4815086],[102.9443883,15.477182],[102.9423732,15.4792256],[102.9406328,15.4780392],[102.9424662,15.4762872],[102.9417733,15.4751729],[102.9368412,15.4764088],[102.9364714,15.4786847],[102.9394714,15.4800944],[102.9396908,15.4852753],[102.9451375,15.488227],[102.9392293,15.4970193],[102.9372071,15.4958903],[102.9388396,15.4924432],[102.9370969,15.4913863],[102.9338683,15.4923489],[102.9337855,15.4885038],[102.9309691,15.4881592],[102.9279017,15.4908182],[102.9293313,15.4923815],[102.9285294,15.4946103],[102.9226134,15.4978639],[102.9228088,15.5018996],[102.9260764,15.5014082],[102.926542,15.5045003],[102.9286153,15.502297],[102.9308251,15.5023203],[102.9320531,15.5055215],[102.9258911,15.5105951],[102.9229373,15.5107675],[102.918488,15.5062396],[102.9132179,15.5074356],[102.9098992,15.5094394],[102.909356,15.5130212],[102.9108441,15.5155753],[102.9078449,15.5151553],[102.8953282,15.5217929],[102.8894993,15.5169664],[102.8906148,15.5137933],[102.8878708,15.5137388],[102.8860676,15.5154287],[102.8873206,15.5166804],[102.8842546,15.5184349],[102.8876716,15.5200903],[102.8825452,15.5231009],[102.8770901,15.5215455],[102.8773982,15.5196251],[102.8715552,15.5201689],[102.8734291,15.512078],[102.871361,15.5139271],[102.8665694,15.5128298],[102.8667695,15.5106154],[102.8643546,15.5080757],[102.8624467,15.5083996],[102.8610955,15.5122559],[102.8586264,15.512166],[102.8583879,15.5141067],[102.8543175,15.5138268],[102.852602,15.5108512],[102.8500042,15.5114492],[102.8508206,15.5132908],[102.8460011,15.512334],[102.8384063,15.5136242],[102.8380787,15.5152598],[102.8362506,15.5151827],[102.83654,15.5170119],[102.8334372,15.5145909],[102.8311097,15.5159695],[102.8336195,15.5111242],[102.831549,15.5115429],[102.8298716,15.5094713],[102.8299316,15.5053637],[102.829224,15.5074093],[102.8258547,15.5088121],[102.8274211,15.5096608],[102.8254278,15.5110091],[102.8268687,15.5121123],[102.8254115,15.5140811],[102.8204551,15.5120383],[102.8148951,15.5128752],[102.8143231,15.5142102],[102.8155002,15.5141954],[102.8128729,15.5178934],[102.8139469,15.5206501],[102.8109746,15.5224385],[102.8120952,15.524588],[102.8098002,15.5260548],[102.808062,15.5250763],[102.8067617,15.5272049],[102.8051321,15.5267716],[102.8046932,15.5287865],[102.8032184,15.5269727],[102.801844,15.5295146],[102.8002582,15.52795],[102.800207,15.5303471],[102.798284,15.5296716],[102.7966238,15.531279],[102.7989236,15.5350728],[102.7970371,15.5375048],[102.798981,15.5396863],[102.7957662,15.5392055],[102.7969437,15.5418877],[102.7943421,15.5411933],[102.7926099,15.5424152],[102.7962114,15.5461201],[102.7936431,15.5447536],[102.7929517,15.5478375],[102.7907453,15.5459934],[102.7893829,15.5467914],[102.7902423,15.5526866],[102.7930833,15.553165],[102.7925679,15.5565626],[102.7883842,15.5547291],[102.7860682,15.5557867],[102.7865017,15.5578919],[102.7838607,15.5586091],[102.7864226,15.5596265],[102.7818376,15.5610993],[102.7805212,15.5636413],[102.7808249,15.5692574],[102.7826981,15.567269],[102.7822721,15.5692018],[102.7852596,15.5707912],[102.7803406,15.5737847],[102.7846289,15.5752023],[102.7849013,15.5782354],[102.7832894,15.5779393],[102.7812997,15.5805193],[102.7821833,15.5835744],[102.784355,15.5848403],[102.7809208,15.5878653],[102.7826745,15.5914693],[102.7803525,15.5906357],[102.7769782,15.5922835],[102.7784718,15.598567],[102.7801521,15.599038],[102.7800246,15.6029155],[102.7775204,15.6043852],[102.7768805,15.6088992],[102.7750568,15.6089755],[102.7768295,15.610333],[102.7752825,15.6122567],[102.7761246,15.6136516],[102.7730104,15.6149628],[102.7728665,15.6175874],[102.7698735,15.6175683],[102.7713354,15.6218345],[102.7671419,15.6263267],[102.773815,15.6294857],[102.7725549,15.6315482],[102.7747908,15.632137],[102.7740873,15.6337929],[102.7858647,15.6327292],[102.7872778,15.6369225],[102.7936211,15.6371713],[102.8060454,15.632746],[102.8370686,15.63667],[102.8552874,15.6361269],[102.8635115,15.6511359],[102.8675917,15.6528587],[102.8678907,15.65767],[102.8703688,15.6585686],[102.8721579,15.6630539],[102.8767565,15.6660727],[102.8824969,15.6645583],[102.8835341,15.6724871],[102.8749684,15.6753545],[102.8737975,15.6810975],[102.8697883,15.6828765],[102.8688585,15.6866836],[102.8708392,15.689965],[102.8693402,15.6958038],[102.8763841,15.706311],[102.8768982,15.7170747],[102.8746049,15.7192814],[102.8765895,15.7216938],[102.8764705,15.7265061],[102.8737933,15.7266663],[102.8767296,15.7280023],[102.8738641,15.738498],[102.8808749,15.7466587],[102.878842,15.751976],[102.8810762,15.7558808],[102.877259,15.7642592],[102.8773987,15.7716172],[102.883444,15.7717176],[102.884573,15.773834],[102.8832262,15.7754434],[102.8855063,15.7780498],[102.8915711,15.7778399],[102.8917819,15.7815402],[102.8957505,15.7829681],[102.8973693,15.7857315],[102.9053775,15.7838453],[102.9058885,15.7871474],[102.9153326,15.7895793],[102.9171784,15.7918355],[102.9251747,15.7952915],[102.9304627,15.7958261],[102.9288083,15.7934577],[102.929052,15.7924077],[102.9333077,15.7949442],[102.9325683,15.7897427],[102.9397845,15.7843297],[102.940518,15.7802774],[102.9377838,15.7762191],[102.9413433,15.7661281],[102.9463821,15.7652948],[102.9487511,15.7627738],[102.9519489,15.7629694],[102.9538716,15.7595818],[102.9552049,15.760858],[102.9568653,15.7591501],[102.9621182,15.7603071],[102.9675303,15.7550453],[102.96828,15.7569493],[102.9710253,15.7573131],[102.9734349,15.7523258],[102.9767245,15.753605],[102.9766279,15.7516275],[102.9793609,15.7506634],[102.9777663,15.7463649],[102.9801267,15.7417983],[102.9820289,15.7408621],[102.983156,15.7419872],[102.9847229,15.7381816],[102.9873157,15.7370018],[102.9860712,15.7343019],[102.9881479,15.7327915],[102.9914647,15.7338167],[102.9923241,15.732287],[102.9935751,15.7350015],[102.9969373,15.7341346],[102.997191,15.7325137],[102.9984678,15.7339054],[103.0017929,15.7314452],[103.0021286,15.7291007],[103.0054122,15.7286388],[103.0053688,15.721163],[103.0025864,15.7178297],[103.0065881,15.7164726],[103.0053449,15.7149759],[103.0077798,15.7134368],[103.0056812,15.7132475],[103.0061075,15.7082346],[103.0084213,15.709343],[103.0101707,15.7063696],[103.0089285,15.7048408],[103.0111148,15.7035488],[103.006273,15.6998178],[103.0059439,15.6974332],[103.0081119,15.6957078],[103.0065597,15.693975],[103.0073184,15.6890804],[103.0059405,15.6894207],[103.0052598,15.6852195],[103.002665,15.6828953],[103.0001727,15.6836637],[102.9971906,15.6819761],[102.9944481,15.6787015],[102.9911991,15.6777253],[102.9912231,15.6761637],[102.9894974,15.677527],[102.9894745,15.6746522],[102.9870528,15.6743292],[102.9852804,15.6764239],[102.9837202,15.6745931],[102.9827448,15.6760347],[102.9799796,15.6711271],[102.9758117,15.671012],[102.9763042,15.6685693],[102.9726304,15.6678933],[102.9753988,15.6638868],[102.9744937,15.6607862],[102.9772186,15.6602396],[102.9760333,15.658747],[102.976836,15.6569188],[102.980014,15.6582487],[102.9795275,15.6554364],[102.9820057,15.6572163],[102.9863634,15.6506908],[102.9886594,15.6511541],[102.9877102,15.6497113],[102.9888928,15.6471744],[102.9947599,15.6481608],[102.9957632,15.6436645],[102.9939108,15.6429708],[102.9927308,15.639794],[102.9955316,15.6391622],[102.9966427,15.6406716],[103.005649,15.633839],[103.005167,15.6302417],[103.0124066,15.6283542],[103.0121689,15.6264621],[103.0102574,15.6263006],[103.0130474,15.6232058],[103.0127647,15.6152088],[103.0153224,15.6169336],[103.0156669,15.6133916],[103.0220095,15.6084172],[103.0212488,15.6049797],[103.0239337,15.6049326],[103.0249116,15.602986],[103.0274155,15.6039942],[103.0259432,15.6003693],[103.0294871,15.59875],[103.033958,15.6005591],[103.0344327,15.5980673],[103.0399389,15.5992624],[103.0414675,15.5974546],[103.0451597,15.5979984],[103.0454144,15.5933128],[103.0490891,15.5926437],[103.0497343,15.595661],[103.0508693,15.5928507],[103.0527679,15.5927024],[103.0539833,15.5895948],[103.0514563,15.5889689],[103.0516684,15.5859169],[103.0478384,15.5820759],[103.0463719,15.5771509],[103.0479849,15.5759974],[103.0495969,15.5774586],[103.0502011,15.5759193],[103.0451293,15.5735624],[103.0476999,15.5698542],[103.0466003,15.5687964],[103.0487671,15.5676195],[103.0459694,15.5643508],[103.0500541,15.5635454],[103.0512007,15.560784],[103.0541866,15.5615204],[103.0549988,15.5605309],[103.0524667,15.5575393],[103.057507,15.5589891],[103.0608926,15.5577742],[103.0610911,15.5537822],[103.0642769,15.5543294],[103.0669452,15.5529216],[103.0770315,15.5449364],[103.077371,15.5425378],[103.0811239,15.5427276],[103.0795968,15.545853],[103.0809016,15.5469603],[103.0836852,15.5414947],[103.0873002,15.5384108],[103.0877959,15.5351492],[103.0905893,15.5333557],[103.0905036,15.5306439],[103.0875794,15.528459],[103.0888524,15.525621],[103.0829513,15.5272798],[103.0848636,15.5222637],[103.0820076,15.5203048],[103.0842196,15.5197578],[103.0839533,15.5175083],[103.0813391,15.5181197],[103.0794948,15.5136514],[103.0780491,15.5154758],[103.074832,15.5128728],[103.0720643,15.5031025],[103.0740205,15.4995508],[103.0725082,15.4991032],[103.0728057,15.4975847],[103.0760293,15.4967684],[103.0777758,15.4992901],[103.0773988,15.4951246],[103.0786902,15.4933556],[103.0820489,15.4949313],[103.0915177,15.4883067],[103.1108787,15.4842604],[103.1096382,15.4827712],[103.1113517,15.4830539],[103.1135882,15.4777899],[103.1112629,15.4776417],[103.1155118,15.4672392],[103.1106085,15.466299],[103.1103586,15.4649908],[103.1092032,15.4660352],[103.1088898,15.4639412],[103.1072298,15.4637809],[103.1057797,15.4573532],[103.1107563,15.4506339],[103.1065245,15.4470215],[103.1081187,15.4457361],[103.1066356,15.4447875],[103.1071757,15.4421213],[103.1056484,15.439603],[103.1040957,15.4399023],[103.1018503,15.4355735],[103.1005843,15.4356195],[103.1006835,15.4300734],[103.0949191,15.4281855],[103.0903853,15.4244957],[103.0899022,15.4194803],[103.1077401,15.4088759],[103.1138719,15.4099149],[103.1152469,15.4033944],[103.1175138,15.4019254],[103.1252723,15.4015761],[103.1274395,15.4030241],[103.1301217,15.4006451],[103.1351374,15.4005944],[103.1362586,15.4044722],[103.1330185,15.4085061],[103.1367671,15.4123786],[103.1391339,15.4115666],[103.146128,15.4018657],[103.1443256,15.3965283],[103.1409771,15.3946458],[103.1413205,15.3883566],[103.1456978,15.3871153],[103.1482899,15.38143],[103.1495827,15.3817776],[103.1500977,15.3857498],[103.1542981,15.384554],[103.1535524,15.3809293],[103.1553709,15.3788852],[103.1536597,15.3778466],[103.1499046,15.3788811],[103.1477535,15.3762577],[103.1496471,15.3735018],[103.1551615,15.3740559],[103.1566856,15.3729122],[103.1577906,15.3676259],[103.1549115,15.3663032],[103.1551583,15.3646273],[103.163913,15.3643894],[103.1626401,15.3607669],[103.1586452,15.3619582],[103.1585953,15.3569804],[103.1561775,15.35453],[103.1565423,15.3524918],[103.1629512,15.3534111],[103.1660411,15.3581287],[103.1696487,15.3597447],[103.1708154,15.3635809],[103.173923,15.3631169],[103.1763622,15.3593185],[103.1783578,15.3595254],[103.1800208,15.3618118],[103.1789693,15.3662707],[103.1817014,15.3681137],[103.1906171,15.3645756],[103.1944258,15.3657343],[103.1974085,15.3622996],[103.1966076,15.3582839],[103.1936357,15.3579115],[103.1893441,15.3602496],[103.1872375,15.3578717],[103.1926127,15.352947],[103.1970904,15.3350979],[103.2010064,15.3361637],[103.2016823,15.3429717],[103.2070896,15.3392884],[103.2099435,15.3423717],[103.2122609,15.3426924],[103.213609,15.3405108],[103.2104225,15.3365067],[103.2102976,15.3310626],[103.2125399,15.3310626],[103.2174966,15.3356153],[103.2235648,15.3306105],[103.2227392,15.3277428],[103.2187837,15.3284541],[103.2218307,15.3243783],[103.2188051,15.3227641],[103.219215,15.3212989],[103.2256947,15.3230786],[103.2281612,15.3213154],[103.2276908,15.3179152],[103.2306718,15.3171764],[103.231809,15.318356],[103.2298135,15.3225985],[103.2320896,15.3243203],[103.2343446,15.3200883],[103.2446147,15.3172398],[103.2505192,15.3209589],[103.2526182,15.320702],[103.2540939,15.3133454],[103.248547,15.3090436],[103.2484201,15.3070356],[103.2498097,15.3066243],[103.256362,15.3098285],[103.2597286,15.3138824],[103.2634877,15.3132553],[103.266242,15.3108742],[103.2652102,15.3157826],[103.2679876,15.3178776],[103.275957,15.3181643],[103.2753347,15.3156715],[103.2769419,15.3140459],[103.2860164,15.3168605],[103.2864316,15.3147319],[103.280681,15.3070804],[103.281767,15.3046164],[103.2881284,15.3027052],[103.2888364,15.2985984],[103.2955696,15.3027619],[103.3059784,15.3191946],[103.3158314,15.3180662],[103.3167551,15.3224018],[103.3136145,15.3273313],[103.3203883,15.3276876],[103.3242679,15.3333296],[103.329687,15.331251],[103.3271006,15.3358833],[103.3282091,15.3373086],[103.3378773,15.3350519],[103.3397247,15.3359427],[103.3408332,15.342891],[103.3423111,15.3438412],[103.3448975,15.3403374],[103.347607,15.339209],[103.3501319,15.340278],[103.3480997,15.3460384],[103.3494545,15.3472855],[103.3531493,15.3444944],[103.3615243,15.3451476],[103.3604774,15.3383182],[103.3656502,15.3377837],[103.3711925,15.3402186],[103.3745178,15.3392684],[103.3774737,15.3370117],[103.3807375,15.329113],[103.3876345,15.3244211],[103.3857255,15.3205013],[103.3863413,15.3184819],[103.3960711,15.3136116],[103.4005973,15.3145619],[103.4038993,15.3085192],[103.4066938,15.3099292],[103.4089723,15.3141462],[103.411066,15.3143244],[103.4132829,15.3105231],[103.4146993,15.3105231],[103.4168546,15.3159874],[103.4188868,15.3167001],[103.424737,15.3155716],[103.4259686,15.3090976],[103.429725,15.3087412],[103.4312645,15.315928],[103.4288013,15.3209764],[103.4354212,15.32258],[103.4352981,15.3259653],[103.4324653,15.3292912],[103.4357907,15.3353488],[103.4389929,15.3354676],[103.4411482,15.331251],[103.4429341,15.3306571],[103.4510012,15.335527],[103.4490921,15.3378431],[103.4422567,15.3381401],[103.4415177,15.3403374],[103.4453357,15.345207],[103.4514322,15.3437224],[103.4517765,15.337987],[103.4534086,15.3368328],[103.4591517,15.3353999],[103.4644767,15.3397109],[103.4660342,15.3367306],[103.4693804,15.3385713],[103.4720425,15.3371009],[103.4722889,15.3312452],[103.474507,15.328932],[103.4687618,15.3261573],[103.4690535,15.3244914],[103.474846,15.3189137],[103.4806611,15.3201882],[103.4842808,15.318343],[103.4858757,15.3109801],[103.4898282,15.3126759],[103.4906741,15.3171827],[103.4937587,15.3152894],[103.4961248,15.3078692],[103.4993079,15.3093578],[103.4998298,15.3144837],[103.5020516,15.3150371],[103.50345,15.3132163],[103.5036004,15.3066746],[103.4992769,15.3051565],[103.4970154,15.3015272],[103.4978491,15.2979563],[103.5009198,15.2947171],[103.5050691,15.2954362],[103.5053255,15.2922585],[103.4996726,15.2916722],[103.4948719,15.2942308],[103.4886701,15.2914019],[103.4820574,15.2928614],[103.480507,15.2956723],[103.4769951,15.2917983],[103.4769578,15.2860683],[103.4701022,15.2879963],[103.4690375,15.2802481],[103.4676738,15.2821401],[103.4628849,15.2830717],[103.4617896,15.2813472],[103.4635455,15.2764639],[103.4579789,15.2662283],[103.4612479,15.2621916],[103.4614534,15.2597047],[103.4591914,15.2567941],[103.4530287,15.2551813],[103.4442304,15.263399],[103.4415031,15.2634351],[103.441746,15.2582449],[103.4465467,15.2586414],[103.4476802,15.2572098],[103.4467709,15.2543523],[103.4404384,15.2510903],[103.4364969,15.2426377],[103.4339378,15.2290661],[103.4371693,15.2244252],[103.4373749,15.2206127],[103.4306327,15.217411],[103.4285186,15.2138294],[103.430607,15.2105351],[103.4353872,15.2093632],[103.4361602,15.206792],[103.4316938,15.205328],[103.4260563,15.2082823],[103.4211806,15.2050304],[103.4189517,15.2010086],[103.4201984,15.1923675],[103.4182613,15.1883843],[103.4259667,15.187439],[103.428193,15.1865371],[103.4290255,15.1841298],[103.4281458,15.1786688],[103.4229187,15.1743772],[103.4204321,15.1682623],[103.4227671,15.1670003],[103.4243736,15.1624028],[103.4294359,15.1596442],[103.4261197,15.1558401],[103.4251955,15.1519092],[103.4209796,15.151978],[103.4291796,15.1408809],[103.424813,15.135423],[103.4242658,15.130431],[103.4258966,15.1275518],[103.4292762,15.1283079],[103.4333746,15.1223111],[103.4329025,15.1206021],[103.4280587,15.1182261],[103.4261351,15.1058649],[103.4280126,15.1052112],[103.4345684,15.1092227],[103.4409396,15.1082422],[103.4422016,15.1062512],[103.4402317,15.1038443],[103.4397085,15.0993572],[103.4352456,15.0989412],[103.4329064,15.1009322],[103.4313982,15.0997435],[103.4323524,15.0896695],[103.4287513,15.0829533],[103.431152,15.0816754],[103.431706,15.0850633],[103.4361997,15.0865789],[103.439216,15.0899667],[103.442417,15.0877379],[103.4417399,15.0858062],[103.4367537,15.0822103],[103.431983,15.0713628],[103.4256426,15.0706495],[103.4227494,15.0658645],[103.4266275,15.0613469],[103.4336141,15.0606379],[103.4391368,15.0578349],[103.4480809,15.0450782],[103.4435142,15.0397406],[103.4419011,15.0339797],[103.4355925,15.02899],[103.4308627,15.0272404],[103.4219932,15.0306251],[103.4210442,15.0275719],[103.4247006,15.0283848],[103.4247135,15.0263725],[103.4208983,15.0241981],[103.4189068,15.0178481],[103.4163793,15.0180639],[103.4180095,15.0129549],[103.4147315,15.0044524],[103.4095299,15.0034119],[103.4110689,15.001866],[103.4190406,15.0010038],[103.4243961,14.9943145],[103.4267968,14.9934226],[103.4276586,14.9897656],[103.4264582,14.9868817],[103.4221184,14.9895872],[103.4199157,14.9860661],[103.4237343,14.9836111],[103.4282588,14.983403],[103.4306903,14.9787647],[103.4307211,14.9768618],[103.4255195,14.9755833],[103.4211181,14.9773673],[103.4200101,14.9727586],[103.4219492,14.9710935],[103.428505,14.9719558],[103.4296438,14.9707367],[103.4204102,14.9667523],[103.4168399,14.9587833],[103.4176401,14.9558097],[103.4211489,14.9561665],[103.4236728,14.9544121],[103.4216519,14.9486364],[103.4242932,14.9422753],[103.4277825,14.9419555],[103.42506,14.9334131],[103.4255901,14.9284064],[103.4188097,14.9230974],[103.4185293,14.9194556],[103.4167838,14.9183618],[103.4118658,14.9168942],[103.4068157,14.9182233],[103.4056597,14.9206228],[103.4019584,14.9196475],[103.3994112,14.9130635],[103.4047333,14.9120926],[103.4015232,14.9105986],[103.4033548,14.906968],[103.4023005,14.9049243],[103.3998962,14.9060256],[103.3998039,14.9026527],[103.3981876,14.9014049],[103.4048733,14.8975423],[103.4022969,14.8973107],[103.401312,14.8925814],[103.3948177,14.8952286],[103.3895237,14.894604],[103.390047,14.8893391],[103.3924169,14.8861564],[103.3873077,14.8863348],[103.387123,14.8835685],[103.378816,14.8760668],[103.3790344,14.8740534],[103.3838992,14.8726634],[103.3845541,14.8710151],[103.3819799,14.8699015],[103.376516,14.8706637],[103.3790028,14.8669407],[103.3755502,14.859681],[103.3736321,14.8597362],[103.3718148,14.8622226],[103.3668398,14.8606032],[103.3667227,14.8581179],[103.3642648,14.858501],[103.3597607,14.8541178],[103.3586114,14.8488093],[103.3517274,14.840224],[103.3456886,14.8405791],[103.3408381,14.8383784],[103.340646,14.8369202],[103.3440761,14.8371743],[103.3462109,14.830866],[103.3440586,14.832031],[103.3399399,14.8278929],[103.3360611,14.829513],[103.3360385,14.8329351],[103.3292282,14.8328156],[103.318748,14.8265674],[103.3199792,14.8235622],[103.3170739,14.8177892],[103.3198655,14.8170828],[103.3140476,14.8164048],[103.3124691,14.8141894],[103.3137311,14.8135943],[103.3134541,14.8105889],[103.3114534,14.8116304],[103.3112995,14.8139216],[103.3092171,14.814413],[103.3088065,14.8090713],[103.3071752,14.8078811],[103.3058671,14.8113328],[103.3042666,14.8084762],[103.3000191,14.8101426],[103.299342,14.8075835],[103.2976184,14.8074943],[103.2941712,14.8129694],[103.2893081,14.8084167],[103.2928849,14.7989111],[103.2900528,14.7869624],[103.2915342,14.7848854],[103.2886438,14.7826281],[103.2868172,14.7844315],[103.2815537,14.7829958],[103.2818122,14.779185],[103.279262,14.7754493],[103.2760954,14.7745878],[103.2744321,14.7696673],[103.2711577,14.7713274],[103.2662197,14.7668395],[103.2683368,14.7658734],[103.2708034,14.7602858],[103.2675273,14.7549918],[103.2690202,14.7525936],[103.2701328,14.7524953],[103.2695999,14.7546209],[103.2714042,14.752867],[103.2711171,14.7503822],[103.2751933,14.7495148],[103.2735306,14.7409658],[103.2694532,14.7418214],[103.2744585,14.7368025],[103.2717765,14.7363174],[103.2733922,14.7334457],[103.2711771,14.7232635],[103.269089,14.7211758],[103.2706518,14.7158474]]]}}]}