{"type":"FeatureCollection","features":[{"type":"Feature","properties":{"id":"TH-LAO-4310107","nameTh":"ชุมเห็ด","type":"town_municipality"},"geometry":{"type":"Polygon","coordinates":[[[103.0997157,15.0051579],[103.1007886,15.0091062],[103.1108308,15.0091477],[103.1120087,15.0036008],[103.112998,15.0024532],[103.1216347,15.0003701],[103.1252185,14.9988901],[103.1287479,15.0074171],[103.1297243,15.008816],[103.1318969,15.0102901],[103.1275248,15.0159559],[103.1275462,15.0434459],[103.1199931,15.0497454],[103.1199825,15.0643225],[103.1193924,15.0711705],[103.0952739,15.066405],[103.080039,15.0583654],[103.0608987,15.057951],[103.0550622,15.0529158],[103.0595684,15.0365452],[103.0587101,15.0311157],[103.058517,15.0217485],[103.0500089,15.0151581],[103.0997157,15.0051579]]]}}]}