{"type":"FeatureCollection","features":[{"type":"Feature","properties":{"provinceCode":"74","nameTh":"สมุทรสาคร","nameEn":"Samut Sakhon"},"geometry":{"type":"Polygon","coordinates":[[[100.3771483,13.6065037],[100.3785093,13.5942861],[100.3843056,13.589572],[100.3860041,13.5850157],[100.385001,13.5791208],[100.3894994,13.5697337],[100.3915107,13.5688847],[100.3913122,13.5633414],[100.3952445,13.5539476],[100.401298,13.5528493],[100.4043185,13.5550555],[100.4086748,13.5545891],[100.4118942,13.555475],[100.4124423,13.5571617],[100.4152008,13.5571375],[100.4146408,13.5515159],[100.420052,13.5453734],[100.4185024,13.5408176],[100.4125406,13.5358116],[100.4110064,13.5230437],[100.408996,13.5230191],[100.4089531,13.5205802],[100.4067714,13.5193204],[100.4066168,13.5085719],[100.4048324,13.5081416],[100.4540891,13.2191019],[100.1623,13.2198305],[100.0787728,13.4253678],[100.0784732,13.4375313],[100.0733223,13.4563464],[100.0464862,13.4970325],[100.0419873,13.4986475],[100.0425534,13.5037056],[100.0306576,13.5065961],[100.0271812,13.5166084],[100.028062,13.5204638],[100.0312418,13.5208413],[100.0327613,13.522973],[100.0291093,13.5289057],[100.038787,13.5351881],[100.0409261,13.5401179],[100.0439348,13.5414032],[100.0415705,13.5481945],[100.0417433,13.5500298],[100.0447347,13.5507006],[100.0386513,13.5609387],[100.0384246,13.5644626],[100.0396145,13.5648752],[100.0378189,13.570302],[100.0392343,13.5706233],[100.0382827,13.5738224],[100.0404084,13.5743132],[100.036997,13.5843146],[100.0407873,13.584999],[100.0402652,13.5930172],[100.0432696,13.5945115],[100.0391246,13.6027336],[100.0449702,13.6056194],[100.0468938,13.6082249],[100.0461883,13.6095338],[100.0543324,13.6123601],[100.0532607,13.6146613],[100.0628811,13.6231831],[100.0618633,13.6245324],[100.0679288,13.6285391],[100.0714412,13.6342299],[100.0710948,13.649003],[100.0685562,13.6563398],[100.0840532,13.6573062],[100.086493,13.6507151],[100.0931717,13.6531648],[100.0948361,13.6503523],[100.0988363,13.6517223],[100.1002465,13.648909],[100.1041268,13.6501326],[100.1047734,13.6489085],[100.1170527,13.6525409],[100.1164561,13.6551898],[100.1210001,13.6559462],[100.113485,13.6768874],[100.1163717,13.6773998],[100.1162406,13.6784837],[100.1243876,13.6810037],[100.1562008,13.6842999],[100.15655,13.6806657],[100.1636843,13.6767484],[100.1720535,13.6808046],[100.1727409,13.6824971],[100.1750107,13.6821258],[100.1769463,13.687957],[100.1801329,13.6889354],[100.1819953,13.6887331],[100.1839495,13.6839999],[100.1863033,13.6851129],[100.1881178,13.6798317],[100.191596,13.6774942],[100.1926593,13.6787628],[100.1945179,13.6774845],[100.1989864,13.6789891],[100.2032108,13.6782841],[100.2057297,13.6820722],[100.2090917,13.6819399],[100.2111683,13.6858553],[100.215787,13.6876177],[100.2196898,13.6826189],[100.2216953,13.6851173],[100.2256477,13.6802237],[100.2279354,13.6768632],[100.2271188,13.6727266],[100.2407738,13.6799058],[100.2436435,13.6746401],[100.2464449,13.6760364],[100.2474401,13.6741475],[100.2529014,13.6766778],[100.2517855,13.678798],[100.257638,13.6786398],[100.2603786,13.6817976],[100.2602004,13.6847055],[100.2704437,13.683313],[100.2769343,13.6881757],[100.278229,13.6928717],[100.2868808,13.6942654],[100.2860343,13.6971501],[100.2837088,13.6967905],[100.2833408,13.7015434],[100.2853556,13.70277],[100.2833,13.7057346],[100.2865256,13.7082197],[100.2835667,13.7134081],[100.2888602,13.7147517],[100.2901387,13.7177825],[100.2927574,13.7187603],[100.2945776,13.7167548],[100.2968498,13.7179603],[100.2978916,13.7141364],[100.3037143,13.7150997],[100.3007372,13.7200395],[100.3045884,13.7204631],[100.3076087,13.7189287],[100.306462,13.7235828],[100.3101643,13.7245811],[100.3101917,13.721569],[100.3155805,13.7230005],[100.3154991,13.7206347],[100.3209319,13.7211519],[100.3227047,13.7180579],[100.3249272,13.7175061],[100.332914,13.7211185],[100.3387886,13.7127688],[100.3364558,13.7108113],[100.3341247,13.713056],[100.3323161,13.7124642],[100.3334837,13.7082587],[100.3312612,13.697297],[100.3344458,13.6822864],[100.3335429,13.6813712],[100.3360435,13.6769534],[100.33759,13.6773767],[100.3412801,13.6608554],[100.3394108,13.6549549],[100.3468372,13.6553335],[100.3462911,13.6491067],[100.3449524,13.6481324],[100.346066,13.643627],[100.3486598,13.6437201],[100.3484133,13.6409576],[100.3544174,13.6399596],[100.3554444,13.6365426],[100.3590282,13.637452],[100.3596097,13.6328715],[100.3659983,13.6336334],[100.3716109,13.6249202],[100.3719665,13.6207948],[100.3777746,13.6209036],[100.3766392,13.6182958],[100.3785068,13.6133405],[100.3783265,13.6068945],[100.3771483,13.6065037]]]}}]}