{"type":"FeatureCollection","features":[{"type":"Feature","properties":{"id":"TH-LAO-6740110","nameTh":"ท่าทราย","type":"subdistrict_admin_org"},"geometry":{"type":"Polygon","coordinates":[[[100.2317633,13.5442489],[100.2323464,13.5448582],[100.2323444,13.5457324],[100.2334689,13.5455805],[100.2342515,13.5466478],[100.2346835,13.5464601],[100.2352699,13.5478098],[100.2349235,13.5490796],[100.2407318,13.5499638],[100.2470473,13.5519023],[100.2518141,13.553829],[100.2582233,13.5544714],[100.2631132,13.552738],[100.2646519,13.5528438],[100.2656218,13.5535278],[100.267839,13.5566045],[100.2696697,13.5617102],[100.2702193,13.561393],[100.2762706,13.561663],[100.2783767,13.5608864],[100.2849847,13.5594452],[100.2884744,13.5590561],[100.2872176,13.561374],[100.2871768,13.5627153],[100.2892166,13.5635735],[100.2882169,13.5653921],[100.2871703,13.5657275],[100.2862864,13.5686135],[100.2809198,13.5730484],[100.2802298,13.5792213],[100.2789876,13.58229],[100.2766526,13.5862029],[100.27389,13.5937807],[100.2726618,13.5955084],[100.2703642,13.5967884],[100.2645569,13.5973749],[100.2632625,13.5972447],[100.2647422,13.5923771],[100.2591633,13.5917264],[100.2577642,13.5961692],[100.2478801,13.5934359],[100.2315247,13.574482],[100.2278823,13.5707118],[100.2257391,13.5671167],[100.2244851,13.5663769],[100.2208833,13.5664398],[100.2189854,13.5669699],[100.2166654,13.5682488],[100.2161189,13.5672252],[100.2158829,13.5656503],[100.2152445,13.564769],[100.2123155,13.5643101],[100.211822,13.5635227],[100.2094616,13.5640598],[100.2096172,13.5624537],[100.2089198,13.5613116],[100.2075305,13.5598358],[100.2059158,13.5593013],[100.2052506,13.5585529],[100.2048429,13.5574004],[100.2037673,13.5574056],[100.2034508,13.5570588],[100.204065,13.5560106],[100.2042018,13.5533041],[100.2048951,13.550335],[100.2106184,13.5503881],[100.2264214,13.5477874],[100.2269632,13.54797],[100.2275886,13.5477558],[100.2280642,13.547127],[100.228429,13.5471557],[100.2296306,13.5450409],[100.2300276,13.5450566],[100.2303738,13.5444361],[100.2317633,13.5442489]]]}},{"type":"Feature","properties":{"id":"TH-LAO-5740104","nameTh":"บางหญ้าแพรก","type":"subdistrict_municipality"},"geometry":{"type":"Polygon","coordinates":[[[100.2836789,13.5049108],[100.2992089,13.4958668],[100.3001845,13.4962591],[100.3003114,13.5166201],[100.3014845,13.5252187],[100.3019004,13.5326383],[100.3012998,13.5347584],[100.3006447,13.5350588],[100.2980114,13.5381135],[100.2960742,13.541549],[100.2940385,13.5457788],[100.2934707,13.5480136],[100.2905506,13.5473581],[100.2882014,13.546448],[100.284822,13.5442285],[100.2831303,13.5441004],[100.2830381,13.5435257],[100.2825196,13.54316],[100.2806243,13.5425089],[100.2816367,13.540032],[100.2824031,13.5365232],[100.2822808,13.5357958],[100.2817399,13.5337777],[100.2801498,13.5320732],[100.2784109,13.531104],[100.2777686,13.5298774],[100.2745053,13.5285436],[100.2703911,13.5281286],[100.269893,13.5291434],[100.2684354,13.5286473],[100.2679225,13.5298193],[100.2635428,13.5284264],[100.2616707,13.5302203],[100.2610563,13.5284057],[100.257382,13.5255203],[100.2568452,13.5236689],[100.2560849,13.5236835],[100.2556307,13.5219166],[100.2376114,13.5108043],[100.2301401,13.508247],[100.2297328,13.5015467],[100.230001,13.4981144],[100.2333623,13.4880888],[100.2337074,13.4845174],[100.2360129,13.4713142],[100.2511194,13.4754634],[100.2663492,13.485212],[100.2722268,13.4945024],[100.2739989,13.5016286],[100.2765838,13.5063346],[100.2816686,13.5066866],[100.2836789,13.5049108]]]}},{"type":"Feature","properties":{"id":"TH-LAO-5740105","nameTh":"นาดี","type":"subdistrict_municipality"},"geometry":{"type":"Polygon","coordinates":[[[100.2798817,13.6125935],[100.2771107,13.6126662],[100.2767453,13.611446],[100.2736277,13.6113319],[100.2740135,13.6089118],[100.2727963,13.608723],[100.2709579,13.6092004],[100.2706249,13.6049395],[100.2657217,13.6042606],[100.2645569,13.5973749],[100.2703642,13.5967884],[100.2726618,13.5955084],[100.27389,13.5937807],[100.2766526,13.5862029],[100.2789876,13.58229],[100.2802298,13.5792213],[100.2809198,13.5730484],[100.2862864,13.5686135],[100.2871703,13.5657275],[100.2882169,13.5653921],[100.2892166,13.5635735],[100.2871768,13.5627153],[100.2875002,13.5607721],[100.2896046,13.5623227],[100.2908089,13.5609134],[100.2909662,13.5602479],[100.294442,13.5635974],[100.2950838,13.562902],[100.3188447,13.5840014],[100.3173971,13.5864255],[100.3167644,13.6091798],[100.3136725,13.6237206],[100.3125086,13.6195872],[100.3112028,13.6197977],[100.3098849,13.6194552],[100.3090117,13.6196922],[100.3089605,13.6206483],[100.3076617,13.6207182],[100.3065418,13.6210372],[100.3062963,13.6213857],[100.3046178,13.6213682],[100.3033058,13.6209726],[100.3013155,13.6213145],[100.2963343,13.6209988],[100.2918087,13.6216664],[100.2915236,13.6211421],[100.2900687,13.6217543],[100.2872524,13.6215613],[100.2870771,13.6223498],[100.2858608,13.6224014],[100.285309,13.6199849],[100.2817941,13.6203184],[100.2798817,13.6125935]]]}},{"type":"Feature","properties":{"id":"TH-LAO-5740106","nameTh":"ท่าจีน","type":"subdistrict_municipality"},"geometry":{"type":"Polygon","coordinates":[[[100.2301401,13.508247],[100.2376114,13.5108043],[100.2556307,13.5219166],[100.2560849,13.5236835],[100.2568452,13.5236689],[100.257382,13.5255203],[100.2610563,13.5284057],[100.2616707,13.5302203],[100.2563656,13.5329516],[100.256555,13.5338381],[100.2574777,13.5339022],[100.257889,13.535427],[100.2581459,13.5353318],[100.2585379,13.5417077],[100.2600393,13.5448677],[100.2598436,13.5459104],[100.2610119,13.5468534],[100.2601688,13.5478018],[100.2629207,13.5503485],[100.2619486,13.5517674],[100.2625153,13.5529029],[100.2582233,13.5544714],[100.2518141,13.553829],[100.2470473,13.5519023],[100.2407318,13.5499638],[100.2349235,13.5490796],[100.2352699,13.5478098],[100.2346835,13.5464601],[100.2342515,13.5466478],[100.2334689,13.5455805],[100.2323444,13.5457324],[100.2323464,13.5448582],[100.2317633,13.5442489],[100.2320094,13.5432971],[100.231473,13.5426712],[100.2319236,13.5422827],[100.2313657,13.5417012],[100.2325888,13.5415734],[100.2323966,13.5410424],[100.2334695,13.5398064],[100.2345905,13.5368419],[100.2333246,13.5267076],[100.2340891,13.522888],[100.2325344,13.5187105],[100.2301401,13.508247]]]}},{"type":"Feature","properties":{"id":"TH-LAO-5740114","nameTh":"คอกกระบือ","type":"subdistrict_municipality"},"geometry":{"type":"Polygon","coordinates":[[[100.3238726,13.6275056],[100.3232691,13.6266655],[100.3217787,13.6256115],[100.3176112,13.6251657],[100.3171763,13.6248025],[100.3172297,13.6237504],[100.3136725,13.6237206],[100.3167644,13.6091798],[100.3173971,13.5864255],[100.3190018,13.5836817],[100.323985,13.5767913],[100.326767,13.5760667],[100.3325675,13.5764765],[100.3453074,13.5822611],[100.3531583,13.5847301],[100.3586469,13.5881549],[100.3521563,13.5968683],[100.3411428,13.6076491],[100.3492197,13.6189168],[100.347983,13.6197439],[100.337444,13.6197187],[100.3244974,13.6177739],[100.3238726,13.6275056]]]}},{"type":"Feature","properties":{"id":"TH-LAO-5740203","nameTh":"สวนหลวง","type":"subdistrict_municipality"},"geometry":{"type":"Polygon","coordinates":[[[100.3320602,13.6920428],[100.3324053,13.688421],[100.3338219,13.6832642],[100.3344458,13.6822864],[100.3344447,13.6815276],[100.3335429,13.6813712],[100.3360435,13.6769534],[100.33759,13.6773767],[100.3382362,13.6750162],[100.3388615,13.6694607],[100.3393076,13.6677087],[100.3401248,13.6664844],[100.3401248,13.6653031],[100.3412801,13.6608554],[100.3408418,13.6588916],[100.3397886,13.657835],[100.3394015,13.6562584],[100.3393836,13.6543563],[100.3386225,13.6521406],[100.3386462,13.6508617],[100.3243902,13.6507204],[100.3182257,13.6510552],[100.3022909,13.6502443],[100.2984772,13.6564644],[100.2931103,13.6556007],[100.2874168,13.6540656],[100.284666,13.6538363],[100.2759003,13.6558352],[100.2696197,13.6578571],[100.2699423,13.6599259],[100.2720396,13.6634431],[100.2796223,13.662851],[100.2856999,13.6660297],[100.289445,13.6691281],[100.2979087,13.684497],[100.2994245,13.6855703],[100.3031924,13.686114],[100.3111741,13.6864009],[100.3115483,13.6868815],[100.3130022,13.6866052],[100.3218741,13.6875878],[100.3264446,13.6908314],[100.3288352,13.6918258],[100.3320602,13.6920428]]]}},{"type":"Feature","properties":{"id":"TH-LAO-5740206","nameTh":"แคราย","type":"subdistrict_municipality"},"geometry":{"type":"Polygon","coordinates":[[[100.3468372,13.6553335],[100.3451137,13.6547132],[100.3394108,13.6549549],[100.3387496,13.6528909],[100.3386462,13.6508617],[100.3243902,13.6507204],[100.3182257,13.6510552],[100.3022909,13.6502443],[100.3019289,13.6442951],[100.302145,13.6440501],[100.3013568,13.6406844],[100.3063509,13.6383001],[100.308638,13.6363918],[100.308813,13.6358756],[100.3148733,13.6346131],[100.3151275,13.6339741],[100.315002,13.6306301],[100.3136725,13.6237206],[100.3172297,13.6237504],[100.3171763,13.6248025],[100.3176112,13.6251657],[100.3216097,13.62555],[100.3232691,13.6266655],[100.3240028,13.6277017],[100.3236178,13.6305799],[100.3256662,13.6301846],[100.3279392,13.632246],[100.329292,13.6326535],[100.3322495,13.6363545],[100.3361111,13.6388374],[100.3401438,13.6390914],[100.3464346,13.6388047],[100.3486246,13.6391139],[100.3484133,13.6409576],[100.3486598,13.6437201],[100.346066,13.643627],[100.3449524,13.6481324],[100.3449579,13.6488413],[100.3462911,13.6491067],[100.3468561,13.6522408],[100.3468372,13.6553335]]]}},{"type":"Feature","properties":{"id":"TH-LAO-6740117","nameTh":"บางน้ำจืด","type":"subdistrict_admin_org"},"geometry":{"type":"Polygon","coordinates":[[[100.3717678,13.6229405],[100.3712582,13.6244139],[100.3716109,13.6249202],[100.3694401,13.6275815],[100.368698,13.6301318],[100.3670467,13.6303791],[100.3664282,13.6320356],[100.3668473,13.6322097],[100.3659983,13.6336334],[100.3651712,13.6329358],[100.3646296,13.633302],[100.3604078,13.6333591],[100.3604199,13.6330099],[100.3596097,13.6328715],[100.3590282,13.637452],[100.3579368,13.6369428],[100.3554444,13.6365426],[100.3544174,13.6399596],[100.3515751,13.6395881],[100.3514885,13.6401439],[100.3503362,13.6401798],[100.3502464,13.6409675],[100.3484133,13.6409576],[100.3486246,13.6391139],[100.3464346,13.6388047],[100.3401438,13.6390914],[100.3361111,13.6388374],[100.3322495,13.6363545],[100.329292,13.6326535],[100.3279392,13.632246],[100.3256662,13.6301846],[100.3236178,13.6305799],[100.3244974,13.6177739],[100.337444,13.6197187],[100.347983,13.6197439],[100.3492197,13.6189168],[100.3411428,13.6076491],[100.3521563,13.5968683],[100.3586469,13.5881549],[100.3603239,13.5893994],[100.363535,13.5904104],[100.3633259,13.5951732],[100.3682796,13.6001589],[100.3718726,13.6003401],[100.3783578,13.601379],[100.3784508,13.6020983],[100.3771483,13.6065037],[100.3783265,13.6068945],[100.3780577,13.6092089],[100.3785068,13.6133405],[100.3778939,13.6146606],[100.3780732,13.6151883],[100.377676,13.6168711],[100.3772793,13.6167181],[100.3766392,13.6182958],[100.3770054,13.6201892],[100.3777746,13.6209036],[100.3772022,13.6209029],[100.377107,13.6215079],[100.374129,13.6206335],[100.3719665,13.6207948],[100.3717678,13.6229405]]]}},{"type":"Feature","properties":{"id":"TH-LAO-3740201","nameTh":"อ้อมน้อย","type":"city_municipality"},"geometry":{"type":"Polygon","coordinates":[[[100.2602004,13.6847055],[100.2605824,13.6836447],[100.2629685,13.6833923],[100.266267,13.6803363],[100.2738102,13.6796957],[100.2742638,13.6786662],[100.2753901,13.679533],[100.2757726,13.6776157],[100.277893,13.6780421],[100.2776162,13.6795857],[100.2854379,13.6806821],[100.2955203,13.6801602],[100.2979087,13.684497],[100.2994245,13.6855703],[100.3031924,13.686114],[100.3111741,13.6864009],[100.3115483,13.6868815],[100.3130022,13.6866052],[100.3218741,13.6875878],[100.3264446,13.6908314],[100.3288352,13.6918258],[100.3320602,13.6920428],[100.3312612,13.697297],[100.3320764,13.6974392],[100.3320864,13.702554],[100.3324933,13.7048081],[100.3318416,13.7047525],[100.3332879,13.7073285],[100.3335213,13.7088919],[100.3330481,13.7110871],[100.3323161,13.7124642],[100.3341247,13.713056],[100.335112,13.7111866],[100.3364558,13.7108113],[100.3367183,13.7109131],[100.3364926,13.7112122],[100.3387886,13.7127688],[100.3375607,13.7147789],[100.3360935,13.7154194],[100.3367908,13.7165651],[100.3346518,13.7184379],[100.332914,13.7211185],[100.3296643,13.7200001],[100.3297257,13.7194164],[100.3271363,13.7184496],[100.327188,13.7178787],[100.3249272,13.7175061],[100.3243443,13.7184089],[100.3227047,13.7180579],[100.3222127,13.7201237],[100.3213604,13.7199582],[100.3209319,13.7211519],[100.3185184,13.7202015],[100.3179942,13.7201957],[100.3178697,13.7209299],[100.3154991,13.7206347],[100.3153916,13.7212453],[100.3158737,13.7213569],[100.3155805,13.7230005],[100.3126894,13.7218109],[100.312282,13.7220533],[100.3101917,13.721569],[100.3100933,13.723106],[100.3105547,13.7232167],[100.3101643,13.7245811],[100.306462,13.7235828],[100.306407,13.7214827],[100.3076087,13.7189287],[100.3064699,13.7183877],[100.3058909,13.7195996],[100.3048519,13.7195367],[100.3045884,13.7204631],[100.303313,13.7198934],[100.3029501,13.7205814],[100.3007372,13.7200395],[100.3018198,13.7178956],[100.3022778,13.718075],[100.3033214,13.7161711],[100.3035105,13.716261],[100.3039178,13.7151699],[100.3037143,13.7150997],[100.2978916,13.7141364],[100.297978,13.7157411],[100.2968498,13.7179603],[100.2945776,13.7167548],[100.2931322,13.718562],[100.2920024,13.7186049],[100.2901387,13.7177825],[100.288752,13.7158056],[100.2888602,13.7147517],[100.2852673,13.7148453],[100.2835667,13.7134081],[100.2835325,13.7119403],[100.285491,13.7117233],[100.2864151,13.7094444],[100.2865256,13.7082197],[100.2845973,13.7072902],[100.284933,13.7067354],[100.2833,13.7057346],[100.2842848,13.7047005],[100.2853556,13.70277],[100.2833408,13.7015434],[100.2837088,13.6967905],[100.2860343,13.6971501],[100.2868808,13.6942654],[100.2826475,13.6928452],[100.278229,13.6928717],[100.2779688,13.6904329],[100.2769343,13.6881757],[100.2748529,13.6859542],[100.2704437,13.683313],[100.2681342,13.6831901],[100.2671685,13.6838577],[100.2641787,13.6845127],[100.2620013,13.685402],[100.2602004,13.6847055]]]}},{"type":"Feature","properties":{"id":"TH-LAO-6740305","nameTh":"คลองตัน","type":"subdistrict_admin_org"},"geometry":{"type":"Polygon","coordinates":[[[100.1873607,13.6611014],[100.1889722,13.660457],[100.1888952,13.6590471],[100.19082,13.6576875],[100.200358,13.6540772],[100.2000469,13.6510791],[100.2050587,13.6514792],[100.2070257,13.6512683],[100.2068855,13.6481612],[100.2059301,13.6434185],[100.2071362,13.6425455],[100.1632711,13.6190811],[100.1619928,13.6217429],[100.1612203,13.6217872],[100.1599329,13.6231558],[100.1586308,13.6230371],[100.1583492,13.6265817],[100.1572512,13.6267587],[100.156481,13.6275018],[100.155519,13.6277788],[100.1542777,13.629358],[100.15382,13.6355974],[100.1507502,13.6427544],[100.1590926,13.6480424],[100.1647426,13.6498173],[100.1675024,13.6539654],[100.1685326,13.6534597],[100.1720672,13.6544808],[100.1742152,13.6570747],[100.181807,13.6528415],[100.1873607,13.6611014]]]}},{"type":"Feature","properties":{"id":"TH-LAO-6740210","nameTh":"หนองนกไข่","type":"subdistrict_admin_org"},"geometry":{"type":"Polygon","coordinates":[[[100.2050587,13.6514792],[100.2075917,13.6511346],[100.2085299,13.6528986],[100.2123547,13.6508438],[100.2124588,13.6522109],[100.2136863,13.6546034],[100.2162168,13.6567205],[100.2175136,13.6574258],[100.2076965,13.6688243],[100.2014771,13.6753352],[100.1989255,13.677304],[100.1961887,13.6764613],[100.1951734,13.6777862],[100.1945179,13.6774845],[100.1926593,13.6787628],[100.191596,13.6774942],[100.1909697,13.6777085],[100.1899351,13.6792088],[100.1890839,13.6797381],[100.1881178,13.6798317],[100.1880157,13.6815565],[100.1863033,13.6851129],[100.1839495,13.6839999],[100.1831088,13.6856141],[100.1824807,13.6879383],[100.181857,13.6888412],[100.1809844,13.6884913],[100.1801329,13.6889354],[100.1795967,13.6885766],[100.1786618,13.6886882],[100.1769463,13.687957],[100.1769863,13.6873693],[100.1765495,13.6871987],[100.1762642,13.6865941],[100.1762743,13.684685],[100.1757864,13.684207],[100.1750107,13.6821258],[100.1740268,13.6827948],[100.1727409,13.6824971],[100.1728441,13.6815867],[100.1720535,13.6808046],[100.1699426,13.6799125],[100.1695401,13.6783036],[100.1686837,13.6766857],[100.1708504,13.6760241],[100.1696608,13.6745442],[100.1715504,13.6735545],[100.174423,13.6712787],[100.1758657,13.668612],[100.1803586,13.6644837],[100.1835024,13.6622097],[100.1889722,13.660457],[100.1888952,13.6590471],[100.19082,13.6576875],[100.200358,13.6540772],[100.2000469,13.6510791],[100.2050587,13.6514792]]]}},{"type":"Feature","properties":{"id":"TH-LAO-4740202","nameTh":"กระทุ่มแบน","type":"town_municipality"},"geometry":{"type":"Polygon","coordinates":[[[100.2493685,13.6576014],[100.2482486,13.6560529],[100.2468323,13.6524926],[100.2326166,13.6484109],[100.2310704,13.6457027],[100.2306996,13.6443735],[100.2317912,13.6438324],[100.2329808,13.6421506],[100.2533466,13.6484899],[100.2643942,13.6525165],[100.2658821,13.651629],[100.2666291,13.6519632],[100.2665433,13.6514556],[100.2668216,13.6511839],[100.2682364,13.6533892],[100.2698403,13.6526854],[100.2710581,13.65537],[100.2720076,13.6550416],[100.2725923,13.6567253],[100.2640414,13.6602491],[100.2594299,13.6573982],[100.2567309,13.656518],[100.2528858,13.6561887],[100.2513946,13.6563743],[100.2493685,13.6576014]]]}},{"type":"Feature","properties":{"id":"TH-LAO-6740209","nameTh":"บางยาง","type":"subdistrict_admin_org"},"geometry":{"type":"Polygon","coordinates":[[[100.2070257,13.6512683],[100.2068855,13.6481612],[100.2059301,13.6434185],[100.2071362,13.6425455],[100.2125917,13.6441187],[100.2132374,13.6423153],[100.2145586,13.6405499],[100.2164274,13.6391646],[100.2187727,13.6383861],[100.2211234,13.6389872],[100.226148,13.6422531],[100.2279557,13.6437752],[100.2303859,13.6445286],[100.2306996,13.6443735],[100.2310704,13.6457027],[100.2326166,13.6484109],[100.2468323,13.6524926],[100.2482486,13.6560529],[100.2493685,13.6576014],[100.2487633,13.6582665],[100.2473276,13.6639489],[100.246736,13.6651344],[100.2453804,13.6663499],[100.2427676,13.6665176],[100.2416338,13.6659787],[100.2407888,13.6650491],[100.2389359,13.6663062],[100.2325284,13.6631034],[100.230768,13.6639145],[100.2283369,13.663397],[100.2258257,13.6623877],[100.2253774,13.6631421],[100.2261554,13.6644085],[100.2259782,13.6648681],[100.2264333,13.6650993],[100.2261714,13.6655154],[100.2265324,13.6657905],[100.2263784,13.6661],[100.2267252,13.6662926],[100.225983,13.6680436],[100.2261305,13.6685805],[100.2271688,13.6691334],[100.2268058,13.6762291],[100.2279354,13.6768632],[100.2265123,13.6774096],[100.2254929,13.6786784],[100.2262182,13.6791121],[100.2256477,13.6802237],[100.2249759,13.6799679],[100.2240827,13.6814893],[100.2243534,13.6816797],[100.2216953,13.6851173],[100.2196898,13.6826189],[100.215787,13.6876177],[100.2154255,13.6866167],[100.2135141,13.6861688],[100.2122391,13.686545],[100.2116464,13.6856934],[100.2111683,13.6858553],[100.2101181,13.6846653],[100.2096782,13.6829106],[100.2090917,13.6819399],[100.2075579,13.6823834],[100.206976,13.6814573],[100.2057297,13.6820722],[100.2053849,13.6809755],[100.2058678,13.6808363],[100.2032108,13.6782841],[100.2027955,13.6781959],[100.2016961,13.6791182],[100.1989864,13.6789891],[100.1990401,13.6787419],[100.1951734,13.6777862],[100.1961887,13.6764613],[100.1989255,13.677304],[100.2014771,13.6753352],[100.207702,13.6688184],[100.2175136,13.6574258],[100.2162168,13.6567205],[100.2136863,13.6546034],[100.2124588,13.6522109],[100.2123547,13.6508438],[100.2085299,13.6528986],[100.2075917,13.6511346],[100.2070257,13.6512683]]]}},{"type":"Feature","properties":{"id":"TH-LAO-6740207","nameTh":"ท่าไม้","type":"subdistrict_admin_org"},"geometry":{"type":"Polygon","coordinates":[[[100.2271188,13.6727266],[100.2407738,13.6799058],[100.2436435,13.6746401],[100.2464449,13.6760364],[100.2474401,13.6741475],[100.2509564,13.6766418],[100.2529014,13.6766778],[100.2517855,13.678798],[100.2561307,13.678894],[100.257638,13.6786398],[100.2603786,13.6817976],[100.2605824,13.6836447],[100.2629685,13.6833923],[100.266267,13.6803363],[100.2738102,13.6796957],[100.2742638,13.6786662],[100.2753901,13.679533],[100.2757726,13.6776157],[100.277893,13.6780421],[100.2776162,13.6795857],[100.2854379,13.6806821],[100.2955203,13.6801602],[100.289445,13.6691281],[100.2856999,13.6660297],[100.2796223,13.662851],[100.2720396,13.6634431],[100.2699423,13.6599259],[100.2696197,13.6578571],[100.2640414,13.6602491],[100.2594299,13.6573982],[100.2567309,13.656518],[100.2528858,13.6561887],[100.2513946,13.6563743],[100.2502299,13.6569252],[100.2487633,13.6582665],[100.2473276,13.6639489],[100.246736,13.6651344],[100.2453804,13.6663499],[100.2441233,13.6665954],[100.2427676,13.6665176],[100.2416338,13.6659787],[100.2407888,13.6650491],[100.2389359,13.6663062],[100.2325284,13.6631034],[100.230768,13.6639145],[100.2283369,13.663397],[100.2258257,13.6623877],[100.2253774,13.6631421],[100.2261554,13.6644085],[100.2259782,13.6648681],[100.2264333,13.6650993],[100.2261714,13.6655154],[100.2265324,13.6657905],[100.2263784,13.6661],[100.2267252,13.6662926],[100.225983,13.6680436],[100.2261305,13.6685805],[100.2271688,13.6691334],[100.2271188,13.6727266]]]}},{"type":"Feature","properties":{"id":"TH-LAO-5740301","nameTh":"เกษตรพัฒนา","type":"subdistrict_municipality"},"geometry":{"type":"Polygon","coordinates":[[[100.1337734,13.6815882],[100.143888,13.6833396],[100.1562008,13.6842999],[100.15655,13.6806657],[100.1582521,13.6794331],[100.1636843,13.6767484],[100.1659656,13.6786579],[100.1681308,13.679553],[100.1699426,13.6799125],[100.1695401,13.6783036],[100.1686837,13.6766857],[100.1708504,13.6760241],[100.1696608,13.6745442],[100.1715504,13.6735545],[100.174423,13.6712787],[100.1757426,13.6687384],[100.1803586,13.6644837],[100.1836767,13.6621177],[100.1873607,13.6611014],[100.181807,13.6528415],[100.1742152,13.6570747],[100.1720672,13.6544808],[100.1685326,13.6534597],[100.1675024,13.6539654],[100.1647426,13.6498173],[100.1590926,13.6480424],[100.1507502,13.6427544],[100.138121,13.6675093],[100.1337734,13.6815882]]]}},{"type":"Feature","properties":{"id":"TH-LAO-6740310","nameTh":"เจ็ดริ้ว","type":"subdistrict_admin_org"},"geometry":{"type":"Polygon","coordinates":[[[100.1243876,13.6810037],[100.124518,13.6807241],[100.1321309,13.6817248],[100.1322382,13.6813183],[100.1337734,13.6815882],[100.138121,13.6675093],[100.1492972,13.6451698],[100.1517876,13.6407502],[100.15382,13.6355974],[100.1542777,13.629358],[100.155519,13.6277788],[100.156481,13.6275018],[100.1572512,13.6267587],[100.158398,13.6265145],[100.1586308,13.6230371],[100.1577099,13.6227358],[100.1537351,13.6228491],[100.152732,13.6221114],[100.152124,13.6223089],[100.1515259,13.6221017],[100.1508048,13.6225153],[100.1487388,13.6221808],[100.1465823,13.6225389],[100.1464039,13.6242165],[100.1451292,13.6255136],[100.1452283,13.6268448],[100.1448054,13.6276273],[100.139907,13.6286349],[100.1351966,13.6311421],[100.1292494,13.6417174],[100.1269105,13.6447305],[100.1229332,13.6526481],[100.1219072,13.6537738],[100.1210001,13.6559462],[100.1175956,13.6660016],[100.1145568,13.6727363],[100.113485,13.6768874],[100.1163717,13.6773998],[100.1162406,13.6784837],[100.1193025,13.6790395],[100.1191931,13.6799598],[100.1243876,13.6810037]]]}},{"type":"Feature","properties":{"id":"TH-LAO-6740307","nameTh":"หลักสอง","type":"subdistrict_admin_org"},"geometry":{"type":"Polygon","coordinates":[[[100.1054753,13.6493211],[100.1113542,13.6515045],[100.1115355,13.6512235],[100.1170527,13.6525409],[100.1164561,13.6551898],[100.1211185,13.655972],[100.1219072,13.6537738],[100.1229332,13.6526481],[100.1250425,13.648007],[100.1269105,13.6447305],[100.1292494,13.6417174],[100.1351966,13.6311421],[100.139907,13.6286349],[100.1448054,13.6276273],[100.1452283,13.6268448],[100.1451292,13.6255136],[100.1464039,13.6242165],[100.1466977,13.6224819],[100.1487388,13.6221808],[100.1508048,13.6225153],[100.1515259,13.6221017],[100.152124,13.6223089],[100.152732,13.6221114],[100.1537351,13.6228491],[100.1577099,13.6227358],[100.1597666,13.623204],[100.1603138,13.6229746],[100.1612203,13.6217872],[100.1619928,13.6217429],[100.1632711,13.6190811],[100.131503,13.6023409],[100.1280725,13.6091175],[100.1255599,13.6078368],[100.1249036,13.6088834],[100.1244926,13.6087123],[100.1207661,13.6162528],[100.1211235,13.6164504],[100.1193493,13.6199869],[100.1191176,13.6203918],[100.1184082,13.6200599],[100.11815,13.6214073],[100.1163633,13.6249324],[100.115928,13.6251869],[100.1129483,13.6308884],[100.1070063,13.6405615],[100.1073569,13.6462553],[100.1054753,13.6493211]]]}},{"type":"Feature","properties":{"id":"TH-LAO-4740205","nameTh":"คลองมะเดื่อ","type":"town_municipality"},"geometry":{"type":"Polygon","coordinates":[[[100.2725923,13.6567253],[100.2720076,13.6550416],[100.2710581,13.65537],[100.2698403,13.6526854],[100.2682364,13.6533892],[100.2668216,13.6511839],[100.2679085,13.6500888],[100.2677554,13.6492694],[100.2683482,13.649076],[100.2674316,13.6486149],[100.2674669,13.6482973],[100.2694277,13.6480434],[100.2699854,13.6483211],[100.2701955,13.6477964],[100.2710494,13.6481342],[100.2712718,13.6476776],[100.2717545,13.6478755],[100.2721593,13.6475976],[100.2734153,13.6475957],[100.2737719,13.6474123],[100.2738618,13.646877],[100.2743273,13.6470494],[100.2765103,13.6443601],[100.2773188,13.6439374],[100.2775649,13.6430515],[100.2780386,13.6430878],[100.2788683,13.6424274],[100.2806799,13.638464],[100.2810368,13.6360508],[100.2801874,13.6324366],[100.279116,13.6242758],[100.2788348,13.6125888],[100.2798817,13.6125935],[100.2817941,13.6203184],[100.285309,13.6199849],[100.2859536,13.6224236],[100.2870771,13.6223498],[100.2872524,13.6215613],[100.2900687,13.6217543],[100.2915236,13.6211421],[100.2918087,13.6216664],[100.2963343,13.6209988],[100.3013155,13.6213145],[100.3033058,13.6209726],[100.3046178,13.6213682],[100.3062963,13.6213857],[100.3065418,13.6210372],[100.3076617,13.6207182],[100.3089605,13.6206483],[100.309116,13.619657],[100.3125086,13.6195872],[100.3143663,13.6266219],[100.315002,13.6306301],[100.3150965,13.6342102],[100.3148012,13.634668],[100.3140564,13.6349454],[100.308813,13.6358756],[100.308638,13.6363918],[100.3063509,13.6383001],[100.3013568,13.6406844],[100.302145,13.6440501],[100.3019289,13.6442951],[100.3022909,13.6502443],[100.2984772,13.6564644],[100.2931103,13.6556007],[100.2874168,13.6540656],[100.284666,13.6538363],[100.2725923,13.6567253]]]}},{"type":"Feature","properties":{"id":"TH-LAO-3740102","nameTh":"สมุทรสาคร","type":"city_municipality"},"geometry":{"type":"Polygon","coordinates":[[[100.2625153,13.5529029],[100.2643871,13.5527896],[100.2656218,13.5535278],[100.267839,13.5566045],[100.2696697,13.5617102],[100.2702193,13.561393],[100.2762706,13.561663],[100.2783767,13.5608864],[100.2849847,13.5594452],[100.2885831,13.5591305],[100.2892438,13.5577427],[100.2896893,13.5577125],[100.2901955,13.5563432],[100.2909475,13.5565225],[100.2910539,13.5561613],[100.2915978,13.5562885],[100.2914426,13.5569057],[100.2926005,13.5580335],[100.2938634,13.5568753],[100.2990387,13.5561899],[100.299015,13.555507],[100.3008244,13.5515312],[100.2975238,13.5505602],[100.2929252,13.5477844],[100.2905506,13.5473581],[100.2882014,13.546448],[100.284822,13.5442285],[100.2831303,13.5441004],[100.2830381,13.5435257],[100.2825196,13.54316],[100.2806243,13.5425089],[100.2816367,13.540032],[100.2824031,13.5365232],[100.2817399,13.5337777],[100.2801498,13.5320732],[100.2784109,13.531104],[100.2777686,13.5298774],[100.2745053,13.5285436],[100.2703911,13.5281286],[100.269893,13.5291434],[100.2684354,13.5286473],[100.2679225,13.5298193],[100.2635428,13.5284264],[100.2616707,13.5302203],[100.2563656,13.5329516],[100.256555,13.5338381],[100.2574777,13.5339022],[100.257889,13.535427],[100.2581459,13.5353318],[100.2585379,13.5417077],[100.2600393,13.5448677],[100.2598436,13.5459104],[100.2610119,13.5468534],[100.2601688,13.5478018],[100.2629207,13.5503485],[100.2619486,13.5517674],[100.2625153,13.5529029]]]}},{"type":"Feature","properties":{"id":"TH-LAO-6740304","nameTh":"บ้านแพ้ว","type":"subdistrict_admin_org"},"geometry":{"type":"Polygon","coordinates":[[[100.131503,13.6023409],[100.1138198,13.5933052],[100.1127863,13.5950504],[100.0960504,13.5865766],[100.0962278,13.5888904],[100.0958005,13.5908059],[100.0968531,13.5932121],[100.095811,13.5953786],[100.0958907,13.5981828],[100.0953728,13.6027607],[100.0966232,13.6033599],[100.0973653,13.6042209],[100.0978087,13.6055905],[100.0978097,13.6076134],[100.0974164,13.6084003],[100.0961198,13.6094779],[100.0948311,13.6097801],[100.0953289,13.6101964],[100.0951374,13.6105346],[100.0940269,13.6111556],[100.0926887,13.6129275],[100.0918144,13.6146568],[100.0926997,13.6152624],[100.090377,13.6210196],[100.0803011,13.6380187],[100.0769514,13.6574544],[100.080593,13.657793],[100.0840532,13.6573062],[100.0854385,13.6542999],[100.086493,13.6507151],[100.0931717,13.6531648],[100.0948361,13.6503523],[100.0988363,13.6517223],[100.1002465,13.648909],[100.1010118,13.6492237],[100.1013736,13.6485754],[100.1041268,13.6501326],[100.1047734,13.6489085],[100.1054753,13.6493211],[100.1073569,13.6462553],[100.1070063,13.6405615],[100.1129483,13.6308884],[100.115928,13.6251869],[100.1163633,13.6249324],[100.11815,13.6214073],[100.1184082,13.6200599],[100.1191176,13.6203918],[100.1193493,13.6199869],[100.1211235,13.6164504],[100.1207661,13.6162528],[100.1244926,13.6087123],[100.1249036,13.6088834],[100.1255599,13.6078368],[100.1280725,13.6091175],[100.131503,13.6023409]]]}},{"type":"Feature","properties":{"id":"TH-LAO-5740302","nameTh":"บ้านแพ้ว","type":"subdistrict_municipality"},"geometry":{"type":"Polygon","coordinates":[[[100.096638,13.5845254],[100.0959107,13.5842703],[100.0960504,13.5865766],[100.1127863,13.5950504],[100.1149106,13.5914631],[100.0981987,13.5832652],[100.0975326,13.583102],[100.096638,13.5845254]]]}}]}