{"type":"FeatureCollection","features":[{"type":"Feature","properties":{"provinceCode":"83","nameTh":"ภูเก็ต","nameEn":"Phuket"},"geometry":{"type":"Polygon","coordinates":[[[98.4924989,7.3660273],[98.4642582,7.3326289],[98.4393231,7.3086876],[98.3996618,7.2818552],[98.3594584,7.2679421],[98.3356075,7.2621601],[98.2913386,7.2614373],[98.2519483,7.2715559],[98.2037043,7.2943228],[98.1847319,7.309591],[98.166663,7.3269823],[98.142812,7.3548085],[98.1304348,7.377214],[98.1232975,7.4018781],[98.1223941,7.4129905],[98.1232975,7.4967399],[98.1391078,7.5509467],[98.1609534,7.586879],[98.1161603,7.6361417],[98.106132,7.6556562],[98.09773,7.6795072],[98.0905928,7.7968649],[98.0805645,7.8129462],[98.0735176,7.8372489],[98.0691811,7.8632682],[98.0680969,7.8869385],[98.0690004,7.9323819],[98.0756055,7.9687871],[98.0664707,8.0047479],[98.0648897,8.0379044],[98.0692262,8.074223],[98.0763635,8.1029526],[98.0952501,8.1325208],[98.0903725,8.1444525],[98.2775637,8.2010818],[98.298349,8.2021889],[98.3450581,8.1700545],[98.3680552,8.132708],[98.3810649,8.1225894],[98.3980497,8.119066],[98.4253338,8.1218667],[98.437711,8.1136453],[98.4555089,8.1050625],[98.4912176,8.1229056],[98.4924989,7.3660273]]]}}]}