{"type":"FeatureCollection","features":[{"type":"Feature","properties":{"id":"TH-LAO-3830102","nameTh":"ภูเก็ต","type":"city_municipality"},"geometry":{"type":"Polygon","coordinates":[[[98.3915977,7.8694583],[98.3804964,7.8664333],[98.3716679,7.8665835],[98.3728158,7.8896745],[98.3740604,7.8923685],[98.3739048,7.8932187],[98.3746505,7.8942761],[98.3753728,7.8943927],[98.376023,7.8931757],[98.3786837,7.8902319],[98.3792277,7.8898778],[98.379457,7.8907585],[98.3797574,7.8907585],[98.3821285,7.8895258],[98.3825469,7.8903759],[98.3833784,7.8909339],[98.3836091,7.8926661],[98.3836734,7.8936013],[98.3832872,7.8941752],[98.3797896,7.8965025],[98.3796072,7.8996216],[98.3788347,7.9002167],[98.3774614,7.8986439],[98.3758735,7.89807],[98.3736205,7.8986864],[98.3724725,7.9067097],[98.3751655,7.9083516],[98.376174,7.9082878],[98.3767748,7.9071534],[98.3791298,7.9066831],[98.3802804,7.9058436],[98.3806466,7.9058768],[98.3886945,7.9001688],[98.3919561,7.899866],[98.3918166,7.8961146],[98.3919775,7.8940636],[98.3924174,7.8932134],[98.3933616,7.8938829],[98.3971381,7.8943505],[98.3986294,7.8964228],[98.4026366,7.895376],[98.40298,7.8968426],[98.4032053,7.8968718],[98.4036452,7.8966619],[98.4041762,7.8954159],[98.4069309,7.8954876],[98.4072822,7.8935163],[98.4066921,7.8905513],[98.4071481,7.88875],[98.4115121,7.8784042],[98.4094226,7.8781544],[98.3997077,7.8730505],[98.4002767,7.8718483],[98.3988956,7.8706203],[98.3986108,7.8698998],[98.3998724,7.8682196],[98.399361,7.866335],[98.3999193,7.865517],[98.4015244,7.8644789],[98.4023604,7.8632481],[98.4022769,7.8626355],[98.401062,7.8620255],[98.4004982,7.8612164],[98.3951735,7.865253],[98.3933549,7.8661325],[98.3915977,7.8694583]]]}},{"type":"Feature","properties":{"id":"TH-LAO-5830105","nameTh":"รัษฎา","type":"subdistrict_municipality"},"geometry":{"type":"MultiPolygon","coordinates":[[[[98.4263618,7.8962263],[98.4244703,7.896041],[98.4226624,7.8947049],[98.42203,7.8945601],[98.4204715,7.8945332],[98.4195604,7.8951323],[98.4185005,7.8947797],[98.417818,7.8939151],[98.4193885,7.8917731],[98.4193522,7.889655],[98.4198959,7.8884225],[98.419618,7.8866395],[98.4185428,7.8862206],[98.4157521,7.8874771],[98.4150998,7.8873096],[98.4141333,7.8863882],[98.4141454,7.8848923],[98.4146044,7.8838153],[98.4158641,7.8821071],[98.4164407,7.8818288],[98.4179441,7.8792459],[98.4203343,7.8783247],[98.4199926,7.8774736],[98.4174658,7.8783256],[98.4172074,7.8781701],[98.41717,7.8765093],[98.4181984,7.8759633],[98.4177511,7.8758665],[98.4168048,7.8740412],[98.4162859,7.8718479],[98.4166704,7.8705941],[98.4164729,7.8693585],[98.4168548,7.8694721],[98.4177614,7.8712574],[98.4195518,7.8735091],[98.4238058,7.8749835],[98.4256844,7.8749619],[98.4269939,7.8737955],[98.4271245,7.8730229],[98.4287528,7.8724798],[98.429086,7.8703681],[98.4308795,7.8701444],[98.4326517,7.8692958],[98.4333019,7.8683616],[98.4333346,7.8670097],[98.4338514,7.8659581],[98.4358692,7.8664294],[98.4374279,7.865194],[98.4378058,7.8652178],[98.4387126,7.8660211],[98.4388277,7.8664984],[98.4379083,7.8676426],[98.4378621,7.8692617],[98.4365533,7.8700067],[98.435579,7.8694236],[98.434706,7.8694337],[98.4331176,7.8701518],[98.4323878,7.8722684],[98.4312427,7.872872],[98.4311295,7.8736906],[98.429874,7.8739157],[98.4296589,7.8747056],[98.4303948,7.8778196],[98.431237,7.8788532],[98.4320042,7.879164],[98.4327833,7.8783058],[98.4335276,7.878169],[98.4335706,7.8778263],[98.4344509,7.8780878],[98.4365304,7.8808259],[98.4381789,7.8820282],[98.4396659,7.882549],[98.4406999,7.8822566],[98.4410674,7.8818061],[98.4409684,7.8808765],[98.4413847,7.8800361],[98.4422964,7.8794072],[98.4434495,7.8802327],[98.4439663,7.8809793],[98.4438901,7.8814732],[98.4444923,7.8828917],[98.4450963,7.8831935],[98.4440583,7.8860348],[98.4441219,7.8874378],[98.4430055,7.8877768],[98.4423683,7.8870108],[98.4418689,7.8869234],[98.4403968,7.88789],[98.4393036,7.8900869],[98.4389223,7.8916664],[98.4390733,7.8928515],[98.4381524,7.8938902],[98.4378627,7.8949521],[98.4380132,7.8983238],[98.4384447,7.8999194],[98.4391813,7.9005812],[98.4402,7.904857],[98.4411623,7.9061721],[98.4411221,7.9071925],[98.4407466,7.9076295],[98.4413922,7.9087541],[98.4412023,7.909698],[98.4414716,7.9129052],[98.4419074,7.9143958],[98.4414842,7.9147957],[98.4409523,7.9151939],[98.4386958,7.9143244],[98.4379577,7.9136804],[98.4361335,7.9128919],[98.43503,7.9117668],[98.4329269,7.9117931],[98.4318111,7.9109004],[98.4316984,7.909202],[98.4319613,7.9080312],[98.4308071,7.9064994],[98.4313538,7.9062095],[98.4308967,7.905111],[98.4311185,7.9042667],[98.4304912,7.904086],[98.4301143,7.9034978],[98.4293169,7.9017863],[98.429654,7.9012574],[98.4290425,7.9014906],[98.4288668,7.9026065],[98.4285012,7.9020302],[98.4281276,7.8988193],[98.4281329,7.8971084],[98.4285074,7.8966824],[98.4276201,7.8962465],[98.4270941,7.8967606],[98.4265019,7.8966779],[98.4263618,7.8962263]]],[[[98.4002767,7.8718483],[98.402564,7.8731475],[98.4042693,7.8748681],[98.4054711,7.8751351],[98.4053956,7.875432],[98.4100725,7.8780268],[98.4106986,7.8776869],[98.411213,7.8778884],[98.4115034,7.8770592],[98.4125971,7.8770814],[98.412842,7.8758262],[98.4134259,7.8767361],[98.4138824,7.876382],[98.413953,7.8748949],[98.4128333,7.8727586],[98.41301,7.8722754],[98.4130934,7.8725207],[98.4134169,7.8722849],[98.4135577,7.871677],[98.4144243,7.8712052],[98.4153645,7.8748636],[98.4150844,7.8752135],[98.4156398,7.8752971],[98.4159965,7.8778797],[98.4159471,7.8805889],[98.4136759,7.8837661],[98.4135732,7.8864227],[98.4155631,7.8880379],[98.4167444,7.8878946],[98.4177592,7.8867937],[98.418327,7.8865903],[98.4194566,7.8870929],[98.4195895,7.8877032],[98.4188827,7.889911],[98.4190217,7.8917],[98.4185626,7.8925257],[98.4176686,7.8926394],[98.417139,7.8935842],[98.4182081,7.8947854],[98.4196262,7.8953142],[98.4205701,7.8947262],[98.4222572,7.8948827],[98.4242708,7.8961635],[98.425945,7.8966999],[98.4241238,7.8971836],[98.4225465,7.8969904],[98.4220527,7.8982141],[98.4222332,7.8992104],[98.4212271,7.9003422],[98.4212378,7.899035],[98.4206477,7.8989607],[98.4203688,7.8983337],[98.4207336,7.8981743],[98.4205512,7.8976748],[98.4199879,7.8980042],[98.4196929,7.8972391],[98.418502,7.8966918],[98.4176276,7.8973677],[98.4181747,7.8981636],[98.4187487,7.8982858],[98.4188828,7.8992157],[98.4195051,7.8999862],[98.4211412,7.9007354],[98.421182,7.9019914],[98.4224722,7.9028509],[98.4223485,7.9039136],[98.4211528,7.9045358],[98.4214746,7.9051147],[98.420899,7.9054247],[98.4208886,7.9063445],[98.4183424,7.9081542],[98.4162599,7.9086617],[98.4161446,7.9106924],[98.4148871,7.9128858],[98.4125402,7.9129554],[98.4117313,7.9133502],[98.4139713,7.9145806],[98.4138764,7.9158112],[98.4129059,7.9169774],[98.4106314,7.9177877],[98.4134676,7.9189075],[98.4141944,7.9205919],[98.4144689,7.9221306],[98.4140807,7.9240136],[98.4128651,7.9248849],[98.4132288,7.9268614],[98.4109816,7.9303177],[98.4064174,7.9280364],[98.4012847,7.9278433],[98.4013293,7.9303619],[98.4008268,7.9323363],[98.3985117,7.933399],[98.3978989,7.9332944],[98.3967085,7.9317944],[98.3954993,7.9311061],[98.3954149,7.9290841],[98.3918221,7.9288061],[98.3914027,7.9288552],[98.3904561,7.9301301],[98.3878235,7.9307591],[98.3876387,7.9317848],[98.3871337,7.932195],[98.3872091,7.9331563],[98.3840356,7.9338327],[98.382961,7.9334874],[98.3811452,7.93424],[98.3801467,7.9336712],[98.3790819,7.929606],[98.378353,7.9286477],[98.3767536,7.9297723],[98.3758744,7.929256],[98.3737095,7.9306256],[98.365937,7.9334138],[98.3652188,7.9304129],[98.3647743,7.9236445],[98.3638669,7.9208782],[98.3619848,7.9179215],[98.3632573,7.912443],[98.3640845,7.9102901],[98.36494,7.9095909],[98.3657839,7.9092716],[98.367147,7.9094328],[98.3677806,7.9075373],[98.3680985,7.9009635],[98.3690376,7.9025797],[98.3705213,7.9021437],[98.3708686,7.9024961],[98.371169,7.9039202],[98.3716357,7.904409],[98.3722418,7.9041911],[98.3720326,7.903256],[98.3727193,7.8980488],[98.3732235,7.8963165],[98.374949,7.8944936],[98.3753728,7.8943927],[98.376023,7.8931757],[98.3786837,7.8902319],[98.3792277,7.8898778],[98.379457,7.8907585],[98.3797574,7.8907585],[98.3821285,7.8895258],[98.3825469,7.8903759],[98.3833784,7.8909339],[98.3836734,7.8936013],[98.3832872,7.8941752],[98.3797896,7.8965025],[98.3796072,7.8996216],[98.3788347,7.9002167],[98.3774614,7.8986439],[98.3758735,7.89807],[98.3736205,7.8986864],[98.3724725,7.9067097],[98.3751655,7.9083516],[98.376174,7.9082878],[98.3767748,7.9071534],[98.3791298,7.9066831],[98.3802804,7.9058436],[98.3806466,7.9058768],[98.3886945,7.9001688],[98.3919561,7.899866],[98.3918166,7.8961146],[98.3919775,7.8940636],[98.3924174,7.8932134],[98.3933616,7.8938829],[98.3971381,7.8943505],[98.3986294,7.8964228],[98.4026366,7.895376],[98.40298,7.8968426],[98.4032053,7.8968718],[98.4036452,7.8966619],[98.4041762,7.8954159],[98.4069309,7.8954876],[98.4072822,7.8935163],[98.4066921,7.8905513],[98.4071481,7.88875],[98.4115121,7.8784042],[98.4094226,7.8781544],[98.3997077,7.8730505],[98.4002767,7.8718483]]]]}},{"type":"Feature","properties":{"id":"TH-LAO-5830106","nameTh":"วิชิต","type":"subdistrict_municipality"},"geometry":{"type":"Polygon","coordinates":[[[98.3757616,7.8420413],[98.3759892,7.8421264],[98.3772583,7.8378102],[98.3785662,7.837026],[98.3789146,7.8363408],[98.3779181,7.8342967],[98.3791816,7.8326957],[98.3791816,7.832377],[98.3787297,7.8321442],[98.3788255,7.831641],[98.3793262,7.8314887],[98.3800692,7.8303874],[98.3801505,7.8272929],[98.3807914,7.8248349],[98.382251,7.8226619],[98.3855638,7.8153862],[98.3863192,7.8110853],[98.3859067,7.8086524],[98.3879652,7.80696],[98.38914,7.8054088],[98.3895536,7.8054467],[98.38994,7.8082696],[98.3889729,7.8093531],[98.3902605,7.8117619],[98.3920456,7.8129506],[98.3932567,7.8134118],[98.3940001,7.8132931],[98.3942837,7.8136843],[98.3939752,7.8143363],[98.3964472,7.8139692],[98.3971469,7.8137053],[98.3976922,7.8119298],[98.399269,7.8099864],[98.4002717,7.8093993],[98.4004127,7.8086902],[98.4000175,7.8080088],[98.4008872,7.8071595],[98.4015142,7.8070112],[98.4020706,7.8063508],[98.4029688,7.8064935],[98.404333,7.8060794],[98.4067662,7.8044738],[98.4076888,7.8030261],[98.4079357,7.8015199],[98.408286,7.8011673],[98.4082677,7.7992083],[98.408958,7.7996396],[98.4097376,7.7991437],[98.4102361,7.799199],[98.4117816,7.800935],[98.4124818,7.8010163],[98.4124894,7.8024552],[98.4112281,7.8027601],[98.410425,7.8049493],[98.4105716,7.8082488],[98.409232,7.8085061],[98.4083989,7.8102499],[98.407893,7.8104231],[98.4065117,7.8096887],[98.4063207,7.8087506],[98.4053543,7.8085691],[98.4047377,7.8088471],[98.4031859,7.8112175],[98.4022083,7.8120008],[98.4019734,7.8135981],[98.4021652,7.8152111],[98.4030565,7.816274],[98.4040049,7.8154747],[98.4043243,7.8155294],[98.4046816,7.8162846],[98.4052482,7.8166092],[98.4052543,7.8170619],[98.4064629,7.817052],[98.4058777,7.8185641],[98.4062795,7.8187118],[98.4051405,7.8217535],[98.4044679,7.8215032],[98.4035787,7.8237664],[98.4016856,7.823178],[98.4008565,7.8241068],[98.402225,7.8266693],[98.4029979,7.827526],[98.403496,7.8271276],[98.4042575,7.8271519],[98.4050926,7.8284598],[98.4048485,7.8286644],[98.4049961,7.8290045],[98.4056264,7.8296562],[98.4043497,7.8302002],[98.402785,7.8297104],[98.4023649,7.8301957],[98.4018855,7.8325627],[98.402192,7.8339845],[98.4028235,7.8350437],[98.4030935,7.8352566],[98.4044373,7.8351172],[98.4054793,7.8356545],[98.4070878,7.8349291],[98.4078203,7.8351076],[98.4087468,7.8363485],[98.4099559,7.8363257],[98.4103518,7.8374967],[98.4094503,7.8384262],[98.408449,7.8383789],[98.4075148,7.8391524],[98.4058688,7.8383985],[98.404492,7.8390139],[98.4028309,7.837446],[98.4020219,7.8376726],[98.4021166,7.8385633],[98.4012994,7.8390362],[98.3982829,7.8392504],[98.3976086,7.838203],[98.3973305,7.8382359],[98.3971248,7.8387081],[98.3968807,7.8386087],[98.3971792,7.8398023],[98.3957727,7.8423962],[98.395634,7.8458818],[98.395311,7.8462689],[98.3948175,7.8488213],[98.3941518,7.8488731],[98.3947092,7.8492459],[98.393846,7.8503651],[98.3922091,7.8508197],[98.3934885,7.8521953],[98.3924255,7.852435],[98.3917161,7.8519654],[98.3925953,7.8532677],[98.3943972,7.8544679],[98.3941521,7.8548744],[98.3943257,7.8559353],[98.3933415,7.8575681],[98.3942288,7.857549],[98.3954368,7.8599615],[98.3987557,7.8609628],[98.3990247,7.8619693],[98.3988223,7.8624667],[98.3951735,7.865253],[98.3930921,7.8663862],[98.3915977,7.8694583],[98.3804964,7.8664333],[98.3716679,7.8665835],[98.3728158,7.8896745],[98.3740604,7.8923685],[98.3739048,7.8932187],[98.374949,7.8944936],[98.3732235,7.8963165],[98.3727193,7.8980488],[98.3720326,7.903256],[98.3722418,7.9041911],[98.3716357,7.904409],[98.371169,7.9039202],[98.3708686,7.9024961],[98.3705213,7.9021437],[98.3691165,7.9026267],[98.3676696,7.9004109],[98.3668423,7.9001385],[98.3657666,7.9005204],[98.3652322,7.8989433],[98.3642416,7.8991103],[98.3630395,7.8971208],[98.362209,7.8985781],[98.3617813,7.8983553],[98.3610225,7.8967231],[98.3614158,7.8963685],[98.359479,7.8952613],[98.3590803,7.8953478],[98.3589207,7.8941206],[98.3580343,7.8932051],[98.3569639,7.8905706],[98.3529997,7.8901128],[98.3501813,7.8870233],[98.3486117,7.8841019],[98.3452905,7.8798447],[98.3440227,7.8767686],[98.3416069,7.8744292],[98.3401122,7.8710738],[98.3398894,7.869404],[98.3402876,7.866709],[98.3399175,7.8647624],[98.3446698,7.8636871],[98.3486272,7.8649957],[98.3550669,7.8601305],[98.3533137,7.8580991],[98.3535451,7.8561745],[98.3548563,7.8545819],[98.3593114,7.8536891],[98.3614824,7.8510508],[98.3634168,7.850828],[98.3655904,7.8499589],[98.3651125,7.8513793],[98.3657738,7.8516712],[98.3671487,7.85016],[98.3659243,7.8482791],[98.3663237,7.8476759],[98.3691587,7.8476045],[98.3704092,7.8482077],[98.3710901,7.8478704],[98.3716663,7.8451269],[98.373159,7.8440048],[98.3743637,7.8439918],[98.375097,7.8436092],[98.3757616,7.8420413]]]}}]}