{"type":"FeatureCollection","features":[{"type":"Feature","properties":{"provinceCode":"76","nameTh":"เพชรบุรี","nameEn":"Phetchaburi"},"geometry":{"type":"Polygon","coordinates":[[[99.8715579,13.2503487],[99.8656874,13.2479989],[99.860351,13.2444222],[99.8523018,13.3071446],[99.8556612,13.3297447],[99.852348,13.3309525],[99.8505212,13.3295565],[99.8468839,13.3317437],[99.8361637,13.3337789],[99.8289777,13.3397182],[99.8264718,13.3387977],[99.82355,13.3399601],[99.8151918,13.3372281],[99.8127368,13.3378198],[99.8113976,13.3401633],[99.8087732,13.3394963],[99.8073992,13.3367957],[99.8036709,13.3358015],[99.8052739,13.3306633],[99.8036459,13.3293001],[99.7945238,13.3330085],[99.7893121,13.3323573],[99.788259,13.3335539],[99.7877465,13.3320224],[99.7827509,13.334303],[99.7820095,13.3322525],[99.7751198,13.3385762],[99.773121,13.3376229],[99.7716023,13.3409676],[99.7656675,13.3385582],[99.7657172,13.3410665],[99.7625749,13.3405915],[99.7617253,13.3425314],[99.7571664,13.3434165],[99.7559217,13.3409324],[99.7537569,13.3412544],[99.7504571,13.337556],[99.7461945,13.3390579],[99.7377552,13.3328833],[99.7306006,13.3313407],[99.7304814,13.3288714],[99.7282125,13.327733],[99.7163817,13.3247906],[99.7135759,13.3223465],[99.7079065,13.3221114],[99.7009726,13.3181872],[99.6943001,13.3057672],[99.6851971,13.2965766],[99.6840864,13.2915024],[99.6654987,13.2860852],[99.6635787,13.2815528],[99.6642559,13.2793376],[99.6608999,13.2788978],[99.6611308,13.2740939],[99.6597633,13.2729603],[99.6645837,13.2714755],[99.6682975,13.2682672],[99.6673759,13.2619245],[99.6687893,13.2575161],[99.664477,13.253999],[99.666394,13.2509118],[99.6654518,13.2429537],[99.6679122,13.237718],[99.6645612,13.2329369],[99.6657779,13.2303915],[99.663568,13.2300473],[99.6651907,13.2229831],[99.6624306,13.2180667],[99.6646115,13.2149386],[99.6616202,13.2114774],[99.6585361,13.2134377],[99.6525409,13.21366],[99.6383578,13.2102329],[99.6368764,13.2075291],[99.6368912,13.2016864],[99.6271378,13.2057185],[99.6222146,13.2038763],[99.6176057,13.2053618],[99.6130895,13.2034076],[99.6026057,13.2057003],[99.5973807,13.2033337],[99.5942707,13.1985174],[99.5856008,13.200303],[99.5786118,13.1977132],[99.5743484,13.1984769],[99.57162,13.201827],[99.5641168,13.2051093],[99.5602314,13.2055565],[99.5571361,13.2039605],[99.551077,13.2076784],[99.5475644,13.2032145],[99.5445071,13.2026172],[99.5388613,13.204327],[99.5377171,13.2075494],[99.5345245,13.2071444],[99.5314675,13.209278],[99.5292982,13.2071457],[99.5225376,13.2100379],[99.5149002,13.2019328],[99.5138516,13.1991733],[99.5149305,13.1941759],[99.509994,13.1907714],[99.5086925,13.183082],[99.5066629,13.1803791],[99.5008648,13.1806317],[99.5001624,13.1849481],[99.49445,13.1870497],[99.4903568,13.1919086],[99.4863894,13.1912729],[99.4813989,13.199028],[99.4786569,13.2005054],[99.4692379,13.1927543],[99.4639439,13.1839877],[99.4592277,13.1864005],[99.4424826,13.183455],[99.4380284,13.185848],[99.4333064,13.1915379],[99.4322895,13.1952249],[99.4280583,13.1984344],[99.4202184,13.1973799],[99.4145317,13.1989903],[99.4070798,13.2128793],[99.4015422,13.2134218],[99.3987949,13.2176367],[99.3964936,13.216899],[99.3935817,13.2128708],[99.3715665,13.2207649],[99.3717139,13.2281702],[99.368249,13.2336794],[99.3583905,13.2331596],[99.3506935,13.2439618],[99.3441725,13.238604],[99.3422963,13.2345923],[99.3385121,13.2329406],[99.3387779,13.2281811],[99.3352341,13.220732],[99.3233121,13.2228526],[99.3250457,13.2154625],[99.3215303,13.213572],[99.3186988,13.2025353],[99.3196389,13.1897753],[99.3246579,13.187087],[99.3262939,13.1829628],[99.324167,13.1775316],[99.2822595,13.152532],[99.2719195,13.1487936],[99.2700743,13.1490987],[99.2652088,13.155333],[99.2632802,13.1608534],[99.2471186,13.1794975],[99.2458386,13.1856208],[99.2394084,13.1874635],[99.2275961,13.202975],[99.2215003,13.2045688],[99.2162049,13.2011612],[99.210701,13.207613],[99.204172,13.20408],[99.203277,13.198894],[99.19982,13.193978],[99.197475,13.193537],[99.19445,13.197355],[99.190576,13.193095],[99.186503,13.193893],[99.184049,13.192454],[99.181611,13.193038],[99.175129,13.202099],[99.166194,13.205519],[99.164141,13.207884],[99.156148,13.208397],[99.146641,13.205448],[99.139064,13.205733],[99.130854,13.202569],[99.123292,13.19472],[99.125144,13.188351],[99.123477,13.182182],[99.120345,13.180401],[99.116594,13.174816],[99.122227,13.169901],[99.126456,13.169616],[99.129619,13.166196],[99.13374,13.164629],[99.137196,13.150795],[99.130144,13.142717],[99.131209,13.137545],[99.135437,13.135308],[99.136888,13.132701],[99.1332,13.122956],[99.133925,13.118554],[99.129666,13.118639],[99.127999,13.115604],[99.128786,13.108794],[99.12732,13.10318],[99.131147,13.097311],[99.129495,13.095829],[99.119773,13.0961],[99.114521,13.088274],[99.111517,13.088064],[99.107613,13.083334],[99.104789,13.084944],[99.102844,13.083577],[99.099773,13.078362],[99.099418,13.073105],[99.103323,13.068261],[99.103786,13.063631],[99.110206,13.063474],[99.11448,13.058373],[99.113662,13.054284],[99.116548,13.048841],[99.125761,13.038199],[99.134264,13.03344],[99.139481,13.032315],[99.141101,13.034993],[99.145561,13.033512],[99.147876,13.026716],[99.154342,13.026972],[99.157798,13.019763],[99.162783,13.020347],[99.170854,13.015062],[99.168648,13.009847],[99.17354,13.000658],[99.175962,13.000202],[99.180037,12.995714],[99.180142,12.993252],[99.189265,12.990145],[99.1917,12.991747],[99.194853,12.990575],[99.190197,12.984086],[99.189604,12.979865],[99.186979,12.978047],[99.189562,12.968275],[99.193202,12.9655],[99.195065,12.95997],[99.195446,12.956608],[99.193562,12.952523],[99.1888,12.951898],[99.184122,12.944706],[99.172607,12.943084],[99.17066,12.934348],[99.168374,12.932941],[99.167442,12.929071],[99.162256,12.928251],[99.16541,12.92444],[99.175211,12.920785],[99.182534,12.91117],[99.183169,12.89274],[99.18065,12.887112],[99.188567,12.880037],[99.187043,12.876363],[99.187445,12.868682],[99.184926,12.861725],[99.18717,12.855998],[99.185984,12.850174],[99.18863,12.845152],[99.191319,12.845933],[99.197796,12.844175],[99.198409,12.840227],[99.205903,12.836455],[99.210517,12.826097],[99.217523,12.82895],[99.219111,12.823224],[99.222138,12.822149],[99.222434,12.816599],[99.226054,12.808058],[99.225673,12.798951],[99.229398,12.796293],[99.227832,12.790235],[99.230731,12.783844],[99.234457,12.780365],[99.232721,12.766216],[99.234838,12.761271],[99.234076,12.751324],[99.231049,12.745676],[99.227937,12.743858],[99.233991,12.738054],[99.23905,12.726034],[99.247623,12.71939],[99.253632,12.723804],[99.260268,12.725672],[99.26422,12.725062],[99.270262,12.728474],[99.27876,12.716046],[99.289875,12.714764],[99.288418,12.709309],[99.290252,12.706645],[99.289677,12.699062],[99.295823,12.695575],[99.3008,12.690307],[99.299518,12.684828],[99.295323,12.682388],[99.294581,12.67778],[99.302742,12.674393],[99.307342,12.671043],[99.309055,12.667631],[99.31391,12.667345],[99.318361,12.669499],[99.333725,12.665465],[99.338122,12.662339],[99.338473,12.659176],[99.344853,12.648292],[99.34376,12.64315],[99.344866,12.64097],[99.348171,12.639638],[99.354482,12.640572],[99.356303,12.636151],[99.365206,12.635255],[99.36704,12.633137],[99.365246,12.625692],[99.370452,12.622192],[99.377722,12.621856],[99.378923,12.615953],[99.386329,12.616999],[99.388271,12.615107],[99.390334,12.616215],[99.397133,12.612205],[99.399898,12.613936],[99.406426,12.612965],[99.413049,12.615082],[99.421074,12.608681],[99.420305,12.604248],[99.423272,12.601621],[99.425376,12.594933],[99.433604,12.589678],[99.440796,12.5810736],[99.4552985,12.5791885],[99.4614035,12.5819262],[99.4635267,12.5857098],[99.4692569,12.5865328],[99.473429,12.5891151],[99.4791107,12.5901469],[99.4833069,12.5884032],[99.4877571,12.5908645],[99.4912839,12.5896363],[99.4967717,12.5929517],[99.49706,12.57808],[99.4987425,12.5734199],[99.5053752,12.5688453],[99.5099397,12.5683578],[99.5155869,12.5636317],[99.520224,12.5645499],[99.5240743,12.5632081],[99.5260936,12.5653681],[99.5305877,12.565753],[99.535048,12.5686639],[99.5364071,12.5725888],[99.5398322,12.5736281],[99.5443711,12.5785801],[99.548385,12.579837],[99.5565529,12.5774569],[99.5778948,12.5779137],[99.5801372,12.5745553],[99.5884908,12.5705465],[99.590377,12.5722371],[99.5988434,12.5734241],[99.6090413,12.5795316],[99.6162601,12.5810004],[99.6236087,12.5946674],[99.6283991,12.6003493],[99.6233793,12.6058689],[99.6186966,12.6073513],[99.6137624,12.6152323],[99.613994,12.6191226],[99.6196078,12.6225042],[99.6197943,12.6277743],[99.6173697,12.6304162],[99.6196048,12.6319714],[99.6201528,12.635087],[99.6162314,12.6407378],[99.6225049,12.6446011],[99.6379489,12.6409402],[99.6475158,12.64257],[99.6496441,12.6398392],[99.6559957,12.6388906],[99.6581974,12.6330276],[99.6639601,12.6376378],[99.671365,12.635987],[99.6731942,12.637511],[99.6751515,12.6348724],[99.6777513,12.6369558],[99.6792834,12.6349469],[99.6840233,12.6354637],[99.6863894,12.632239],[99.6925114,12.6307621],[99.7109823,12.6321932],[99.7318112,12.6305413],[99.7445165,12.6193736],[99.7547614,12.6188746],[99.7578452,12.6154376],[99.7681229,12.6142038],[99.7728846,12.6174468],[99.7729952,12.6227346],[99.7772008,12.6258218],[99.7826362,12.6222119],[99.7850141,12.6250794],[99.7843398,12.6216908],[99.7878384,12.621483],[99.7876611,12.6233002],[99.7908175,12.6222722],[99.7945547,12.6290639],[99.7982348,12.6298918],[99.7972443,12.6290679],[99.7981918,12.6281819],[99.8013804,12.6301678],[99.8022293,12.6290346],[99.8055221,12.6314317],[99.8123314,12.6284659],[99.8263365,12.633361],[99.8308096,12.6303307],[99.8328542,12.6314463],[99.8336066,12.6294313],[99.8368001,12.6304779],[99.8402463,12.6261599],[99.846279,12.6302155],[99.8493379,12.6283808],[99.8543079,12.6299809],[99.8538506,12.6275271],[99.8557657,12.62501],[99.8641656,12.6233218],[99.8711757,12.6265284],[99.8759763,12.6262587],[99.8836327,12.6201073],[99.8903323,12.6240757],[99.8932293,12.6289815],[99.8975774,12.6284988],[99.9050338,12.636183],[99.9162013,12.639094],[99.9211139,12.6391375],[99.9223538,12.6369251],[99.9261247,12.6361629],[99.9270199,12.6392136],[99.9296233,12.6397664],[99.9402656,12.6362687],[99.9452825,12.632757],[99.9521805,12.6349828],[99.9555376,12.6326584],[100.4536557,12.660211],[100.4540891,13.2191019],[100.1623,13.2198305],[99.9538841,13.2971092],[99.9429593,13.2958586],[99.9358279,13.2930745],[99.9333233,13.2883286],[99.9339146,13.2851475],[99.926446,13.2829751],[99.9229111,13.2839806],[99.9211076,13.28237],[99.9184373,13.2851849],[99.9146998,13.2819045],[99.9115267,13.2808486],[99.9096036,13.2821167],[99.9074907,13.2773273],[99.909308,13.2741894],[99.9080479,13.271215],[99.9099655,13.2706489],[99.9107686,13.2679181],[99.9078055,13.2639314],[99.8991436,13.2672138],[99.8934582,13.2660917],[99.8921579,13.2638472],[99.8900633,13.2649253],[99.8885145,13.2633699],[99.8865525,13.2638524],[99.8863335,13.2607729],[99.8842178,13.2609903],[99.8814779,13.2584993],[99.8847914,13.2526614],[99.8873378,13.2524422],[99.8871857,13.2508056],[99.8911499,13.2483279],[99.8932492,13.2444543],[99.892323,13.2429972],[99.8897179,13.2420946],[99.8885741,13.2444392],[99.8827459,13.2468931],[99.8806117,13.2497021],[99.8776215,13.249774],[99.8773356,13.2512664],[99.8715579,13.2503487]]]}}]}