{"type":"FeatureCollection","features":[{"type":"Feature","properties":{"id":"TH-LAO-4760401","nameTh":"ชะอำ","type":"town_municipality"},"geometry":{"type":"Polygon","coordinates":[[[99.9472176,12.8489479],[100.0007735,12.8394874],[99.9985835,12.8347367],[99.9973057,12.8309792],[99.995086,12.8265654],[99.9941484,12.824057],[99.9936375,12.8205619],[99.9942753,12.8181862],[99.9975749,12.8167004],[99.997915,12.8170069],[99.9978579,12.81655],[100.0024807,12.8142964],[99.9974272,12.816542],[99.9965149,12.8151336],[100.0020721,12.8124738],[99.9964316,12.8150091],[99.9912099,12.8097323],[99.9889159,12.8057359],[99.9863419,12.8002765],[99.9843464,12.7946792],[99.984347,12.7939554],[99.9803524,12.7843955],[99.9745794,12.7687013],[99.9729396,12.7620889],[99.9709031,12.7561326],[99.9664105,12.7398335],[99.9657418,12.7341985],[99.9647592,12.7306454],[99.9641781,12.7261461],[99.9641158,12.7210465],[99.964753,12.7197946],[99.9642691,12.7194512],[99.9642192,12.7162097],[99.9645682,12.7152824],[99.9657775,12.7152272],[99.9645424,12.7151747],[99.9640581,12.7113426],[99.9648586,12.7077847],[99.9652947,12.7073334],[99.966395,12.7076387],[99.9667987,12.7080798],[99.9671568,12.7075588],[99.9669736,12.7074171],[99.9672646,12.7074614],[99.9667774,12.7068705],[99.9660003,12.7073379],[99.9651417,12.7062561],[99.9645409,12.7039954],[99.9643156,12.7004369],[99.9641538,12.6932385],[99.9648843,12.6917683],[99.9656368,12.6917469],[99.9661353,12.69215],[99.9665245,12.6915266],[99.9660582,12.6909596],[99.9656559,12.6913749],[99.9650682,12.6912178],[99.9645233,12.6902968],[99.9629895,12.6856132],[99.9609501,12.6765382],[99.9593265,12.6664091],[99.9587069,12.6641842],[99.9571517,12.6525176],[99.9555376,12.6326584],[99.9550428,12.6326991],[99.9538854,12.6337494],[99.9533662,12.6337453],[99.9521805,12.6349828],[99.9492367,12.6347936],[99.9476203,12.6340302],[99.9462247,12.6339909],[99.9452825,12.632757],[99.9431005,12.6342674],[99.9403488,12.6353555],[99.9402656,12.6362687],[99.9331882,12.6379766],[99.9329387,12.6385937],[99.9296233,12.6397664],[99.9282646,12.639823],[99.9270199,12.6392136],[99.9261247,12.6361629],[99.9235281,12.6371816],[99.9225162,12.6368336],[99.9214875,12.6389584],[99.919108,12.6389222],[99.9236141,12.725744],[99.9472176,12.8489479]]]}}]}