{"type":"FeatureCollection","features":[{"type":"Feature","properties":{"provinceCode":"56","nameTh":"พะเยา","nameEn":"Phayao"},"geometry":{"type":"Polygon","coordinates":[[[100.0270593,18.8974586],[100.0292056,18.9003423],[100.0338253,18.9023222],[100.0373784,18.897596],[100.039583,18.8906445],[100.0432352,18.889774],[100.0452407,18.8850327],[100.0508772,18.8856965],[100.05502,18.8812106],[100.0611505,18.8799986],[100.0662629,18.8674293],[100.0703244,18.8652781],[100.0697268,18.857196],[100.0665189,18.8516476],[100.0692698,18.8486111],[100.0687924,18.8443612],[100.0643819,18.8408471],[100.0608991,18.8295873],[100.0661127,18.8275498],[100.0651639,18.8209603],[100.0669712,18.8198061],[100.0669237,18.8163386],[100.0768358,18.8198103],[100.0805705,18.8243638],[100.0849082,18.8252634],[100.0858699,18.8277765],[100.0956739,18.8203333],[100.1004511,18.8141604],[100.1057904,18.8139098],[100.111457,18.809009],[100.1140246,18.8085514],[100.1173194,18.8195537],[100.1334307,18.8171375],[100.1386922,18.8238738],[100.1446261,18.8245084],[100.1464214,18.8274836],[100.1491223,18.8272979],[100.1537206,18.8300628],[100.1531953,18.8327556],[100.1559326,18.8354709],[100.1653975,18.8191031],[100.1736494,18.8134478],[100.1764998,18.8134729],[100.1874653,18.8191335],[100.1990106,18.8145182],[100.2093928,18.819192],[100.215875,18.8184219],[100.2193294,18.8217963],[100.2218123,18.8209028],[100.2262948,18.8254836],[100.2339265,18.8237347],[100.2414027,18.8195229],[100.2493825,18.8226863],[100.2554803,18.8190335],[100.25773,18.8211457],[100.2632261,18.8189612],[100.2680668,18.8200763],[100.2717846,18.8185587],[100.2783205,18.8210339],[100.2932476,18.8174657],[100.3020109,18.8185003],[100.312536,18.8100965],[100.3186645,18.8118616],[100.3259044,18.8106729],[100.3302227,18.8132852],[100.333191,18.8121853],[100.3384021,18.813247],[100.3403838,18.8059555],[100.3450603,18.8139174],[100.336139,18.8194072],[100.3399064,18.8226574],[100.3393909,18.8256764],[100.347113,18.828408],[100.3468513,18.8332583],[100.3640141,18.8485315],[100.3663082,18.8533307],[100.3629848,18.8608177],[100.3661702,18.8700564],[100.3823862,18.8852614],[100.3884658,18.8937797],[100.3882302,18.9009091],[100.3898303,18.9079148],[100.3916708,18.9096825],[100.3909831,18.9257322],[100.3985011,18.9324248],[100.4067122,18.935679],[100.4074326,18.9392327],[100.4051183,18.9446573],[100.4160912,18.9453014],[100.4238851,18.9485236],[100.4270943,18.9453303],[100.4334352,18.946291],[100.4419133,18.9442211],[100.4536881,18.9345531],[100.4585807,18.9424887],[100.4740122,18.9492513],[100.4797482,18.950048],[100.482487,18.9523034],[100.480268,18.9597255],[100.4812976,18.9659336],[100.4890871,18.9685765],[100.4912708,18.9741413],[100.4984639,18.9784849],[100.5043724,18.9955684],[100.4849164,19.0021717],[100.4740188,19.0020218],[100.471716,19.0036234],[100.4687192,19.0021582],[100.4595462,19.0028882],[100.4551706,19.0071035],[100.4603543,19.0127161],[100.4661436,19.0143092],[100.4662572,19.0181],[100.4699418,19.017793],[100.4714346,19.0214895],[100.4777271,19.0243083],[100.4798582,19.0271872],[100.4779005,19.0274675],[100.4777922,19.0291328],[100.4821852,19.0317498],[100.4819745,19.0351471],[100.4798754,19.0365428],[100.4825827,19.0360119],[100.4814233,19.0377219],[100.4846956,19.0378418],[100.4858292,19.0409034],[100.4899042,19.0390203],[100.4919573,19.0433027],[100.4931672,19.0427126],[100.4936939,19.0523613],[100.5116341,19.0483823],[100.5150567,19.0444967],[100.5213486,19.0444333],[100.531388,19.0413177],[100.5334461,19.0419048],[100.5356972,19.0462201],[100.5382573,19.0469191],[100.5431265,19.0462627],[100.5486551,19.0403448],[100.551682,19.0412358],[100.5538287,19.0447429],[100.5567884,19.0447367],[100.5618205,19.0347464],[100.5657975,19.0313659],[100.583147,19.0311617],[100.5863275,19.0278929],[100.5919329,19.0275214],[100.6042008,19.0204219],[100.6192892,19.0336481],[100.6174996,19.0381175],[100.6105672,19.0454728],[100.5988768,19.0495511],[100.5934771,19.0541123],[100.5895065,19.0550657],[100.582142,19.0606963],[100.5804971,19.0643709],[100.5658642,19.0727404],[100.5668128,19.0741221],[100.563975,19.0746181],[100.5638798,19.0762046],[100.5682006,19.0787894],[100.5635113,19.0796367],[100.5665474,19.0841624],[100.5657582,19.0852194],[100.5699033,19.0869753],[100.5695348,19.0888959],[100.5722513,19.0917273],[100.568439,19.0929407],[100.568524,19.0986742],[100.5728561,19.1043351],[100.5761471,19.1053147],[100.5792264,19.1033389],[100.580658,19.101077],[100.580056,19.0973145],[100.5853952,19.0953047],[100.5856479,19.0972454],[100.5872806,19.0965595],[100.5888949,19.0988951],[100.5912981,19.0980139],[100.5937202,19.0995495],[100.5933138,19.1014203],[100.5970061,19.1013916],[100.6018816,19.1047572],[100.6017942,19.1034121],[100.603596,19.1039466],[100.605836,19.1020123],[100.6064672,19.1037223],[100.6091786,19.1038769],[100.6095642,19.1015176],[100.6095755,19.1049643],[100.6111577,19.104066],[100.6232657,19.1113694],[100.6259475,19.1229272],[100.6225742,19.1385412],[100.6245513,19.1412314],[100.6248224,19.1454293],[100.6287794,19.1508389],[100.6289628,19.1546089],[100.6253274,19.1668557],[100.6257115,19.1719968],[100.6223766,19.1736817],[100.6222536,19.1768457],[100.6180326,19.1822785],[100.6181892,19.1928377],[100.6217118,19.1995496],[100.6187606,19.2137654],[100.6169206,19.2159633],[100.6156744,19.2230382],[100.6167403,19.2270098],[100.6114873,19.2329134],[100.600139,19.2522046],[100.6049287,19.2569964],[100.6057683,19.2647526],[100.6043748,19.2689392],[100.6077392,19.2782517],[100.6100835,19.2805812],[100.6098892,19.2855913],[100.6118367,19.288358],[100.6100433,19.2961053],[100.612382,19.3158665],[100.6163421,19.3196368],[100.6137775,19.3277021],[100.6097164,19.3310576],[100.6088809,19.334171],[100.5986277,19.3271391],[100.5916689,19.3269523],[100.5909564,19.3207258],[100.5876696,19.3180508],[100.5863046,19.3140175],[100.5741279,19.3081586],[100.5699802,19.3046023],[100.565624,19.3105456],[100.5611581,19.3116421],[100.5616197,19.3159094],[100.558047,19.3212843],[100.5594772,19.3283627],[100.558195,19.3345491],[100.5628855,19.3394745],[100.5596406,19.3409015],[100.5541515,19.3405802],[100.5461379,19.3489888],[100.5357089,19.3503085],[100.5299926,19.3532232],[100.5319582,19.3599273],[100.5339306,19.3611024],[100.5325732,19.362449],[100.5338855,19.3673438],[100.5262108,19.3713495],[100.522959,19.3753563],[100.5214775,19.3806025],[100.5152916,19.3789944],[100.5056883,19.3713284],[100.4964003,19.3711837],[100.4944742,19.3800996],[100.4866686,19.3815675],[100.4847499,19.383408],[100.4892721,19.3877436],[100.4873354,19.3911498],[100.4885828,19.3935013],[100.4880949,19.3995514],[100.4923759,19.3988279],[100.5061274,19.4030296],[100.5096888,19.4064513],[100.5183826,19.4059269],[100.5261936,19.4088785],[100.5347182,19.4146697],[100.5418956,19.4173711],[100.5643246,19.4357072],[100.5653768,19.4539233],[100.5695214,19.458284],[100.5712406,19.4635842],[100.5753583,19.4658818],[100.5831359,19.4754556],[100.5879902,19.4749039],[100.6025159,19.4792138],[100.6034012,19.4851338],[100.5989827,19.4982885],[100.5985978,19.5100258],[100.596407,19.507121],[100.588616,19.505633],[100.583512,19.502738],[100.580467,19.498852],[100.575183,19.499101],[100.566676,19.506873],[100.556916,19.510511],[100.548946,19.519442],[100.545095,19.519194],[100.538827,19.52308],[100.532916,19.524238],[100.529155,19.519855],[100.523245,19.51878],[100.519753,19.522253],[100.513037,19.523328],[100.508291,19.531101],[100.501037,19.538212],[100.485545,19.54326],[100.482411,19.548221],[100.482679,19.552851],[100.480709,19.558639],[100.489037,19.5679],[100.491186,19.577244],[100.489127,19.583115],[100.484202,19.587084],[100.487157,19.593781],[100.481605,19.605358],[100.483217,19.609161],[100.478023,19.612634],[100.469605,19.613792],[100.459755,19.618588],[100.455456,19.627766],[100.447487,19.627435],[100.443009,19.634794],[100.442024,19.641409],[100.444621,19.648686],[100.442561,19.652489],[100.443726,19.661585],[100.427875,19.672665],[100.430562,19.676882],[100.430025,19.683414],[100.435756,19.693998],[100.443726,19.701853],[100.446054,19.707063],[100.439785,19.711197],[100.437189,19.719218],[100.430651,19.72145],[100.425279,19.728148],[100.419189,19.728148],[100.417577,19.731455],[100.41104,19.734846],[100.4065764,19.7360621],[100.4045121,19.731896],[100.3961132,19.728823],[100.3901588,19.7213029],[100.3896325,19.7150939],[100.3844856,19.7099544],[100.373771,19.7079568],[100.3607735,19.7159365],[100.3563325,19.7116716],[100.3515034,19.71513],[100.3369641,19.7086448],[100.3336895,19.7026314],[100.3415629,19.6877686],[100.331456,19.6794213],[100.3273207,19.6681241],[100.3196471,19.6567779],[100.3181531,19.6501746],[100.3120632,19.6493095],[100.311023,19.6460784],[100.3056091,19.6459678],[100.3037588,19.6440224],[100.3011363,19.6468782],[100.2995279,19.6450808],[100.2938424,19.645689],[100.2904766,19.6426893],[100.2861275,19.6448117],[100.2836198,19.6435305],[100.2809168,19.6466658],[100.2804242,19.6520554],[100.2757323,19.650602],[100.2737099,19.6456436],[100.2691773,19.6469299],[100.2699698,19.6421269],[100.2682842,19.6416043],[100.2661639,19.6468773],[100.2611168,19.6488169],[100.2601587,19.6476765],[100.2620629,19.6465242],[100.261354,19.6450674],[100.2572977,19.6450445],[100.2567898,19.6425978],[100.2530351,19.641747],[100.2528793,19.6351858],[100.2470012,19.634414],[100.2444082,19.6296842],[100.2398823,19.6259963],[100.2343413,19.6107642],[100.2299305,19.6057887],[100.218965,19.6110038],[100.2139844,19.6081354],[100.2076558,19.6072793],[100.2037091,19.6105634],[100.1950041,19.6089738],[100.1871458,19.6096623],[100.1840077,19.6138467],[100.1808346,19.6123019],[100.1793419,19.6133815],[100.1789015,19.6093099],[100.1759427,19.611761],[100.1743995,19.6112416],[100.1759043,19.6107546],[100.1744729,19.6091735],[100.176116,19.6082797],[100.1720976,19.6053343],[100.1716667,19.6028468],[100.1701661,19.6035995],[100.1678126,19.6019025],[100.1698077,19.5991303],[100.1735406,19.5981575],[100.1708742,19.5959364],[100.1715917,19.5931038],[100.1667093,19.5912207],[100.1701171,19.5870488],[100.1688821,19.5863265],[100.1678137,19.5878609],[100.1646482,19.5848194],[100.1652065,19.5833609],[100.1681311,19.5829286],[100.166512,19.5800679],[100.168853,19.5755703],[100.166432,19.5738637],[100.1649173,19.5757219],[100.1627872,19.5755532],[100.1622554,19.5738973],[100.1641605,19.5727894],[100.1620354,19.5685023],[100.1636894,19.5691624],[100.1650452,19.5657316],[100.1687281,19.5653902],[100.1648025,19.5626271],[100.1666872,19.5606089],[100.1662642,19.5574527],[100.1639012,19.5590983],[100.1621978,19.5563829],[100.1654598,19.5558147],[100.164428,19.5535454],[100.1658406,19.5517211],[100.1621704,19.5512315],[100.1637671,19.547186],[100.1620709,19.5426104],[100.1593631,19.5425814],[100.1586557,19.5448696],[100.1547421,19.5461577],[100.0975277,19.554542],[100.0957693,19.5531693],[100.0836509,19.5521986],[100.0812996,19.5493323],[100.0724378,19.5445839],[100.0677242,19.5398602],[100.0697117,19.5319284],[100.0666123,19.5256577],[100.0656608,19.510257],[100.0670982,19.5066909],[100.06516,19.5034355],[100.0700266,19.4836627],[100.0668171,19.478524],[100.0674283,19.4758449],[100.0655745,19.4704242],[100.0702831,19.4628696],[100.0703073,19.4562129],[100.0653616,19.4483865],[100.0649413,19.4427083],[100.0691732,19.4415245],[100.0720002,19.4341579],[100.068639,19.4314832],[100.0629687,19.434248],[100.0604355,19.4323907],[100.0599651,19.434572],[100.0563749,19.4354258],[100.0546714,19.4316223],[100.0516503,19.4309782],[100.0492998,19.435445],[100.051199,19.440607],[100.0490618,19.4405337],[100.0478161,19.44326],[100.0458835,19.4418354],[100.0446669,19.4439994],[100.0393594,19.4450371],[100.0375796,19.4419844],[100.0330357,19.4438816],[100.0309374,19.4426401],[100.032043,19.4409332],[100.0277243,19.4386751],[100.0273663,19.4360982],[100.0232734,19.4370608],[100.0182444,19.4358717],[100.0174838,19.438303],[100.010178,19.438906],[100.0086856,19.4339393],[100.0104086,19.4303027],[100.0133497,19.4284178],[100.0106276,19.4257458],[100.0083305,19.4290326],[100.0012298,19.431204],[100.0010036,19.4344417],[99.9981447,19.4356687],[99.9954934,19.4338752],[99.9968783,19.4309362],[99.9919623,19.4290413],[99.9861723,19.4327587],[99.9819848,19.4314289],[99.9817393,19.4295801],[99.9735741,19.4276498],[99.9677141,19.4296323],[99.9624968,19.4277181],[99.947777,19.4285455],[99.9440913,19.4258112],[99.944815,19.423278],[99.9422607,19.4195838],[99.9297163,19.4155815],[99.9266117,19.4103805],[99.9200825,19.4063948],[99.918362,19.4191269],[99.914442,19.4324552],[99.9069114,19.4316186],[99.8990577,19.4256949],[99.8944351,19.4376004],[99.8859854,19.4475266],[99.879663,19.4491749],[99.8779135,19.4539975],[99.8745751,19.4552355],[99.8711177,19.453592],[99.8638676,19.4458682],[99.8525144,19.44665],[99.843785,19.4445806],[99.8288562,19.4455556],[99.8035108,19.4515431],[99.7868556,19.4510489],[99.775121,19.4417213],[99.7709218,19.4432512],[99.7658294,19.4413733],[99.7553359,19.4411065],[99.7512639,19.4353625],[99.7453437,19.4320504],[99.7400226,19.4312143],[99.7400383,19.4295647],[99.736228,19.4288082],[99.7313832,19.4242095],[99.7269452,19.4251203],[99.723704,19.4228684],[99.7168615,19.4224569],[99.7140998,19.419636],[99.7065199,19.4253645],[99.7048253,19.4224716],[99.7016745,19.4224838],[99.6992888,19.4196069],[99.6878226,19.420011],[99.6829461,19.422322],[99.684911,19.4083794],[99.6874172,19.4052292],[99.6885755,19.3930477],[99.6957254,19.3810431],[99.6914222,19.3597825],[99.6949867,19.354242],[99.6994585,19.3518467],[99.7014705,19.3464573],[99.7075573,19.3443326],[99.7081281,19.3292876],[99.7016281,19.3177151],[99.6980007,19.305447],[99.6985952,19.3014401],[99.7020175,19.2987175],[99.7029139,19.2846605],[99.7053072,19.2760613],[99.7034759,19.2675504],[99.7045465,19.2618065],[99.7021811,19.2545197],[99.7058729,19.2478337],[99.7031283,19.24454],[99.705177,19.2406617],[99.7098752,19.2373524],[99.7111462,19.2267368],[99.7151175,19.2202149],[99.7156295,19.2149831],[99.7141015,19.2114675],[99.7191407,19.2071166],[99.7221803,19.1988342],[99.7220525,19.19195],[99.7261536,19.1876637],[99.7285689,19.1814811],[99.7261393,19.1698884],[99.730142,19.1692567],[99.7332037,19.1665816],[99.734572,19.162454],[99.7391334,19.1591045],[99.7435826,19.142152],[99.758611,19.1340352],[99.7591613,19.1289574],[99.757324,19.120098],[99.7602326,19.1151922],[99.7622406,19.1044836],[99.7640961,19.1017787],[99.7651425,19.0965656],[99.7635283,19.0899544],[99.7691721,19.0779305],[99.7742724,19.0760316],[99.7732704,19.0642112],[99.7821186,19.0593177],[99.782178,19.0555953],[99.7875316,19.0562085],[99.7955008,19.0530969],[99.7992879,19.0562918],[99.8054522,19.0582668],[99.8125286,19.0583609],[99.8148295,19.0625073],[99.8192688,19.061445],[99.8186806,19.0548027],[99.8214875,19.0518153],[99.8215283,19.0482286],[99.8272725,19.0421419],[99.8336602,19.0391243],[99.8300136,19.0318703],[99.8350586,19.0264399],[99.8333264,19.0220131],[99.8341203,19.0170745],[99.8291809,19.0113554],[99.8307046,19.0082541],[99.8381067,19.0019556],[99.8412568,19.0015385],[99.8453636,19.0042645],[99.848584,19.0022509],[99.8541075,19.0028967],[99.857183,19.0001825],[99.8715119,18.9963118],[99.8765013,18.9998086],[99.8810831,19.0003089],[99.8837743,18.9991624],[99.8841242,18.9941486],[99.8874213,18.9919401],[99.8890782,18.987994],[99.8934913,18.9892706],[99.9026319,18.9861086],[99.9036213,18.9834784],[99.9058283,18.9827516],[99.9079656,18.9836361],[99.9099032,18.9881613],[99.9116427,18.9879738],[99.9144853,18.9830223],[99.9272208,18.9779171],[99.9274564,18.9734603],[99.9399217,18.9597061],[99.9406689,18.9548532],[99.9467446,18.942462],[99.951547,18.9391334],[99.9542658,18.9340327],[99.9647016,18.9287494],[99.9663544,18.9244659],[99.975734,18.9186542],[99.979438,18.920199],[99.9892304,18.913034],[99.9966422,18.9049187],[100.0018275,18.9075515],[100.0091685,18.9041692],[100.0120201,18.8994606],[100.0169984,18.8957165],[100.0214627,18.8952775],[100.0270593,18.8974586]]]}}]}