{"type":"FeatureCollection","name":"p56-subset","crs":{"type":"name","properties":{"name":"urn:ogc:def:crs:EPSG::32647"}},"features":[{"type":"Feature","properties":{"building":"roof","height":6,"heightSource":"default"},"geometry":{"type":"MultiPolygon","coordinates":[[[[578040.8,2159230.88],[578038.89,2159239.68],[578055.57,2159243.26],[578057.49,2159234.46],[578040.8,2159230.88]]]]}},{"type":"Feature","properties":{"building":"roof","height":6,"heightSource":"default"},"geometry":{"type":"MultiPolygon","coordinates":[[[[578858.54,2163556.61],[578860.79,2163566.15],[578885.62,2163560.35],[578883.37,2163550.81],[578858.54,2163556.61]]]]}},{"type":"Feature","properties":{"building":"roof","height":6,"heightSource":"default"},"geometry":{"type":"MultiPolygon","coordinates":[[[[578582.65,2167371.42],[578582.42,2167363.58],[578610.64,2167362.75],[578610.45,2167356.43],[578620.84,2167356.12],[578621.44,2167376.77],[578611.56,2167377.05],[578611.37,2167370.58],[578582.65,2167371.42]]]]}},{"type":"Feature","properties":{"building":"yes","height":6,"heightSource":"default"},"geometry":{"type":"MultiPolygon","coordinates":[[[[579952.89,2158875.1],[580005.65,2158877.13],[580006.15,2158864.13],[579953.38,2158862.1],[579952.89,2158875.1]]]]}},{"type":"Feature","properties":{"building":"yes","height":6,"heightSource":"default"},"geometry":{"type":"MultiPolygon","coordinates":[[[[576600.45,2161240.27],[576621.05,2161227.63],[576615.63,2161218.92],[576595.04,2161231.56],[576600.45,2161240.27]]]]}},{"type":"Feature","properties":{"building":"yes","height":6,"heightSource":"default"},"geometry":{"type":"MultiPolygon","coordinates":[[[[576852.74,2161663.65],[576860.62,2161661.21],[576853.13,2161637.36],[576845.26,2161639.8],[576852.74,2161663.65]]]]}},{"type":"Feature","properties":{"building":"yes","height":6,"heightSource":"default"},"geometry":{"type":"MultiPolygon","coordinates":[[[[576777.05,2161596.41],[576783.02,2161595.56],[576781.53,2161585.17],[576775.55,2161586.02],[576777.05,2161596.41]]]]}},{"type":"Feature","properties":{"building":"yes","height":6,"heightSource":"default"},"geometry":{"type":"MultiPolygon","coordinates":[[[[576725.58,2161459.89],[576752.65,2161454.08],[576750.82,2161445.67],[576723.75,2161451.49],[576725.58,2161459.89]]]]}},{"type":"Feature","properties":{"building":"yes","height":6,"heightSource":"default"},"geometry":{"type":"MultiPolygon","coordinates":[[[[576761.27,2161732.36],[576770.2,2161728.05],[576765.41,2161718.24],[576756.48,2161722.55],[576761.27,2161732.36]]]]}},{"type":"Feature","properties":{"building":"yes","height":6,"heightSource":"default"},"geometry":{"type":"MultiPolygon","coordinates":[[[[576637.89,2161846.3],[576646.89,2161841.4],[576639.94,2161828.76],[576630.94,2161833.64],[576637.89,2161846.3]]]]}},{"type":"Feature","properties":{"building":"yes","height":6,"heightSource":"default"},"geometry":{"type":"MultiPolygon","coordinates":[[[[576795.8,2161656.86],[576789.83,2161644.66],[576782.44,2161648.22],[576788.41,2161660.43],[576795.8,2161656.86]]]]}},{"type":"Feature","properties":{"building":"yes","height":6,"heightSource":"default"},"geometry":{"type":"MultiPolygon","coordinates":[[[[576691.45,2161676.39],[576704.74,2161670.15],[576701.21,2161662.72],[576687.92,2161668.96],[576691.45,2161676.39]]]]}},{"type":"Feature","properties":{"building":"yes","height":6,"heightSource":"default"},"geometry":{"type":"MultiPolygon","coordinates":[[[[576810.75,2161673.31],[576817.16,2161668.66],[576810.77,2161659.94],[576804.36,2161664.58],[576810.75,2161673.31]]]]}},{"type":"Feature","properties":{"building":"yes","height":6,"heightSource":"default"},"geometry":{"type":"MultiPolygon","coordinates":[[[[576857.88,2161645.42],[576866.51,2161642.75],[576863.22,2161632.23],[576854.58,2161634.91],[576857.88,2161645.42]]]]}},{"type":"Feature","properties":{"building":"yes","height":6,"heightSource":"default"},"geometry":{"type":"MultiPolygon","coordinates":[[[[576593.2,2161223.04],[576613.65,2161212.78],[576609.08,2161203.78],[576588.64,2161214.05],[576593.2,2161223.04]]]]}},{"type":"Feature","properties":{"building":"yes","height":6,"heightSource":"default"},"geometry":{"type":"MultiPolygon","coordinates":[[[[576862.39,2161661.88],[576870.3,2161659.42],[576865.76,2161644.97],[576857.84,2161647.43],[576862.39,2161661.88]]]]}},{"type":"Feature","properties":{"building":"yes","height":6,"heightSource":"default"},"geometry":{"type":"MultiPolygon","coordinates":[[[[576788.02,2161596.31],[576793.48,2161595.54],[576792.08,2161585.77],[576786.62,2161586.54],[576788.02,2161596.31]]]]}},{"type":"Feature","properties":{"building":"yes","height":6,"heightSource":"default"},"geometry":{"type":"MultiPolygon","coordinates":[[[[576677.16,2161234.17],[576689.71,2161227.23],[576682.35,2161214.08],[576669.8,2161221.02],[576677.16,2161234.17]]]]}},{"type":"Feature","properties":{"building":"yes","height":6,"heightSource":"default"},"geometry":{"type":"MultiPolygon","coordinates":[[[[576769.46,2161760.5],[576786.73,2161752.16],[576783.17,2161744.89],[576765.9,2161753.22],[576769.46,2161760.5]]]]}},{"type":"Feature","properties":{"building":"yes","height":6,"heightSource":"default"},"geometry":{"type":"MultiPolygon","coordinates":[[[[576673.85,2161681.24],[576684.49,2161676.25],[576681.61,2161670.19],[576670.97,2161675.19],[576673.85,2161681.24]]]]}},{"type":"Feature","properties":{"building":"yes","height":6,"heightSource":"default"},"geometry":{"type":"MultiPolygon","coordinates":[[[[576727.25,2161852.16],[576757.75,2161835.59],[576745.96,2161814.15],[576715.46,2161830.72],[576727.25,2161852.16]]]]}},{"type":"Feature","properties":{"building":"yes","height":6,"heightSource":"default"},"geometry":{"type":"MultiPolygon","coordinates":[[[[576835.75,2161601.45],[576847.98,2161601.19],[576847.49,2161577.94],[576835.27,2161578.19],[576835.75,2161601.45]]]]}},{"type":"Feature","properties":{"building":"yes","height":6,"heightSource":"default"},"geometry":{"type":"MultiPolygon","coordinates":[[[[576802.83,2161606.31],[576810.6,2161605.2],[576809.27,2161595.91],[576801.49,2161597.02],[576802.83,2161606.31]]]]}},{"type":"Feature","properties":{"building":"yes","height":6,"heightSource":"default"},"geometry":{"type":"MultiPolygon","coordinates":[[[[576845.12,2161723.08],[576856.15,2161719.95],[576850.51,2161700.34],[576839.49,2161703.48],[576845.12,2161723.08]]]]}},{"type":"Feature","properties":{"building":"yes","height":6,"heightSource":"default"},"geometry":{"type":"MultiPolygon","coordinates":[[[[576798.65,2161591.42],[576806.93,2161590.25],[576805.1,2161577.48],[576796.82,2161578.65],[576798.65,2161591.42]]]]}},{"type":"Feature","properties":{"building":"yes","height":6,"heightSource":"default"},"geometry":{"type":"MultiPolygon","coordinates":[[[[576727.95,2161620.16],[576734.89,2161616],[576727.43,2161603.68],[576720.49,2161607.83],[576727.95,2161620.16]]]]}},{"type":"Feature","properties":{"building":"yes","height":6,"heightSource":"default"},"geometry":{"type":"MultiPolygon","coordinates":[[[[576697.47,2161253.55],[576712.43,2161243.82],[576706.45,2161234.74],[576691.49,2161244.47],[576697.47,2161253.55]]]]}},{"type":"Feature","properties":{"building":"yes","height":6,"heightSource":"default"},"geometry":{"type":"MultiPolygon","coordinates":[[[[576832.27,2161679.55],[576842.34,2161676.43],[576839.6,2161667.69],[576829.52,2161670.81],[576832.27,2161679.55]]]]}},{"type":"Feature","properties":{"building":"yes","height":6,"heightSource":"default"},"geometry":{"type":"MultiPolygon","coordinates":[[[[576671.68,2161527.01],[576682.53,2161524.68],[576675.02,2161490.15],[576664.17,2161492.49],[576671.68,2161527.01]]]]}},{"type":"Feature","properties":{"building":"yes","height":6,"heightSource":"default"},"geometry":{"type":"MultiPolygon","coordinates":[[[[576682.04,2161639.85],[576686.2,2161648.36],[576698.76,2161642.3],[576694.6,2161633.78],[576682.04,2161639.85]]]]}},{"type":"Feature","properties":{"building":"yes","height":6,"heightSource":"default"},"geometry":{"type":"MultiPolygon","coordinates":[[[[576640.58,2161232.75],[576651.2,2161250.56],[576658.2,2161246.44],[576647.59,2161228.62],[576640.58,2161232.75]]]]}},{"type":"Feature","properties":{"building":"yes","height":6,"heightSource":"default"},"geometry":{"type":"MultiPolygon","coordinates":[[[[576607.83,2161323.03],[576618.13,2161316.36],[576607.25,2161299.76],[576596.95,2161306.42],[576607.83,2161323.03]]]]}},{"type":"Feature","properties":{"building":"yes","height":6,"heightSource":"default"},"geometry":{"type":"MultiPolygon","coordinates":[[[[576627.22,2161231.99],[576647.81,2161220.62],[576639.89,2161206.46],[576619.3,2161217.85],[576627.22,2161231.99]]]]}},{"type":"Feature","properties":{"building":"yes","height":6,"heightSource":"default"},"geometry":{"type":"MultiPolygon","coordinates":[[[[576653.2,2161209.03],[576661.51,2161205.99],[576658.02,2161196.53],[576649.69,2161199.57],[576653.2,2161209.03]]]]}},{"type":"Feature","properties":{"building":"yes","height":6,"heightSource":"default"},"geometry":{"type":"MultiPolygon","coordinates":[[[[576722.33,2161482.38],[576739.09,2161483.02],[576739.6,2161469.7],[576749.11,2161470.08],[576749.47,2161460.83],[576723.22,2161459.82],[576722.33,2161482.38]]]]}},{"type":"Feature","properties":{"building":"yes","height":6,"heightSource":"default"},"geometry":{"type":"MultiPolygon","coordinates":[[[[576648.55,2161797.93],[576657.39,2161792.08],[576651.91,2161783.89],[576643.06,2161789.75],[576648.55,2161797.93]]]]}},{"type":"Feature","properties":{"building":"yes","height":6,"heightSource":"default"},"geometry":{"type":"MultiPolygon","coordinates":[[[[576738.74,2161746.02],[576748.41,2161739.62],[576744.28,2161733.45],[576734.61,2161739.84],[576738.74,2161746.02]]]]}},{"type":"Feature","properties":{"building":"yes","height":6,"heightSource":"default"},"geometry":{"type":"MultiPolygon","coordinates":[[[[576597.14,2161726.66],[576604.93,2161723.46],[576602.04,2161716.55],[576594.25,2161719.77],[576597.14,2161726.66]]]]}},{"type":"Feature","properties":{"building":"yes","height":6,"heightSource":"default"},"geometry":{"type":"MultiPolygon","coordinates":[[[[576651.13,2161827.32],[576657.24,2161836.44],[576664.51,2161831.63],[576658.4,2161822.51],[576651.13,2161827.32]]]]}},{"type":"Feature","properties":{"building":"yes","height":6,"heightSource":"default"},"geometry":{"type":"MultiPolygon","coordinates":[[[[576733.12,2161728.72],[576741.58,2161723.11],[576737.38,2161716.84],[576728.91,2161722.45],[576733.12,2161728.72]]]]}},{"type":"Feature","properties":{"building":"yes","height":6,"heightSource":"default"},"geometry":{"type":"MultiPolygon","coordinates":[[[[576710.81,2161515.55],[576715.76,2161514.51],[576711.46,2161494.32],[576706.51,2161495.36],[576710.81,2161515.55]]]]}},{"type":"Feature","properties":{"building":"yes","height":6,"heightSource":"default"},"geometry":{"type":"MultiPolygon","coordinates":[[[[576725.35,2161718.65],[576735.38,2161714.51],[576732.11,2161706.69],[576722.08,2161710.83],[576725.35,2161718.65]]]]}},{"type":"Feature","properties":{"building":"yes","height":6,"heightSource":"default"},"geometry":{"type":"MultiPolygon","coordinates":[[[[577103.61,2159915.09],[577116.39,2159920.18],[577119.78,2159911.75],[577107,2159906.66],[577103.61,2159915.09]]]]}},{"type":"Feature","properties":{"building":"yes","height":6,"heightSource":"default"},"geometry":{"type":"MultiPolygon","coordinates":[[[[576891.26,2161594.99],[576899.67,2161593.05],[576896.4,2161579.07],[576887.99,2161581.01],[576891.26,2161594.99]]]]}},{"type":"Feature","properties":{"building":"yes","height":6,"heightSource":"default"},"geometry":{"type":"MultiPolygon","coordinates":[[[[577177.93,2161283.43],[577184.71,2161277.31],[577174.17,2161265.76],[577167.39,2161271.89],[577177.93,2161283.43]]]]}},{"type":"Feature","properties":{"building":"yes","height":6,"heightSource":"default"},"geometry":{"type":"MultiPolygon","coordinates":[[[[577148.48,2161294.63],[577156.66,2161290.19],[577127.28,2161236.71],[577119.1,2161241.16],[577148.48,2161294.63]]]]}},{"type":"Feature","properties":{"building":"yes","height":6,"heightSource":"default"},"geometry":{"type":"MultiPolygon","coordinates":[[[[577006.22,2161634.05],[577015.89,2161631.81],[577011.94,2161614.91],[577002.26,2161617.15],[577006.22,2161634.05]]]]}},{"type":"Feature","properties":{"building":"yes","height":6,"heightSource":"default"},"geometry":{"type":"MultiPolygon","coordinates":[[[[577166.88,2161266.74],[577174.65,2161260.9],[577162.63,2161245.11],[577154.88,2161250.95],[577166.88,2161266.74]]]]}},{"type":"Feature","properties":{"building":"yes","height":6,"heightSource":"default"},"geometry":{"type":"MultiPolygon","coordinates":[[[[576989.23,2161581.92],[576998.42,2161579.79],[576995.48,2161567.26],[576986.29,2161569.38],[576989.23,2161581.92]]]]}},{"type":"Feature","properties":{"building":"yes","height":6,"heightSource":"default"},"geometry":{"type":"MultiPolygon","coordinates":[[[[577157.24,2161154.66],[577164.8,2161161.98],[577172.62,2161153.96],[577165.06,2161146.66],[577157.24,2161154.66]]]]}},{"type":"Feature","properties":{"building":"yes","height":6,"heightSource":"default"},"geometry":{"type":"MultiPolygon","coordinates":[[[[576994.9,2161603.2],[577002.98,2161601.34],[576999.75,2161587.56],[576991.67,2161589.42],[576994.9,2161603.2]]]]}},{"type":"Feature","properties":{"building":"yes","height":6,"heightSource":"default"},"geometry":{"type":"MultiPolygon","coordinates":[[[[577214.05,2161127.77],[577222.61,2161135.09],[577235.24,2161120.47],[577226.69,2161113.16],[577214.05,2161127.77]]]]}},{"type":"Feature","properties":{"building":"yes","height":6,"heightSource":"default"},"geometry":{"type":"MultiPolygon","coordinates":[[[[577151.2,2161249.74],[577161.51,2161240.98],[577145.81,2161222.74],[577135.5,2161231.5],[577151.2,2161249.74]]]]}},{"type":"Feature","properties":{"building":"yes","height":6,"heightSource":"default"},"geometry":{"type":"MultiPolygon","coordinates":[[[[577004.22,2161595.55],[577014.27,2161593.23],[577010.63,2161577.68],[577000.58,2161580],[577004.22,2161595.55]]]]}},{"type":"Feature","properties":{"building":"yes","height":6,"heightSource":"default"},"geometry":{"type":"MultiPolygon","coordinates":[[[[577183.27,2161120.09],[577196.74,2161131.19],[577207.61,2161118.18],[577194.14,2161107.08],[577183.27,2161120.09]]]]}},{"type":"Feature","properties":{"building":"yes","height":6,"heightSource":"default"},"geometry":{"type":"MultiPolygon","coordinates":[[[[576972.71,2161664.57],[576983.55,2161663.21],[576982.5,2161654.88],[576971.65,2161656.23],[576972.71,2161664.57]]]]}},{"type":"Feature","properties":{"building":"yes","height":6,"heightSource":"default"},"geometry":{"type":"MultiPolygon","coordinates":[[[[576998.99,2161671.11],[577027.83,2161670.82],[577027.71,2161658.46],[576998.87,2161658.75],[576998.99,2161671.11]]]]}},{"type":"Feature","properties":{"building":"yes","height":6,"heightSource":"default"},"geometry":{"type":"MultiPolygon","coordinates":[[[[576895.25,2161560.96],[576906.55,2161558.34],[576904.02,2161547.56],[576892.72,2161550.18],[576895.25,2161560.96]]]]}},{"type":"Feature","properties":{"building":"yes","height":6,"heightSource":"default"},"geometry":{"type":"MultiPolygon","coordinates":[[[[577032.4,2161673.28],[577051.11,2161673.95],[577050.48,2161691.58],[577057.36,2161691.82],[577058.45,2161661.34],[577032.85,2161660.43],[577032.4,2161673.28]]]]}},{"type":"Feature","properties":{"building":"yes","height":6,"heightSource":"default"},"geometry":{"type":"MultiPolygon","coordinates":[[[[577241.77,2161323.34],[577247.26,2161320.71],[577241.4,2161308.61],[577235.9,2161311.25],[577241.77,2161323.34]]]]}},{"type":"Feature","properties":{"building":"yes","height":6,"heightSource":"default"},"geometry":{"type":"MultiPolygon","coordinates":[[[[576690.16,2161737],[576697.62,2161735.77],[576695.93,2161725.61],[576688.46,2161726.84],[576690.16,2161737]]]]}},{"type":"Feature","properties":{"building":"yes","height":6,"heightSource":"default"},"geometry":{"type":"MultiPolygon","coordinates":[[[[577232.2,2161486.94],[577236.86,2161483.04],[577228.39,2161473.03],[577223.72,2161476.92],[577232.2,2161486.94]]]]}},{"type":"Feature","properties":{"building":"yes","height":6,"heightSource":"default"},"geometry":{"type":"MultiPolygon","coordinates":[[[[577231.82,2161379.81],[577235.3,2161387.09],[577245.71,2161382.18],[577242.22,2161374.89],[577231.82,2161379.81]]]]}},{"type":"Feature","properties":{"building":"yes","height":6,"heightSource":"default"},"geometry":{"type":"MultiPolygon","coordinates":[[[[576838.78,2161562.81],[576845.67,2161563.26],[576846.51,2161550.51],[576839.61,2161550.06],[576838.78,2161562.81]]]]}},{"type":"Feature","properties":{"building":"yes","height":6,"heightSource":"default"},"geometry":{"type":"MultiPolygon","coordinates":[[[[577250.23,2161318.07],[577256.16,2161313.62],[577249.48,2161304.83],[577243.56,2161309.28],[577250.23,2161318.07]]]]}},{"type":"Feature","properties":{"building":"yes","height":6,"heightSource":"default"},"geometry":{"type":"MultiPolygon","coordinates":[[[[577271.4,2161434.52],[577279.42,2161432.88],[577277.07,2161421.52],[577269.04,2161423.16],[577271.4,2161434.52]]]]}},{"type":"Feature","properties":{"building":"yes","height":6,"heightSource":"default"},"geometry":{"type":"MultiPolygon","coordinates":[[[[576681.92,2161574.44],[576703.54,2161570.05],[576701.74,2161561.34],[576680.13,2161565.73],[576681.92,2161574.44]]]]}},{"type":"Feature","properties":{"building":"yes","height":6,"heightSource":"default"},"geometry":{"type":"MultiPolygon","coordinates":[[[[576802.42,2161557.89],[576810.04,2161554.22],[576804.43,2161542.74],[576796.82,2161546.42],[576802.42,2161557.89]]]]}},{"type":"Feature","properties":{"building":"yes","height":6,"heightSource":"default"},"geometry":{"type":"MultiPolygon","coordinates":[[[[577192.13,2161348.16],[577202.72,2161340.24],[577194.52,2161329.42],[577183.93,2161337.34],[577192.13,2161348.16]]]]}},{"type":"Feature","properties":{"building":"yes","height":6,"heightSource":"default"},"geometry":{"type":"MultiPolygon","coordinates":[[[[576856.22,2161563.72],[576861.71,2161563.46],[576861.11,2161550.98],[576855.62,2161551.25],[576856.22,2161563.72]]]]}},{"type":"Feature","properties":{"building":"yes","height":6,"heightSource":"default"},"geometry":{"type":"MultiPolygon","coordinates":[[[[576768.98,2161566.28],[576775.59,2161563.93],[576769.61,2161547.28],[576762.99,2161549.64],[576768.98,2161566.28]]]]}},{"type":"Feature","properties":{"building":"yes","height":6,"heightSource":"default"},"geometry":{"type":"MultiPolygon","coordinates":[[[[577239.82,2161480.68],[577248,2161476.24],[577240.98,2161463.45],[577232.79,2161467.89],[577239.82,2161480.68]]]]}},{"type":"Feature","properties":{"building":"yes","height":6,"heightSource":"default"},"geometry":{"type":"MultiPolygon","coordinates":[[[[576717.19,2161567.53],[576736.06,2161565.79],[576735.02,2161554.77],[576716.16,2161556.51],[576717.19,2161567.53]]]]}},{"type":"Feature","properties":{"building":"yes","height":6,"heightSource":"default"},"geometry":{"type":"MultiPolygon","coordinates":[[[[577019.35,2161637.32],[577031.32,2161636.11],[577030.52,2161628.29],[577018.56,2161629.5],[577019.35,2161637.32]]]]}},{"type":"Feature","properties":{"building":"yes","height":6,"heightSource":"default"},"geometry":{"type":"MultiPolygon","coordinates":[[[[576787.98,2161562.1],[576793.76,2161559.67],[576789.44,2161549.49],[576783.66,2161551.92],[576787.98,2161562.1]]]]}},{"type":"Feature","properties":{"building":"yes","height":6,"heightSource":"default"},"geometry":{"type":"MultiPolygon","coordinates":[[[[576763.33,2161603.18],[576770.52,2161600.55],[576766.08,2161588.56],[576758.89,2161591.18],[576763.33,2161603.18]]]]}},{"type":"Feature","properties":{"building":"yes","height":6,"heightSource":"default"},"geometry":{"type":"MultiPolygon","coordinates":[[[[577230.77,2161557.84],[577241.48,2161553.98],[577232.88,2161530.46],[577222.16,2161534.33],[577230.77,2161557.84]]]]}},{"type":"Feature","properties":{"building":"yes","height":6,"heightSource":"default"},"geometry":{"type":"MultiPolygon","coordinates":[[[[576908.23,2161661.19],[576917.67,2161661.02],[576917.39,2161646.42],[576907.97,2161646.59],[576908.23,2161661.19]]]]}},{"type":"Feature","properties":{"building":"yes","height":6,"heightSource":"default"},"geometry":{"type":"MultiPolygon","coordinates":[[[[576977.81,2161637.32],[576984.57,2161636.5],[576983.16,2161624.9],[576976.4,2161625.71],[576977.81,2161637.32]]]]}},{"type":"Feature","properties":{"building":"yes","height":6,"heightSource":"default"},"geometry":{"type":"MultiPolygon","coordinates":[[[[576747.15,2161601.29],[576754.91,2161597.97],[576751.2,2161589.41],[576743.44,2161592.73],[576747.15,2161601.29]]]]}},{"type":"Feature","properties":{"building":"yes","height":6,"heightSource":"default"},"geometry":{"type":"MultiPolygon","coordinates":[[[[577042.25,2161636.39],[577049.87,2161634.34],[577048.43,2161629.02],[577061.66,2161625.48],[577063.02,2161630.51],[577075.47,2161627.18],[577073.9,2161621.36],[577087.75,2161617.63],[577089.02,2161622.3],[577096.2,2161620.37],[577092.4,2161606.38],[577038.06,2161620.95],[577042.25,2161636.39]]]]}},{"type":"Feature","properties":{"building":"yes","height":6,"heightSource":"default"},"geometry":{"type":"MultiPolygon","coordinates":[[[[576720.14,2161628.28],[576725.12,2161624.45],[576719.1,2161616.72],[576714.12,2161620.55],[576720.14,2161628.28]]]]}},{"type":"Feature","properties":{"building":"yes","height":6,"heightSource":"default"},"geometry":{"type":"MultiPolygon","coordinates":[[[[577040.8,2161606.95],[577071.78,2161599.96],[577069.71,2161590.9],[577038.72,2161597.89],[577040.8,2161606.95]]]]}},{"type":"Feature","properties":{"building":"yes","height":6,"heightSource":"default"},"geometry":{"type":"MultiPolygon","coordinates":[[[[576677.53,2161628.94],[576682.43,2161636.62],[576691.66,2161630.8],[576686.77,2161623.12],[576677.53,2161628.94]]]]}},{"type":"Feature","properties":{"building":"yes","height":6,"heightSource":"default"},"geometry":{"type":"MultiPolygon","coordinates":[[[[577013.08,2161583.06],[577019.62,2161581.62],[577017.45,2161571.87],[577010.91,2161573.31],[577013.08,2161583.06]]]]}},{"type":"Feature","properties":{"building":"yes","height":6,"heightSource":"default"},"geometry":{"type":"MultiPolygon","coordinates":[[[[576783,2161617.12],[576789.55,2161615.25],[576786.36,2161604.18],[576779.82,2161606.05],[576783,2161617.12]]]]}},{"type":"Feature","properties":{"building":"yes","height":6,"heightSource":"default"},"geometry":{"type":"MultiPolygon","coordinates":[[[[577161.15,2161526.08],[577177.77,2161523.07],[577175.78,2161512.22],[577159.16,2161515.22],[577161.15,2161526.08]]]]}},{"type":"Feature","properties":{"building":"yes","height":6,"heightSource":"default"},"geometry":{"type":"MultiPolygon","coordinates":[[[[576917.33,2161544.54],[576925,2161542.97],[576922.59,2161531.35],[576914.91,2161532.93],[576917.33,2161544.54]]]]}},{"type":"Feature","properties":{"building":"yes","height":6,"heightSource":"default"},"geometry":{"type":"MultiPolygon","coordinates":[[[[577209.96,2161465.31],[577215.75,2161460.58],[577208.35,2161451.63],[577202.56,2161456.36],[577209.96,2161465.31]]]]}},{"type":"Feature","properties":{"building":"yes","height":6,"heightSource":"default"},"geometry":{"type":"MultiPolygon","coordinates":[[[[576817.08,2161641.94],[576823.91,2161641.55],[576823.16,2161628.56],[576816.34,2161628.95],[576817.08,2161641.94]]]]}},{"type":"Feature","properties":{"building":"yes","height":6,"heightSource":"default"},"geometry":{"type":"MultiPolygon","coordinates":[[[[576945.98,2161751.1],[576954,2161751.13],[576954.06,2161737.7],[576946.04,2161737.66],[576945.98,2161751.1]]]]}},{"type":"Feature","properties":{"building":"yes","height":6,"heightSource":"default"},"geometry":{"type":"MultiPolygon","coordinates":[[[[576821.59,2161625.1],[576829.54,2161624.16],[576828.54,2161615.85],[576820.58,2161616.79],[576821.59,2161625.1]]]]}},{"type":"Feature","properties":{"building":"yes","height":6,"heightSource":"default"},"geometry":{"type":"MultiPolygon","coordinates":[[[[577171.42,2161658.29],[577180.88,2161651.61],[577173.96,2161641.92],[577164.5,2161648.6],[577171.42,2161658.29]]]]}},{"type":"Feature","properties":{"building":"yes","height":6,"heightSource":"default"},"geometry":{"type":"MultiPolygon","coordinates":[[[[576747.8,2161575.42],[576755.33,2161573.92],[576753.19,2161563.34],[576745.65,2161564.84],[576747.8,2161575.42]]]]}},{"type":"Feature","properties":{"building":"yes","height":6,"heightSource":"default"},"geometry":{"type":"MultiPolygon","coordinates":[[[[577190.75,2161481.31],[577198.23,2161477.15],[577193.72,2161469.14],[577186.24,2161473.31],[577190.75,2161481.31]]]]}},{"type":"Feature","properties":{"building":"yes","height":6,"heightSource":"default"},"geometry":{"type":"MultiPolygon","coordinates":[[[[577134.56,2161691.27],[577141.89,2161688.37],[577137.55,2161677.55],[577130.22,2161680.46],[577134.56,2161691.27]]]]}},{"type":"Feature","properties":{"building":"yes","height":6,"heightSource":"default"},"geometry":{"type":"MultiPolygon","coordinates":[[[[576726.35,2161574.28],[576736.05,2161573.77],[576735.72,2161567.67],[576726.02,2161568.19],[576726.35,2161574.28]]]]}},{"type":"Feature","properties":{"building":"yes","height":6,"heightSource":"default"},"geometry":{"type":"MultiPolygon","coordinates":[[[[577176.46,2161632.01],[577193.62,2161632.09],[577193.66,2161622.29],[577176.5,2161622.22],[577176.46,2161632.01]]]]}},{"type":"Feature","properties":{"building":"yes","height":6,"heightSource":"default"},"geometry":{"type":"MultiPolygon","coordinates":[[[[577260.33,2161432.37],[577267.37,2161429.47],[577263.41,2161419.98],[577256.36,2161422.88],[577260.33,2161432.37]]]]}},{"type":"Feature","properties":{"building":"yes","height":6,"heightSource":"default"},"geometry":{"type":"MultiPolygon","coordinates":[[[[576686.69,2161584.26],[576698.45,2161582.06],[576696.82,2161573.41],[576685.06,2161575.6],[576686.69,2161584.26]]]]}},{"type":"Feature","properties":{"building":"yes","height":6,"heightSource":"default"},"geometry":{"type":"MultiPolygon","coordinates":[[[[577003.44,2161715.9],[577031.25,2161716.72],[577031.51,2161708.29],[577010.32,2161707.65],[577010.63,2161697.57],[577004,2161697.37],[577003.44,2161715.9]]]]}},{"type":"Feature","properties":{"building":"yes","height":6,"heightSource":"default"},"geometry":{"type":"MultiPolygon","coordinates":[[[[577219.15,2161601.95],[577232.37,2161600.11],[577231.15,2161591.45],[577217.92,2161593.28],[577219.15,2161601.95]]]]}},{"type":"Feature","properties":{"building":"yes","height":6,"heightSource":"default"},"geometry":{"type":"MultiPolygon","coordinates":[[[[577161.51,2161738.38],[577169.81,2161739.04],[577170.57,2161729.59],[577162.27,2161728.93],[577161.51,2161738.38]]]]}},{"type":"Feature","properties":{"building":"yes","height":6,"heightSource":"default"},"geometry":{"type":"MultiPolygon","coordinates":[[[[577159.11,2161756.76],[577165.64,2161759.86],[577171.99,2161746.67],[577165.46,2161743.56],[577159.11,2161756.76]]]]}},{"type":"Feature","properties":{"building":"yes","height":6,"heightSource":"default"},"geometry":{"type":"MultiPolygon","coordinates":[[[[577233.56,2161607.93],[577244.57,2161606.39],[577243.36,2161597.79],[577232.34,2161599.32],[577233.56,2161607.93]]]]}},{"type":"Feature","properties":{"building":"yes","height":6,"heightSource":"default"},"geometry":{"type":"MultiPolygon","coordinates":[[[[577215.06,2161767.7],[577221.23,2161770.46],[577225.99,2161759.91],[577219.81,2161757.16],[577215.06,2161767.7]]]]}},{"type":"Feature","properties":{"building":"yes","height":6,"heightSource":"default"},"geometry":{"type":"MultiPolygon","coordinates":[[[[577262.23,2161706.67],[577273.57,2161709.23],[577278.59,2161687.25],[577259.29,2161682.9],[577257.11,2161692.46],[577265.07,2161694.26],[577262.23,2161706.67]]]]}},{"type":"Feature","properties":{"building":"yes","height":6,"heightSource":"default"},"geometry":{"type":"MultiPolygon","coordinates":[[[[577583.92,2162422.72],[577632.29,2162415.38],[577695.48,2162398.82],[577689.2,2162359.68],[577678.78,2162330.85],[577645.89,2162336.3],[577641.04,2162312.56],[577585.97,2162322.87],[577580.26,2162340.74],[577581.25,2162372.64],[577583.37,2162402.85],[577583.92,2162422.72]]]]}},{"type":"Feature","properties":{"building":"yes","height":6,"heightSource":"default"},"geometry":{"type":"MultiPolygon","coordinates":[[[[577612.7,2161313.1],[577625.12,2161304.77],[577683.52,2161251.7],[577685.15,2161250.35],[577691.1,2161246.38],[577664.51,2161134.68],[577567.26,2161184.38],[577578.88,2161227.58],[577588.31,2161259.44],[577598.99,2161262.28],[577612.7,2161313.1]]]]}},{"type":"Feature","properties":{"building":"roof","height":6,"heightSource":"default"},"geometry":{"type":"MultiPolygon","coordinates":[[[[578712.21,2163345.26],[578726.12,2163340.99],[578723.34,2163332.01],[578709.42,2163336.29],[578712.21,2163345.26]]]]}},{"type":"Feature","properties":{"building":"roof","height":6,"heightSource":"default"},"geometry":{"type":"MultiPolygon","coordinates":[[[[578124.82,2165221.11],[578133.31,2165222.37],[578136.11,2165203.76],[578127.63,2165202.5],[578124.82,2165221.11]]]]}},{"type":"Feature","properties":{"building":"yes","height":6,"heightSource":"default"},"geometry":{"type":"MultiPolygon","coordinates":[[[[578096.65,2158675.44],[578070.87,2158674],[578072.05,2158653.08],[578055.08,2158652.13],[578051.04,2158723.89],[578093.77,2158726.28],[578096.65,2158675.44]]]]}},{"type":"Feature","properties":{"building":"yes","height":6,"heightSource":"default"},"geometry":{"type":"MultiPolygon","coordinates":[[[[577749.67,2163945.17],[577792.41,2163956.26],[577799.68,2163938.06],[577756.23,2163925.71],[577749.67,2163945.17]]]]}},{"type":"Feature","properties":{"building":"yes","height":6,"heightSource":"default"},"geometry":{"type":"MultiPolygon","coordinates":[[[[577732.21,2163926.99],[577735.54,2163915.5],[577747.76,2163918.99],[577744.44,2163930.48],[577732.21,2163926.99]]]]}},{"type":"Feature","properties":{"building":"yes","height":6,"heightSource":"default"},"geometry":{"type":"MultiPolygon","coordinates":[[[[577019.31,2161703.84],[577048.15,2161703.54],[577048.02,2161691.18],[577019.18,2161691.47],[577019.31,2161703.84]]]]}},{"type":"Feature","properties":{"building":"yes","height":6,"heightSource":"default"},"geometry":{"type":"MultiPolygon","coordinates":[[[[576942.31,2161700.06],[576953.15,2161698.71],[576952.1,2161690.37],[576941.26,2161691.73],[576942.31,2161700.06]]]]}},{"type":"Feature","properties":{"building":"yes","height":6,"heightSource":"default"},"geometry":{"type":"MultiPolygon","coordinates":[[[[576972.31,2161707.14],[576983.15,2161705.78],[576982.09,2161697.45],[576971.25,2161698.8],[576972.31,2161707.14]]]]}},{"type":"Feature","properties":{"building":"yes","height":6,"heightSource":"default"},"geometry":{"type":"MultiPolygon","coordinates":[[[[576974.41,2161693.42],[576985.25,2161692.06],[576984.2,2161683.72],[576973.35,2161685.08],[576974.41,2161693.42]]]]}},{"type":"Feature","properties":{"building":"yes","height":6,"heightSource":"default"},"geometry":{"type":"MultiPolygon","coordinates":[[[[576974.05,2161677.24],[576984.89,2161675.88],[576983.84,2161667.54],[576972.99,2161668.9],[576974.05,2161677.24]]]]}},{"type":"Feature","properties":{"building":"yes","height":6,"heightSource":"default"},"geometry":{"type":"MultiPolygon","coordinates":[[[[576981.88,2161652.77],[576992.72,2161651.41],[576991.66,2161643.07],[576980.82,2161644.43],[576981.88,2161652.77]]]]}},{"type":"Feature","properties":{"building":"yes","height":6,"heightSource":"default"},"geometry":{"type":"MultiPolygon","coordinates":[[[[580347.46,2160383.95],[580379.22,2160381.64],[580378.04,2160365.58],[580346.29,2160367.89],[580347.46,2160383.95]]]]}},{"type":"Feature","properties":{"building":"yes","height":6,"heightSource":"default"},"geometry":{"type":"MultiPolygon","coordinates":[[[[581235.98,2159323.87],[581261.73,2159323.19],[581261.33,2159308.36],[581235.58,2159309.04],[581235.98,2159323.87]]]]}},{"type":"Feature","properties":{"building":"roof","height":6,"heightSource":"default"},"geometry":{"type":"MultiPolygon","coordinates":[[[[577782.92,2160760.35],[577813.88,2160763.62],[577815.59,2160747.59],[577784.64,2160744.33],[577782.92,2160760.35]]]]}},{"type":"Feature","properties":{"building":"yes","height":6,"heightSource":"default"},"geometry":{"type":"MultiPolygon","coordinates":[[[[578208.97,2166260.98],[578240.75,2166252.97],[578229.75,2166209.84],[578197.95,2166217.87],[578208.97,2166260.98]]]]}},{"type":"Feature","properties":{"building":"yes","height":6,"heightSource":"default"},"geometry":{"type":"MultiPolygon","coordinates":[[[[580230.56,2165931.11],[580254.25,2165928.2],[580252.71,2165915.84],[580229.02,2165918.76],[580230.56,2165931.11]]]]}},{"type":"Feature","properties":{"building":"yes","height":6,"heightSource":"default"},"geometry":{"type":"MultiPolygon","coordinates":[[[[579908.92,2163880.39],[579924.65,2163878.88],[579923.84,2163870.44],[579908.11,2163871.95],[579908.92,2163880.39]]]]}},{"type":"Feature","properties":{"building":"yes","height":6,"heightSource":"default"},"geometry":{"type":"MultiPolygon","coordinates":[[[[578333.14,2162113.75],[578365.1,2162088.49],[578345.77,2162064.32],[578313.81,2162089.59],[578333.14,2162113.75]]]]}},{"type":"Feature","properties":{"building":"yes","height":6,"heightSource":"default"},"geometry":{"type":"MultiPolygon","coordinates":[[[[578382.79,2162145.81],[578420.21,2162120.74],[578411.39,2162092.08],[578368.68,2162104.83],[578382.79,2162145.81]]]]}},{"type":"Feature","properties":{"building":"roof","height":6,"heightSource":"default"},"geometry":{"type":"MultiPolygon","coordinates":[[[[577768.59,2161568.57],[577777.44,2161569.09],[577778.23,2161555.91],[577769.37,2161555.38],[577768.59,2161568.57]]]]}},{"type":"Feature","properties":{"building":"yes","height":6,"heightSource":"default"},"geometry":{"type":"MultiPolygon","coordinates":[[[[578318.87,2164579.31],[578344.9,2164581.91],[578346.17,2164569.42],[578320.13,2164566.82],[578318.87,2164579.31]]]]}},{"type":"Feature","properties":{"building":"yes","height":6,"heightSource":"default"},"geometry":{"type":"MultiPolygon","coordinates":[[[[573683.29,2163731.8],[573714.3,2163727.22],[573712.94,2163718.17],[573681.94,2163722.77],[573683.29,2163731.8]]]]}}]}