{"type":"FeatureCollection","features":[{"type":"Feature","properties":{"id":"TH-LAO-4560102","nameTh":"พะเยา","type":"town_municipality"},"geometry":{"type":"Polygon","coordinates":[[[99.8851,19.1712],[99.888,19.1811],[99.9193,19.1647],[99.9191,19.1267],[99.9048,19.1268],[99.905,19.1494],[99.9136,19.1602],[99.8993,19.1603],[99.8851,19.1712]]]}},{"type":"Feature","properties":{"id":"TH-LAO-5560107","nameTh":"ท่าวังทอง","type":"subdistrict_municipality"},"geometry":{"type":"Polygon","coordinates":[[[99.9193,19.1593],[99.9224084,19.1591319],[99.9213329,19.1607686],[99.9203592,19.1613334],[99.921062,19.1620783],[99.9228671,19.1613791],[99.9235886,19.1606318],[99.9248761,19.1627472],[99.9258578,19.1628916],[99.9258685,19.1616476],[99.9266967,19.161619],[99.9273104,19.1625995],[99.9271618,19.1631117],[99.9248117,19.1641609],[99.9251658,19.1649007],[99.9270433,19.1646474],[99.9283603,19.164845],[99.9289745,19.1638974],[99.9319812,19.1641407],[99.9311069,19.1655012],[99.9300733,19.1651593],[99.9300581,19.1658837],[99.9304765,19.1665931],[99.9337125,19.1653685],[99.9341941,19.1655594],[99.9344596,19.1673836],[99.9350953,19.1681639],[99.9345593,19.1701969],[99.93372,19.1700205],[99.9333277,19.1695334],[99.9330579,19.1695502],[99.9328369,19.1701603],[99.935132,19.171599],[99.936474,19.1717665],[99.9366832,19.1723897],[99.9362326,19.1732224],[99.9364352,19.1740475],[99.9360864,19.1749459],[99.9371499,19.1751613],[99.9379814,19.1768587],[99.9394596,19.1768136],[99.9401244,19.1772133],[99.9395113,19.178041],[99.939327,19.1789114],[99.940973,19.1816051],[99.940221,19.1844839],[99.9393064,19.1860191],[99.9397007,19.1864446],[99.9403203,19.1866549],[99.9418382,19.1856097],[99.9428308,19.1854668],[99.9442852,19.1870133],[99.9475002,19.1892301],[99.9491957,19.1893855],[99.9495951,19.1898396],[99.9489945,19.1916579],[99.9497241,19.1924736],[99.9489999,19.1933957],[99.9495953,19.1939377],[99.9529195,19.1936245],[99.9548385,19.1943291],[99.9566656,19.1937402],[99.9576688,19.1939681],[99.958334,19.1950472],[99.9593103,19.1952651],[99.9594605,19.195564],[99.9591823,19.1964057],[99.958334,19.1971446],[99.9594551,19.198016],[99.9596375,19.1994497],[99.9614292,19.1989482],[99.9625795,19.1975384],[99.9652419,19.1987243],[99.9654043,19.1990799],[99.9647387,19.2002994],[99.965897,19.2015317],[99.9660972,19.2031286],[99.9646962,19.2041205],[99.9644885,19.2057833],[99.9647756,19.2067334],[99.963943,19.2078701],[99.9636985,19.2092165],[99.96321,19.2095342],[99.9628997,19.21055],[99.9624452,19.2108647],[99.962079,19.2106489],[99.9615705,19.2112757],[99.9604838,19.2110351],[99.9601968,19.2119177],[99.9598289,19.2118413],[99.9594394,19.2123401],[99.9579022,19.2108052],[99.9562209,19.210983],[99.95618,19.2105464],[99.9551644,19.210259],[99.9548833,19.2098357],[99.9551044,19.2091975],[99.9547181,19.2088055],[99.954184,19.2089834],[99.9533865,19.2085351],[99.9527055,19.2085938],[99.9518077,19.2078453],[99.951218,19.208029],[99.9510515,19.2096212],[99.9499035,19.2095745],[99.9498876,19.2103362],[99.9489091,19.2103391],[99.9483234,19.2106141],[99.948248,19.2110241],[99.9470677,19.2108867],[99.9464437,19.2117166],[99.9467185,19.2119975],[99.946519,19.2121816],[99.9447999,19.2121976],[99.9451017,19.2128545],[99.9445622,19.2129143],[99.9440201,19.2135409],[99.9441928,19.2139302],[99.9448374,19.2136787],[99.9447298,19.2140913],[99.9438675,19.2145012],[99.943397,19.2142714],[99.942697,19.215213],[99.9417181,19.2158372],[99.9415056,19.216647],[99.9403346,19.2171085],[99.9387301,19.2205763],[99.9380232,19.2213136],[99.9383333,19.2217131],[99.9372222,19.2218135],[99.9377411,19.222262],[99.9373586,19.2224688],[99.9373452,19.2231858],[99.9367866,19.2231445],[99.9364318,19.2241334],[99.9359126,19.224186],[99.9359194,19.2247446],[99.9354625,19.2247458],[99.9348239,19.2258466],[99.9333458,19.2268836],[99.9337426,19.2273954],[99.9336576,19.2285079],[99.9326946,19.2286259],[99.9325596,19.2290881],[99.931324,19.2287024],[99.9308126,19.2289681],[99.9304926,19.2283817],[99.9285692,19.2303902],[99.9291561,19.2306276],[99.9292172,19.2311462],[99.9286299,19.2333557],[99.928037,19.2336544],[99.9285034,19.2348916],[99.9290987,19.2354017],[99.9291292,19.2371609],[99.9298734,19.2375085],[99.92986,19.2381667],[99.9293865,19.2386268],[99.93007,19.2395062],[99.9287118,19.2413876],[99.9280219,19.2419879],[99.9256842,19.2424011],[99.9251819,19.2432927],[99.9195578,19.2441475],[99.9176137,19.2472734],[99.9131522,19.2511775],[99.8871,19.1811],[99.888,19.1811],[99.9193,19.1647],[99.9193,19.1593]]]}},{"type":"Feature","properties":{"id":"TH-LAO-5560103","nameTh":"แม่กา","type":"subdistrict_municipality"},"geometry":{"type":"Polygon","coordinates":[[[99.8391544,19.0013541],[99.8412568,19.0015385],[99.844861,19.0041027],[99.8459279,19.0042172],[99.848584,19.0022509],[99.8525237,19.002919],[99.8546712,19.00273],[99.857183,19.0001825],[99.8626215,18.9995755],[99.8659373,18.9978744],[99.8690247,18.9975019],[99.8704461,18.9964212],[99.8715119,18.9963118],[99.8732717,18.9969747],[99.8747551,18.9987577],[99.8765013,18.9998086],[99.8786841,19.00038],[99.8810831,19.0003089],[99.8826177,18.9998988],[99.8837743,18.9991624],[99.8834355,18.9973591],[99.8841242,18.9941486],[99.8843889,18.9937894],[99.8861574,18.9931246],[99.8874213,18.9919401],[99.8881905,18.9891469],[99.8890782,18.987994],[99.8899396,18.987796],[99.8915142,18.9890116],[99.8934913,18.9892706],[99.8951001,18.9880843],[99.8982132,18.9866969],[99.9017557,18.9864559],[99.9026319,18.9861086],[99.9034257,18.9850009],[99.9036213,18.9834784],[99.9046528,18.9828468],[99.9058283,18.9827516],[99.9079656,18.9836361],[99.9099032,18.9881613],[99.910688,18.9883066],[99.9116427,18.9879738],[99.9129488,18.9859386],[99.913815,18.9837565],[99.9144853,18.9830223],[99.9176921,18.9816341],[99.9194578,18.9805065],[99.925784,18.9789684],[99.9272208,18.9779171],[99.9276365,18.9765426],[99.9271342,18.9739374],[99.9291977,18.9720967],[99.930633,18.9695937],[99.9324771,18.9687525],[99.9341685,18.9673891],[99.9362929,18.9630522],[99.9399217,18.9597061],[99.9406689,18.9548532],[99.9428501,18.9517759],[99.9434039,18.9480887],[99.945093,18.9463687],[99.9454829,18.9446315],[99.9467446,18.942462],[99.9480375,18.9413858],[99.9501299,18.9403292],[99.9520432,18.9385366],[99.9528536,18.9360842],[99.9542658,18.9340327],[99.9551366,18.933434],[99.9581797,18.9326814],[99.9602404,18.930484],[99.963034,18.9297802],[99.9642292,18.9291322],[99.9649984,18.9282487],[99.9654843,18.9258692],[99.9660608,18.9247215],[99.9675167,18.9238047],[99.9718756,18.9219769],[99.9737598,18.9198144],[99.9748094,18.9191136],[99.9767868,18.9185016],[99.9775756,18.9188584],[99.9789046,18.9202821],[99.979438,18.920199],[99.9815861,18.9175537],[99.9851107,18.914861],[99.9892304,18.913034],[99.9910979,18.9104837],[99.9941054,18.9083016],[99.996278,18.9050944],[99.9978928,18.9049788],[100.0018275,18.9075515],[100.0026405,18.9072396],[100.0050996,18.9050068],[100.0072611,18.9046876],[100.0015,18.9149],[99.9893,18.9438],[99.9848,18.9746],[99.9849,18.9927],[99.969,19.0388],[99.9796,19.0605],[99.9796,19.0632],[99.9767,19.0605],[99.9767,19.0614],[99.9745893,19.060219],[99.9621138,19.0620098],[99.9603479,19.0615606],[99.9506232,19.0616001],[99.9369,19.0733],[99.936,19.0815],[99.9331,19.0806],[99.9312,19.0851],[99.9172,19.1267],[99.9048,19.1268],[99.9038,19.1115],[99.9019,19.1006],[99.898,19.0871],[99.8875,19.0871],[99.8884,19.079],[99.8903,19.0781],[99.8941,19.0772],[99.8998,19.0636],[99.8921,19.051],[99.8835,19.0447],[99.8787,19.0311],[99.8739,19.0257],[99.8568,19.0258],[99.8559,19.0285],[99.8473,19.0286],[99.8348131,19.0270388],[99.8350858,19.0260227],[99.8348623,19.0251757],[99.8333264,19.0220131],[99.8341203,19.0170745],[99.8331348,19.0158278],[99.8296293,19.0133413],[99.8291721,19.0125232],[99.8291809,19.0113554],[99.8295837,19.0100469],[99.8307046,19.0082541],[99.8348022,19.0059832],[99.8373108,19.0027349],[99.8391544,19.0013541]]]}}]}