{"type":"FeatureCollection","features":[{"type":"Feature","properties":{"provinceCode":"35","nameTh":"ยโสธร","nameEn":"Yasothon"},"geometry":{"type":"Polygon","coordinates":[[[104.7585374,16.2008033],[104.7675441,16.1948966],[104.7657177,16.1904813],[104.7728867,16.1876418],[104.7829251,16.1753102],[104.786248,16.1626064],[104.789273,16.1574047],[104.7988498,16.159806],[104.8044786,16.1641588],[104.8117694,16.1576366],[104.8221775,16.1576225],[104.8249318,16.1554676],[104.8229159,16.1521963],[104.8244683,16.1501788],[104.8223601,16.1468964],[104.8236443,16.1448615],[104.8209012,16.1407563],[104.8210418,16.1373955],[104.8162293,16.1337781],[104.8152476,16.1308993],[104.8166577,16.1294767],[104.8154567,16.1260141],[104.8163572,16.1227643],[104.8129842,16.1076186],[104.8139965,16.0990334],[104.8120525,16.0962409],[104.8024515,16.0948391],[104.7975492,16.1009565],[104.7885695,16.1040271],[104.7873772,16.1085055],[104.7834062,16.1131604],[104.7808153,16.113994],[104.7800693,16.1124738],[104.7759045,16.1126902],[104.7768914,16.1108312],[104.7706574,16.1075854],[104.7692203,16.1049885],[104.7639483,16.1035079],[104.7612267,16.1041782],[104.7543853,16.1022352],[104.7515722,16.103715],[104.7409737,16.1033925],[104.7303829,16.1009946],[104.727368,16.1039855],[104.7210969,16.1041942],[104.7203908,16.1066803],[104.7063698,16.1084577],[104.7023577,16.1136874],[104.6973828,16.1128165],[104.6945812,16.1146169],[104.687493,16.11457],[104.678773,16.1203953],[104.6741706,16.1181048],[104.6693316,16.1180504],[104.6640645,16.1213026],[104.6639435,16.1228665],[104.6609752,16.1234087],[104.6553886,16.1200763],[104.6450442,16.1232688],[104.6389654,16.1229041],[104.6371911,16.1213245],[104.6346971,16.1229295],[104.6336126,16.1207128],[104.6295668,16.1216505],[104.6272873,16.1204105],[104.6251494,16.1234846],[104.6223876,16.1232448],[104.6124265,16.1137572],[104.6096717,16.1143596],[104.605357,16.1124436],[104.6048089,16.1110955],[104.6063873,16.1102538],[104.6053016,16.1091018],[104.6027086,16.1107505],[104.5998362,16.1076616],[104.5918152,16.1069595],[104.5792773,16.1001559],[104.5676059,16.1006693],[104.5625225,16.0989261],[104.557869,16.0883359],[104.5527365,16.0840009],[104.5526749,16.0808548],[104.5472466,16.0753289],[104.5480762,16.0736415],[104.5426498,16.0712557],[104.5407679,16.0673116],[104.5419655,16.0653761],[104.5382432,16.058818],[104.5338356,16.0569241],[104.5352775,16.0548787],[104.5333775,16.05371],[104.5350479,16.0527394],[104.5335516,16.0513708],[104.5360124,16.0494155],[104.5363352,16.0444641],[104.5313545,16.0431063],[104.5300865,16.0374444],[104.5294064,16.0387256],[104.5254165,16.0380259],[104.5264898,16.0372271],[104.5254156,16.0345283],[104.5234169,16.0343583],[104.5229952,16.031889],[104.5217335,16.0323126],[104.5151844,16.0256446],[104.5176692,16.0239326],[104.5183361,16.0204192],[104.5201264,16.0202976],[104.5196296,16.0189868],[104.5252576,16.0143132],[104.522502,16.0100109],[104.5256666,16.0076027],[104.5282503,16.0077728],[104.5325917,15.9999376],[104.5312661,15.9982217],[104.5300753,16.0009679],[104.5271286,16.0008422],[104.5276713,15.9967163],[104.5266366,15.9948983],[104.5247027,15.995129],[104.5248558,15.9908865],[104.5219052,15.9898549],[104.5216669,15.985941],[104.5195238,15.9842801],[104.5148945,15.9838604],[104.5136098,15.9815862],[104.5091046,15.9839448],[104.508348,15.9814089],[104.5053042,15.9820572],[104.5017398,15.9758495],[104.5026488,15.9732205],[104.5047265,15.9728904],[104.5032888,15.9698217],[104.505964,15.9672653],[104.5017561,15.9628886],[104.5040349,15.9593735],[104.5051048,15.9513263],[104.4967526,15.9490326],[104.498365,15.9464244],[104.4955696,15.9435992],[104.4900687,15.9426367],[104.4861883,15.9337375],[104.4819764,15.9349294],[104.4771108,15.9263111],[104.468743,15.917887],[104.4650681,15.9126127],[104.4704975,15.9103963],[104.4678715,15.9027675],[104.454822,15.901344],[104.4566192,15.8958311],[104.4597997,15.8971686],[104.45837,15.8912469],[104.4544511,15.8857599],[104.4548316,15.883038],[104.4523247,15.8816059],[104.4569735,15.8756577],[104.450084,15.8711911],[104.4485049,15.8682398],[104.449618,15.8653821],[104.4567903,15.8595754],[104.4565646,15.8522492],[104.4606656,15.8433935],[104.4501517,15.8354044],[104.4477793,15.8303135],[104.4463967,15.8203423],[104.4403767,15.8166168],[104.4404093,15.8123559],[104.4358618,15.8119906],[104.4359432,15.8086272],[104.4407117,15.8064044],[104.4408342,15.8039573],[104.4359572,15.7995952],[104.4349907,15.7946583],[104.4313738,15.7929758],[104.4318328,15.7882689],[104.4333837,15.7869766],[104.4316176,15.7817468],[104.4334823,15.7792584],[104.4294094,15.7780677],[104.4285526,15.7729254],[104.4259818,15.7716353],[104.4295914,15.7713947],[104.4291675,15.7693902],[104.4307368,15.768671],[104.428606,15.7666395],[104.432466,15.7643322],[104.4303696,15.760154],[104.4328738,15.7578207],[104.4343198,15.7523583],[104.4299461,15.7496238],[104.4255822,15.7529308],[104.4221214,15.7487103],[104.418898,15.7486035],[104.4189928,15.7454762],[104.4218624,15.7450377],[104.4215622,15.7421788],[104.4233012,15.7399789],[104.4245344,15.7414888],[104.4267181,15.7391064],[104.4294397,15.7394517],[104.4294174,15.7374076],[104.4314911,15.7379757],[104.4301014,15.7334895],[104.4276533,15.7321034],[104.4302258,15.7311268],[104.4275055,15.7302449],[104.428466,15.7286642],[104.4265022,15.7281551],[104.427852,15.7254011],[104.4222608,15.7228944],[104.4271279,15.7203509],[104.4256694,15.7192939],[104.4255011,15.7152409],[104.4218641,15.7135086],[104.4243698,15.7084228],[104.4216091,15.7083362],[104.4208457,15.7060363],[104.4191277,15.7056863],[104.419373,15.7025445],[104.4225024,15.7012061],[104.4230982,15.6985438],[104.4190274,15.6978519],[104.4235979,15.6952617],[104.4281619,15.6975718],[104.4288157,15.6996313],[104.4309856,15.6986249],[104.4337103,15.7002869],[104.4395945,15.7003186],[104.4411078,15.6991722],[104.4393202,15.6931829],[104.4367352,15.6918598],[104.4392705,15.6908814],[104.4399926,15.6882853],[104.4363092,15.685725],[104.4438483,15.6831864],[104.4392717,15.6765922],[104.442304,15.6744363],[104.4438989,15.6761436],[104.4454752,15.670336],[104.4365217,15.6685292],[104.435738,15.6670707],[104.4407332,15.6663333],[104.4422272,15.6621566],[104.4454642,15.6614258],[104.4460352,15.6540718],[104.4431785,15.6524788],[104.4443478,15.6499931],[104.4415878,15.6477205],[104.439641,15.6513134],[104.4376325,15.6490745],[104.4419661,15.6448542],[104.4390631,15.6433041],[104.4390132,15.6413413],[104.4423384,15.6412817],[104.4427149,15.6391594],[104.4461018,15.6390681],[104.4451496,15.6369957],[104.4477038,15.6366072],[104.4467608,15.6336158],[104.4432467,15.631214],[104.4419679,15.6220334],[104.4400384,15.621057],[104.439642,15.6183006],[104.4451066,15.621687],[104.4500107,15.6177914],[104.4526167,15.6222173],[104.458662,15.6248261],[104.4611736,15.6281353],[104.4644502,15.6282274],[104.4667091,15.6218381],[104.4664443,15.6167693],[104.465581,15.6141721],[104.4607147,15.6103804],[104.4619009,15.6066418],[104.4666248,15.6057516],[104.4673332,15.6014876],[104.463806,15.5968328],[104.4575442,15.596321],[104.4622402,15.5914234],[104.4623286,15.5891683],[104.4660808,15.58747],[104.4713634,15.5887346],[104.4729389,15.5867136],[104.4758182,15.5893064],[104.4766066,15.5872001],[104.4834,15.585577],[104.4846895,15.5883797],[104.4814933,15.5887393],[104.4811575,15.5909682],[104.4888834,15.5945098],[104.4923969,15.5857814],[104.4944943,15.5899611],[104.5053077,15.5869366],[104.5065863,15.5780453],[104.5110881,15.5708378],[104.5097134,15.5682669],[104.5124924,15.5646396],[104.510034,15.5649253],[104.5078089,15.5680001],[104.4987887,15.568315],[104.501094,15.5650218],[104.5000866,15.5587612],[104.4945963,15.5560043],[104.489994,15.5496154],[104.4843026,15.5466659],[104.4834231,15.542837],[104.4852954,15.540377],[104.4811845,15.5370469],[104.4733777,15.5393027],[104.4701395,15.5438602],[104.4654535,15.5429192],[104.457976,15.5475697],[104.4523389,15.5463911],[104.4416792,15.5548263],[104.4355054,15.5485587],[104.4310222,15.5387705],[104.4274859,15.5399918],[104.4194153,15.5358885],[104.4133903,15.5360227],[104.4051289,15.5408422],[104.400329,15.5460707],[104.3859162,15.5362507],[104.3832238,15.5277169],[104.3855017,15.5256028],[104.3852165,15.5162459],[104.387336,15.5103547],[104.3835242,15.4937863],[104.3903918,15.4904153],[104.3794956,15.4737779],[104.3715842,15.4580491],[104.3861887,15.4426782],[104.3873718,15.4163251],[104.3919679,15.405685],[104.390059,15.4031746],[104.3828221,15.4008983],[104.3822514,15.3948123],[104.3919238,15.3859993],[104.3965602,15.3861658],[104.402616,15.3893017],[104.4074183,15.3876724],[104.4115197,15.3826609],[104.4182885,15.3659105],[104.4235283,15.3693123],[104.4307121,15.3671647],[104.4335922,15.3679431],[104.4339344,15.3726207],[104.4292433,15.376787],[104.4318809,15.3780281],[104.4368896,15.3732191],[104.4385384,15.3601948],[104.4334959,15.3468825],[104.4371359,15.3448506],[104.4434404,15.348639],[104.4459032,15.3472175],[104.4469396,15.3435777],[104.4407375,15.3369954],[104.4347222,15.3335745],[104.433012,15.328487],[104.4310439,15.3271256],[104.4249783,15.3258906],[104.4183078,15.3279649],[104.4163547,15.3271669],[104.41319,15.3297765],[104.4088922,15.3244711],[104.406729,15.2893058],[104.3822225,15.2946604],[104.3821541,15.2984921],[104.3856411,15.3022979],[104.3858475,15.3082655],[104.388089,15.3127485],[104.3881551,15.3225012],[104.383761,15.3295621],[104.3766272,15.330508],[104.3747434,15.322139],[104.3696705,15.3212615],[104.3673277,15.3234874],[104.3685572,15.3256501],[104.3652732,15.3285593],[104.3664755,15.3299324],[104.3645535,15.3298853],[104.3619623,15.3346382],[104.3602756,15.3345427],[104.3586969,15.3384834],[104.3565068,15.3384762],[104.3571223,15.3398533],[104.3541014,15.3418354],[104.3534332,15.3446826],[104.3479274,15.3438098],[104.3456723,15.3418434],[104.3447397,15.345028],[104.3393149,15.3458396],[104.3342119,15.3436963],[104.3221968,15.3454949],[104.3213712,15.3467633],[104.3131958,15.3419008],[104.3089534,15.3439828],[104.3044742,15.3420888],[104.3004645,15.3454253],[104.2966289,15.3447703],[104.2936463,15.3466124],[104.2941296,15.3492333],[104.290829,15.354217],[104.2853989,15.3572117],[104.2804516,15.3575186],[104.2742117,15.3661254],[104.2719636,15.3646947],[104.2638874,15.3713861],[104.2563575,15.3717251],[104.2471275,15.3751402],[104.2401283,15.383055],[104.2328634,15.4031502],[104.2047837,15.4404063],[104.1970768,15.4549261],[104.1934211,15.4585907],[104.1802291,15.4624537],[104.1742878,15.4616237],[104.1718893,15.464665],[104.1691213,15.477625],[104.1655246,15.4785158],[104.1634291,15.4826049],[104.1563241,15.4882737],[104.1477804,15.4984295],[104.1374789,15.5062737],[104.1328297,15.512247],[104.1325698,15.5185442],[104.1346654,15.5248695],[104.1411866,15.528667],[104.1352457,15.5388995],[104.1341005,15.5385224],[104.1296872,15.5587659],[104.1277813,15.5612975],[104.1214846,15.5634226],[104.1235714,15.5670792],[104.1213527,15.5743219],[104.1220287,15.5777959],[104.1611365,15.6028479],[104.1745885,15.6039545],[104.1835932,15.6028759],[104.1862817,15.6035656],[104.1875714,15.6061758],[104.2094581,15.6089594],[104.2134935,15.6159309],[104.2087645,15.6181016],[104.1938277,15.613585],[104.1873408,15.6090026],[104.1883826,15.615637],[104.1835019,15.6182239],[104.1820216,15.6213071],[104.1833941,15.6238599],[104.191428,15.6288542],[104.1906147,15.6330256],[104.1880599,15.63372],[104.1787532,15.6307214],[104.1700527,15.6325296],[104.1703038,15.6352087],[104.1770054,15.6369019],[104.1787293,15.6391045],[104.1739361,15.6463543],[104.1719321,15.6601615],[104.1748485,15.6615453],[104.1805683,15.65693],[104.1840758,15.6566902],[104.1871262,15.6593028],[104.1875317,15.6654536],[104.1839136,15.6683028],[104.1752054,15.6640367],[104.1767654,15.6716702],[104.1690476,15.6725795],[104.1678527,15.6781648],[104.1628974,15.6869251],[104.1520798,15.6907404],[104.1512134,15.6980756],[104.1438925,15.7026396],[104.1421111,15.7055581],[104.1430471,15.7090408],[104.1472528,15.7099084],[104.1482992,15.7121557],[104.1391274,15.7112765],[104.1351465,15.7034663],[104.1281983,15.696048],[104.1239098,15.696181],[104.1181033,15.7021872],[104.1198492,15.7057824],[104.1303509,15.7053541],[104.1279656,15.7107361],[104.1275564,15.7199553],[104.1335387,15.7355398],[104.132391,15.7434164],[104.1342055,15.7461667],[104.140053,15.7480881],[104.141802,15.7514629],[104.1402817,15.75419],[104.1331318,15.7540609],[104.1274694,15.7684076],[104.1331695,15.7739896],[104.1342854,15.7795209],[104.1395158,15.7841118],[104.1363003,15.7966693],[104.1334705,15.8006242],[104.1109898,15.8069776],[104.1042612,15.8173039],[104.0968194,15.8250182],[104.0743394,15.8394015],[104.0702468,15.8369699],[104.0697485,15.8295866],[104.0714924,15.8251695],[104.0796237,15.8245859],[104.0790343,15.820938],[104.0754261,15.8179414],[104.0668136,15.8129184],[104.0598601,15.811893],[104.0347102,15.7961354],[104.0250633,15.7991057],[104.0087051,15.7942323],[104.000505,15.7955738],[104.0028857,15.8043507],[103.9978046,15.8144317],[104.000023,15.8147423],[104.0050657,15.8116794],[104.0069648,15.8140538],[104.0049957,15.8172612],[104.014147,15.817418],[104.0092244,15.8215043],[104.0107604,15.8271025],[104.0073513,15.8314017],[104.0172623,15.8303549],[104.0167973,15.8330988],[104.012216,15.8367019],[104.0137282,15.8391051],[104.0117325,15.840116],[104.0126851,15.8447904],[104.0146963,15.8441135],[104.0159968,15.8382219],[104.021039,15.8395444],[104.0186256,15.8480356],[104.0277489,15.8519251],[104.0260044,15.8551949],[104.0289834,15.8602519],[104.0251676,15.8605329],[104.0201207,15.8639172],[104.01973,15.8671555],[104.025293,15.8643282],[104.0366552,15.8683439],[104.0351711,15.8708068],[104.0296241,15.8680661],[104.0236211,15.8702601],[104.0245081,15.8728997],[104.0318198,15.8736977],[104.0322354,15.8750671],[104.0240399,15.8788113],[104.0209906,15.877993],[104.0223307,15.8811609],[104.0208264,15.8836075],[104.0151173,15.8859069],[104.0174994,15.889484],[104.0212667,15.8911409],[104.0197351,15.8928081],[104.0178085,15.8911121],[104.0149962,15.8924769],[104.0167765,15.9016547],[104.0194751,15.906204],[104.014042,15.9107252],[104.0237151,15.9117683],[104.0238428,15.9151754],[104.0283485,15.9196722],[104.0263258,15.9232053],[104.029263,15.9243785],[104.0296211,15.9277846],[104.0329707,15.9296],[104.0350606,15.9348136],[104.0328297,15.9364993],[104.0359691,15.9391928],[104.0358925,15.9409347],[104.0337071,15.9397128],[104.0339233,15.9445151],[104.0322011,15.9462025],[104.0330784,15.9480499],[104.0294135,15.9488584],[104.0290896,15.9515265],[104.0307395,15.9530303],[104.0279262,15.9540998],[104.0302446,15.9571847],[104.0280175,15.9565508],[104.0273935,15.960592],[104.0242378,15.9611096],[104.0254776,15.9594014],[104.0199822,15.9554658],[104.020902,15.9515533],[104.0188009,15.9516851],[104.0191255,15.9532883],[104.0166662,15.9529763],[104.0158128,15.9490534],[104.0140558,15.9508224],[104.014924,15.9525679],[104.0118845,15.9538073],[104.0114747,15.9590606],[104.0125303,15.9605888],[104.0154756,15.9603003],[104.0144892,15.9616784],[104.015636,15.9657484],[104.0179715,15.966358],[104.0176352,15.9678694],[104.021578,15.9711915],[104.0204034,15.9768067],[104.0228656,15.97526],[104.0230287,15.9784142],[104.0258748,15.9767745],[104.0294238,15.9795989],[104.0284384,15.9843796],[104.0303209,15.9819144],[104.0360283,15.9842156],[104.0488648,15.9835398],[104.0482672,15.9848691],[104.0508098,15.987113],[104.0516394,15.9854707],[104.0545983,15.9859629],[104.0570475,15.9842743],[104.0583551,15.9870007],[104.0611428,15.9860181],[104.0612772,15.9882304],[104.0662708,15.9833704],[104.0705457,15.9822565],[104.0724211,15.984776],[104.0761617,15.9815279],[104.0793335,15.9836732],[104.0819648,15.9784297],[104.0887155,15.9792107],[104.0947189,15.9769702],[104.093932,15.9793299],[104.097933,15.9802767],[104.0991918,15.9833109],[104.1028834,15.9841641],[104.1030872,15.9871923],[104.106873,15.9909955],[104.1056322,15.9926412],[104.1071969,15.9936154],[104.1073399,15.9974556],[104.1041955,15.9985412],[104.1043944,16.0023137],[104.1023113,16.0062605],[104.1105727,16.0175794],[104.1092324,16.0201197],[104.1116569,16.0214644],[104.1094551,16.0289184],[104.1101066,16.030962],[104.1121829,16.0305861],[104.1138042,16.0322932],[104.1140873,16.0356634],[104.1128096,16.0416029],[104.1096284,16.0424216],[104.1090068,16.0460334],[104.1051886,16.0475756],[104.1038036,16.0506768],[104.1027818,16.049192],[104.1015976,16.049992],[104.1009037,16.0560231],[104.0982187,16.0587037],[104.0978672,16.069091],[104.0992249,16.0696482],[104.0956489,16.0723005],[104.0965959,16.0736092],[104.0952158,16.0749952],[104.0975255,16.0771328],[104.1004419,16.0853804],[104.1027163,16.0868843],[104.1000837,16.0933509],[104.1026976,16.0963577],[104.1049715,16.095764],[104.1073839,16.0978359],[104.1066929,16.1026102],[104.108859,16.1040374],[104.1087476,16.107158],[104.1111464,16.106752],[104.1132039,16.1091102],[104.1155083,16.1153394],[104.1203157,16.1155122],[104.1216658,16.1169913],[104.1236137,16.1150673],[104.1241798,16.1161025],[104.1235018,16.1142641],[104.1254834,16.1122352],[104.1268966,16.1138294],[104.1325017,16.1131423],[104.1332048,16.114348],[104.1377116,16.1097498],[104.1402519,16.1112334],[104.140465,16.1137366],[104.1422459,16.1128172],[104.1476019,16.1171434],[104.1517631,16.1177866],[104.1554018,16.1261355],[104.1541092,16.1294712],[104.1561635,16.1294836],[104.1575144,16.1316131],[104.1632176,16.1317211],[104.166188,16.1383759],[104.1659079,16.1426398],[104.1725239,16.1459591],[104.17313,16.1480449],[104.1749417,16.1488252],[104.1747481,16.1472779],[104.1761932,16.147126],[104.1787513,16.1493791],[104.1808243,16.1483106],[104.1814833,16.1502471],[104.1890493,16.1466824],[104.1962025,16.1512232],[104.1981241,16.150418],[104.1995066,16.1523754],[104.1981626,16.1550144],[104.1999485,16.1581562],[104.2029459,16.1588523],[104.2018204,16.1594418],[104.2029794,16.1611446],[104.2060567,16.1617172],[104.2073937,16.1641954],[104.2092331,16.1633742],[104.208609,16.1604019],[104.2106118,16.1575495],[104.2133517,16.1571577],[104.2203364,16.1600139],[104.2205094,16.1625726],[104.2277761,16.1662257],[104.2270724,16.1671165],[104.2301086,16.1692098],[104.2289528,16.1719574],[104.2368884,16.1803414],[104.2383095,16.1873045],[104.2472568,16.1934321],[104.2471482,16.1971051],[104.2453888,16.1991236],[104.2493733,16.2041653],[104.2499727,16.2190203],[104.258132,16.2246214],[104.2689843,16.227],[104.2735072,16.2256668],[104.2769862,16.2265216],[104.2853416,16.2339594],[104.2982961,16.2397466],[104.2969286,16.2528547],[104.3056022,16.2573515],[104.3107341,16.2554455],[104.3120416,16.2587866],[104.3225836,16.2649227],[104.3285147,16.2709953],[104.3309708,16.2782254],[104.3354833,16.2811255],[104.33951,16.287749],[104.3435147,16.2909707],[104.3407556,16.2985306],[104.3446159,16.3110562],[104.3440471,16.3155287],[104.3472759,16.319407],[104.3495851,16.32732],[104.3666078,16.3407537],[104.374962,16.342405],[104.3883598,16.3488087],[104.4181543,16.3450299],[104.4248028,16.3469358],[104.4580039,16.3418996],[104.4734137,16.3455556],[104.4817746,16.3421209],[104.4955699,16.3408994],[104.50384,16.3375337],[104.5035015,16.3340412],[104.5079784,16.3292754],[104.5083041,16.3215096],[104.5108164,16.3169758],[104.5145755,16.3157235],[104.5189454,16.3164584],[104.5222789,16.31464],[104.5371026,16.318198],[104.5423986,16.3133761],[104.5504771,16.3122723],[104.551035,16.3064258],[104.5570879,16.2930002],[104.5626199,16.2849773],[104.5626843,16.283285],[104.5591764,16.2811751],[104.5591047,16.2759496],[104.55762,16.2746591],[104.5585732,16.269517],[104.55571,16.2646705],[104.5558836,16.2614855],[104.5567478,16.2605218],[104.5599322,16.2619694],[104.5630541,16.2600724],[104.5726705,16.2590508],[104.5742406,16.2573367],[104.5759116,16.2473814],[104.5804156,16.2406991],[104.5848977,16.2372398],[104.5975515,16.2419527],[104.6006674,16.2379817],[104.6012373,16.2280623],[104.5999711,16.2265241],[104.6026854,16.2245258],[104.6090961,16.223434],[104.6123035,16.2174152],[104.6156242,16.2153537],[104.6279482,16.211091],[104.6431036,16.2155688],[104.6542693,16.2245392],[104.6579676,16.2257597],[104.6633463,16.243952],[104.6665284,16.2348841],[104.6697653,16.2305472],[104.6814859,16.2254814],[104.6907008,16.2266431],[104.692771,16.2238557],[104.6922871,16.2154125],[104.6985145,16.2131236],[104.703682,16.2074499],[104.7095763,16.2103119],[104.7166842,16.2038389],[104.7404811,16.2018849],[104.747474,16.2030968],[104.7526442,16.1979666],[104.7585374,16.2008033]]]}}]}