{"type":"FeatureCollection","features":[{"type":"Feature","properties":{"provinceCode":"63","nameTh":"ตาก","nameEn":"Tak"},"geometry":{"type":"Polygon","coordinates":[[[99.0861438,15.8845425],[99.0881832,15.879567],[99.0949405,15.8755452],[99.0974938,15.8712347],[99.0939637,15.861194],[99.0947883,15.8580925],[99.0988931,15.8536462],[99.0964034,15.8475807],[99.0974748,15.8438133],[99.0955988,15.836744],[99.097211,15.834781],[99.0968119,15.8314427],[99.1037049,15.827273],[99.1032835,15.8211943],[99.1234743,15.8146092],[99.1307992,15.8070683],[99.1334392,15.8015896],[99.1360769,15.7891402],[99.1324088,15.785449],[99.1298507,15.7794596],[99.1272971,15.7681817],[99.130088,15.7593755],[99.1307605,15.7484816],[99.1337177,15.7455207],[99.13494,15.738367],[99.1382577,15.7352194],[99.1388565,15.731328],[99.1330809,15.7280696],[99.1282182,15.7226437],[99.1254461,15.7132926],[99.1262419,15.7098588],[99.1241051,15.6985529],[99.1267793,15.6954369],[99.1229634,15.6922081],[99.1218446,15.6865144],[99.1176641,15.6838181],[99.1164131,15.6750756],[99.1139229,15.6730061],[99.1139765,15.6694423],[99.1112956,15.6677519],[99.1159946,15.6621674],[99.1120163,15.6496912],[99.116302,15.6460716],[99.1159701,15.6330049],[99.1100748,15.6250685],[99.1063848,15.6147527],[99.0971768,15.6110502],[99.0965016,15.6000255],[99.092619,15.5960091],[99.09088,15.5898237],[99.094284,15.5825362],[99.0782783,15.5763779],[99.0673334,15.5686909],[99.0603966,15.5675723],[99.0549468,15.5636039],[99.0517576,15.5635734],[99.0480734,15.555457],[99.0504849,15.5443857],[99.0538763,15.5408607],[99.0547382,15.5260377],[99.062442,15.5164619],[99.0729493,15.5114673],[99.0785082,15.4994131],[99.0758142,15.4875399],[99.0641327,15.472002],[99.0650818,15.4630823],[99.0615401,15.4607344],[99.0620394,15.4547891],[99.0587972,15.4392941],[99.0625287,15.4372923],[99.0642239,15.428452],[99.0633994,15.4233132],[99.0676403,15.4205257],[99.0682164,15.4023435],[99.0668576,15.3990275],[99.06977,15.396728],[99.0665459,15.3922742],[99.0604422,15.393588],[99.0533952,15.3787877],[99.0435005,15.3757045],[99.0449936,15.3735248],[99.0446338,15.3671952],[99.0465925,15.3639257],[99.0451584,15.3622102],[99.0465077,15.3588597],[99.0432566,15.3515453],[99.043136,15.3461663],[99.0341394,15.3407541],[99.0310925,15.3361986],[99.0320595,15.3325004],[99.0308045,15.3274577],[99.0323928,15.3246288],[99.0312695,15.3213251],[99.0325949,15.3180789],[99.0310875,15.302626],[99.0327591,15.2986958],[99.0376275,15.2973878],[99.0383619,15.2884569],[99.0237844,15.2787346],[99.0211849,15.26997],[99.0166565,15.2652618],[99.0195159,15.2611381],[99.0184773,15.2573444],[99.0199077,15.254565],[99.0194724,15.2462092],[99.0119453,15.2443358],[99.0061533,15.2386304],[99.0086645,15.2313236],[99.0061099,15.2275064],[99.0050375,15.2193718],[99.0085059,15.208226],[99.0048899,15.2032453],[99.006561,15.1995096],[99.0022753,15.1931198],[99.0023114,15.1847356],[98.9949156,15.1836587],[98.991731,15.1867921],[98.9889984,15.1868634],[98.984003,15.1799534],[98.9714523,15.1911982],[98.970724,15.1977909],[98.9640592,15.2055347],[98.9629149,15.2218065],[98.9555275,15.239331],[98.9555577,15.2469974],[98.942633,15.2529289],[98.9387305,15.2502593],[98.9233317,15.2466717],[98.9196637,15.249773],[98.918251,15.2541756],[98.9150065,15.2564338],[98.9144348,15.2655423],[98.9102819,15.2683718],[98.9019205,15.2690327],[98.8978958,15.2732054],[98.8862612,15.2750668],[98.8914386,15.2904255],[98.8834807,15.3040459],[98.8818353,15.3097814],[98.8710147,15.3246283],[98.8617748,15.3302788],[98.8546157,15.3378352],[98.8402005,15.3480178],[98.8371435,15.3483177],[98.8332136,15.3450733],[98.8309929,15.34563],[98.8294331,15.3558312],[98.8228558,15.3613692],[98.8215307,15.365573],[98.8135434,15.3765513],[98.8035158,15.3844398],[98.8016756,15.3915396],[98.7978878,15.3932942],[98.7923258,15.4028089],[98.7832617,15.4084357],[98.7793834,15.4230756],[98.767938,15.4334045],[98.7635598,15.434899],[98.7627437,15.4375604],[98.7545524,15.4407381],[98.7567207,15.4456576],[98.7563158,15.4488545],[98.7591649,15.451504],[98.7547765,15.4584999],[98.7583906,15.4683885],[98.7607667,15.4700626],[98.7595476,15.4721173],[98.7519101,15.4768018],[98.7476785,15.482592],[98.7410426,15.4790437],[98.737293,15.4793806],[98.7320906,15.4832858],[98.729688,15.4885856],[98.7194049,15.4909217],[98.7061057,15.4976588],[98.702739,15.5013377],[98.7008589,15.5048866],[98.7033192,15.5100523],[98.7123133,15.5048641],[98.7185098,15.5062475],[98.7197878,15.5095557],[98.7179187,15.5130055],[98.7237612,15.5175089],[98.7094756,15.531265],[98.6981604,15.5523499],[98.6752194,15.5788057],[98.6688878,15.5896494],[98.6676982,15.594984],[98.6613048,15.5983425],[98.6579368,15.6082462],[98.6541097,15.6128863],[98.6540856,15.6213301],[98.6480976,15.6331091],[98.6402594,15.6381375],[98.6366534,15.6326185],[98.6323899,15.6296009],[98.6322947,15.6276207],[98.6255289,15.6265494],[98.6223846,15.6305481],[98.626768,15.638564],[98.6205136,15.6401125],[98.6132797,15.6448264],[98.6075292,15.6411213],[98.6002537,15.6451963],[98.5903003,15.6444287],[98.5880824,15.6469396],[98.5837053,15.6603566],[98.5757572,15.6604328],[98.5717343,15.6545265],[98.5577797,15.6524799],[98.548287,15.685239],[98.565803,15.763474],[98.576458,15.798899],[98.610764,15.876798],[98.604539,15.875771],[98.600359,15.872394],[98.595679,15.874911],[98.596542,15.884832],[98.593565,15.885755],[98.588863,15.892445],[98.589158,15.906687],[98.585341,15.91128],[98.584024,15.918138],[98.588113,15.929003],[98.588023,15.933114],[98.592157,15.938001],[98.591884,15.949999],[98.593838,15.959375],[98.601335,15.964764],[98.606106,15.965121],[98.608651,15.972609],[98.608378,15.977538],[98.605607,15.981418],[98.606288,15.986263],[98.604425,15.991192],[98.599859,15.996352],[98.596726,16.008432],[98.590799,16.013195],[98.586259,16.013658],[98.576735,16.019892],[98.577207,16.022669],[98.575497,16.024983],[98.561462,16.031951],[98.560607,16.036498],[98.5670513,16.0569623],[98.5782853,16.0597923],[98.5805263,16.0627873],[98.5805843,16.0705723],[98.5843583,16.0747643],[98.5891943,16.0761793],[98.5998683,16.0731583],[98.6027583,16.0646373],[98.6069153,16.0621873],[98.6074463,16.0597923],[98.6049103,16.0569073],[98.6050283,16.0541033],[98.6083013,16.0419083],[98.6121043,16.0422073],[98.6138733,16.0398113],[98.6204783,16.0446303],[98.6231613,16.0418533],[98.6279373,16.0438673],[98.6315643,16.0486853],[98.6264043,16.0624603],[98.6317113,16.0631683],[98.6401743,16.0609083],[98.6418543,16.0665433],[98.6614043,16.0733483],[98.6628783,16.0772413],[98.6590153,16.0799363],[98.6592513,16.0832843],[98.6717823,16.0904163],[98.6741113,16.0971673],[98.6662093,16.1108323],[98.6716053,16.1126283],[98.6825143,16.1114853],[98.6844313,16.1149693],[98.6803913,16.1189163],[98.6779153,16.1279543],[98.6856993,16.1288523],[98.6873503,16.1319013],[98.6921863,16.1314113],[98.6991153,16.1357393],[98.7081373,16.1353853],[98.7130913,16.1327173],[98.7162163,16.1249053],[98.7183103,16.1235443],[98.7319623,16.1224553],[98.7413673,16.1196783],[98.7509593,16.1217533],[98.7561123,16.1197993],[98.7656983,16.1213853],[98.7678813,16.1203283],[98.7718893,16.1241993],[98.7791453,16.1260183],[98.7841113,16.1224903],[98.7880923,16.1108373],[98.7944303,16.1084903],[98.7964543,16.1056393],[98.8054013,16.1045943],[98.8099953,16.1090683],[98.8130433,16.1090063],[98.8152933,16.1114043],[98.8208583,16.1114043],[98.8284343,16.1153993],[98.8299123,16.1176483],[98.8288873,16.1210043],[98.8327753,16.1266083],[98.8439583,16.1287103],[98.8484993,16.1278873],[98.8513353,16.1356183],[98.8495513,16.1395633],[98.8518273,16.1425143],[98.8519343,16.1506153],[98.8539983,16.1563673],[98.8507363,16.1588133],[98.8510553,16.1606323],[98.8586043,16.1646393],[98.8574193,16.1672943],[98.8614133,16.1700113],[98.8598423,16.1873663],[98.8539443,16.1927873],[98.8560873,16.1950123],[98.8592433,16.1946183],[98.8612543,16.1982822],[98.8583643,16.2071442],[98.8522143,16.2141752],[98.8519473,16.2195962],[98.8558613,16.2215382],[98.8558083,16.2253122],[98.8649683,16.2321952],[98.8699613,16.2337802],[98.8723443,16.2389682],[98.8760853,16.2302032],[98.8782963,16.2303632],[98.8814913,16.2356242],[98.8815043,16.2394832],[98.8874293,16.2440072],[98.8871763,16.2479412],[98.8957773,16.2490842],[98.9028193,16.2537532],[98.9047213,16.2602112],[98.9082183,16.2664212],[98.9106573,16.2679492],[98.9102733,16.2708782],[98.9065723,16.2740102],[98.9118433,16.2933482],[98.9107073,16.2981332],[98.9163493,16.3063232],[98.9235743,16.3066372],[98.9317333,16.3289092],[98.9297563,16.3313562],[98.9286583,16.3372552],[98.9250503,16.3416482],[98.9252693,16.3447542],[98.9128443,16.3434362],[98.9093613,16.3468252],[98.9113693,16.3524732],[98.9173003,16.3580902],[98.9200303,16.3695422],[98.9170173,16.3764452],[98.9187473,16.3842032],[98.9179683,16.3872782],[98.9132933,16.3928152],[98.8999243,16.4009352],[98.8998833,16.4036832],[98.8966433,16.4068822],[98.8915983,16.4063892],[98.8903733,16.4131952],[98.8814253,16.4230472],[98.8724453,16.4223342],[98.8724463,16.4205792],[98.8705593,16.4203332],[98.8659663,16.4217692],[98.8635473,16.4187752],[98.8569853,16.4222202],[98.8481273,16.4181192],[98.8376563,16.4224932],[98.8297933,16.4219392],[98.8283263,16.4132312],[98.8242153,16.4057362],[98.8130723,16.3943762],[98.8145913,16.3904752],[98.8171443,16.3891902],[98.8172463,16.3850892],[98.8108253,16.3839812],[98.8086933,16.3808002],[98.7977283,16.3762282],[98.7919723,16.3705122],[98.7866363,16.3697342],[98.7813393,16.3651742],[98.7829223,16.3553102],[98.7756213,16.3491352],[98.7753663,16.3463662],[98.7773313,16.3440802],[98.7729793,16.3446692],[98.7722513,16.3483812],[98.7678093,16.3468262],[98.7678863,16.3445402],[98.7649243,16.3419352],[98.7603423,16.3448462],[98.7524923,16.3436802],[98.745428,16.347375],[98.743569,16.344701],[98.744873,16.342757],[98.742964,16.341087],[98.74283,16.338489],[98.740375,16.338422],[98.739183,16.336564],[98.735731,16.338479],[98.733256,16.33498],[98.733625,16.332713],[98.729342,16.33166],[98.726784,16.328758],[98.724821,16.322082],[98.728406,16.319777],[98.727461,16.314495],[98.724606,16.314921],[98.724975,16.312844],[98.721493,16.314732],[98.71872,16.313888],[98.719726,16.311517],[98.717631,16.307789],[98.719901,16.307922],[98.71872,16.306415],[98.720322,16.301369],[98.719079,16.298694],[98.720332,16.298353],[98.71872,16.295289],[98.715124,16.296949],[98.7129791,16.2950595],[98.7102254,16.2955319],[98.709443,16.293525],[98.706814,16.294597],[98.706136,16.290377],[98.707379,16.28885],[98.704574,16.283046],[98.70632,16.281073],[98.70253,16.277482],[98.704056,16.276738],[98.703234,16.270791],[98.699141,16.268607],[98.697111,16.270683],[98.696809,16.269335],[98.695803,16.270853],[98.694662,16.269924],[98.691894,16.272339],[98.693136,16.275561],[98.686643,16.277126],[98.686358,16.279216],[98.683708,16.278241],[98.681091,16.281431],[98.678793,16.278411],[98.68203,16.276568],[98.680168,16.273114],[98.678038,16.273331],[98.677602,16.270961],[98.674951,16.271751],[98.673291,16.274972],[98.675907,16.280533],[98.673408,16.284466],[98.67064,16.285163],[98.66814,16.283707],[98.670052,16.288183],[98.666982,16.289082],[98.667553,16.290692],[98.665858,16.291931],[98.669583,16.29255],[98.669968,16.303996],[98.668408,16.305684],[98.6711294,16.305555],[98.667268,16.309091],[98.670321,16.309989],[98.670337,16.312824],[98.668844,16.313258],[98.671663,16.317083],[98.670438,16.318322],[98.665036,16.316495],[98.66299,16.319329],[98.664986,16.3219],[98.667368,16.321729],[98.668006,16.323634],[98.666295,16.324439],[98.668811,16.326282],[98.66715,16.327645],[98.666244,16.33288],[98.666446,16.346819],[98.664164,16.349126],[98.6603111,16.3486279],[98.6591792,16.3513766],[98.655558,16.350056],[98.652522,16.352905],[98.653025,16.355383],[98.657018,16.35893],[98.662101,16.360371],[98.664467,16.364738],[98.661128,16.369105],[98.6532605,16.3710098],[98.6541884,16.3740926],[98.6581217,16.3777055],[98.6539234,16.3825468],[98.6526073,16.3894729],[98.6486277,16.3943395],[98.6560585,16.4000379],[98.6546711,16.4016806],[98.6515351,16.4005461],[98.6467485,16.4033691],[98.6444859,16.4029233],[98.6426348,16.4048198],[98.6417813,16.4100257],[98.6376197,16.4124785],[98.6414281,16.415617],[98.6369208,16.4253327],[98.6391664,16.4314891],[98.6450059,16.4409113],[98.6493786,16.4449206],[98.6517681,16.450367],[98.6547396,16.4500634],[98.6580968,16.4549163],[98.6532906,16.4595045],[98.651311,16.463798],[98.6518754,16.4714605],[98.6474889,16.4740986],[98.6444697,16.4725275],[98.6421839,16.4794441],[98.6342396,16.4777732],[98.6275091,16.4959847],[98.6183791,16.5011868],[98.6135723,16.5073671],[98.6116727,16.5145653],[98.605699,16.52572],[98.5975453,16.5329137],[98.5962018,16.5422481],[98.5984631,16.5449691],[98.597626,16.5469841],[98.5922319,16.5457471],[98.5851473,16.5471219],[98.5848124,16.5505042],[98.5879201,16.5542062],[98.5859037,16.5589669],[98.5823608,16.559101],[98.5790682,16.5569895],[98.5768366,16.5585183],[98.5764271,16.5613282],[98.5784403,16.5648637],[98.5729615,16.5696494],[98.5731791,16.5718191],[98.5754892,16.5737766],[98.5780467,16.5715298],[98.5785044,16.5674687],[98.5868825,16.567411],[98.5792275,16.5747732],[98.5828918,16.5760562],[98.5860783,16.5830845],[98.5828738,16.588161],[98.5845655,16.5926882],[98.5819101,16.5954386],[98.5833049,16.6005281],[98.5763499,16.5996747],[98.5768837,16.606296],[98.5720852,16.6053424],[98.5705678,16.6065823],[98.5710686,16.6113004],[98.56877,16.6165],[98.5738152,16.6206637],[98.5713261,16.6249969],[98.5710686,16.6316328],[98.5689336,16.6326094],[98.5611927,16.6298595],[98.5593554,16.6355468],[98.5532078,16.6335731],[98.5494661,16.636783],[98.5437208,16.6384251],[98.5389814,16.6341077],[98.5370877,16.634177],[98.5295051,16.6408537],[98.5236365,16.6413882],[98.5236686,16.6473194],[98.5215229,16.6504134],[98.5111695,16.6461013],[98.5105553,16.6475211],[98.5150051,16.6582818],[98.5153806,16.6707801],[98.5183793,16.6769622],[98.5146055,16.6862246],[98.516382,16.6906216],[98.5157986,16.6948257],[98.5102817,16.7009331],[98.5014856,16.6962861],[98.4998533,16.6911878],[98.4951754,16.6911225],[98.4987563,16.6954508],[98.4967957,16.7031227],[98.4997564,16.7086285],[98.5028388,16.7105135],[98.5019069,16.7146314],[98.4984594,16.7166358],[98.4950271,16.7161184],[98.4915653,16.708432],[98.4893793,16.7135956],[98.4847911,16.7165137],[98.4767536,16.7138889],[98.4736795,16.7143728],[98.4709385,16.712452],[98.4699125,16.7136842],[98.4719529,16.7174715],[98.4781505,16.7171791],[98.4781132,16.7185964],[98.4758194,16.7221979],[98.4697723,16.7256032],[98.4685034,16.7284173],[98.4640997,16.7280842],[98.4631732,16.7302208],[98.4691402,16.7376834],[98.4625312,16.7467769],[98.462661,16.750344],[98.4661039,16.7523278],[98.4702234,16.7510495],[98.4759739,16.7452045],[98.4783856,16.7455864],[98.4798583,16.7480036],[98.4765136,16.7522867],[98.4769261,16.7638466],[98.4884843,16.7734977],[98.4835191,16.7817866],[98.4852801,16.7893754],[98.4898143,16.7917867],[98.4921169,16.7879599],[98.4955572,16.7909317],[98.4998415,16.7855481],[98.5016345,16.7855273],[98.5069463,16.7882247],[98.5066184,16.7963913],[98.5094497,16.7979034],[98.5140654,16.7970195],[98.5151847,16.7910423],[98.5203413,16.7902223],[98.5263666,16.7988887],[98.5255404,16.8003859],[98.5170093,16.7980135],[98.5137952,16.8033058],[98.5163379,16.8060932],[98.5217422,16.8084706],[98.5457959,16.8121263],[98.5474345,16.8135374],[98.5467312,16.8172303],[98.541752,16.8192576],[98.5398409,16.8266011],[98.5376543,16.8289523],[98.532595,16.829841],[98.5256563,16.8270068],[98.5237083,16.8340269],[98.5136144,16.8375669],[98.5083998,16.8373885],[98.5029119,16.8323708],[98.4987008,16.8345489],[98.4921423,16.8420082],[98.4976805,16.8610884],[98.4994788,16.863055],[98.505976,16.8671431],[98.510495,16.8626521],[98.5113426,16.8556845],[98.5149088,16.8563991],[98.516192,16.8586149],[98.5130892,16.8689317],[98.5083782,16.8759687],[98.5092204,16.8800168],[98.5186478,16.8793444],[98.5229501,16.8754409],[98.5243019,16.8716535],[98.5315182,16.8684994],[98.535226,16.8604806],[98.5380113,16.85973],[98.5401431,16.8614652],[98.5342969,16.8730097],[98.5299668,16.8769861],[98.525873,16.8848477],[98.5307696,16.8925796],[98.5361487,16.8941267],[98.5357839,16.8984824],[98.5322692,16.9003764],[98.5255819,16.8999658],[98.512711,16.9021436],[98.5132863,16.9050512],[98.520475,16.909668],[98.5222629,16.913643],[98.5215141,16.9176072],[98.5091047,16.9164282],[98.5093011,16.910981],[98.5068775,16.9108296],[98.5024014,16.9150095],[98.5009519,16.9191753],[98.5058217,16.9250003],[98.5055921,16.9276721],[98.5000861,16.9288052],[98.4906909,16.9225215],[98.4891448,16.9241689],[98.4913507,16.9340828],[98.4887608,16.9359077],[98.4826099,16.9366241],[98.4823342,16.9397647],[98.4845835,16.9420782],[98.4905885,16.9443099],[98.4956847,16.9500479],[98.5010169,16.9503886],[98.5047592,16.9443794],[98.5083415,16.9449113],[98.5084939,16.9479676],[98.4994355,16.9576822],[98.4884567,16.957398],[98.4879095,16.9611775],[98.4899335,16.9686472],[98.487725,16.9713424],[98.4779536,16.971375],[98.47444,16.9684199],[98.469304,16.9711046],[98.4685481,16.974906],[98.4781489,16.9759759],[98.4805206,16.9804451],[98.4736074,16.985496],[98.4717441,16.9903892],[98.4729663,16.995504],[98.4699999,16.9973622],[98.4655146,16.9933093],[98.4575876,16.9919553],[98.4541961,16.9951687],[98.4476364,16.9976437],[98.4559011,17.010835],[98.4521625,17.0162373],[98.4522573,17.0181688],[98.4561853,17.0199091],[98.4551337,17.022721],[98.4497224,17.0243572],[98.4410268,17.0209058],[98.4303725,17.0217551],[98.4304671,17.0233543],[98.4366381,17.0267385],[98.4382969,17.0305091],[98.438172,17.0360131],[98.4303188,17.0391818],[98.4243644,17.0378043],[98.4249532,17.0428437],[98.4223291,17.0452914],[98.416157,17.0431956],[98.4131162,17.0484704],[98.4125214,17.0534984],[98.4042644,17.0563977],[98.4015151,17.0535303],[98.4004163,17.0476276],[98.3955173,17.0477167],[98.3905023,17.052724],[98.3935406,17.0582089],[98.3904495,17.0608296],[98.3869456,17.0600223],[98.3836229,17.0570255],[98.3800184,17.0594826],[98.3774267,17.0588259],[98.3756366,17.0550496],[98.3723468,17.0570565],[98.3597224,17.0486117],[98.3530051,17.0502608],[98.3468072,17.0478352],[98.3377133,17.0511852],[98.333965,17.0567925],[98.3278156,17.0599321],[98.3229563,17.0642562],[98.3226452,17.0669678],[98.3178318,17.0696787],[98.3153299,17.0737096],[98.3158354,17.075857],[98.3125791,17.0785379],[98.3119884,17.0828124],[98.3135858,17.0888848],[98.3078744,17.0901277],[98.3053687,17.0883201],[98.3021441,17.0889587],[98.3002229,17.0926354],[98.3057615,17.0942141],[98.3095496,17.1014699],[98.3123251,17.0991232],[98.3137353,17.0949015],[98.3160651,17.0945982],[98.3176034,17.0959672],[98.3169109,17.1035199],[98.3233784,17.1108692],[98.3190784,17.1127432],[98.316632,17.1115129],[98.3114537,17.1121315],[98.3010292,17.1075085],[98.2994091,17.1105642],[98.3001983,17.1258215],[98.2986037,17.1277692],[98.2940775,17.1234633],[98.2941021,17.1196047],[98.2958785,17.1173647],[98.2932588,17.1132769],[98.2849574,17.1115485],[98.2797432,17.115527],[98.2805371,17.1210844],[98.2866794,17.1307634],[98.2866955,17.1380735],[98.2849294,17.1434647],[98.2900643,17.1445325],[98.2973277,17.1414978],[98.2980144,17.147198],[98.2959544,17.1510456],[98.2873585,17.1565896],[98.2830089,17.1526902],[98.2723966,17.1511664],[98.2674442,17.1599343],[98.2695839,17.163894],[98.2799963,17.1675116],[98.2805332,17.1728999],[98.2671534,17.1776993],[98.26118,17.1745193],[98.2593055,17.1780477],[98.2652545,17.1837327],[98.2652276,17.1864874],[98.2633414,17.18762],[98.2502249,17.1823232],[98.2496788,17.1864945],[98.2520665,17.1976788],[98.2455959,17.1968145],[98.2441175,17.199144],[98.2477215,17.2100747],[98.2426558,17.2115805],[98.2385312,17.2099938],[98.2308408,17.2027175],[98.2279085,17.2048564],[98.2285961,17.2112585],[98.2340332,17.2168738],[98.2438671,17.2206227],[98.2442171,17.2269909],[98.2415802,17.2299404],[98.2388129,17.2305761],[98.2283006,17.2204563],[98.2175472,17.228574],[98.2135918,17.2284438],[98.2090263,17.2365011],[98.2094646,17.2421865],[98.2055202,17.2495258],[98.1983969,17.2543741],[98.1873231,17.2556255],[98.1855613,17.258145],[98.1753905,17.2582536],[98.1720115,17.2628634],[98.1678189,17.262233],[98.1649814,17.2659469],[98.1680217,17.2726093],[98.1634765,17.2759407],[98.1624812,17.2792185],[98.1567373,17.2827527],[98.1535568,17.2830087],[98.1505848,17.2877178],[98.147403,17.2888052],[98.1466535,17.2921167],[98.1356978,17.2915967],[98.1342441,17.293502],[98.1376451,17.2994485],[98.1343299,17.3066495],[98.128649,17.3075202],[98.1288046,17.3149514],[98.1268251,17.3185107],[98.1198245,17.3232989],[98.1160426,17.3194325],[98.1126394,17.3194298],[98.1051645,17.337687],[98.1048983,17.3467193],[98.1073719,17.3500746],[98.105138,17.3531132],[98.1089485,17.3566888],[98.1134451,17.3664482],[98.1194227,17.3711582],[98.1176722,17.3753341],[98.1117188,17.3749181],[98.1091021,17.3766111],[98.1080852,17.3825544],[98.1103976,17.3836158],[98.1103989,17.3853092],[98.1013701,17.3909613],[98.0937963,17.3908466],[98.0891145,17.3963718],[98.082942,17.3903095],[98.0800948,17.3903214],[98.0787611,17.3952794],[98.0754228,17.3998501],[98.0736102,17.3999005],[98.0715571,17.4075385],[98.0658322,17.4103995],[98.0611593,17.4205727],[98.0510492,17.4252166],[98.0458406,17.4294501],[98.0462267,17.4333758],[98.0489662,17.4345681],[98.0518976,17.433591],[98.0552618,17.4355423],[98.0573469,17.4382326],[98.0558938,17.4416591],[98.0534702,17.4435399],[98.0490056,17.4428591],[98.0423981,17.4505936],[98.0365185,17.4520273],[98.0297477,17.4624253],[98.0047276,17.4920383],[97.9926483,17.5098745],[97.988928,17.5126066],[97.9829139,17.5090005],[97.9791972,17.5101706],[97.9714286,17.5078325],[97.9655767,17.5161405],[97.9673458,17.5215965],[97.9621621,17.5275898],[97.9376511,17.5318284],[97.9349402,17.5332602],[97.9329041,17.5379551],[97.9261597,17.5379014],[97.9232149,17.5395505],[97.9218597,17.5509796],[97.9192745,17.5573675],[97.9137912,17.5588832],[97.910166,17.5630353],[97.9109532,17.5677804],[97.9076085,17.5733177],[97.9060504,17.5838721],[97.8891116,17.5974377],[97.8814191,17.6008817],[97.8770295,17.6068801],[97.872517,17.6083535],[97.8485519,17.6262636],[97.8403206,17.6375013],[97.8294464,17.6452636],[97.8268291,17.651197],[97.8218381,17.6525353],[97.8192122,17.6608521],[97.809442,17.6687774],[97.8040802,17.670711],[97.8022665,17.6753157],[97.7937858,17.6793608],[97.7911295,17.6918675],[97.7774384,17.7069685],[97.7738163,17.7080979],[97.7679461,17.7198459],[97.7630623,17.7254305],[97.7648605,17.7303767],[97.7623671,17.7351454],[97.7626267,17.7448455],[97.7661307,17.7466991],[97.7698767,17.7459736],[97.7736833,17.7493987],[97.7743115,17.7519215],[97.7697324,17.7541046],[97.765141,17.7593611],[97.758737,17.7706205],[97.7488375,17.7686716],[97.7451999,17.7708764],[97.7450277,17.7770346],[97.742169,17.7858722],[97.7458164,17.7868107],[97.7452199,17.7824297],[97.748409,17.7832467],[97.7521965,17.7782604],[97.7589972,17.7789221],[97.762307,17.7765217],[97.7656079,17.778597],[97.7737549,17.7791933],[97.7851484,17.7851029],[97.795443,17.7771371],[97.805335,17.7802376],[97.8162564,17.7865723],[97.8326157,17.7799269],[97.8401404,17.7803769],[97.8458248,17.778901],[97.8495087,17.7799989],[97.8565932,17.7854494],[97.8612161,17.7857419],[97.8622073,17.7904857],[97.8679209,17.7890373],[97.8704086,17.7945113],[97.8776912,17.7952975],[97.8857734,17.8012768],[97.8946096,17.803958],[97.9024534,17.8097152],[97.9059013,17.8149758],[97.9059684,17.8201232],[97.8995912,17.8282591],[97.8991765,17.8316392],[97.9018906,17.8364205],[97.9074148,17.8399177],[97.9078214,17.8450215],[97.9125606,17.8546962],[97.9183403,17.8583029],[97.9366341,17.8576605],[97.9497093,17.8593444],[97.9542402,17.8604953],[97.9560103,17.8638228],[97.9630338,17.8661005],[97.9657073,17.8644967],[97.9683131,17.8679151],[97.9722831,17.8660253],[97.9732685,17.8625245],[97.9670089,17.8566259],[97.9703534,17.8518163],[97.9706239,17.8475958],[97.9722048,17.8465241],[97.9748005,17.8479559],[97.9819142,17.8396158],[97.982616,17.8359639],[97.9810512,17.8320561],[97.9774128,17.8309469],[97.9752153,17.8228741],[97.9798591,17.8231955],[97.9811459,17.8178409],[97.9796878,17.8139138],[97.9914823,17.8102491],[97.9854196,17.806837],[97.9875003,17.8017452],[97.9867331,17.7980618],[97.9904753,17.7966581],[97.9920557,17.7911201],[97.995579,17.7880518],[97.9936988,17.786737],[97.9896332,17.7873293],[97.9896913,17.7857571],[97.9920423,17.7835993],[97.9964206,17.7857682],[97.9993298,17.7806255],[97.9964207,17.7780777],[97.9966688,17.7763249],[98.0064166,17.7749283],[98.0108207,17.7675493],[98.0102683,17.7645532],[98.0079176,17.764264],[98.0077201,17.7629611],[98.0103441,17.756739],[98.0146484,17.7558697],[98.0122808,17.7514693],[98.0126057,17.7483347],[98.0159374,17.747478],[98.0219456,17.7380105],[98.020832,17.7360944],[98.0141806,17.7401652],[98.0149907,17.7330382],[98.0201215,17.7322506],[98.0213546,17.7259705],[98.0275436,17.7208059],[98.024147,17.7162998],[98.023064,17.7102562],[98.0248556,17.7092598],[98.0308292,17.7106176],[98.0305539,17.7025568],[98.0378981,17.6959178],[98.0405974,17.68942],[98.0387333,17.6871348],[98.0432021,17.6796559],[98.040273,17.676369],[98.0405341,17.6746994],[98.0430277,17.6754035],[98.0449864,17.6702475],[98.0472218,17.6697689],[98.0462896,17.6645752],[98.0515587,17.6673427],[98.0571897,17.6629453],[98.0589398,17.6579138],[98.0620192,17.6559354],[98.0632176,17.6510113],[98.0613931,17.6485673],[98.0638523,17.6481201],[98.0666507,17.6499544],[98.0727876,17.6477957],[98.0733526,17.6455517],[98.0859484,17.6372934],[98.08974,17.6369253],[98.0930941,17.6330834],[98.0978304,17.6214322],[98.1014887,17.6227835],[98.1019509,17.620506],[98.0994287,17.6145754],[98.1071208,17.6111767],[98.104759,17.6082127],[98.1075108,17.6047361],[98.1041172,17.6036288],[98.1050549,17.6017826],[98.1031091,17.6000857],[98.1059806,17.5978156],[98.1057626,17.5949129],[98.1104666,17.5928064],[98.1061852,17.5874528],[98.1083346,17.5853218],[98.1087138,17.5820651],[98.1130838,17.5814287],[98.1114685,17.5786183],[98.1122521,17.5771646],[98.1153962,17.5761602],[98.1247321,17.567949],[98.1276133,17.5679297],[98.126273,17.5639526],[98.1273981,17.5608537],[98.1252339,17.55891],[98.1271694,17.5589535],[98.1266914,17.5574159],[98.1293872,17.5558806],[98.1288602,17.5526602],[98.1314042,17.5500133],[98.130903,17.5471509],[98.13598,17.5417293],[98.1424927,17.542608],[98.149499,17.5410485],[98.1674321,17.5477394],[98.1744607,17.5430963],[98.1784659,17.5372746],[98.180871,17.5389171],[98.1869715,17.5379089],[98.1886831,17.5405404],[98.1964221,17.5426003],[98.203379,17.5393808],[98.2089091,17.5401117],[98.2122416,17.5412515],[98.217813,17.5472432],[98.2261994,17.5457289],[98.2296072,17.5467052],[98.2329632,17.5500927],[98.2386846,17.5498991],[98.2412696,17.5560198],[98.2491436,17.5578831],[98.2497755,17.5652129],[98.2543811,17.5721533],[98.2617057,17.5741022],[98.2648249,17.5785766],[98.2701576,17.5801172],[98.2837352,17.575623],[98.28656,17.5764214],[98.2917882,17.57446],[98.2951405,17.5764058],[98.2980442,17.5753757],[98.3024524,17.566857],[98.301041,17.5617261],[98.298178,17.558223],[98.2982238,17.5540681],[98.3053226,17.5494101],[98.3078135,17.5425798],[98.3090006,17.5354203],[98.3058164,17.5339718],[98.3057734,17.5325575],[98.3143471,17.5273379],[98.3126786,17.5168537],[98.315479,17.5117485],[98.3152142,17.5051039],[98.319837,17.5006722],[98.3266273,17.4896873],[98.3296847,17.4695718],[98.3241869,17.4602409],[98.3235035,17.451626],[98.3194646,17.4449636],[98.3195117,17.4350771],[98.3262915,17.4292433],[98.3222679,17.4166506],[98.3088973,17.4135961],[98.3059688,17.4106981],[98.3034887,17.4132927],[98.2964019,17.4128726],[98.2917028,17.407443],[98.2942298,17.4056348],[98.2952299,17.4024923],[98.2991568,17.4000669],[98.302828,17.3919315],[98.314396,17.3815879],[98.3191921,17.3798548],[98.3209105,17.3758059],[98.317064,17.3725734],[98.3173877,17.3673883],[98.3197812,17.364282],[98.3233123,17.362853],[98.3235798,17.3594091],[98.3290208,17.3552914],[98.3341172,17.3479292],[98.3294182,17.3386564],[98.3321945,17.3296736],[98.328096,17.3260166],[98.3173668,17.3221252],[98.3216773,17.3180842],[98.3217043,17.3107231],[98.3271599,17.3067575],[98.3274877,17.3041785],[98.3397905,17.2958146],[98.3509289,17.2935891],[98.3563587,17.2887981],[98.3599861,17.2897536],[98.3625827,17.2884333],[98.358258,17.2835723],[98.3579721,17.2736432],[98.3616002,17.2701103],[98.3658621,17.2699872],[98.3701222,17.2675558],[98.3747521,17.2626253],[98.3777537,17.254629],[98.3836267,17.2495988],[98.3868677,17.2489925],[98.3915355,17.2422838],[98.398289,17.2521482],[98.4088795,17.2551978],[98.4138982,17.2522658],[98.4206523,17.2528037],[98.4279689,17.2575101],[98.4298723,17.2566484],[98.4309552,17.259048],[98.4351463,17.2607974],[98.4355417,17.266407],[98.4386827,17.265555],[98.4417115,17.2709986],[98.442705,17.2687177],[98.4450356,17.268254],[98.4498869,17.2720491],[98.4536706,17.2690049],[98.455503,17.2704063],[98.4557602,17.2732067],[98.4591237,17.2728005],[98.4606856,17.2759104],[98.4624875,17.2745392],[98.4649014,17.2764068],[98.4657941,17.2750169],[98.4742297,17.2748333],[98.4742675,17.2763255],[98.4786922,17.2775489],[98.4787892,17.2755977],[98.4819398,17.2731388],[98.4885915,17.2731556],[98.4898265,17.2703214],[98.4926029,17.2730894],[98.4943006,17.2718326],[98.4971548,17.2734636],[98.5023065,17.2800671],[98.5100634,17.2791762],[98.5179047,17.2815199],[98.5213767,17.2802358],[98.5234774,17.2773656],[98.532025,17.2745073],[98.5362266,17.2759105],[98.5382433,17.2789528],[98.5450036,17.283021],[98.5517598,17.2813793],[98.5607311,17.2839456],[98.5633942,17.2824142],[98.5669765,17.2854341],[98.5743942,17.2844957],[98.5755275,17.2913116],[98.5788542,17.2944018],[98.5777327,17.2998864],[98.5750651,17.2999081],[98.562843,17.292941],[98.5569677,17.2938373],[98.5569572,17.3046526],[98.5583833,17.3084927],[98.556149,17.3097164],[98.5557907,17.3143163],[98.5599577,17.3169351],[98.561108,17.3221238],[98.5584542,17.3256449],[98.5551567,17.338206],[98.5568299,17.3399025],[98.5572561,17.3453473],[98.5619097,17.3496198],[98.5619447,17.3518093],[98.5544138,17.3563192],[98.5480965,17.3538549],[98.542363,17.3565212],[98.5373709,17.3622204],[98.556142,17.3971303],[98.5542264,17.4088811],[98.5572644,17.4185831],[98.55765,17.4266064],[98.546159,17.433656],[98.5461714,17.4411828],[98.5475426,17.4433549],[98.5464974,17.4457829],[98.5404501,17.449297],[98.5374783,17.4484051],[98.5325662,17.4498849],[98.5283168,17.4536425],[98.5179934,17.4797589],[98.5196515,17.4864194],[98.5222546,17.4873014],[98.5243913,17.4959444],[98.5231961,17.5025258],[98.5187561,17.5114284],[98.5203908,17.5143687],[98.5245176,17.5152393],[98.5263398,17.5189724],[98.5242857,17.5223293],[98.5276009,17.5368341],[98.5343839,17.539315],[98.5381762,17.5444988],[98.5448114,17.5493596],[98.5496095,17.5592811],[98.554493,17.5616265],[98.5635402,17.5621772],[98.5663161,17.5670855],[98.5782019,17.5744114],[98.5748486,17.5797521],[98.5732846,17.5862213],[98.5671386,17.5957648],[98.5493961,17.6124396],[98.5429853,17.6152625],[98.5344942,17.6160877],[98.5307319,17.6254097],[98.5291261,17.6340568],[98.5322884,17.6386765],[98.5313969,17.6473534],[98.5273187,17.6574323],[98.528339,17.6606275],[98.5250049,17.6659311],[98.5219214,17.6809403],[98.5232696,17.6910969],[98.5217148,17.6978389],[98.5246897,17.7015808],[98.5253472,17.7073446],[98.5206095,17.7151051],[98.5192104,17.7259723],[98.5161218,17.7303536],[98.5170266,17.7367805],[98.5062616,17.751758],[98.5034755,17.7605644],[98.506056,17.7685097],[98.509419,17.7720377],[98.508297,17.7816879],[98.5097821,17.7885867],[98.5011393,17.7956348],[98.4970282,17.7965158],[98.4927555,17.8030295],[98.4911885,17.8116613],[98.4956755,17.8161658],[98.5029429,17.8156305],[98.5087155,17.81252],[98.5155991,17.8168888],[98.5139053,17.822036],[98.5177377,17.8248545],[98.5224319,17.8242559],[98.524533,17.8204411],[98.5313194,17.8147276],[98.5395814,17.8144517],[98.5416018,17.8116351],[98.5440533,17.8114153],[98.5477087,17.8059857],[98.5604732,17.7954171],[98.5643171,17.7975611],[98.5714945,17.8088805],[98.5802641,17.8062704],[98.5815114,17.8011861],[98.589596,17.8014254],[98.5900628,17.8054166],[98.5966239,17.8035786],[98.6137011,17.7803588],[98.6183809,17.779007],[98.622233,17.7799444],[98.6238339,17.7771108],[98.6304593,17.7809788],[98.6332677,17.7853426],[98.6348558,17.791307],[98.6315151,17.8009726],[98.6351543,17.8044069],[98.6390157,17.8148227],[98.6466151,17.8162859],[98.651751,17.8206081],[98.6529464,17.8261959],[98.6563826,17.8274989],[98.6593032,17.8263638],[98.6605959,17.8297858],[98.670222,17.8339699],[98.6729303,17.8300587],[98.6713929,17.8201045],[98.6755621,17.8163173],[98.6789197,17.8051336],[98.6834984,17.7996225],[98.6875826,17.779713],[98.6935804,17.7756808],[98.6980117,17.7678436],[98.7054612,17.7609435],[98.7021169,17.747599],[98.703343,17.7437692],[98.7080452,17.7374148],[98.7167127,17.7325249],[98.7245098,17.7253854],[98.7257228,17.7153905],[98.7382853,17.7077786],[98.7447094,17.6997037],[98.7458198,17.6907369],[98.7375345,17.6825805],[98.730443,17.6815966],[98.7245103,17.6759525],[98.7004498,17.6674752],[98.6949387,17.6662232],[98.6879023,17.6671209],[98.6840149,17.6647232],[98.6894178,17.6562179],[98.6846166,17.648653],[98.6845976,17.6452331],[98.6869045,17.6382535],[98.6916301,17.631469],[98.6883741,17.6248871],[98.6897381,17.6148448],[98.682587,17.5968251],[98.6844389,17.5930494],[98.6942781,17.584551],[98.6959179,17.5731936],[98.7019286,17.5568684],[98.7039712,17.5426178],[98.7016426,17.5335742],[98.7026262,17.5266162],[98.6969893,17.5135975],[98.7012654,17.5051379],[98.7055836,17.5011982],[98.704227,17.4924191],[98.7052343,17.4859873],[98.7015262,17.482777],[98.7000375,17.4787569],[98.6935602,17.4775513],[98.688556,17.4746736],[98.6827244,17.4604584],[98.6830841,17.454217],[98.6809286,17.4471584],[98.6877252,17.4400743],[98.6907163,17.4331988],[98.6909558,17.4258891],[98.6931978,17.426036],[98.6942764,17.4299023],[98.6993131,17.4342007],[98.7028054,17.446977],[98.714328,17.455771],[98.7186485,17.4656065],[98.7260026,17.463584],[98.7422926,17.4684367],[98.7499433,17.4680878],[98.7549963,17.4723272],[98.7571557,17.4788349],[98.7637777,17.4841762],[98.7769295,17.4897159],[98.7854954,17.4960391],[98.7957108,17.4988002],[98.8137056,17.4987701],[98.8158903,17.5072623],[98.8288442,17.5147117],[98.8309127,17.5150483],[98.8338316,17.5122765],[98.84026,17.5149365],[98.8545189,17.5133212],[98.8590571,17.5109807],[98.8699072,17.5002738],[98.8718821,17.4919284],[98.8796337,17.4909527],[98.8794298,17.4977208],[98.8819645,17.5094172],[98.8894144,17.513822],[98.8903341,17.5180317],[98.8943717,17.518847],[98.9007716,17.5302343],[98.9101503,17.5367101],[98.9133706,17.5325708],[98.9219209,17.5300239],[98.9247543,17.5256709],[98.9218487,17.5126018],[98.9281552,17.5064023],[98.9264658,17.4990446],[98.9299777,17.4948977],[98.926489,17.4918672],[98.9295029,17.4850072],[98.932794,17.4831716],[98.9314103,17.4736124],[98.9377753,17.4744312],[98.9374912,17.4705055],[98.9456409,17.4685907],[98.9553422,17.4743446],[98.9592089,17.4628708],[98.9623708,17.4664904],[98.9735564,17.4645589],[98.9804889,17.4677424],[98.9796217,17.4657215],[98.9860671,17.4609363],[98.9871484,17.4559328],[98.9905721,17.4552993],[98.9924042,17.4528313],[98.9921936,17.4476081],[98.9974764,17.4449724],[99.0000065,17.4393149],[99.0050027,17.4360096],[99.006228,17.4289179],[99.0094426,17.4278737],[99.010137,17.4248407],[99.0137927,17.4226167],[99.0114656,17.4187533],[99.0120472,17.414585],[99.0169239,17.4144704],[99.0170532,17.4122325],[99.0215868,17.4111013],[99.0326362,17.4104884],[99.0317853,17.4080691],[99.034566,17.402372],[99.0376945,17.4003292],[99.0370932,17.3985991],[99.0400988,17.3988246],[99.0396175,17.3971834],[99.0419268,17.3966616],[99.0434184,17.3935316],[99.0413848,17.3901474],[99.046248,17.3879364],[99.046862,17.385671],[99.0500864,17.3879017],[99.0532312,17.3872606],[99.0534181,17.3888515],[99.0566963,17.3881218],[99.0618098,17.3840237],[99.0642172,17.3840465],[99.0663858,17.3772862],[99.0716925,17.3751398],[99.0765145,17.3747956],[99.0776245,17.3763911],[99.077628,17.3731927],[99.086445,17.3774392],[99.0965853,17.3708502],[99.1095748,17.3587641],[99.1142198,17.3613712],[99.1171646,17.3674464],[99.1217226,17.3647726],[99.1272052,17.3658832],[99.1325484,17.3622951],[99.1418473,17.3609959],[99.1467601,17.3553534],[99.1489023,17.3483878],[99.1508856,17.3470599],[99.1549979,17.338293],[99.1614158,17.332502],[99.1737566,17.3357047],[99.177031,17.3488291],[99.1912975,17.3543813],[99.1965685,17.3602506],[99.1974931,17.3641483],[99.2023273,17.3680306],[99.2061293,17.3686723],[99.2108999,17.3765379],[99.2079285,17.3828425],[99.2250939,17.4046568],[99.2290007,17.4054683],[99.2373331,17.4026503],[99.2499896,17.4066878],[99.2621078,17.4051437],[99.270445,17.4000085],[99.2753811,17.381189],[99.2712244,17.3657559],[99.2710197,17.3493255],[99.2721714,17.3476268],[99.2778112,17.3462882],[99.276638,17.3314557],[99.2860371,17.3193276],[99.286301,17.3116461],[99.2930728,17.3112755],[99.2942837,17.3068961],[99.296899,17.3042951],[99.2971418,17.2980999],[99.3005903,17.2941544],[99.2974475,17.2927082],[99.2982645,17.2870808],[99.3025979,17.2747526],[99.3093271,17.2704585],[99.3152286,17.2698395],[99.3189369,17.2624999],[99.3190045,17.2557178],[99.3214213,17.2488528],[99.3207401,17.2412214],[99.3188127,17.23819],[99.3193078,17.2275108],[99.3178328,17.2232477],[99.3138407,17.2194113],[99.3145891,17.2167579],[99.3181333,17.2155142],[99.3194199,17.2116441],[99.3148741,17.192694],[99.3121665,17.1883728],[99.314113,17.1845773],[99.3128192,17.183807],[99.3144009,17.1796166],[99.3131503,17.1764611],[99.3177595,17.1710089],[99.3190993,17.1646103],[99.3177976,17.1500831],[99.314388,17.1453744],[99.3162884,17.1422923],[99.3284728,17.1396193],[99.3297432,17.1379036],[99.328207,17.1331215],[99.3235636,17.1321573],[99.3204625,17.1277923],[99.3203459,17.1189541],[99.3219815,17.1143403],[99.3294595,17.1053405],[99.3311366,17.0997337],[99.3358718,17.0974921],[99.3391995,17.0930399],[99.3445776,17.0949493],[99.3481598,17.0937455],[99.3501993,17.0954081],[99.3538767,17.0939055],[99.3548326,17.0956484],[99.3566415,17.0929136],[99.3588712,17.0935461],[99.3604272,17.0913709],[99.3643993,17.0919482],[99.3673816,17.0966189],[99.3708817,17.0970228],[99.3705247,17.09462],[99.3738575,17.0949816],[99.3797747,17.0898325],[99.3818531,17.0899191],[99.3821595,17.0867034],[99.3844776,17.0856734],[99.3851791,17.0823416],[99.3872719,17.0817617],[99.3916203,17.0838705],[99.3938859,17.0823433],[99.392288,17.0752375],[99.3909326,17.0759689],[99.3871506,17.0704859],[99.3868533,17.0623189],[99.3906918,17.0573996],[99.3895579,17.0553276],[99.3915971,17.0515241],[99.391035,17.047894],[99.3919079,17.0485748],[99.3933896,17.0466946],[99.3920586,17.0457652],[99.3931057,17.0430433],[99.3912902,17.0423574],[99.3924584,17.0408076],[99.3915929,17.0386568],[99.3931469,17.0377604],[99.3915607,17.035884],[99.3920112,17.0302724],[99.3944801,17.0281115],[99.3935796,17.0248185],[99.3964936,17.0232063],[99.3949424,17.0213362],[99.4102917,17.022527],[99.4094419,17.0189343],[99.4156965,17.0174136],[99.4171199,17.0186858],[99.4212032,17.0107442],[99.4218008,16.999219],[99.4281431,16.9928099],[99.4292115,16.9828936],[99.4358283,16.9775319],[99.4404949,16.9760748],[99.4443078,16.9780702],[99.4486988,16.977178],[99.4525621,16.9787856],[99.457965,16.9767949],[99.4627024,16.9790786],[99.4643867,16.9824711],[99.4667334,16.982648],[99.4670328,16.9812609],[99.4652437,16.9776972],[99.4558194,16.9698403],[99.4554609,16.9658156],[99.4523559,16.961833],[99.448961,16.9611598],[99.4399994,16.9543662],[99.4374546,16.9542641],[99.4383801,16.9486092],[99.4446701,16.9432415],[99.4415825,16.9377356],[99.4418675,16.9334258],[99.452058,16.9261276],[99.4539536,16.9273],[99.4539675,16.9209789],[99.4567779,16.9157863],[99.4537234,16.9113736],[99.4513294,16.9115013],[99.4498973,16.9088137],[99.4413902,16.9057864],[99.4380548,16.9018059],[99.4346724,16.8896927],[99.4366236,16.8859778],[99.4367065,16.8805783],[99.4340869,16.8797101],[99.4326201,16.8758615],[99.4230578,16.8829766],[99.4171829,16.876299],[99.4110595,16.8724813],[99.3935137,16.8710515],[99.3839623,16.8670416],[99.3786678,16.8590096],[99.3807709,16.8544522],[99.3782251,16.8463742],[99.385541,16.8441461],[99.3873079,16.8378648],[99.3846107,16.8306302],[99.3876165,16.8262793],[99.3839931,16.8220467],[99.3820376,16.8218045],[99.38833,16.813215],[99.3853851,16.8078457],[99.3813169,16.8078701],[99.3732005,16.8037396],[99.3695637,16.8035459],[99.3547426,16.8109195],[99.3507214,16.8108094],[99.3457545,16.813348],[99.3342835,16.8113121],[99.3246629,16.813243],[99.3224915,16.811705],[99.3153373,16.7941305],[99.3102314,16.7941774],[99.3042397,16.7869515],[99.2978993,16.7891509],[99.2918438,16.7850265],[99.2941754,16.7798266],[99.2950599,16.7720899],[99.3040461,16.7701148],[99.3056363,16.7679559],[99.3047302,16.7591791],[99.3027654,16.7552417],[99.3038319,16.7497136],[99.3019441,16.7457576],[99.302472,16.7396151],[99.2988108,16.7348757],[99.29835,16.7306194],[99.2962365,16.7296334],[99.2976718,16.7278315],[99.2953313,16.7232743],[99.2957302,16.7197976],[99.2878971,16.7149073],[99.2869128,16.7109201],[99.2829412,16.7062902],[99.2825421,16.7024669],[99.2851591,16.6958134],[99.2820087,16.6934646],[99.282249,16.6897353],[99.277301,16.6858774],[99.2716459,16.6848678],[99.2710666,16.6826908],[99.2748498,16.6778412],[99.2724506,16.6741923],[99.2719461,16.6687707],[99.2654014,16.6711604],[99.2579234,16.66523],[99.2535996,16.6658878],[99.2469484,16.6629019],[99.2483861,16.6572693],[99.245435,16.6557224],[99.247098,16.6517034],[99.2461967,16.6502027],[99.2478675,16.6483595],[99.247639,16.6463829],[99.2457606,16.6455547],[99.2472664,16.6441966],[99.2462523,16.6419841],[99.243573,16.6425319],[99.2411542,16.6406532],[99.2437935,16.636233],[99.2415726,16.6307538],[99.2438149,16.6268885],[99.2415404,16.6236399],[99.2443406,16.6219848],[99.2429459,16.6187669],[99.2463469,16.6178622],[99.2465401,16.6122489],[99.250617,16.6093599],[99.2520976,16.6053296],[99.2555094,16.6035612],[99.2520118,16.5990784],[99.2525911,16.5946572],[99.2501449,16.5908117],[99.2545652,16.5839842],[99.2544794,16.579172],[99.2565822,16.5774239],[99.2539215,16.5742978],[99.2563677,16.5670584],[99.2531004,16.5609084],[99.2488088,16.559407],[99.2450538,16.5546764],[99.2478648,16.5494658],[99.2455794,16.5461821],[99.2433264,16.5458426],[99.2420835,16.5394167],[99.2389812,16.5380879],[99.2404205,16.5339862],[99.2365152,16.5320731],[99.2304534,16.5346136],[99.2242414,16.5332765],[99.2193813,16.5277738],[99.2045689,16.532071],[99.1993117,16.5313716],[99.1968226,16.536905],[99.1906643,16.5390751],[99.1887009,16.534488],[99.1913617,16.5310116],[99.1800427,16.5321635],[99.1786051,16.5307647],[99.1805041,16.5281008],[99.1794956,16.5263625],[99.1757083,16.5257762],[99.1705799,16.5213019],[99.1675973,16.5105735],[99.1717386,16.5119621],[99.1741633,16.5111186],[99.1661489,16.5030951],[99.1637134,16.5022413],[99.1637134,16.5054816],[99.1620612,16.5065514],[99.1589391,16.5030231],[99.1557649,16.5042276],[99.1544584,16.4994223],[99.1508067,16.5029202],[99.1478133,16.4994535],[99.1438651,16.4985997],[99.1399598,16.5003793],[99.1378784,16.4934972],[99.1350715,16.4941992],[99.1340589,16.4895468],[99.1296816,16.4893616],[99.1304755,16.4865881],[99.1254305,16.4852505],[99.1280166,16.4824959],[99.1248965,16.481975],[99.1226649,16.4749585],[99.1194248,16.4762548],[99.1189956,16.4774482],[99.1213131,16.4778186],[99.12009,16.4789297],[99.1151547,16.478189],[99.1132665,16.4796293],[99.1103482,16.4779112],[99.1072767,16.4809942],[99.1058783,16.4764411],[99.0999673,16.4776273],[99.1003411,16.4743169],[99.0988264,16.4728285],[99.0955297,16.4758624],[99.0840963,16.469474],[99.0744695,16.4671181],[99.070399,16.4621456],[99.0642932,16.4585054],[99.0619151,16.4517421],[99.0552992,16.4470731],[99.0544192,16.4444272],[99.0492293,16.4409932],[99.0454183,16.4414335],[99.0404713,16.4379305],[99.0309761,16.4263985],[99.0307696,16.4216844],[99.0243338,16.4231033],[99.0198007,16.4185418],[99.0193615,16.3924546],[99.0163881,16.3867057],[99.0219688,16.3821609],[99.031628,16.3850352],[99.0367696,16.3832276],[99.0418847,16.3749013],[99.0407732,16.3688351],[99.0430341,16.3642842],[99.0417841,16.3569097],[99.0448126,16.3537316],[99.0414585,16.3446466],[99.0426336,16.3389329],[99.0516009,16.3339283],[99.0519539,16.3236829],[99.0531012,16.3231113],[99.050183,16.3160484],[99.0533742,16.3090312],[99.0508632,16.3042458],[99.0443073,16.299776],[99.0420808,16.2921259],[99.0467028,16.2824397],[99.045446,16.276318],[99.0477473,16.2703387],[99.0485629,16.2601384],[99.0532782,16.2549551],[99.0549193,16.2469031],[99.0639924,16.2410577],[99.0652334,16.2356699],[99.0722735,16.229449],[99.0742358,16.2220086],[99.0793221,16.2188974],[99.081309,16.2093745],[99.0803587,16.2019806],[99.0737035,16.1967987],[99.0733994,16.1875662],[99.0701996,16.1819983],[99.0680598,16.1654937],[99.0561017,16.1648104],[99.0553874,16.1630454],[99.0508341,16.1613335],[99.0492173,16.1444254],[99.0507806,16.1420739],[99.0501331,16.1379494],[99.0532815,16.1348278],[99.0686597,16.132309],[99.0749417,16.1269521],[99.0806457,16.1248368],[99.0831575,16.1146808],[99.0895992,16.1147438],[99.0943562,16.1025965],[99.1065668,16.1022458],[99.1089695,16.0925819],[99.1066915,16.090242],[99.106447,16.0870847],[99.1093689,16.0819359],[99.1140822,16.0803579],[99.1146426,16.0766156],[99.1174252,16.0746447],[99.1133361,16.0643958],[99.1145493,16.0604161],[99.1086109,16.0554268],[99.1055508,16.0495001],[99.0975218,16.0478443],[99.0872454,16.0424728],[99.0865701,16.0319099],[99.0832766,16.0222882],[99.082152,16.0059238],[99.0870037,15.9949643],[99.088593,15.9797219],[99.0860681,15.9724304],[99.081924,15.9702137],[99.0794635,15.9639564],[99.0745764,15.9623219],[99.0744203,15.9541777],[99.0752392,15.9515117],[99.0798533,15.9504862],[99.0806629,15.9486503],[99.0863139,15.948112],[99.0889868,15.9452122],[99.0903634,15.937505],[99.0945019,15.9346669],[99.0969952,15.9304735],[99.0957126,15.9246422],[99.0862209,15.9146358],[99.0857575,15.8999872],[99.0883222,15.8970563],[99.0884248,15.8921789],[99.0861438,15.8845425]]]}}]}