{"type":"FeatureCollection","features":[{"type":"Feature","properties":{"id":"TH-LAO-3630601","nameTh":"แม่สอด","type":"city_municipality"},"geometry":{"type":"Polygon","coordinates":[[[98.5473561,16.7142868],[98.5485933,16.7148225],[98.5491462,16.7157996],[98.5495683,16.7154664],[98.5505471,16.7156044],[98.5507696,16.7148492],[98.5501239,16.7143527],[98.5502239,16.7136708],[98.5514975,16.715373],[98.5526476,16.7156979],[98.5527178,16.7152065],[98.5534019,16.7161418],[98.5543017,16.7160238],[98.5534977,16.7182809],[98.5533984,16.7205125],[98.5549603,16.7198128],[98.5563733,16.722143],[98.5576182,16.7219144],[98.5587678,16.7230339],[98.560593,16.7237259],[98.5608586,16.723415],[98.5628098,16.7231222],[98.5643764,16.7223156],[98.5644082,16.7242609],[98.562833,16.7249738],[98.5634432,16.7260164],[98.5641533,16.7257588],[98.5644475,16.7268049],[98.5650343,16.7266555],[98.5654536,16.7284609],[98.5671712,16.727243],[98.5685087,16.7268948],[98.5700338,16.7253137],[98.5727624,16.7248045],[98.5764271,16.7246181],[98.5767299,16.7261266],[98.5804958,16.7258558],[98.5808828,16.7245588],[98.5807282,16.7240997],[98.5823318,16.7239646],[98.5827896,16.7241968],[98.5827835,16.7251613],[98.5831163,16.7257383],[98.5828301,16.7266542],[98.5832143,16.7269793],[98.5827679,16.7271288],[98.5832002,16.7272756],[98.5831143,16.7287366],[98.5839391,16.7288444],[98.5846606,16.7303772],[98.586175,16.7315308],[98.5868133,16.7328223],[98.5868508,16.7336163],[98.5872951,16.7340568],[98.5871762,16.7345482],[98.5874734,16.7343744],[98.5876268,16.7346441],[98.5892287,16.7348957],[98.5896355,16.7342695],[98.5903242,16.7344495],[98.5985803,16.7252113],[98.5976416,16.7213458],[98.6005449,16.7150887],[98.6006049,16.7121874],[98.5999621,16.7115505],[98.5995006,16.7124804],[98.5990139,16.7124311],[98.5991527,16.7117872],[98.5988605,16.7116924],[98.5975684,16.7073839],[98.5969453,16.7064487],[98.5932224,16.7048996],[98.5925409,16.7037758],[98.592547,16.7031299],[98.5909852,16.7021976],[98.5898714,16.7009886],[98.5897649,16.700492],[98.5885833,16.7001786],[98.5868063,16.6990627],[98.5865282,16.6984688],[98.5848073,16.6979344],[98.5830285,16.6959449],[98.5818848,16.6955297],[98.581653,16.6951413],[98.5795731,16.6947117],[98.5794143,16.6944363],[98.5792405,16.6949789],[98.5787298,16.6947097],[98.5782835,16.6951043],[98.5771593,16.6947662],[98.5772479,16.6951251],[98.57696,16.6953127],[98.5767165,16.6947972],[98.5758445,16.6956764],[98.5756708,16.6951936],[98.5753097,16.6952686],[98.5752638,16.6960777],[98.5749664,16.6957342],[98.5737947,16.6956069],[98.5733451,16.6944357],[98.572552,16.6940725],[98.5718537,16.6944705],[98.5714859,16.6941606],[98.5714995,16.694588],[98.5709413,16.694763],[98.5708926,16.6939032],[98.5704817,16.6938359],[98.5711876,16.6933435],[98.5706442,16.6930742],[98.5703522,16.6924553],[98.5699359,16.6923232],[98.5696006,16.6926133],[98.5687603,16.6914819],[98.5682791,16.6916036],[98.5680952,16.6912229],[98.5676275,16.6912954],[98.5666543,16.6905937],[98.5655559,16.6908429],[98.5655048,16.6903861],[98.564718,16.6907124],[98.5643842,16.6903469],[98.5640776,16.6906797],[98.5633964,16.6907189],[98.5631307,16.6893877],[98.5624086,16.6899848],[98.5617518,16.6899599],[98.5549169,16.6936003],[98.5537617,16.7018842],[98.5528183,16.7033505],[98.5530533,16.7037615],[98.5527536,16.7039638],[98.5523425,16.7062452],[98.550693,16.7071769],[98.549942,16.7071831],[98.5494678,16.7079517],[98.5487103,16.7079415],[98.5484378,16.7083772],[98.5481181,16.7098589],[98.547646,16.7099514],[98.5480709,16.7102618],[98.5477275,16.7105336],[98.5480794,16.7115591],[98.5474228,16.711557],[98.5480515,16.7120441],[98.5474378,16.7126915],[98.5480772,16.7127018],[98.5477897,16.7131457],[98.5480365,16.713343],[98.5474399,16.7135957],[98.5473561,16.7142868]]]}},{"type":"Feature","properties":{"id":"TH-LAO-5630603","nameTh":"แม่กุ","type":"subdistrict_municipality"},"geometry":{"type":"Polygon","coordinates":[[[98.5956938,16.6551636],[98.6191347,16.6550912],[98.6193188,16.6491032],[98.6178924,16.6488276],[98.6167535,16.6475862],[98.615156,16.6470412],[98.6139468,16.6457293],[98.6137595,16.6450277],[98.6119908,16.6439618],[98.6115809,16.6430805],[98.6104813,16.6431262],[98.6103925,16.6215637],[98.6060388,16.6182134],[98.6005017,16.6254253],[98.5995446,16.6281886],[98.5952439,16.6369909],[98.5946997,16.6413226],[98.5955529,16.6467111],[98.5956938,16.6551636]]]}},{"type":"Feature","properties":{"id":"TH-LAO-5630602","nameTh":"ท่าสายลวด","type":"subdistrict_municipality"},"geometry":{"type":"Polygon","coordinates":[[[98.5118186,16.7005349],[98.5473561,16.7142868],[98.5474399,16.7135957],[98.5480365,16.713343],[98.5477897,16.7131457],[98.5480772,16.7127018],[98.5474378,16.7126915],[98.5480515,16.7120441],[98.5474228,16.711557],[98.5480794,16.7115591],[98.5477275,16.7105336],[98.5480709,16.7102618],[98.547646,16.7099514],[98.5481181,16.7098589],[98.5484378,16.7083772],[98.5487103,16.7079415],[98.5494678,16.7079517],[98.549942,16.7071831],[98.550693,16.7071769],[98.5523425,16.7062452],[98.5527536,16.7039638],[98.5530533,16.7037615],[98.5528183,16.7033505],[98.5537617,16.7018842],[98.5544618,16.69659],[98.5182861,16.6760248],[98.5183901,16.6777587],[98.5161263,16.6813404],[98.5146055,16.6862246],[98.514862,16.687888],[98.516382,16.6906216],[98.516364,16.693612],[98.5157986,16.6948257],[98.5141034,16.6958605],[98.5132134,16.6969124],[98.5125375,16.6996228],[98.5118186,16.7005349]]]}},{"type":"Feature","properties":{"id":"TH-LAO-4630102","nameTh":"ตาก","type":"town_municipality"},"geometry":{"type":"Polygon","coordinates":[[[99.0980796,16.9048941],[99.0974579,16.9092907],[99.1241175,16.8875759],[99.1282664,16.887548],[99.1272262,16.8837857],[99.1272906,16.88241],[99.1277798,16.8810466],[99.1403833,16.8608951],[99.1321714,16.8563035],[99.1368185,16.8466797],[99.1316844,16.844176],[99.1278475,16.8499739],[99.127495,16.8515628],[99.1264885,16.8528947],[99.1225657,16.8717536],[99.1192936,16.880874],[99.1161393,16.8858173],[99.1133176,16.8894567],[99.1070513,16.8946444],[99.1057106,16.8974988],[99.1003547,16.9019807],[99.0980796,16.9048941]]]}}]}