{"type":"FeatureCollection","features":[{"type":"Feature","properties":{"provinceCode":"53","nameTh":"อุตรดิตถ์","nameEn":"Uttaradit"},"geometry":{"type":"Polygon","coordinates":[[[100.986649,17.748144],[100.98841,17.742971],[100.9875527,17.7383705],[100.9843773,17.7338324],[100.9850167,17.7302319],[100.9809249,17.725141],[100.9810037,17.7224853],[100.9768242,17.7153474],[100.9721539,17.7093717],[100.968801,17.7075772],[100.9656953,17.7018282],[100.9595795,17.7026959],[100.9559336,17.6999407],[100.9471976,17.6991114],[100.9438883,17.7014067],[100.9398946,17.7010613],[100.9255728,17.695909],[100.9217076,17.6996496],[100.9157713,17.6987337],[100.9097999,17.701801],[100.9064163,17.7074662],[100.9069789,17.7108622],[100.9051136,17.7150455],[100.9021897,17.7137738],[100.8888932,17.7154609],[100.874735,17.7109328],[100.8681251,17.7038357],[100.8652208,17.6969273],[100.8578536,17.6890614],[100.855404,17.6820852],[100.8526796,17.6802046],[100.8533797,17.6732049],[100.8511486,17.6722317],[100.8499355,17.6674476],[100.8457879,17.663463],[100.8463884,17.6599346],[100.8443518,17.6586356],[100.8449111,17.6563788],[100.8427217,17.6534149],[100.8371008,17.648395],[100.8308577,17.6483502],[100.8191514,17.6439627],[100.8137325,17.6439989],[100.806669,17.6392178],[100.8018227,17.6385209],[100.8024206,17.6345755],[100.7914269,17.6189042],[100.7896094,17.6128693],[100.7842809,17.6061524],[100.7796252,17.6055244],[100.7724202,17.5959685],[100.7748704,17.5858762],[100.7735812,17.582847],[100.7653387,17.5803898],[100.7653299,17.5731055],[100.7628614,17.5723367],[100.7627208,17.5697959],[100.7589569,17.5702042],[100.7560568,17.5639333],[100.75162,17.563246],[100.7507686,17.560361],[100.7466071,17.5589484],[100.7420361,17.5509742],[100.7402701,17.5424418],[100.7293012,17.535853],[100.7202551,17.5331933],[100.7097527,17.5323668],[100.7087305,17.5307882],[100.6928663,17.5246288],[100.6888316,17.5220859],[100.6838914,17.5136146],[100.6795253,17.5110083],[100.6752712,17.5056192],[100.6709146,17.5040298],[100.6693447,17.5009165],[100.6652507,17.501317],[100.6571109,17.499042],[100.6522988,17.4942861],[100.6423464,17.4933615],[100.6415293,17.4897157],[100.6448847,17.4851799],[100.6432605,17.4825498],[100.6450317,17.4745444],[100.6411868,17.4733681],[100.6288421,17.474243],[100.6220563,17.4688241],[100.6184727,17.4688827],[100.613353,17.4658564],[100.6069698,17.4522829],[100.6028764,17.4477888],[100.6026094,17.4396778],[100.6000161,17.4364127],[100.6024323,17.4333515],[100.6032913,17.4279629],[100.5947767,17.4221333],[100.5852532,17.4188657],[100.5813612,17.4214128],[100.578379,17.4205005],[100.5704018,17.4222378],[100.5600525,17.4167542],[100.5509552,17.4145361],[100.5470122,17.4167072],[100.5412163,17.4156553],[100.5376099,17.4185992],[100.5373672,17.4154126],[100.5319445,17.4137256],[100.5301491,17.4170911],[100.5296253,17.4122342],[100.5271294,17.41334],[100.524787,17.4109231],[100.5215662,17.4104696],[100.5221586,17.4077875],[100.5164073,17.4099114],[100.5154026,17.4079872],[100.5172754,17.4071513],[100.5136967,17.4039495],[100.5126686,17.4062821],[100.5092786,17.4066937],[100.5065939,17.4094645],[100.5085511,17.4126119],[100.5071919,17.4140759],[100.5089682,17.4172191],[100.5085974,17.4231118],[100.5013268,17.4288949],[100.4957114,17.4229965],[100.481277,17.4178464],[100.469002,17.4208351],[100.4543729,17.4180027],[100.450017,17.4231788],[100.4474974,17.4239903],[100.4353416,17.4166959],[100.4270174,17.4215086],[100.4212249,17.4121229],[100.3980751,17.4030572],[100.3912714,17.4046855],[100.3890938,17.4007799],[100.3710489,17.3906328],[100.3642433,17.3887927],[100.3563453,17.3828351],[100.3484511,17.39263],[100.3425973,17.386964],[100.3362473,17.3893182],[100.3291017,17.3868541],[100.3301717,17.3784925],[100.3254357,17.3692569],[100.3230472,17.3682988],[100.3143177,17.3749155],[100.307378,17.383088],[100.298457,17.374758],[100.2889118,17.3761135],[100.2948693,17.365815],[100.2947529,17.3563359],[100.2968819,17.3478113],[100.2901033,17.3396889],[100.2833365,17.3363881],[100.2805338,17.3201413],[100.2821959,17.30674],[100.2810356,17.3012303],[100.2765992,17.2994203],[100.2750736,17.296609],[100.2764747,17.2909863],[100.2736131,17.2880997],[100.2741804,17.2846454],[100.2721655,17.2774151],[100.2725795,17.2742255],[100.2778758,17.2687847],[100.2780852,17.2658803],[100.2772944,17.2593097],[100.2735122,17.2532082],[100.2746317,17.245509],[100.2736302,17.2387613],[100.277939,17.2360508],[100.2805043,17.2224335],[100.2824607,17.2206089],[100.2671905,17.2212948],[100.2619921,17.2201174],[100.2497575,17.223086],[100.239263,17.221698],[100.229696,17.2116759],[100.2057486,17.2083383],[100.2026213,17.205643],[100.1817755,17.2058775],[100.1675791,17.2011192],[100.1630409,17.1706514],[100.1600299,17.1656001],[100.1562574,17.1686316],[100.153544,17.1784992],[100.1496947,17.1781695],[100.1497711,17.1857972],[100.1361996,17.1811148],[100.1345809,17.1848715],[100.118498,17.1833868],[100.1024013,17.1893949],[100.0912279,17.187626],[100.0899179,17.1856864],[100.0780582,17.1820108],[100.0695775,17.1830365],[100.0590969,17.1808084],[100.0527164,17.1829093],[100.0483307,17.178882],[100.0455039,17.1784347],[100.0362999,17.1813402],[100.0362964,17.1784793],[100.0317911,17.1721874],[100.03301,17.1666857],[100.0305865,17.1640279],[100.0237947,17.1652157],[100.0226873,17.1622591],[100.0253124,17.1553764],[100.0230594,17.1509563],[100.0194784,17.1491148],[100.0161212,17.1445303],[100.0140857,17.1390004],[99.9961375,17.1387409],[99.9953815,17.140764],[99.9975971,17.1447018],[100.0007228,17.1472374],[100.0047032,17.1478733],[100.0078666,17.1464598],[100.0092318,17.1512869],[99.9980347,17.1558396],[99.9943245,17.1559086],[99.9944732,17.1582056],[99.9921665,17.1593166],[99.984892,17.1601181],[99.9828533,17.1585605],[99.9832037,17.1556352],[99.9814878,17.1559028],[99.9729495,17.1646136],[99.9773211,17.1718435],[99.9812574,17.1751882],[99.9835304,17.1893864],[99.9818172,17.193024],[99.973837,17.1984593],[99.9746991,17.2087346],[99.9719349,17.2091994],[99.970992,17.2111667],[99.9743179,17.2133304],[99.9789558,17.2125072],[99.9821326,17.2157849],[99.9697575,17.224675],[99.9579245,17.2302682],[99.9593948,17.2324773],[99.9720799,17.2385024],[99.9734245,17.2415411],[99.9564012,17.2408048],[99.9545493,17.2428301],[99.9630917,17.250348],[99.961709,17.2565069],[99.9655612,17.2630938],[99.9646088,17.2723533],[99.9708035,17.2710303],[99.9755896,17.2763462],[99.974807,17.2779693],[99.9691269,17.2798872],[99.9704339,17.2835474],[99.9778052,17.2874511],[99.9960733,17.2887104],[99.9993118,17.2952882],[100.0044379,17.2963339],[99.9976941,17.300889],[99.994693,17.3061514],[99.9932264,17.3136388],[99.9964999,17.3218729],[99.9954323,17.326724],[100.0021118,17.3284734],[100.0025148,17.3311759],[100.0157877,17.3298892],[100.0193282,17.3339292],[100.0170486,17.3367351],[100.0141449,17.3351291],[100.0116494,17.3362107],[100.0079455,17.3435652],[100.0040625,17.3452307],[100.0046018,17.3487061],[100.0008939,17.3545067],[100.0081459,17.3609053],[100.0049861,17.3629946],[100.0054639,17.3669699],[99.999887,17.3694553],[100.0066858,17.3740344],[100.0096081,17.37836],[100.0095392,17.381344],[100.004342,17.391535],[99.9967936,17.3940546],[99.9913492,17.4004923],[99.993608,17.4041525],[99.9904023,17.4074234],[99.9941925,17.4096758],[99.9965907,17.416692],[100.018011,17.4191874],[100.0181922,17.4225124],[100.0272856,17.4293853],[100.02719,17.4313971],[100.030627,17.4356412],[100.0290305,17.4385404],[100.0309099,17.444496],[100.0289082,17.4496448],[100.0200056,17.458566],[100.0130712,17.4570882],[100.002753,17.4579908],[100.0019931,17.4624719],[99.9988958,17.4667034],[99.994871,17.4678907],[99.9908945,17.4666144],[99.9853737,17.4718057],[99.9811518,17.4729694],[99.9814288,17.4863249],[99.9790399,17.4884418],[99.9749487,17.4890577],[99.9752905,17.4923606],[99.9731499,17.4949087],[99.9710101,17.4958024],[99.9669656,17.4922951],[99.9638858,17.496345],[99.9602607,17.4969953],[99.9603331,17.4998859],[99.9579863,17.5019865],[99.9341247,17.5134634],[99.930427,17.5174854],[99.9316425,17.5200597],[99.9283501,17.5214153],[99.9335794,17.5253627],[99.9382614,17.5347736],[99.9423124,17.5363361],[99.9402979,17.5373575],[99.9400618,17.5397183],[99.9426949,17.5452724],[99.9340719,17.5592852],[99.9257065,17.5654293],[99.9247696,17.5687884],[99.9258776,17.5721444],[99.9234936,17.5793942],[99.9239188,17.5866285],[99.9402048,17.5921508],[99.9560051,17.6036393],[99.9606189,17.610387],[99.976907,17.6222101],[99.9724463,17.6233764],[99.966655,17.62863],[99.9660265,17.6323935],[99.9696519,17.642536],[99.9757669,17.6494979],[99.9772282,17.6569982],[99.9740558,17.6610643],[99.9730906,17.6665891],[99.9747856,17.6712634],[99.9679573,17.6867422],[99.9687372,17.6925437],[99.9654583,17.6962005],[99.9665247,17.7021779],[99.9632684,17.7077988],[99.9631897,17.7115156],[99.9559038,17.7182516],[99.9430563,17.7241967],[99.9389759,17.73503],[99.9348622,17.7359566],[99.9299413,17.7445848],[99.9260976,17.7430671],[99.9231727,17.7466736],[99.9204537,17.7475398],[99.9118917,17.7627239],[99.9127957,17.7658191],[99.9204559,17.7667738],[99.9241528,17.7728107],[99.9247993,17.7755649],[99.9205038,17.7817652],[99.9221532,17.7864055],[99.9160733,17.7923003],[99.9139405,17.7909107],[99.9122636,17.7918874],[99.9132772,17.7937843],[99.9114914,17.7953221],[99.9059241,17.7936203],[99.9036379,17.7941557],[99.9018878,17.7980347],[99.8989703,17.797168],[99.8944913,17.8071924],[99.9012279,17.8040268],[99.9071475,17.8055485],[99.910935,17.8029657],[99.9120944,17.7980469],[99.9161199,17.797742],[99.9169761,17.7956975],[99.924917,17.7920571],[99.927061,17.7893083],[99.9323504,17.7901503],[99.9362513,17.782144],[99.9426543,17.780804],[99.9458995,17.7771379],[99.9493486,17.7770028],[99.9531698,17.779066],[99.9594753,17.7782814],[99.9615493,17.7831653],[99.9609651,17.7915379],[99.9647528,17.7979396],[99.9698876,17.7994401],[99.9734248,17.7967039],[99.9774166,17.7967717],[99.984461,17.8025946],[99.9903814,17.8103699],[99.9908278,17.8155643],[99.9860308,17.8290863],[99.9901443,17.8297167],[99.9886102,17.8350401],[99.9947785,17.8307944],[100.0054119,17.8368937],[100.0116704,17.8329871],[100.0158498,17.8363286],[100.0247444,17.8395142],[100.0281332,17.8382187],[100.029507,17.8413744],[100.0324184,17.841069],[100.0339427,17.8440581],[100.0410234,17.8452221],[100.0434115,17.8479027],[100.050613,17.8389002],[100.0551773,17.836903],[100.0577193,17.8332876],[100.0632719,17.8405124],[100.076477,17.8382285],[100.0781743,17.8403178],[100.0807875,17.8399423],[100.0814068,17.8429967],[100.0885446,17.8426975],[100.0890872,17.8466887],[100.0952888,17.8510202],[100.1014015,17.847071],[100.1102109,17.8503271],[100.1130671,17.8549144],[100.1198343,17.858596],[100.1252152,17.85876],[100.1300454,17.856433],[100.1408447,17.8657177],[100.1442362,17.8668146],[100.1468022,17.8714461],[100.15829,17.8834985],[100.1593509,17.8886152],[100.1663058,17.8919786],[100.1695869,17.8910608],[100.1855899,17.9024535],[100.1954556,17.9059322],[100.2023324,17.9179341],[100.2075606,17.9169833],[100.2101383,17.9194197],[100.214943,17.9206595],[100.2150465,17.9283222],[100.2183207,17.9325571],[100.2178013,17.9357244],[100.2199003,17.9382416],[100.2258739,17.9401628],[100.2258332,17.9490769],[100.231316,17.9493551],[100.2349996,17.9551583],[100.2398759,17.9562704],[100.2463326,17.9614988],[100.2528272,17.9609147],[100.2623765,17.953298],[100.2689365,17.9543074],[100.2762035,17.9576693],[100.279871,17.9574135],[100.2863346,17.9490595],[100.2873057,17.9369663],[100.2994138,17.9390885],[100.3026776,17.9353186],[100.306824,17.9334145],[100.3090903,17.9281037],[100.3088014,17.9201815],[100.312107,17.9165479],[100.3130998,17.909078],[100.3173725,17.9087882],[100.3195845,17.9059605],[100.321079,17.9015178],[100.3249748,17.8974429],[100.3238006,17.8951058],[100.3257025,17.8913731],[100.3302476,17.8930222],[100.3346029,17.8890108],[100.3398077,17.8939984],[100.3420446,17.8942419],[100.3434758,17.8971887],[100.342566,17.9003295],[100.3489252,17.9092831],[100.3480145,17.9158292],[100.3531292,17.9189532],[100.3537931,17.9211041],[100.3584514,17.9228684],[100.3595545,17.9256308],[100.3585186,17.9322259],[100.3600386,17.9363021],[100.354537,17.9434191],[100.3545398,17.9472704],[100.3559179,17.9472481],[100.3545829,17.9526055],[100.3564027,17.9627779],[100.3503782,17.9832982],[100.3646004,17.9908885],[100.3694601,17.9962292],[100.3760503,18.0002258],[100.3791509,18.0038396],[100.3816642,18.011731],[100.3853779,18.0123956],[100.3937421,18.0209263],[100.4010014,18.0208836],[100.4085196,18.0239782],[100.4142975,18.0216974],[100.4208426,18.0140691],[100.425967,18.0130448],[100.427356,18.0160198],[100.4330855,18.0199685],[100.4464086,18.0255316],[100.4477429,18.0276753],[100.4469547,18.029998],[100.4517048,18.0343558],[100.4531657,18.0391652],[100.4563681,18.0418992],[100.4615292,18.0425578],[100.4641724,18.0453283],[100.4730524,18.0450199],[100.4747614,18.0490174],[100.4812402,18.0555027],[100.4990326,18.0504011],[100.5032503,18.0533665],[100.5085049,18.0478077],[100.5144899,18.0464111],[100.5155007,18.0445593],[100.5267883,18.0422197],[100.5337032,18.038584],[100.5395947,18.0415521],[100.558014,18.0327051],[100.5658173,18.0360311],[100.5735126,18.035202],[100.5786235,18.044335],[100.589624,18.0399486],[100.5995463,18.0436128],[100.6090535,18.0502429],[100.6234866,18.0438788],[100.6323851,18.0443965],[100.6556516,18.0388654],[100.6653836,18.041004],[100.6704217,18.0446682],[100.6739355,18.0388074],[100.6814416,18.033443],[100.6817435,18.0296361],[100.6867919,18.0305131],[100.6888352,18.0265677],[100.6917973,18.0265843],[100.6917439,18.0244704],[100.6933587,18.023974],[100.6942969,18.0267629],[100.698443,18.0254982],[100.6988565,18.0275164],[100.7054779,18.0265612],[100.7086654,18.0312056],[100.7125,18.03173],[100.7144304,18.0292325],[100.7250004,18.0327502],[100.7311846,18.0296832],[100.7382072,18.0285461],[100.7451353,18.0295994],[100.7493368,18.0284125],[100.7531327,18.0298689],[100.7564112,18.0281917],[100.7595407,18.0290131],[100.7660745,18.02553],[100.769941,18.0263551],[100.774399,18.0292519],[100.7855394,18.0435422],[100.7903398,18.0459703],[100.791667,18.0488296],[100.7955639,18.0496138],[100.7976639,18.0533593],[100.8008802,18.0542173],[100.8072452,18.0648291],[100.8093615,18.0769977],[100.8156474,18.0797821],[100.8190965,18.0832224],[100.8236439,18.0803529],[100.8310985,18.0819176],[100.833188,18.0800153],[100.8355342,18.0813303],[100.8430649,18.0794829],[100.8495433,18.0820135],[100.850992,18.0845302],[100.8489646,18.0867697],[100.8491698,18.0895475],[100.8546078,18.0975514],[100.855853,18.102367],[100.8658725,18.1135287],[100.8745682,18.1189882],[100.8743678,18.1232456],[100.871593,18.1265843],[100.8715274,18.1352583],[100.8731146,18.1393743],[100.8798092,18.1455269],[100.882703,18.1511059],[100.8872984,18.1478536],[100.8899057,18.1496479],[100.8934262,18.149305],[100.9131352,18.1591281],[100.9123354,18.1626282],[100.9091605,18.1651856],[100.909143,18.1699836],[100.9070087,18.1715886],[100.9056799,18.1767769],[100.9087118,18.1882019],[100.9075049,18.193863],[100.914238,18.1999334],[100.9186943,18.200988],[100.9247786,18.2083659],[100.9250999,18.2128233],[100.9219085,18.2168513],[100.9184676,18.217342],[100.9164025,18.2214656],[100.9140272,18.2222028],[100.9122784,18.2274571],[100.91619,18.2325677],[100.9187615,18.2426632],[100.9260832,18.2507005],[100.9301058,18.2507194],[100.9393595,18.2542868],[100.9441868,18.2621113],[100.9473077,18.2650853],[100.951427,18.2658851],[100.9524679,18.2688584],[100.9585236,18.2736902],[100.9590044,18.2774036],[100.9637097,18.2786602],[100.9653106,18.2836513],[100.9701976,18.2876727],[100.9713027,18.2911727],[100.9772768,18.295169],[100.9791708,18.2988316],[100.9780006,18.3023816],[100.97953,18.3057423],[100.9838116,18.3081828],[100.9990481,18.3091449],[101.0051565,18.3177627],[101.0179456,18.3216034],[101.0235306,18.3259355],[101.0274297,18.3321944],[101.034228,18.3336089],[101.0384911,18.3382255],[101.0432012,18.339672],[101.046002,18.3457472],[101.0517604,18.3492639],[101.0560803,18.3560256],[101.0659053,18.3561024],[101.0698348,18.3577076],[101.0737822,18.3564199],[101.0738966,18.3600405],[101.076968,18.3651087],[101.0818365,18.3689957],[101.0820552,18.3748537],[101.0847722,18.3770003],[101.0854165,18.3810164],[101.088011,18.379742],[101.093717,18.38126],[101.099375,18.375946],[101.106049,18.374606],[101.109917,18.370722],[101.112916,18.371525],[101.115285,18.369427],[101.116688,18.371079],[101.119492,18.370722],[101.126843,18.36706],[101.1299397,18.3682053],[101.1308649,18.3660262],[101.1287998,18.3617643],[101.13387,18.3582677],[101.1382019,18.3589194],[101.14198,18.355942],[101.14343,18.35161],[101.146574,18.350539],[101.146816,18.347726],[101.148508,18.34652],[101.155085,18.348574],[101.161275,18.345136],[101.168094,18.346207],[101.175154,18.341831],[101.182166,18.340537],[101.180425,18.335714],[101.181973,18.331293],[101.180425,18.32723],[101.175928,18.325176],[101.173945,18.320175],[101.168432,18.32022],[101.165386,18.313388],[101.159969,18.30986],[101.159437,18.306065],[101.160936,18.303921],[101.153247,18.300483],[101.148363,18.294634],[101.157019,18.28231],[101.160646,18.282086],[101.163306,18.277755],[101.150781,18.267976],[101.149572,18.264315],[101.144204,18.258599],[101.159631,18.245105],[101.159147,18.241264],[101.161759,18.238004],[101.162291,18.233762],[101.166498,18.231038],[101.166014,18.224742],[101.163886,18.222241],[101.165386,18.217731],[101.173316,18.217106],[101.17941,18.224295],[101.183085,18.222911],[101.19266,18.213042],[101.184101,18.196564],[101.184101,18.191206],[101.177766,18.180757],[101.176557,18.176693],[101.178201,18.172406],[101.172833,18.163743],[101.174961,18.162493],[101.170415,18.150838],[101.168529,18.139986],[101.160936,18.123643],[101.166063,18.112881],[101.164467,18.105334],[101.174284,18.089392],[101.171962,18.086311],[101.172543,18.07671],[101.175783,18.071441],[101.179893,18.071173],[101.183956,18.0651],[101.175493,18.053043],[101.177185,18.050498],[101.17143,18.045139],[101.160646,18.029867],[101.159341,18.029778],[101.155182,18.037503],[101.151071,18.037012],[101.145026,18.029331],[101.140916,18.027277],[101.139078,18.020311],[101.133565,18.015131],[101.129116,18.005932],[101.12162,18.000127],[101.117385,17.975888],[101.118847,17.973279],[101.117288,17.97049],[101.114463,17.972199],[101.117093,17.963743],[101.116703,17.951058],[101.102284,17.94557],[101.098972,17.939993],[101.094295,17.935944],[101.095464,17.931896],[101.090009,17.929197],[101.088645,17.925329],[101.077246,17.923799],[101.07481,17.92119],[101.071692,17.920561],[101.070231,17.913813],[101.066042,17.914083],[101.064191,17.916782],[101.059027,17.913813],[101.047238,17.913453],[101.043731,17.909675],[101.033306,17.904547],[101.030871,17.901038],[101.028045,17.901038],[101.026974,17.89762],[101.0186238,17.8907853],[101.016354,17.884395],[101.021128,17.883046],[101.016841,17.878368],[101.026487,17.871441],[101.029117,17.864963],[101.034573,17.860105],[101.032819,17.858576],[101.032917,17.851829],[101.030189,17.84715],[101.029117,17.838334],[101.031553,17.836445],[101.032137,17.833296],[101.028435,17.828798],[101.017134,17.828798],[101.015088,17.826549],[101.006514,17.82394],[101.002715,17.82457],[100.998623,17.820795],[100.999694,17.816476],[100.992485,17.804961],[101.003105,17.794075],[101.002812,17.789937],[101.006612,17.78427],[100.998572,17.770252],[100.99521,17.771089],[100.991422,17.768232],[100.982084,17.767936],[100.977976,17.76296],[100.978296,17.752564],[100.986649,17.748144]]]}}]}