{"type":"FeatureCollection","features":[{"type":"Feature","properties":{"provinceCode":"32","nameTh":"สุรินทร์","nameEn":"Surin"},"geometry":{"type":"Polygon","coordinates":[[[103.2706518,14.7158474],[103.2679709,14.7164922],[103.2674685,14.7183432],[103.2653845,14.7177827],[103.2668423,14.7160114],[103.2658359,14.7142968],[103.2688949,14.7114043],[103.2666544,14.7074863],[103.2676479,14.705751],[103.2695958,14.7062316],[103.2687877,14.7007347],[103.2664596,14.6986384],[103.2657542,14.6936933],[103.2584501,14.6897657],[103.257765,14.6870471],[103.2584492,14.6858437],[103.260849,14.6870285],[103.2617936,14.6848622],[103.2598624,14.6828371],[103.2614677,14.6817318],[103.2566477,14.6825737],[103.2582906,14.6797676],[103.2568865,14.6778774],[103.2584596,14.6780746],[103.2567671,14.6746302],[103.2596746,14.6711065],[103.2527894,14.6691241],[103.2543625,14.6677683],[103.2541345,14.665289],[103.2525399,14.6637684],[103.249847,14.665276],[103.2488344,14.6600876],[103.2449466,14.6590146],[103.242892,14.6500257],[103.2391316,14.6508301],[103.237482,14.6484998],[103.2339375,14.6480178],[103.2335674,14.6428679],[103.2305311,14.6421802],[103.2295065,14.6393333],[103.2303474,14.6323899],[103.2345954,14.6293753],[103.2343152,14.6263097],[103.2365548,14.6249489],[103.2354198,14.624168],[103.2385392,14.6176491],[103.2360961,14.6160311],[103.232448,14.6081667],[103.2288347,14.6096735],[103.22869,14.6078724],[103.2264464,14.6088311],[103.2256596,14.6065358],[103.2224549,14.6068371],[103.2221515,14.6024713],[103.2208191,14.6015649],[103.2227106,14.6005025],[103.2187515,14.6005823],[103.2177836,14.5970948],[103.2161905,14.5973181],[103.2150514,14.5940653],[103.2129901,14.5941409],[103.2140215,14.5898419],[103.2117876,14.5872869],[103.2119464,14.5814045],[103.2103645,14.58039],[103.2105283,14.575116],[103.2139269,14.5759661],[103.2160847,14.5690215],[103.2175114,14.5690476],[103.2168526,14.5677313],[103.2221903,14.5650518],[103.2198486,14.5567934],[103.2206921,14.5521195],[103.222112,14.5513902],[103.2211889,14.549145],[103.2232505,14.546629],[103.2205043,14.543841],[103.2175,14.5456802],[103.2174769,14.5443364],[103.213628,14.5448081],[103.2109998,14.5423695],[103.2129908,14.5322512],[103.2148121,14.5304949],[103.2128598,14.5297459],[103.2133044,14.5274706],[103.2162288,14.5259907],[103.2155247,14.5234813],[103.2196277,14.5207344],[103.2210351,14.5178078],[103.2206537,14.5154255],[103.2187099,14.515186],[103.2171415,14.5123507],[103.2180607,14.5082518],[103.2136558,14.5050169],[103.2153308,14.5005023],[103.2177164,14.4993944],[103.2194045,14.5003663],[103.2201582,14.4985669],[103.2218382,14.4995429],[103.2220253,14.4975708],[103.2258429,14.495243],[103.223999,14.4903521],[103.2346893,14.4827318],[103.2334737,14.4810317],[103.2355893,14.4803799],[103.2341806,14.4762685],[103.2354008,14.4736683],[103.2337577,14.4681345],[103.2359581,14.4669171],[103.2357093,14.4637489],[103.2396127,14.4616228],[103.2389026,14.4523464],[103.2447787,14.4479267],[103.2466563,14.4417533],[103.2436371,14.4397905],[103.2454212,14.437103],[103.2451566,14.4306633],[103.2387257,14.4207936],[103.235788,14.4107402],[103.2312453,14.4081857],[103.2216554,14.4068587],[103.2225921,14.4055561],[103.220457,14.4030873],[103.2245295,14.3977257],[103.2320604,14.3957645],[103.2341536,14.39338],[103.2295883,14.3839512],[103.2259583,14.3812932],[103.2241001,14.3819684],[103.2213832,14.3785882],[103.2210644,14.3747207],[103.2229799,14.3698564],[103.2192617,14.3595933],[103.2233907,14.3530955],[103.2208808,14.349361],[103.2231687,14.3403252],[103.2259732,14.3376157],[103.2261993,14.3267099],[103.2370072,14.3360643],[103.2526125,14.339586],[103.2621106,14.346831],[103.2816272,14.348305],[103.315706,14.356693],[103.3297018,14.3512584],[103.3330385,14.3513632],[103.3362975,14.3589772],[103.3394601,14.3601981],[103.3418182,14.3602372],[103.3481839,14.3541807],[103.352885,14.3526939],[103.3673741,14.352097],[103.3799085,14.3523909],[103.392159,14.3572376],[103.401994,14.3577922],[103.3991927,14.3695529],[103.4119802,14.3715812],[103.4173936,14.3813374],[103.4350398,14.3907669],[103.4381647,14.3892351],[103.4394159,14.3791087],[103.4465174,14.3817078],[103.4473285,14.3745193],[103.4511453,14.3683144],[103.4676658,14.3647012],[103.4706728,14.3685373],[103.4723568,14.3759296],[103.4804171,14.3794015],[103.4828011,14.3875134],[103.4922947,14.3858511],[103.496861,14.3898754],[103.4960215,14.402685],[103.4981701,14.4121251],[103.5236878,14.4177411],[103.5349406,14.4252131],[103.5491926,14.4274682],[103.5575721,14.4319217],[103.5676284,14.4326338],[103.5737599,14.4312122],[103.5781681,14.4335122],[103.5916818,14.4291324],[103.5979922,14.4233046],[103.6063044,14.4218669],[103.6103705,14.4252501],[103.611612,14.4162915],[103.615494,14.4081586],[103.6177348,14.4053074],[103.6234763,14.4044708],[103.6419821,14.4146185],[103.6488195,14.4158136],[103.6544318,14.4132694],[103.6568352,14.4207949],[103.6510223,14.4237098],[103.6416373,14.4243633],[103.6414248,14.4254603],[103.6447711,14.4336603],[103.6500765,14.4348342],[103.6573618,14.4399537],[103.6664177,14.4369633],[103.6756381,14.4366435],[103.6889022,14.4403696],[103.7069305,14.4328375],[103.7082747,14.4293522],[103.7072016,14.412623],[103.7028983,14.4090705],[103.7025681,14.3987025],[103.7002694,14.3918762],[103.7037235,14.3837663],[103.7071181,14.3806526],[103.710619,14.3798118],[103.7247293,14.3813154],[103.7315905,14.3857309],[103.7393932,14.3784888],[103.7462702,14.3779513],[103.7490099,14.3733216],[103.7520714,14.371766],[103.7588886,14.377828],[103.7690351,14.3670942],[103.7743789,14.3649353],[103.7746682,14.3607615],[103.7798367,14.3615464],[103.7846876,14.3661151],[103.7950369,14.3667646],[103.8023226,14.3696819],[103.80421,14.3649816],[103.8028643,14.3566908],[103.8296624,14.3532244],[103.830756,14.3537824],[103.8282123,14.357917],[103.8329177,14.3675893],[103.8372375,14.3711418],[103.8421659,14.3715717],[103.8610604,14.3666268],[103.8623608,14.364955],[103.8604707,14.3576381],[103.8684444,14.3544422],[103.8724236,14.3464391],[103.8756893,14.3461438],[103.8817087,14.3380214],[103.8842307,14.3394933],[103.8854276,14.3434416],[103.8930577,14.3428931],[103.900419,14.3452326],[103.9014411,14.3439784],[103.8997684,14.3380019],[103.9008455,14.3373322],[103.908154,14.338374],[103.9136935,14.3359788],[103.9226473,14.3364581],[103.9298006,14.3320539],[103.9380973,14.3319544],[103.9421816,14.3302335],[103.9472992,14.3324746],[103.9462441,14.3435319],[103.9488849,14.3494029],[103.9519048,14.3510063],[103.9713883,14.349687],[103.9817138,14.3546145],[103.9851768,14.3514539],[103.9872012,14.3466688],[103.9956713,14.345394],[103.9992656,14.3518042],[104.0069847,14.3567773],[104.0102784,14.3551378],[104.0108355,14.3475811],[104.0151709,14.3427455],[104.0279811,14.340415],[104.0282735,14.3374588],[104.032902,14.340217],[104.0566163,14.3453275],[104.052305,14.355991],[104.0478741,14.3566709],[104.0435205,14.3613425],[104.0464616,14.3673878],[104.0469361,14.3732376],[104.0506369,14.3790182],[104.0468296,14.387364],[104.0485281,14.3913324],[104.0468089,14.4078829],[104.0476615,14.4099647],[104.05327,14.4134575],[104.0507977,14.4234439],[104.051827,14.4248724],[104.0502549,14.4268653],[104.0505003,14.4298512],[104.05179,14.4300793],[104.050406,14.4336281],[104.05246,14.435064],[104.0519021,14.438754],[104.0534437,14.4383358],[104.0541275,14.440653],[104.0531703,14.4418033],[104.055299,14.4460673],[104.0539043,14.4474572],[104.0566088,14.4488607],[104.0546902,14.4507202],[104.0566354,14.4519175],[104.0537666,14.4547806],[104.0582772,14.4568029],[104.0577029,14.4595614],[104.0590491,14.460285],[104.0567835,14.4611806],[104.0585379,14.4637019],[104.0561436,14.4664645],[104.0580639,14.4690862],[104.0512885,14.4726417],[104.0517884,14.4742194],[104.0496735,14.4751526],[104.0515435,14.4758172],[104.0474061,14.4830469],[104.0493445,14.4848273],[104.04924,14.4896523],[104.0517606,14.4908688],[104.0515488,14.4930694],[104.0535977,14.4947222],[104.0479834,14.4938441],[104.0438275,14.4969511],[104.0389353,14.495333],[104.0350999,14.4982178],[104.0371381,14.5162532],[104.031986,14.5441887],[104.0468424,14.5555248],[104.0456568,14.5661472],[104.0524139,14.5734359],[104.0554077,14.5799004],[104.0557739,14.5887521],[104.0588182,14.6017608],[104.0590575,14.613314],[104.0566311,14.627122],[104.0512983,14.6329003],[104.0532318,14.6348019],[104.0510237,14.636977],[104.0562071,14.6516731],[104.0529642,14.6514623],[104.0535879,14.653982],[104.0521411,14.654291],[104.053925,14.6549035],[104.0523176,14.655588],[104.052997,14.6596821],[104.0491585,14.6737214],[104.019733,14.7006674],[104.0012728,14.7255784],[103.9985855,14.7349605],[103.9987811,14.7425096],[103.9997082,14.7548393],[104.0023125,14.7599379],[104.0036011,14.7699287],[103.9954616,14.7988849],[103.979744,14.8084916],[103.9187788,14.828723],[103.9039923,14.8423128],[103.9039508,14.8471768],[103.9020075,14.8488325],[103.9038139,14.8505835],[103.9035503,14.8528983],[103.9075745,14.8554607],[103.9063819,14.8588303],[103.9074382,14.8613206],[103.9122656,14.8642087],[103.9119527,14.8670246],[103.9208622,14.8721607],[103.9190631,14.8730986],[103.9193607,14.8755277],[103.9206585,14.8752714],[103.9196927,14.8772719],[103.9172673,14.877953],[103.9168277,14.8831648],[103.9199729,14.8836908],[103.9187839,14.8853177],[103.9207132,14.8858995],[103.9204556,14.8901391],[103.9255049,14.8941198],[103.924558,14.8965899],[103.9264153,14.8974096],[103.9248621,14.8997025],[103.92847,14.9036897],[103.9337208,14.904339],[103.9344653,14.9071372],[103.9390023,14.9080859],[103.9372924,14.9093132],[103.9390674,14.9123282],[103.9368816,14.9150947],[103.9393257,14.9195773],[103.9439944,14.9221751],[103.9422404,14.9270722],[103.9450407,14.9269442],[103.9466371,14.9291881],[103.9482339,14.9363713],[103.9459575,14.9394102],[103.9458281,14.9433474],[103.9481331,14.9410174],[103.9553748,14.9423077],[103.9545654,14.9398281],[103.9560092,14.9377225],[103.9639743,14.9498288],[103.9699295,14.9500173],[103.9672037,14.9522404],[103.9674201,14.9586861],[103.9693311,14.9629133],[103.9689199,14.9685247],[103.9662876,14.9711039],[103.9669267,14.9738002],[103.9710879,14.9751698],[103.9752927,14.9792167],[103.976327,14.9785],[103.9754262,14.9743151],[103.9773628,14.9760193],[103.9815624,14.974824],[103.9826335,14.9771046],[103.9808436,14.9775125],[103.9808617,14.9794137],[103.9841616,14.9814752],[103.9845596,14.9838672],[103.9875983,14.9836709],[103.9875262,14.9854774],[103.9897007,14.9864828],[103.9916867,14.9848307],[103.993809,14.9856885],[103.9938409,14.988417],[103.995692,14.9893158],[103.9980195,14.9945872],[104.002146,14.9961919],[103.9989166,14.9993532],[104.0006798,15.0043257],[103.9983323,15.0062028],[103.9976762,15.0105451],[103.9997199,15.0142281],[103.9964973,15.0135801],[103.9948168,15.016109],[103.9999099,15.020515],[104.0045879,15.0212151],[104.010489,15.0193264],[104.012836,15.026015],[104.0110288,15.0271973],[104.0113365,15.0292817],[104.0168764,15.0327883],[104.0121051,15.0379417],[104.0138039,15.0409804],[104.0122382,15.042453],[104.0188228,15.0419737],[104.0205119,15.0438543],[104.0210261,15.0482726],[104.0148772,15.0520977],[104.0131089,15.0577463],[104.0099452,15.0593152],[104.0069162,15.0579063],[104.0054353,15.0593722],[104.0132869,15.0659466],[104.0097026,15.070061],[104.0096941,15.0741072],[104.0115495,15.0744392],[104.0144057,15.0713333],[104.0181797,15.0705155],[104.0198282,15.0723824],[104.0205113,15.0781617],[104.0145161,15.0822253],[104.0015801,15.0780728],[103.9989739,15.0813934],[104.0012622,15.0871206],[103.9951856,15.0859496],[103.994463,15.0835679],[103.9918995,15.0904423],[103.9964313,15.0892152],[103.9985531,15.0940726],[103.9944324,15.0984676],[103.9970029,15.1009017],[103.9955163,15.1032682],[103.9958715,15.1071569],[103.994168,15.1080546],[103.9958173,15.1120139],[103.9941699,15.1108416],[103.991257,15.111472],[103.9914311,15.1125476],[103.9943447,15.1187433],[103.9989135,15.1188608],[104.0003991,15.1204269],[103.9954366,15.121231],[103.995476,15.1248625],[103.9890309,15.1234724],[103.9902882,15.1263712],[103.9865359,15.1296385],[103.9886123,15.1303976],[103.9898246,15.1359105],[103.9932396,15.1359652],[103.9945338,15.1336682],[103.9948708,15.1360551],[103.9993259,15.1363706],[104.0000351,15.1418577],[103.9972584,15.1433035],[104.0001496,15.1496844],[103.9967611,15.1482843],[103.9928014,15.1503564],[103.9924752,15.1527222],[103.9838855,15.1551871],[103.9828239,15.1627797],[103.9782465,15.1587935],[103.9671968,15.1649066],[103.9676108,15.1661813],[103.9706466,15.1660891],[103.9695401,15.170202],[103.9708322,15.1725649],[103.9682362,15.173049],[103.9714032,15.1801094],[103.9663557,15.1853899],[103.9701551,15.1890884],[103.9776108,15.1902827],[103.9784829,15.1959261],[103.9764948,15.2000154],[103.9815505,15.1995402],[103.9838994,15.2013007],[103.9764153,15.2054171],[103.9759073,15.2070703],[103.9794254,15.2127135],[103.9769333,15.2127347],[103.9704105,15.2202981],[103.9762937,15.226295],[103.9858013,15.2246393],[103.9881942,15.2256994],[103.9885551,15.2277296],[103.9841432,15.2323573],[103.9874333,15.2326283],[103.9890978,15.2309531],[103.9921877,15.2367651],[103.985563,15.2470198],[103.9954762,15.2500274],[103.9968363,15.2517666],[103.9943068,15.2559229],[103.9902062,15.2586984],[103.9776866,15.2635701],[103.9738449,15.2721083],[103.9725754,15.2799483],[103.9734924,15.2816806],[103.9776217,15.281658],[103.9787095,15.2777639],[103.9776952,15.2749404],[103.982958,15.2744761],[103.9908205,15.2682962],[103.9987319,15.2732388],[103.9960792,15.2774629],[103.9973026,15.2883336],[103.9950069,15.2895303],[103.9965245,15.2954659],[104.0004544,15.2938161],[104.0022882,15.2894155],[104.0098573,15.2922691],[104.012528,15.2888079],[104.0149859,15.2891692],[104.0118159,15.2979343],[104.0127856,15.3102417],[104.0107155,15.3162666],[104.0118543,15.3168203],[104.0150869,15.3136348],[104.0198377,15.3156622],[104.0221037,15.3136923],[104.0289598,15.3180422],[104.0265044,15.3215335],[104.0301953,15.325246],[104.0257297,15.3257677],[104.0255126,15.3295842],[104.022834,15.3318845],[104.0317267,15.332065],[104.036219,15.327595],[104.0392771,15.3321728],[104.0386099,15.3345749],[104.0439878,15.3327884],[104.0446511,15.3419866],[104.0532228,15.3405662],[104.0569873,15.3471766],[104.0595118,15.3460389],[104.0582008,15.3435258],[104.0610828,15.3431622],[104.0619356,15.3489429],[104.0662269,15.3496257],[104.0663323,15.3475717],[104.0686636,15.3474311],[104.0749137,15.3539982],[104.0771583,15.3533372],[104.0801301,15.3487435],[104.086263,15.350178],[104.0907964,15.3484368],[104.0890502,15.3530637],[104.0919319,15.3584269],[104.0874782,15.3552717],[104.0842257,15.3573185],[104.0906906,15.3651828],[104.0894978,15.3657905],[104.0874166,15.3629148],[104.0851562,15.3633589],[104.0856172,15.3701643],[104.0797961,15.3755672],[104.0801377,15.3783092],[104.0845854,15.3812975],[104.0842801,15.3841198],[104.0815569,15.3848815],[104.075294,15.3810262],[104.072472,15.3814231],[104.0717843,15.3840799],[104.0749045,15.3886319],[104.0748849,15.3917957],[104.0607709,15.4017206],[104.0599884,15.4052575],[104.0571686,15.4047774],[104.0554329,15.400401],[104.0506681,15.3956614],[104.0494832,15.3963136],[104.0505741,15.4005491],[104.0490968,15.4024921],[104.0410023,15.403687],[104.0326754,15.4080505],[104.0292196,15.4039733],[104.0267411,15.4036177],[104.0192039,15.4119501],[104.0164989,15.4106258],[104.0159225,15.4046863],[104.0136121,15.4032971],[104.0112553,15.4039868],[104.0072986,15.4095798],[104.0026828,15.4092894],[104.0018558,15.4071193],[104.0036674,15.3997777],[103.9936911,15.3933195],[103.9942819,15.3986601],[103.989516,15.4067422],[103.9817847,15.4049651],[103.9740288,15.4057161],[103.9713992,15.4079771],[103.9713809,15.41132],[103.9762572,15.4208685],[103.9748195,15.4256746],[103.9621123,15.4231521],[103.9626316,15.4143557],[103.9573959,15.416688],[103.9510401,15.412827],[103.9418391,15.4270078],[103.9424388,15.4301849],[103.9478633,15.4333465],[103.946078,15.4383105],[103.943384,15.4388555],[103.9341143,15.4359599],[103.9295685,15.4323919],[103.9231612,15.4387728],[103.9174632,15.4394026],[103.9096729,15.435934],[103.9073351,15.4372515],[103.9053256,15.4424792],[103.8991458,15.4418008],[103.9001114,15.4497006],[103.8923652,15.4674949],[103.8906368,15.4687088],[103.8890017,15.4674121],[103.8915718,15.4611412],[103.8865555,15.4542015],[103.8841346,15.4556994],[103.8829506,15.4654682],[103.8778952,15.4684462],[103.8732727,15.4638546],[103.8658769,15.4618473],[103.8647675,15.4514476],[103.8596177,15.4491105],[103.8576006,15.4513235],[103.8578974,15.4621537],[103.855133,15.4660083],[103.8529443,15.4663392],[103.8462924,15.4562882],[103.837179,15.4606109],[103.8327033,15.4607512],[103.8287401,15.4579013],[103.8285973,15.4516113],[103.8234871,15.4532252],[103.8245468,15.4508674],[103.8231824,15.4501728],[103.8229632,15.4518478],[103.8213324,15.4511984],[103.8199852,15.4529235],[103.8199935,15.4506565],[103.8179577,15.4508537],[103.8162944,15.4470872],[103.8129685,15.4494406],[103.8135433,15.4482824],[103.8106382,15.4464957],[103.8082247,15.4471557],[103.806896,15.449544],[103.8070915,15.4463781],[103.8048444,15.4460738],[103.8036899,15.4477157],[103.8043924,15.4449349],[103.8026731,15.4453662],[103.8021748,15.4430993],[103.8011823,15.4446945],[103.799197,15.4427441],[103.797766,15.4451484],[103.7941957,15.4412437],[103.7903692,15.4440917],[103.7886295,15.4418559],[103.7867818,15.4428802],[103.7840591,15.4405738],[103.7808377,15.4419699],[103.7813055,15.4392439],[103.7793059,15.4397488],[103.7800636,15.4367554],[103.7783553,15.4377112],[103.7782612,15.4352827],[103.7752142,15.4360521],[103.7741284,15.4347873],[103.7745292,15.437667],[103.7703819,15.4392131],[103.7682051,15.4371349],[103.7645807,15.4398822],[103.7619017,15.4374322],[103.7572669,15.4374322],[103.7516868,15.4410549],[103.7479776,15.4459242],[103.7462395,15.4448944],[103.743939,15.4477236],[103.7419107,15.4436036],[103.7385488,15.4418502],[103.7351751,15.4417762],[103.7324289,15.4445963],[103.7303862,15.4388475],[103.726292,15.4412214],[103.7238888,15.4379788],[103.7153062,15.4470038],[103.7140874,15.4431077],[103.7080353,15.4473073],[103.7090733,15.4433445],[103.7037969,15.4417095],[103.7010751,15.4452755],[103.6960156,15.4431367],[103.6936899,15.4467724],[103.6916565,15.4464901],[103.691664,15.4447541],[103.6886731,15.4457013],[103.6883982,15.4491882],[103.6865187,15.4458334],[103.684558,15.4479754],[103.6813136,15.4472308],[103.6804768,15.445518],[103.6798606,15.4474471],[103.6753861,15.4480795],[103.6744594,15.444874],[103.6716683,15.4441917],[103.6710736,15.4460692],[103.6674843,15.4461979],[103.6674028,15.4488745],[103.6643405,15.4500682],[103.6628622,15.452615],[103.6597601,15.449426],[103.6535356,15.4512717],[103.6500569,15.4565161],[103.6484916,15.4555381],[103.6485955,15.458036],[103.6412393,15.4564369],[103.6403863,15.4600709],[103.6396804,15.4575617],[103.6378036,15.4569813],[103.6354071,15.4578928],[103.633761,15.456742],[103.6331333,15.4585191],[103.6293729,15.457501],[103.6296244,15.4587033],[103.624775,15.4599466],[103.6268926,15.4619279],[103.6226642,15.466846],[103.6177524,15.4645927],[103.6199651,15.4662257],[103.6166764,15.4665381],[103.6158409,15.4685902],[103.6139443,15.4654385],[103.6123451,15.4653751],[103.6118329,15.4685127],[103.6098473,15.466259],[103.6067236,15.4688547],[103.6061895,15.4673762],[103.6011763,15.4681293],[103.6007177,15.464998],[103.5917252,15.4675831],[103.5904544,15.464579],[103.5845415,15.4671656],[103.5856361,15.4652744],[103.5838121,15.4636158],[103.5793625,15.4658317],[103.5743224,15.4635389],[103.5707161,15.459558],[103.5658025,15.4600436],[103.5637278,15.4587594],[103.5633453,15.4564699],[103.5618436,15.4561502],[103.5616968,15.4523579],[103.5558524,15.4526299],[103.5553942,15.4544718],[103.5519119,15.4488536],[103.5525059,15.4470685],[103.5486177,15.4432543],[103.5486158,15.4406967],[103.5507067,15.441789],[103.5500467,15.4383619],[103.5458817,15.440553],[103.5429218,15.4395464],[103.5421926,15.4357082],[103.5372212,15.4310846],[103.5370625,15.4290036],[103.532716,15.4279534],[103.5323965,15.4264419],[103.5245636,15.4291918],[103.5208479,15.4283325],[103.5176469,15.4308886],[103.5160443,15.4285857],[103.513587,15.4304321],[103.514546,15.4319405],[103.5126852,15.4319428],[103.5033662,15.4393122],[103.4964855,15.437605],[103.4922199,15.4382172],[103.4860212,15.4431166],[103.4857558,15.4489965],[103.4801552,15.4521713],[103.4789186,15.451214],[103.4781519,15.4526109],[103.4706311,15.4535604],[103.4629742,15.4523437],[103.4520585,15.4553423],[103.4496614,15.4540587],[103.4484081,15.455964],[103.4469588,15.4540665],[103.4455167,15.4562454],[103.440214,15.4538305],[103.4389816,15.4554534],[103.4369003,15.4550228],[103.4380617,15.454317],[103.4359546,15.4529129],[103.4334836,15.4549215],[103.4309401,15.4492285],[103.4263341,15.4494497],[103.4228061,15.4454466],[103.4105819,15.4395329],[103.4081631,15.4397536],[103.3997901,15.4343086],[103.3986636,15.4354875],[103.3971025,15.4316765],[103.3906706,15.429272],[103.3806713,15.4287342],[103.3738156,15.4246826],[103.3655409,15.4145998],[103.3623276,15.4127225],[103.3499841,15.4110987],[103.3483104,15.4088128],[103.3472911,15.4104315],[103.3429084,15.4085956],[103.341224,15.4059271],[103.3404086,15.4095472],[103.3302645,15.4118434],[103.3306561,15.4133638],[103.3273301,15.4142429],[103.3257583,15.4126527],[103.3136938,15.4133328],[103.3044509,15.4170769],[103.3011249,15.4161253],[103.2996336,15.4180853],[103.2905141,15.4214053],[103.2695231,15.4233342],[103.2618628,15.4300825],[103.2634399,15.4331076],[103.2632307,15.4380768],[103.2527971,15.4433565],[103.2506326,15.4484639],[103.2415506,15.4498858],[103.2299286,15.4472384],[103.224583,15.4484652],[103.224701,15.4537391],[103.2187411,15.4574618],[103.214353,15.4580409],[103.215442,15.4612594],[103.2039514,15.4601478],[103.1143442,15.4828546],[103.1113522,15.4813157],[103.1135882,15.4777899],[103.1112629,15.4776417],[103.1125964,15.4721766],[103.1139238,15.4719455],[103.1154811,15.4670685],[103.108408,15.4652695],[103.1057797,15.4573532],[103.1107563,15.4506339],[103.1065245,15.4470215],[103.1081187,15.4457361],[103.1066356,15.4447875],[103.1071757,15.4421213],[103.1056484,15.439603],[103.1040957,15.4399023],[103.1018503,15.4355735],[103.1005843,15.4356195],[103.1006835,15.4300734],[103.0949191,15.4281855],[103.0903853,15.4244957],[103.0899022,15.4194803],[103.1077401,15.4088759],[103.1138719,15.4099149],[103.1152469,15.4033944],[103.1175138,15.4019254],[103.1252723,15.4015761],[103.1274395,15.4030241],[103.1301217,15.4006451],[103.1351374,15.4005944],[103.1362586,15.4044722],[103.1330185,15.4085061],[103.1362092,15.412089],[103.1386189,15.4120631],[103.146128,15.4018657],[103.1443256,15.3965283],[103.1409771,15.3946458],[103.1413205,15.3883566],[103.1456978,15.3871153],[103.1482899,15.38143],[103.1495827,15.3817776],[103.1490248,15.384074],[103.1505215,15.3859609],[103.1545341,15.3841609],[103.1535524,15.3809293],[103.1553709,15.3788852],[103.1536597,15.3778466],[103.1499046,15.3788811],[103.1479895,15.3757818],[103.1499851,15.3733818],[103.1551615,15.3740559],[103.1566856,15.3729122],[103.1577906,15.3676259],[103.1549115,15.3663032],[103.1551583,15.3646273],[103.163913,15.3643894],[103.1626401,15.3607669],[103.1586452,15.3619582],[103.1585953,15.3569804],[103.1562741,15.3527298],[103.1629512,15.3534111],[103.1660411,15.3581287],[103.1696487,15.3597447],[103.1708154,15.3635809],[103.173923,15.3631169],[103.1763622,15.3593185],[103.1783578,15.3595254],[103.1800208,15.3618118],[103.1789693,15.3662707],[103.1817014,15.3681137],[103.1906171,15.3645756],[103.1944258,15.3657343],[103.1974085,15.3622996],[103.1966076,15.3582839],[103.1936357,15.3579115],[103.1893441,15.3602496],[103.1872375,15.3578717],[103.1926127,15.352947],[103.1956312,15.3449479],[103.1966719,15.3354601],[103.2010064,15.3361637],[103.2016823,15.3429717],[103.2070896,15.3392884],[103.2118747,15.3428579],[103.2136734,15.3408937],[103.2104225,15.3365067],[103.2102976,15.3310626],[103.2125399,15.3310626],[103.2174966,15.3356153],[103.2235648,15.3306105],[103.2227392,15.3277428],[103.2187837,15.3284541],[103.2218307,15.3243783],[103.2188051,15.3227641],[103.219215,15.3212989],[103.2256947,15.3230786],[103.2281612,15.3213154],[103.2276908,15.3179152],[103.2306718,15.3171764],[103.231809,15.318356],[103.2298135,15.3225985],[103.2320896,15.3243203],[103.2343446,15.3200883],[103.2446147,15.3172398],[103.2505192,15.3209589],[103.2526182,15.320702],[103.2540939,15.3133454],[103.248547,15.3090436],[103.2484201,15.3070356],[103.2510046,15.3068106],[103.256362,15.3098285],[103.2597286,15.3138824],[103.2634877,15.3132553],[103.266242,15.3108742],[103.2652102,15.3157826],[103.2679876,15.3178776],[103.275957,15.3181643],[103.2753347,15.3156715],[103.2769419,15.3140459],[103.2860164,15.3168605],[103.2864316,15.3147319],[103.280681,15.3070804],[103.281767,15.3046164],[103.2881284,15.3027052],[103.2880804,15.2991299],[103.289598,15.2986437],[103.2955696,15.3027619],[103.3059784,15.3191946],[103.3158314,15.3180662],[103.3167551,15.3224018],[103.3136145,15.3273313],[103.3203883,15.3276876],[103.3242679,15.3333296],[103.329687,15.331251],[103.3271006,15.3358833],[103.3282091,15.3373086],[103.3378773,15.3350519],[103.3397247,15.3359427],[103.3408332,15.342891],[103.3423111,15.3438412],[103.3448975,15.3403374],[103.347607,15.339209],[103.3501319,15.340278],[103.3480997,15.3460384],[103.3494545,15.3472855],[103.3531493,15.3444944],[103.3615243,15.3451476],[103.3604774,15.3383182],[103.3656502,15.3377837],[103.3711925,15.3402186],[103.3745178,15.3392684],[103.3774737,15.3370117],[103.3807375,15.329113],[103.3876345,15.3244211],[103.3857255,15.3205013],[103.3863413,15.3184819],[103.3960711,15.3136116],[103.4005973,15.3145619],[103.4038993,15.3085192],[103.4066938,15.3099292],[103.4089723,15.3141462],[103.411066,15.3143244],[103.4132829,15.3105231],[103.4146993,15.3105231],[103.4168546,15.3159874],[103.4188868,15.3167001],[103.424737,15.3155716],[103.4259686,15.3090976],[103.429725,15.3087412],[103.4312645,15.315928],[103.4288013,15.3209764],[103.4354212,15.32258],[103.4352981,15.3259653],[103.4324653,15.3292912],[103.4357907,15.3353488],[103.4389929,15.3354676],[103.4411482,15.331251],[103.4429341,15.3306571],[103.4510012,15.335527],[103.4490921,15.3378431],[103.4422567,15.3381401],[103.4415177,15.3403374],[103.4453357,15.345207],[103.4514322,15.3437224],[103.4517765,15.337987],[103.4534086,15.3368328],[103.4591517,15.3353999],[103.4644767,15.3397109],[103.4660342,15.3367306],[103.4693804,15.3385713],[103.4720425,15.3371009],[103.4722889,15.3312452],[103.474507,15.328932],[103.4687618,15.3261573],[103.4690535,15.3244914],[103.474846,15.3189137],[103.4806611,15.3201882],[103.4842808,15.318343],[103.4858757,15.3109801],[103.4898282,15.3126759],[103.4906741,15.3171827],[103.4937587,15.3152894],[103.4961248,15.3078692],[103.4993079,15.3093578],[103.4998298,15.3144837],[103.5020516,15.3150371],[103.50345,15.3132163],[103.5036004,15.3066746],[103.4992769,15.3051565],[103.4970154,15.3015272],[103.4978491,15.2979563],[103.5009198,15.2947171],[103.5050691,15.2954362],[103.5053255,15.2922585],[103.4996726,15.2916722],[103.4948719,15.2942308],[103.4886701,15.2914019],[103.4820574,15.2928614],[103.480507,15.2956723],[103.4769951,15.2917983],[103.4769578,15.2860683],[103.4701022,15.2879963],[103.4690375,15.2802481],[103.4676738,15.2821401],[103.4628849,15.2830717],[103.4617896,15.2813472],[103.4635455,15.2764639],[103.4579789,15.2662283],[103.4612479,15.2621916],[103.4614534,15.2597047],[103.4591914,15.2567941],[103.4530287,15.2551813],[103.4442304,15.263399],[103.4415031,15.2634351],[103.441746,15.2582449],[103.4465467,15.2586414],[103.4476802,15.2572098],[103.4467709,15.2543523],[103.4404384,15.2510903],[103.4364969,15.2426377],[103.4339378,15.2290661],[103.4371693,15.2244252],[103.4373749,15.2206127],[103.4306327,15.217411],[103.4285186,15.2138294],[103.430607,15.2105351],[103.4353872,15.2093632],[103.4361602,15.206792],[103.4316938,15.205328],[103.4260563,15.2082823],[103.4211806,15.2050304],[103.4189517,15.2010086],[103.4201984,15.1923675],[103.4182613,15.1883843],[103.4259667,15.187439],[103.428193,15.1865371],[103.4290255,15.1841298],[103.4281458,15.1786688],[103.4229187,15.1743772],[103.4204321,15.1682623],[103.4227671,15.1670003],[103.4243736,15.1624028],[103.4294359,15.1596442],[103.4261197,15.1558401],[103.4251955,15.1519092],[103.4209796,15.151978],[103.4291796,15.1408809],[103.424813,15.135423],[103.4242658,15.130431],[103.4258966,15.1275518],[103.4292762,15.1283079],[103.4333746,15.1223111],[103.4329025,15.1206021],[103.4280587,15.1182261],[103.4261351,15.1058649],[103.4280126,15.1052112],[103.4345684,15.1092227],[103.4409396,15.1082422],[103.4422016,15.1062512],[103.4402317,15.1038443],[103.4397085,15.0993572],[103.4352456,15.0989412],[103.4329064,15.1009322],[103.4313982,15.0997435],[103.4323524,15.0896695],[103.4287513,15.0829533],[103.431152,15.0816754],[103.431706,15.0850633],[103.4361997,15.0865789],[103.439216,15.0899667],[103.442417,15.0877379],[103.4417399,15.0858062],[103.4367537,15.0822103],[103.431983,15.0713628],[103.4256426,15.0706495],[103.4227494,15.0658645],[103.4266275,15.0613469],[103.4336141,15.0606379],[103.4391368,15.0578349],[103.4480809,15.0450782],[103.4435142,15.0397406],[103.4419011,15.0339797],[103.4355925,15.02899],[103.4308627,15.0272404],[103.4219932,15.0306251],[103.4210442,15.0275719],[103.4247006,15.0283848],[103.4247135,15.0263725],[103.4208983,15.0241981],[103.4189068,15.0178481],[103.4163793,15.0180639],[103.4180095,15.0129549],[103.4147315,15.0044524],[103.4095299,15.0034119],[103.4110689,15.001866],[103.4190406,15.0010038],[103.4243961,14.9943145],[103.4267968,14.9934226],[103.4276586,14.9897656],[103.4264582,14.9868817],[103.4221184,14.9895872],[103.4199157,14.9860661],[103.4237343,14.9836111],[103.4282588,14.983403],[103.4306903,14.9787647],[103.4307211,14.9768618],[103.4255195,14.9755833],[103.4211181,14.9773673],[103.4200101,14.9727586],[103.4219492,14.9710935],[103.428505,14.9719558],[103.4296438,14.9707367],[103.4204102,14.9667523],[103.4168399,14.9587833],[103.4176401,14.9558097],[103.4211489,14.9561665],[103.4236728,14.9544121],[103.4216519,14.9486364],[103.4242932,14.9422753],[103.4277825,14.9419555],[103.42506,14.9334131],[103.4255901,14.9284064],[103.4188097,14.9230974],[103.4185293,14.9194556],[103.4167838,14.9183618],[103.4118658,14.9168942],[103.4068157,14.9182233],[103.4056597,14.9206228],[103.4019584,14.9196475],[103.3994112,14.9130635],[103.4047333,14.9120926],[103.4015232,14.9105986],[103.4033548,14.906968],[103.4023005,14.9049243],[103.3998962,14.9060256],[103.3998039,14.9026527],[103.3981876,14.9014049],[103.4048733,14.8975423],[103.4022969,14.8973107],[103.401312,14.8925814],[103.3948177,14.8952286],[103.3895237,14.894604],[103.390047,14.8893391],[103.3924169,14.8861564],[103.3873077,14.8863348],[103.387123,14.8835685],[103.378816,14.8760668],[103.3790344,14.8740534],[103.3838992,14.8726634],[103.3845541,14.8710151],[103.3819799,14.8699015],[103.376516,14.8706637],[103.3790028,14.8669407],[103.3755502,14.859681],[103.3736321,14.8597362],[103.3718148,14.8622226],[103.3668398,14.8606032],[103.3667227,14.8581179],[103.3642648,14.858501],[103.3597607,14.8541178],[103.3586114,14.8488093],[103.3517274,14.840224],[103.3456886,14.8405791],[103.3408381,14.8383784],[103.340646,14.8369202],[103.3440761,14.8371743],[103.3462109,14.830866],[103.3440586,14.832031],[103.3399399,14.8278929],[103.3360611,14.829513],[103.3360385,14.8329351],[103.3292282,14.8328156],[103.318748,14.8265674],[103.3199792,14.8235622],[103.3170739,14.8177892],[103.3198655,14.8170828],[103.3140476,14.8164048],[103.3124691,14.8141894],[103.3137311,14.8135943],[103.3134541,14.8105889],[103.3114534,14.8116304],[103.3112995,14.8139216],[103.3092171,14.814413],[103.3088065,14.8090713],[103.3071752,14.8078811],[103.3058671,14.8113328],[103.3042666,14.8084762],[103.3000191,14.8101426],[103.299342,14.8075835],[103.2976184,14.8074943],[103.2941712,14.8129694],[103.2893081,14.8084167],[103.2928849,14.7989111],[103.2900528,14.7869624],[103.2915342,14.7848854],[103.2886438,14.7826281],[103.2868172,14.7844315],[103.2815537,14.7829958],[103.2818122,14.779185],[103.279262,14.7754493],[103.2760954,14.7745878],[103.2744321,14.7696673],[103.2711577,14.7713274],[103.2662197,14.7668395],[103.2683368,14.7658734],[103.2708034,14.7602858],[103.2675273,14.7549918],[103.2690202,14.7525936],[103.2701328,14.7524953],[103.2695999,14.7546209],[103.2714042,14.752867],[103.2711171,14.7503822],[103.2751933,14.7495148],[103.2735306,14.7409658],[103.2694532,14.7418214],[103.2744585,14.7368025],[103.2717765,14.7363174],[103.2733922,14.7334457],[103.2711771,14.7232635],[103.269089,14.7211758],[103.2706518,14.7158474]]]}}]}