{"type":"FeatureCollection","features":[{"type":"Feature","properties":{"id":"TH-LAO-4320102","nameTh":"สุรินทร์","type":"town_municipality"},"geometry":{"type":"Polygon","coordinates":[[[103.5084378,14.8903536],[103.5083577,14.8890371],[103.5091901,14.8869171],[103.5109869,14.8800654],[103.5043525,14.8722115],[103.4978206,14.878439],[103.4921545,14.876102],[103.4905752,14.8728203],[103.4751606,14.8810042],[103.4718346,14.8834098],[103.4778428,14.8946287],[103.5068804,14.9106731],[103.5067838,14.9085581],[103.5073096,14.9080449],[103.5098353,14.8980892],[103.5098068,14.8954844],[103.5084378,14.8903536]]]}}]}