{"type":"FeatureCollection","features":[{"type":"Feature","properties":{"provinceCode":"85","nameTh":"ระนอง","nameEn":"Ranong"},"geometry":{"type":"Polygon","coordinates":[[[97.7162989,9.6059111],[97.7158551,9.5964375],[97.6864813,9.5596181],[97.6650928,9.5238288],[97.913968,9.4849416],[98.2989566,9.3580375],[98.3905979,9.3322236],[98.3931599,9.3329174],[98.395245,9.3298746],[98.4014858,9.329735],[98.4021545,9.3470022],[98.4073402,9.3484848],[98.4096148,9.3433349],[98.4133607,9.3413448],[98.4135108,9.3381456],[98.4172389,9.3353595],[98.4225024,9.3348393],[98.4357896,9.3289438],[98.4369914,9.326771],[98.4399388,9.3303499],[98.439958,9.3330265],[98.4476143,9.330346],[98.44732,9.3236547],[98.451126,9.3220567],[98.4561545,9.3159637],[98.4600492,9.3163484],[98.4661433,9.3141825],[98.4713202,9.3216856],[98.4739434,9.3165639],[98.4759675,9.314953],[98.4779283,9.3156178],[98.4818659,9.311228],[98.4803279,9.3037965],[98.4855993,9.3076302],[98.5002539,9.3069843],[98.5060601,9.308902],[98.5062439,9.3156637],[98.512312,9.3220923],[98.5120518,9.3265203],[98.5144632,9.3273151],[98.515564,9.3308632],[98.5262053,9.3383429],[98.5307487,9.3453023],[98.5391792,9.3499382],[98.540666,9.3545754],[98.547725,9.36117],[98.5624294,9.3605142],[98.5660572,9.358936],[98.5697098,9.3619068],[98.5725598,9.3617782],[98.5749497,9.3655219],[98.5829908,9.3637577],[98.5876021,9.3678608],[98.5903366,9.3641927],[98.5907748,9.3557568],[98.5971617,9.3494218],[98.6110274,9.3423008],[98.6148563,9.3442841],[98.6161929,9.3434574],[98.6268263,9.3523936],[98.6357901,9.3567523],[98.6383097,9.3563325],[98.6408872,9.3526201],[98.6560975,9.3476732],[98.6607266,9.3486697],[98.6628462,9.3539981],[98.6682268,9.3576946],[98.671933,9.3668194],[98.6707526,9.3711348],[98.6750692,9.3808805],[98.6745911,9.3876228],[98.6694097,9.3891862],[98.6647378,9.3861941],[98.6613386,9.3872711],[98.6579648,9.3858305],[98.6551433,9.3877974],[98.6484211,9.3878424],[98.6529248,9.3950169],[98.6543935,9.4018494],[98.6479212,9.4136638],[98.6474112,9.4249891],[98.6482635,9.4277076],[98.6511482,9.4284736],[98.6601973,9.420705],[98.6667375,9.4216937],[98.6721971,9.425211],[98.6739438,9.4291283],[98.6813006,9.4352978],[98.6812168,9.4378304],[98.6763503,9.4405998],[98.6734229,9.4469307],[98.6681262,9.4486918],[98.6657007,9.4595888],[98.6680674,9.4634036],[98.6669853,9.465248],[98.6688774,9.4669227],[98.6777983,9.4650164],[98.6837634,9.4694401],[98.6891207,9.4685859],[98.694647,9.4700386],[98.697013,9.4755012],[98.702528,9.4805209],[98.7047966,9.4864059],[98.7102806,9.4853524],[98.7127193,9.4869833],[98.7158103,9.4867074],[98.7169482,9.4991012],[98.7239109,9.5031559],[98.7250679,9.5113982],[98.7342848,9.5166937],[98.7355581,9.5234996],[98.7412565,9.5261225],[98.748181,9.5355858],[98.7549491,9.5379008],[98.7636056,9.5367449],[98.7685334,9.5449682],[98.75759,9.5604176],[98.7578295,9.564722],[98.7603587,9.5689],[98.7582468,9.5750463],[98.7566158,9.5764372],[98.7512035,9.5752821],[98.746441,9.5770395],[98.738342,9.5836703],[98.7376726,9.5865367],[98.7405728,9.5913021],[98.7387592,9.5933324],[98.7401293,9.5961628],[98.7382998,9.5991186],[98.7396361,9.6008767],[98.7364435,9.604056],[98.7368632,9.6103771],[98.734242,9.6134089],[98.7313339,9.612694],[98.7290918,9.6144088],[98.7211325,9.6288103],[98.7149281,9.6285459],[98.7116716,9.6322357],[98.7092459,9.631024],[98.7039585,9.6321355],[98.7000506,9.6354436],[98.6973013,9.6356272],[98.6959234,9.6393833],[98.6882954,9.6412428],[98.6861481,9.6473033],[98.6799504,9.6485414],[98.6790939,9.6514426],[98.672026,9.6549451],[98.6629151,9.6538915],[98.6602411,9.6552207],[98.6544527,9.6529609],[98.6529778,9.6591938],[98.6478204,9.6621784],[98.6485136,9.6647288],[98.6532379,9.6665396],[98.6537223,9.6714966],[98.6598958,9.6773141],[98.6596373,9.6840213],[98.6570551,9.6876137],[98.6462478,9.6914301],[98.6499647,9.7013706],[98.6393766,9.7135625],[98.6404653,9.7164271],[98.6377585,9.7209754],[98.6395407,9.7264087],[98.6382425,9.729935],[98.6420397,9.7346145],[98.6423218,9.7382929],[98.6346225,9.7425362],[98.6318482,9.7504737],[98.6324148,9.7575998],[98.6276183,9.7635758],[98.6331838,9.7674128],[98.6303046,9.7781554],[98.6331369,9.7845538],[98.6330435,9.7884822],[98.6361131,9.7886765],[98.6416736,9.7933606],[98.643974,9.7909664],[98.646052,9.7920614],[98.6573453,9.8062478],[98.6633365,9.8086661],[98.6639134,9.8149532],[98.6692476,9.8183179],[98.6724365,9.8239163],[98.678918,9.8280921],[98.6823296,9.8347675],[98.68614,9.8344741],[98.6895492,9.8320941],[98.6928275,9.8334006],[98.6978585,9.8430667],[98.7045979,9.8499256],[98.7034745,9.8519655],[98.7098777,9.8555507],[98.7211592,9.8675072],[98.7196277,9.8719226],[98.7216733,9.8772198],[98.7193614,9.8822001],[98.7205761,9.8844206],[98.7190508,9.8874791],[98.7205092,9.893608],[98.7274376,9.8983288],[98.7305177,9.9035962],[98.7384796,9.906816],[98.7437904,9.9127328],[98.744709,9.9159594],[98.7522584,9.918137],[98.7531181,9.9285856],[98.7558661,9.9336838],[98.7673791,9.9398304],[98.7720516,9.9459722],[98.7806284,9.9503731],[98.7900856,9.9450231],[98.7938141,9.9407258],[98.8025676,9.9433103],[98.8095305,9.9372743],[98.8139614,9.9361494],[98.8235186,9.9482067],[98.8217781,9.9589342],[98.8262581,9.9685785],[98.8294845,9.9709088],[98.8297482,9.9749356],[98.8282258,9.9775932],[98.8311886,9.9802502],[98.8334788,9.9798689],[98.8358743,9.9844633],[98.8402775,9.9859638],[98.8411828,9.9900704],[98.8439039,9.9921247],[98.8540537,9.9932955],[98.8573002,9.9974833],[98.8618254,9.9952245],[98.8671045,9.9954291],[98.8709528,9.9999698],[98.8752732,10.0001052],[98.879253,10.0042049],[98.8835767,10.0055316],[98.8881891,10.0154862],[98.9000871,10.0249876],[98.9042032,10.0264132],[98.9062942,10.033091],[98.9005835,10.0450252],[98.9029688,10.054639],[98.8929442,10.0646957],[98.8883189,10.0611434],[98.8813063,10.0646402],[98.8779012,10.0623088],[98.8742637,10.0638295],[98.8663212,10.0628212],[98.8617726,10.0643693],[98.8582894,10.0610912],[98.8547001,10.0632199],[98.8387943,10.0632075],[98.8354089,10.0661091],[98.8459436,10.0776228],[98.8478462,10.0832619],[98.8509148,10.0856234],[98.8532712,10.0828972],[98.8556789,10.083685],[98.8584998,10.0895795],[98.8628007,10.0934534],[98.866183,10.1083695],[98.8636953,10.1103847],[98.8641401,10.1194388],[98.8586217,10.1187696],[98.8605226,10.1251914],[98.8592129,10.1299924],[98.8609039,10.1327558],[98.8686723,10.133826],[98.8679898,10.1411126],[98.8699547,10.1453093],[98.8695617,10.1538644],[98.8734134,10.1560443],[98.883541,10.1561474],[98.8890071,10.1608881],[98.8886781,10.1700351],[98.8828386,10.17617],[98.8785784,10.1777291],[98.8774226,10.1824349],[98.8708853,10.1866287],[98.8734218,10.1927828],[98.8753602,10.1940377],[98.8750061,10.2036267],[98.8775853,10.2092727],[98.891547,10.2232449],[98.8892694,10.232049],[98.8904819,10.235956],[98.8989962,10.2400363],[98.9003599,10.2422037],[98.9001708,10.2450929],[98.8954417,10.247235],[98.8945467,10.2504968],[98.9036973,10.2540433],[98.909206,10.2669317],[98.9086244,10.2695579],[98.9017938,10.2737648],[98.8998311,10.2776976],[98.9014837,10.2854775],[98.9007128,10.2893808],[98.9042383,10.2926911],[98.9031459,10.2949818],[98.9045925,10.2973221],[98.9138795,10.3036736],[98.9188409,10.3167338],[98.9233205,10.318949],[98.9257814,10.3236578],[98.9307217,10.326441],[98.9320134,10.3321407],[98.9346939,10.3332813],[98.9352322,10.33592],[98.9402446,10.3413933],[98.9410015,10.3485483],[98.9434229,10.3518784],[98.9418519,10.359238],[98.9307231,10.3648476],[98.9324244,10.3709679],[98.9375775,10.3780756],[98.9376067,10.3832523],[98.9293955,10.3858623],[98.9287564,10.3949714],[98.9248546,10.3961747],[98.9219267,10.3949945],[98.919101,10.3969479],[98.9156786,10.3951064],[98.908174,10.398385],[98.901472,10.3979988],[98.9045762,10.4052614],[98.904712,10.4105671],[98.8988945,10.412449],[98.8937925,10.4163712],[98.8951359,10.4221518],[98.8935841,10.428946],[98.8964029,10.4319965],[98.8946394,10.4370812],[98.8956882,10.4406869],[98.8924237,10.4411963],[98.8923346,10.4455814],[98.8870179,10.4514065],[98.8891175,10.4558369],[98.8839996,10.457429],[98.8948157,10.475016],[98.8948329,10.4834844],[98.9001001,10.4867782],[98.9111739,10.4902264],[98.9118809,10.4955584],[98.9178,10.5040575],[98.9178679,10.5073461],[98.9243832,10.513368],[98.9366943,10.5133537],[98.9394675,10.5162859],[98.9447738,10.5172775],[98.9467407,10.5269792],[98.9522802,10.5349662],[98.9626011,10.5395895],[98.9622139,10.5423316],[98.9542686,10.5477338],[98.9523759,10.5512809],[98.947749,10.5534781],[98.9439023,10.5581133],[98.9447386,10.5619008],[98.9410924,10.5699116],[98.9493415,10.5740357],[98.9536455,10.5787016],[98.9566111,10.5793139],[98.9601017,10.584733],[98.9618368,10.5966813],[98.9649264,10.6049336],[98.9610905,10.6085425],[98.9591723,10.6164573],[98.9494376,10.6111448],[98.9451822,10.6118226],[98.9463225,10.6221216],[98.9508823,10.6373028],[98.9481218,10.6389611],[98.9483093,10.6437848],[98.9400671,10.6494189],[98.9276348,10.64904],[98.925006,10.657008],[98.9292667,10.6669044],[98.9282894,10.6689256],[98.9297029,10.6726969],[98.9255118,10.6752994],[98.9250112,10.678064],[98.9181425,10.6803454],[98.9083261,10.677475],[98.9082291,10.6815404],[98.9107289,10.6855129],[98.9095148,10.6914256],[98.90765,10.6924935],[98.9047996,10.6919105],[98.9014125,10.6854052],[98.8939612,10.6818068],[98.8942557,10.6859042],[98.8917711,10.6886183],[98.8898978,10.6959032],[98.8952523,10.7002539],[98.89921,10.7062004],[98.8998965,10.7086372],[98.8982296,10.7122191],[98.902243,10.7153499],[98.9036137,10.7244849],[98.9064908,10.7261271],[98.9054267,10.729574],[98.9100835,10.7345401],[98.9111509,10.7374187],[98.9098218,10.7404686],[98.9125271,10.7427361],[98.9143446,10.7477407],[98.9105694,10.7501542],[98.9091978,10.7532622],[98.8977492,10.7519415],[98.8975575,10.7548579],[98.8934986,10.7577912],[98.8938553,10.7644137],[98.8920482,10.7645212],[98.8918916,10.7688758],[98.8893836,10.7699385],[98.889086,10.778386],[98.886073,10.777413],[98.885424,10.784158],[98.883473,10.785522],[98.8802,10.784687],[98.8796394,10.7882665],[98.877768,10.786875],[98.876365,10.787983],[98.875103,10.783435],[98.872905,10.783608],[98.871471,10.781708],[98.870239,10.782903],[98.866997,10.77529],[98.865298,10.776701],[98.86416,10.775362],[98.862633,10.778888],[98.858331,10.775693],[98.860934,10.773837],[98.859188,10.774226],[98.855774,10.770527],[98.850085,10.76126],[98.846656,10.760065],[98.8446652,10.7534915],[98.8414953,10.7526577],[98.8406855,10.7539113],[98.8386898,10.7522546],[98.8395196,10.7475035],[98.8376604,10.7474849],[98.8348,10.7434218],[98.8359624,10.7413439],[98.8320942,10.7410022],[98.8309976,10.7391869],[98.8322242,10.737321],[98.8286256,10.7332883],[98.8235634,10.7321539],[98.8238171,10.7257346],[98.8193882,10.7243534],[98.8180128,10.7183126],[98.8096061,10.7155955],[98.8096928,10.7141075],[98.8126151,10.7127684],[98.8077219,10.7073066],[98.8010975,10.7066126],[98.8034241,10.7037109],[98.8027567,10.700583],[98.796313,10.6965801],[98.7932633,10.6920721],[98.7933406,10.6896046],[98.7900098,10.6873501],[98.7913635,10.68327],[98.784279,10.6802653],[98.7829596,10.6842523],[98.7797372,10.6783886],[98.7845892,10.6523134],[98.7831644,10.6467053],[98.7764412,10.639879],[98.7771944,10.6335704],[98.774606,10.6301861],[98.7751092,10.6249944],[98.77079,10.6204878],[98.7743587,10.6161244],[98.7808053,10.6158989],[98.7800771,10.6026094],[98.7811222,10.6012352],[98.7855446,10.606186],[98.7915238,10.6036492],[98.7987558,10.6050093],[98.8005666,10.6039258],[98.8010271,10.5999298],[98.7969576,10.5957321],[98.8016912,10.5926645],[98.8018548,10.5862675],[98.8036787,10.586553],[98.8085684,10.5931768],[98.8107388,10.5922245],[98.807451,10.5876538],[98.8097625,10.5814536],[98.8074247,10.5778378],[98.8046853,10.5640888],[98.7996069,10.5620372],[98.7984381,10.5588848],[98.8000304,10.5578242],[98.8038388,10.5593468],[98.8077393,10.5540961],[98.812732,10.5541636],[98.8137099,10.5492865],[98.8176796,10.54662],[98.8094259,10.5396206],[98.8151765,10.5391438],[98.8131804,10.5299676],[98.8197111,10.5307239],[98.8217877,10.5288057],[98.8180444,10.526598],[98.818673,10.5199178],[98.816538,10.5134809],[98.8186978,10.5085852],[98.8146374,10.4933919],[98.8100126,10.4883851],[98.8038067,10.4877834],[98.8036166,10.4860109],[98.8066582,10.48371],[98.8062047,10.4818375],[98.8012157,10.4839617],[98.7996209,10.4828255],[98.8026156,10.4776022],[98.8087715,10.4732256],[98.8088823,10.4693368],[98.7961665,10.4548871],[98.7962941,10.4518561],[98.8000213,10.4489757],[98.7999398,10.4467162],[98.7959927,10.4449912],[98.784616,10.4440103],[98.7811718,10.441207],[98.77062,10.4195441],[98.7679614,10.4067412],[98.7554698,10.3932457],[98.7456015,10.352988],[98.7425773,10.3214566],[98.7333153,10.3111802],[98.7210284,10.2700351],[98.7001966,10.2131705],[98.6714034,10.1713174],[98.6571204,10.1666162],[98.6523202,10.1610359],[98.6409647,10.1308881],[98.6413054,10.1253381],[98.6454672,10.1184755],[98.6453419,10.1136879],[98.6240037,10.0694706],[98.6199008,10.0569381],[98.6015789,10.0297974],[98.5794701,9.9862867],[98.5695785,9.9611359],[98.5678226,9.9453227],[98.5646984,9.9402371],[98.5505307,9.9287068],[98.5391325,9.9315993],[98.5299727,9.9253286],[98.5229552,9.924879],[98.5195181,9.9259503],[98.5106213,9.9356464],[98.5031835,9.9384975],[98.4999604,9.9491585],[98.4967683,9.9527224],[98.4813348,9.9553722],[98.4540627,9.9657852],[98.4193527,9.9644216],[98.4059645,9.9556201],[98.3851385,9.9310752],[98.3449741,9.8931421],[98.3371644,9.8839688],[98.2873308,9.7849213],[98.265637,9.7328564],[98.24134,9.6634364],[98.2301832,9.6431062],[98.2105349,9.6201729],[98.1821471,9.5957519],[98.1195451,9.5543478],[98.064753,9.5335219],[98.0077294,9.526084],[97.9799614,9.526084],[97.9514496,9.5367449],[97.8598401,9.5787688],[97.7162989,9.6059111]]]}}]}