{"type":"FeatureCollection","features":[{"type":"Feature","properties":{"provinceCode":"80","nameTh":"นครศรีธรรมราช","nameEn":"Nakhon Si Thammarat"},"geometry":{"type":"Polygon","coordinates":[[[99.6440717,8.9284612],[99.6328103,8.9220535],[99.6374613,8.9198913],[99.638616,8.9167325],[99.6334755,8.9156305],[99.6307719,8.912827],[99.6243238,8.9122281],[99.6201856,8.9140744],[99.6165991,8.9198224],[99.6171677,8.9254876],[99.6115002,8.9288196],[99.6105662,8.9272522],[99.6034564,8.9277457],[99.598264,8.924022],[99.595852,8.9253629],[99.5932504,8.922499],[99.5934146,8.9199751],[99.5823649,8.9179661],[99.582639,8.9157463],[99.5804488,8.9150648],[99.5813644,8.9133272],[99.5799838,8.9113808],[99.5758723,8.9107468],[99.5757291,8.8984805],[99.573214,8.8906493],[99.5578211,8.8771958],[99.5558592,8.877727],[99.5533201,8.8759697],[99.5560227,8.8662838],[99.5594774,8.8607335],[99.5593679,8.8506586],[99.5453215,8.8477319],[99.540547,8.8516821],[99.5322978,8.8500807],[99.5214365,8.8451245],[99.5176035,8.8361352],[99.519962,8.8321151],[99.5204722,8.8247686],[99.5267072,8.8169339],[99.5277197,8.8127756],[99.5221298,8.7932666],[99.5236323,8.7768686],[99.5213506,8.7674863],[99.5234004,8.7622347],[99.5307535,8.759167],[99.5288908,8.7549764],[99.5304107,8.7519961],[99.529324,8.746102],[99.5267395,8.7435228],[99.521881,8.7192875],[99.5095233,8.7145],[99.5070096,8.7122216],[99.5071795,8.7065696],[99.4920304,8.6969077],[99.496005,8.694151],[99.498529,8.6852194],[99.4929928,8.6809178],[99.4962274,8.6753179],[99.4963347,8.6719718],[99.4952568,8.6704908],[99.4922631,8.672193],[99.4884429,8.6706251],[99.4839607,8.6615671],[99.4791492,8.6579641],[99.4786479,8.6551375],[99.4817328,8.650984],[99.4809461,8.6481564],[99.4709882,8.6458724],[99.4675898,8.6475488],[99.4662634,8.6502768],[99.4632555,8.6504993],[99.4546556,8.6426058],[99.4543722,8.6392813],[99.4487202,8.6317797],[99.4498077,8.6277111],[99.4481318,8.6210021],[99.455053,8.6115264],[99.4562782,8.6041275],[99.4523928,8.5984265],[99.4424437,8.5991089],[99.440048,8.594285],[99.4416922,8.5935018],[99.4404655,8.590331],[99.4355247,8.5876009],[99.4342207,8.5831429],[99.4291704,8.5834361],[99.4283813,8.5793641],[99.4237646,8.5770882],[99.4207156,8.5706842],[99.4158689,8.5690921],[99.4136948,8.5641433],[99.4178019,8.552169],[99.4132165,8.5527751],[99.4125022,8.5511057],[99.407801,8.5506532],[99.404911,8.5480054],[99.4045572,8.5451689],[99.4009058,8.5441611],[99.4006337,8.5388208],[99.4022625,8.5360048],[99.3970472,8.533737],[99.397835,8.5315207],[99.3958221,8.5314548],[99.3959539,8.5294424],[99.3935383,8.5287505],[99.3934761,8.5251976],[99.3952191,8.5227009],[99.3954345,8.5172208],[99.3936591,8.5148079],[99.3948192,8.5130795],[99.3896414,8.5121657],[99.3888489,8.5168584],[99.3836664,8.5150698],[99.3777152,8.516082],[99.3744731,8.5129633],[99.3745923,8.510287],[99.3697833,8.5084592],[99.3677065,8.5058991],[99.3640912,8.505449],[99.3645832,8.5017237],[99.3501828,8.4991162],[99.3504794,8.4934517],[99.3457244,8.4963575],[99.3451961,8.4948487],[99.3361928,8.4949179],[99.3294999,8.4928635],[99.3315628,8.4887324],[99.3208028,8.4813534],[99.3187749,8.4753768],[99.3099257,8.4736661],[99.3036234,8.4744214],[99.2974434,8.472641],[99.2958951,8.4705079],[99.2917564,8.4711906],[99.2863791,8.4695175],[99.2859497,8.4662209],[99.2887091,8.4664114],[99.2879367,8.4637966],[99.2822437,8.4649129],[99.2778301,8.4616082],[99.2786558,8.4580714],[99.2771608,8.4555722],[99.2743719,8.4549142],[99.273827,8.4571601],[99.2709181,8.4581431],[99.2719697,8.4539185],[99.2666193,8.4545487],[99.2658066,8.4514268],[99.2638316,8.4512194],[99.2645786,8.4497512],[99.259545,8.4483055],[99.2591641,8.4449465],[99.2613809,8.4445109],[99.2600473,8.4436504],[99.2620649,8.4368892],[99.2594621,8.4370787],[99.2594917,8.4343436],[99.2566366,8.4330496],[99.2572553,8.4301551],[99.2558337,8.4305549],[99.2540412,8.428392],[99.2539776,8.4235333],[99.251252,8.4238829],[99.2496334,8.4210442],[99.2490457,8.4102846],[99.2456534,8.4079999],[99.2455415,8.4042865],[99.2397845,8.3996494],[99.2354938,8.3999153],[99.2344288,8.3977373],[99.2374466,8.3918909],[99.2367598,8.3878902],[99.234464,8.3856904],[99.2371736,8.3849547],[99.2370022,8.3815826],[99.2396336,8.3805081],[99.2375119,8.3759537],[99.2409235,8.3742877],[99.2399799,8.370017],[99.2412466,8.3680893],[99.2427969,8.368581],[99.2407191,8.3669085],[99.2423719,8.366378],[99.2419587,8.3651813],[99.2466518,8.3674247],[99.2496661,8.364448],[99.2489401,8.3623467],[99.2504306,8.3630007],[99.2510681,8.3609804],[99.2526176,8.3612532],[99.2520024,8.3589493],[99.2577638,8.3573737],[99.2615874,8.3504231],[99.2624091,8.3522936],[99.2664197,8.3491877],[99.2672982,8.3514402],[99.2690581,8.3503265],[99.2692453,8.3532726],[99.2725509,8.3509965],[99.2714227,8.3491301],[99.2756373,8.3511382],[99.2752626,8.3476681],[99.2776223,8.3472092],[99.2736628,8.34391],[99.2766446,8.3431018],[99.2766171,8.3409248],[99.2792072,8.3415886],[99.2788322,8.3389222],[99.2822946,8.3367102],[99.280228,8.3341003],[99.2831142,8.3230472],[99.2828647,8.3160605],[99.2886497,8.3172422],[99.288706,8.3137556],[99.2938178,8.3117349],[99.2959747,8.3154638],[99.299699,8.3151156],[99.2986362,8.3103927],[99.3007788,8.3107858],[99.2989372,8.3062541],[99.3034098,8.3062989],[99.3019468,8.3043488],[99.3031215,8.3036459],[99.3035658,8.304811],[99.3064304,8.3045744],[99.3056901,8.3031621],[99.3080576,8.3032115],[99.3086954,8.3006679],[99.3131038,8.3000967],[99.3157915,8.2956342],[99.317876,8.296243],[99.3176212,8.2938705],[99.3188703,8.2935233],[99.3194756,8.2953176],[99.3213769,8.2930717],[99.3251068,8.2961177],[99.3283616,8.2926217],[99.3274956,8.291202],[99.3300135,8.2916263],[99.3316827,8.2887939],[99.3311371,8.2815523],[99.3324025,8.2813965],[99.3314715,8.2799113],[99.3334858,8.2756802],[99.332274,8.2730564],[99.3362416,8.2683538],[99.3342701,8.2670207],[99.3342533,8.2620406],[99.3318015,8.2605456],[99.3337239,8.2568776],[99.3294428,8.2545571],[99.3284356,8.2555248],[99.3242226,8.2523723],[99.3246541,8.2506639],[99.3227636,8.2510885],[99.3233148,8.2485766],[99.3217882,8.2493585],[99.3215451,8.2463319],[99.3197084,8.2468207],[99.320815,8.2423569],[99.3167942,8.2422516],[99.3144315,8.2404576],[99.3152394,8.239638],[99.3130258,8.2377872],[99.3147875,8.2380598],[99.314472,8.2353424],[99.3120035,8.2352716],[99.3112836,8.2336619],[99.3134943,8.2333414],[99.3137275,8.229675],[99.3155878,8.2280865],[99.3143607,8.2273946],[99.3181713,8.2204785],[99.3173619,8.2196364],[99.3206141,8.2179968],[99.3197115,8.2135211],[99.3225454,8.2081741],[99.3190599,8.2046465],[99.3201447,8.2040313],[99.3187195,8.2028502],[99.320172,8.2015338],[99.3195399,8.1966798],[99.3163933,8.1964607],[99.3177298,8.1944948],[99.3163434,8.1942945],[99.3166515,8.193009],[99.3118276,8.1948915],[99.311329,8.1924972],[99.3075669,8.1918911],[99.3089609,8.1901612],[99.3061876,8.1897496],[99.307734,8.1889114],[99.3058831,8.1870785],[99.308112,8.1841598],[99.30606,8.1828281],[99.3089649,8.1785618],[99.3043652,8.1703286],[99.3027453,8.1695013],[99.2984602,8.1710615],[99.2980891,8.1668335],[99.2964078,8.1680766],[99.2968677,8.166698],[99.2945082,8.1653886],[99.2929518,8.1661236],[99.2894693,8.1644069],[99.2901104,8.1607652],[99.2885204,8.1599443],[99.2900561,8.158216],[99.2886463,8.1553306],[99.2908294,8.1529487],[99.2884276,8.1507544],[99.2937389,8.1486769],[99.2929741,8.1455641],[99.2961523,8.1458375],[99.2984563,8.1414681],[99.2958622,8.1377077],[99.2964394,8.132072],[99.302479,8.1312335],[99.3043862,8.1343478],[99.318494,8.1349453],[99.3332047,8.1344103],[99.3334421,8.1332098],[99.3408587,8.1359772],[99.3479596,8.1362197],[99.3502755,8.1337559],[99.3560245,8.1344491],[99.3581145,8.1325881],[99.3634707,8.1331094],[99.3639258,8.135963],[99.3735421,8.138449],[99.3848522,8.1437167],[99.38786,8.1408492],[99.3887765,8.1347058],[99.385403,8.1311234],[99.3877242,8.1169134],[99.3929816,8.1069323],[99.3932246,8.1043654],[99.3910043,8.1014561],[99.3941259,8.0959717],[99.3919008,8.0953299],[99.3937799,8.0866155],[99.3929941,8.0852332],[99.3890174,8.0854657],[99.3883746,8.0836364],[99.3850587,8.0834398],[99.3828339,8.0724669],[99.3865863,8.07198],[99.3874097,8.0630779],[99.3909569,8.0580296],[99.3908505,8.054808],[99.3939062,8.0547179],[99.3955308,8.0434427],[99.4002142,8.0365092],[99.4022169,8.026898],[99.4060792,8.0209704],[99.4046599,8.0155457],[99.4120894,8.0067142],[99.412053,8.0043738],[99.4142815,8.0048974],[99.414988,7.9998458],[99.4107546,7.9971652],[99.4088649,7.9980426],[99.4064643,7.9928492],[99.3999487,7.9877459],[99.4015628,7.986394],[99.3956105,7.9816003],[99.3971183,7.976307],[99.3928992,7.9656995],[99.3938666,7.9591519],[99.3963674,7.9592449],[99.3990948,7.9570524],[99.398047,7.9545503],[99.3930152,7.9519238],[99.3879015,7.9438054],[99.3852227,7.9436392],[99.3842064,7.9409674],[99.3698071,7.9465766],[99.3652246,7.9449666],[99.3764265,7.9409247],[99.3790369,7.9369843],[99.383797,7.933563],[99.389256,7.9320522],[99.3920987,7.9282852],[99.397962,7.9245732],[99.4166076,7.9240917],[99.4248522,7.927974],[99.4198597,7.9204856],[99.4142698,7.8978594],[99.419144,7.8938087],[99.4197626,7.8839909],[99.4236998,7.882859],[99.4259549,7.8757549],[99.4340001,7.8768746],[99.4359689,7.8746589],[99.4381617,7.8786179],[99.4432099,7.8802641],[99.4431462,7.8861876],[99.4464622,7.8881488],[99.4495885,7.8870813],[99.4514153,7.8897789],[99.4555561,7.8888886],[99.4591827,7.891637],[99.4623086,7.8986192],[99.4715781,7.9045005],[99.4738857,7.8992516],[99.4754983,7.8883269],[99.4800261,7.8817163],[99.4841498,7.8819021],[99.4889391,7.8872804],[99.4955411,7.8823835],[99.498461,7.8856827],[99.5030767,7.886541],[99.5097948,7.8843503],[99.5171883,7.8760909],[99.5216828,7.8765665],[99.5238044,7.8746645],[99.5252523,7.8776322],[99.5312404,7.87959],[99.5313658,7.8775727],[99.5334909,7.8776189],[99.5336472,7.8790486],[99.5393076,7.8822864],[99.534728,7.883416],[99.5346699,7.8858683],[99.53759,7.8887975],[99.5335715,7.8910145],[99.5364139,7.8960558],[99.5349858,7.8980964],[99.5415045,7.9020792],[99.5406482,7.9044628],[99.5425429,7.9073733],[99.5407045,7.9117243],[99.5428805,7.9099859],[99.5443914,7.9107385],[99.5477065,7.9184347],[99.5507361,7.9174829],[99.5546504,7.9202767],[99.5562361,7.9175677],[99.5589313,7.9195096],[99.5626997,7.9241945],[99.5618918,7.9293753],[99.5645208,7.9305393],[99.5636174,7.9327356],[99.5607744,7.932757],[99.5616625,7.9364592],[99.5652811,7.9345111],[99.5663523,7.9364903],[99.5684837,7.9360837],[99.5675087,7.9391167],[99.5710145,7.946276],[99.5759446,7.9444099],[99.5772856,7.9456391],[99.5803018,7.9447341],[99.580681,7.9469909],[99.5831168,7.9463815],[99.5810218,7.9482576],[99.5816278,7.9498305],[99.5826256,7.9488909],[99.5854245,7.9503904],[99.583711,7.9518195],[99.5858502,7.9568505],[99.5962522,7.9573446],[99.5969288,7.9595956],[99.594988,7.9635388],[99.5919,7.9629047],[99.5935919,7.9640769],[99.5977431,7.9639659],[99.5964257,7.9683283],[99.5998635,7.9678626],[99.598111,7.9703496],[99.601939,7.9782026],[99.6066161,7.9787382],[99.6023077,7.9853467],[99.6100024,7.9856422],[99.6138964,7.989301],[99.6157182,7.9876604],[99.6171115,7.9901049],[99.6161252,7.992173],[99.6199815,7.9934324],[99.6222255,8.0001222],[99.6244227,8.000949],[99.6237957,8.0024502],[99.6270489,8.0036877],[99.6312142,8.0096069],[99.6333562,8.0088309],[99.6345716,8.0106468],[99.6381162,8.0082508],[99.6450015,8.0118256],[99.6511069,8.0102847],[99.6524702,8.0117774],[99.6558976,8.010922],[99.6575356,8.0128764],[99.6591409,8.0106318],[99.6625055,8.0111673],[99.6665175,8.0067689],[99.6703962,8.0069922],[99.6711034,8.008332],[99.6720413,8.0058888],[99.6729543,8.0081727],[99.6737918,8.0064987],[99.6765687,8.0063265],[99.6756968,8.0038614],[99.6776525,8.0041569],[99.6769815,8.0013468],[99.6825216,7.9981694],[99.6851815,7.9987713],[99.6889951,7.9952133],[99.6930321,7.9972276],[99.698584,7.9910272],[99.7026872,7.9909733],[99.7040512,7.9923895],[99.7051675,7.9909328],[99.7075037,7.9924598],[99.7093044,7.9905116],[99.7132059,7.9901422],[99.71403,7.9926397],[99.7178156,7.9928852],[99.7186267,7.9949983],[99.7212192,7.9952523],[99.7217615,7.9973989],[99.7227053,7.9953696],[99.7255152,7.9972072],[99.7251698,7.9990271],[99.7275219,7.9978864],[99.7307283,8.0021242],[99.7324377,8.000492],[99.7326786,8.0021757],[99.7367847,8.0030051],[99.7387949,8.0079114],[99.7411038,8.0090521],[99.7460784,8.0060504],[99.7530822,8.0078329],[99.7551593,8.0000827],[99.7536041,7.9940755],[99.7450956,7.9893664],[99.7447536,7.9843496],[99.7485497,7.9825271],[99.7524113,7.9861056],[99.7563891,7.9865706],[99.7572441,7.9842409],[99.7527935,7.9782091],[99.7533155,7.9707806],[99.7475205,7.9679641],[99.7464131,7.9635831],[99.7434583,7.9607877],[99.7415041,7.9526136],[99.7375304,7.9490783],[99.7304833,7.9529169],[99.7264986,7.9405361],[99.7324812,7.9344678],[99.7325729,7.9322043],[99.7404462,7.9266314],[99.7387976,7.9166459],[99.7369683,7.9128984],[99.7340219,7.9119142],[99.734507,7.9083963],[99.7315388,7.900587],[99.7333063,7.8953334],[99.7315876,7.8881289],[99.7351812,7.8788459],[99.7378641,7.8776966],[99.7390465,7.8751531],[99.7346814,7.8680718],[99.7366325,7.8661415],[99.738289,7.8588503],[99.7423477,7.857596],[99.7466243,7.8587312],[99.747072,7.8562377],[99.749611,7.8552988],[99.7525482,7.8582937],[99.7558691,7.8572234],[99.7607604,7.8586973],[99.7661884,7.8656276],[99.7685571,7.8651454],[99.7768947,7.8728692],[99.7780733,7.87616],[99.7876814,7.8808257],[99.8003257,7.8826625],[99.8038263,7.8902745],[99.808378,7.8928766],[99.8197512,7.8839316],[99.8225578,7.8877576],[99.828656,7.8846062],[99.8324696,7.8863894],[99.8376611,7.8856982],[99.8379734,7.8882745],[99.842039,7.8912677],[99.8495291,7.8893931],[99.8506101,7.8876431],[99.858923,7.8890479],[99.8619072,7.8864419],[99.8679033,7.886912],[99.8831453,7.8934886],[99.8848222,7.8902037],[99.9020793,7.8802674],[99.9231507,7.8649395],[99.9249899,7.8667412],[99.9217214,7.8681486],[99.9252112,7.8703603],[99.9264024,7.869366],[99.9266447,7.8722472],[99.9313027,7.8757949],[99.9329898,7.8751767],[99.9368159,7.8792718],[99.9419606,7.8805469],[99.9433941,7.8843152],[99.9475421,7.8863406],[99.9529234,7.9008607],[99.9580476,7.9048718],[99.9624124,7.9057409],[99.9645272,7.9003155],[99.9637962,7.8913036],[99.9663623,7.886189],[99.9659199,7.8767578],[99.9757759,7.8730576],[99.9877875,7.8601186],[99.9994077,7.853368],[100.010335,7.8483506],[100.0149542,7.8479017],[100.0190092,7.8450138],[100.0336822,7.8467255],[100.0424337,7.8416686],[100.045475,7.843292],[100.0511063,7.8429262],[100.0558862,7.8380376],[100.0642378,7.8435931],[100.0727644,7.840787],[100.0716772,7.8460572],[100.0845885,7.8599663],[100.0870978,7.8610057],[100.0921307,7.8706775],[100.0977834,7.8727443],[100.098083,7.8758585],[100.1072845,7.8789214],[100.1238738,7.8785431],[100.1313069,7.8767449],[100.1408081,7.8683025],[100.1453788,7.8710231],[100.1713179,7.8734298],[100.1808392,7.877486],[100.2355005,7.8830472],[100.2350684,7.8848231],[100.2420102,7.8865676],[100.240959,7.8899677],[100.2433564,7.8933588],[100.2506717,7.8942253],[100.2504632,7.8962435],[100.2565538,7.8982755],[100.2560629,7.9021131],[100.2664268,7.9047342],[100.2659802,7.9146684],[100.2799043,7.9133671],[100.2945572,7.91598],[100.3084656,7.9139428],[100.3069072,7.9229948],[100.3121412,7.9362644],[100.3216583,7.936608],[100.3266867,7.9389233],[100.3343398,7.935705],[100.3350403,7.9312044],[100.3363172,7.9312842],[101.3257855,8.1638725],[100.8940488,8.5275198],[100.4801723,9.3135137],[99.9219442,9.2552576],[99.8492027,9.3304572],[99.7587973,9.3302538],[99.7588491,9.3215513],[99.7691654,9.3227361],[99.764561,9.3137418],[99.7639946,9.3022158],[99.7658327,9.2977734],[99.7632588,9.2914757],[99.7640005,9.287514],[99.7672643,9.284726],[99.7671136,9.2823458],[99.7714767,9.2804676],[99.7729045,9.2669957],[99.7715945,9.2608898],[99.7678313,9.2613719],[99.7621631,9.2682005],[99.7481111,9.2630291],[99.7508455,9.2434671],[99.7508957,9.2266344],[99.7539966,9.221323],[99.7472837,9.2139998],[99.7471342,9.2041238],[99.7390491,9.1996166],[99.7418227,9.1910528],[99.7422218,9.1819895],[99.7387496,9.1703534],[99.7333173,9.1634675],[99.7323691,9.1598392],[99.7275846,9.1616198],[99.72054,9.1554364],[99.7221574,9.1508543],[99.7198809,9.1450073],[99.7240679,9.142041],[99.7242524,9.137295],[99.7298898,9.1349045],[99.7336849,9.1284662],[99.7326044,9.1197946],[99.7279188,9.1171998],[99.7251133,9.1133541],[99.7222104,9.1140489],[99.7224098,9.1127681],[99.7276458,9.1104247],[99.7292492,9.112353],[99.7325499,9.1113643],[99.7405156,9.1144679],[99.7442889,9.1096965],[99.7536229,9.1092541],[99.7551196,9.1071351],[99.7582532,9.1071882],[99.7618319,9.1035077],[99.7646809,9.1032413],[99.7636862,9.1026791],[99.7662647,9.1010189],[99.7672554,9.1022538],[99.768004,9.1000495],[99.7718557,9.0989725],[99.771765,9.0964302],[99.7698332,9.0948545],[99.7702398,9.0920356],[99.7643187,9.0877528],[99.7668299,9.0819452],[99.7665057,9.0775724],[99.7626312,9.0704202],[99.7486275,9.0683916],[99.7407741,9.0584408],[99.7450012,9.0478736],[99.7438881,9.041847],[99.7399156,9.0369532],[99.742697,9.0332456],[99.7421995,9.0291432],[99.7444759,9.0255825],[99.7408247,9.023318],[99.7369832,9.0143155],[99.7331933,9.012616],[99.7341516,9.007493],[99.7307873,9.0057488],[99.731206,8.9950097],[99.7278186,8.988976],[99.7255878,8.9882893],[99.7245162,8.9797622],[99.7224417,8.977348],[99.7174517,8.9771397],[99.7131826,8.9709727],[99.6953994,8.9752163],[99.6936377,8.9736312],[99.6927326,8.9639413],[99.6884999,8.9597096],[99.6952916,8.9517321],[99.6980759,8.9431882],[99.6958463,8.9343736],[99.6864455,8.9307693],[99.677731,8.9314323],[99.6757375,8.9283909],[99.6705816,8.9287328],[99.6688831,8.9262243],[99.665026,8.9264287],[99.6612546,8.9234925],[99.652735,8.924753],[99.6507012,8.9206994],[99.647176,8.9238647],[99.6479039,8.9294834],[99.6449352,8.9264097],[99.6440717,8.9284612]]]}}]}