{"type":"FeatureCollection","features":[{"type":"Feature","properties":{"id":"TH-LAO-3800102","nameTh":"นครศรีธรรมราช","type":"city_municipality"},"geometry":{"type":"Polygon","coordinates":[[[99.9717704,8.378469],[99.9718342,8.3794308],[99.9714826,8.3798644],[99.9707359,8.3796931],[99.9704466,8.3804762],[99.9705035,8.3808084],[99.9711019,8.3809597],[99.9697635,8.3887578],[99.9694759,8.3934605],[99.967263,8.4010096],[99.9674481,8.4028564],[99.9668366,8.4041035],[99.9665523,8.4056478],[99.9640042,8.4049446],[99.9635106,8.4056292],[99.9642913,8.4068354],[99.9640036,8.4080173],[99.9641645,8.4088451],[99.9630975,8.4130164],[99.9630439,8.4145341],[99.963376,8.4146719],[99.9623227,8.41913],[99.9530125,8.4177922],[99.9508345,8.4170386],[99.9471116,8.4171607],[99.947691,8.4206843],[99.9486351,8.4230033],[99.9482757,8.4230643],[99.9478894,8.4238125],[99.9471411,8.4240035],[99.9458456,8.4255557],[99.9457008,8.4265268],[99.9439949,8.4277579],[99.9418437,8.4265215],[99.9413556,8.4258582],[99.9169421,8.4253408],[99.9177602,8.4437062],[99.9259329,8.4434223],[99.9384642,8.4418092],[99.9429274,8.4421594],[99.9465108,8.4417031],[99.948265,8.441077],[99.9488497,8.4411247],[99.9488819,8.4425309],[99.9485063,8.4437513],[99.9583554,8.4435656],[99.9587783,8.4439652],[99.9579827,8.4443236],[99.9572075,8.4458341],[99.9557717,8.4568897],[99.9692774,8.4586405],[99.9711442,8.4531646],[99.9724531,8.4421064],[99.974497,8.4303952],[99.9784612,8.4116683],[99.9789762,8.4106706],[99.9791693,8.4032199],[99.9808001,8.3936675],[99.9820661,8.3834196],[99.9762296,8.3795508],[99.9717704,8.378469]]]}},{"type":"Feature","properties":{"id":"TH-LAO-5800106","nameTh":"ท่าแพ","type":"subdistrict_municipality"},"geometry":{"type":"Polygon","coordinates":[[[99.94972,8.5223595],[99.9538592,8.5227952],[99.9576471,8.5111148],[99.9482236,8.5106505],[99.9484388,8.5109713],[99.9494567,8.5108459],[99.9497085,8.5121693],[99.9501809,8.5123096],[99.9502536,8.5131714],[99.9507851,8.5135977],[99.9509492,8.514619],[99.9507732,8.5154311],[99.9494632,8.5160888],[99.9492722,8.5167116],[99.9486231,8.5171106],[99.9486671,8.5178639],[99.9492121,8.5176453],[99.9495973,8.5182363],[99.9494868,8.5194003],[99.9501702,8.51969],[99.9499106,8.5199202],[99.9500876,8.5209834],[99.9497207,8.5215765],[99.94972,8.5223595]]]}},{"type":"Feature","properties":{"id":"TH-LAO-5800801","nameTh":"ท่าศาลา","type":"subdistrict_municipality"},"geometry":{"type":"Polygon","coordinates":[[[99.9230223,8.6700486],[99.9259344,8.6691649],[99.9263316,8.6702367],[99.9274474,8.6703046],[99.9280161,8.6715222],[99.9293293,8.67208],[99.9310116,8.6716622],[99.9309922,8.6713228],[99.9301575,8.6710703],[99.9309873,8.6699404],[99.9311781,8.6704673],[99.9334875,8.6708697],[99.9342198,8.6703443],[99.9359922,8.6714664],[99.9363763,8.6713519],[99.9365243,8.6708279],[99.93755,8.6713667],[99.9381508,8.6702382],[99.9396786,8.6688403],[99.9387323,8.6685009],[99.937726,8.6673788],[99.9385735,8.6669779],[99.939552,8.6682358],[99.9397348,8.6678253],[99.9394375,8.6667612],[99.9389044,8.6667418],[99.9384029,8.6661605],[99.9330334,8.664175],[99.9245306,8.6636476],[99.923134,8.6638496],[99.9230223,8.6700486]]]}}]}