{"type":"FeatureCollection","features":[{"type":"Feature","properties":{"provinceCode":"22","nameTh":"จันทบุรี","nameEn":"Chanthaburi"},"geometry":{"type":"Polygon","coordinates":[[[102.4911673,12.7572388],[102.4888418,12.7519345],[102.4807645,12.745795],[102.4759535,12.7365898],[102.4719138,12.734731],[102.4646763,12.733147],[102.4607637,12.7360327],[102.4587054,12.7329198],[102.4453711,12.7373275],[102.4412401,12.7367987],[102.4400107,12.7309602],[102.4348122,12.7299798],[102.4308048,12.7230524],[102.4245086,12.7233341],[102.4257267,12.7162714],[102.4241282,12.7149202],[102.4241162,12.7110238],[102.4213655,12.711464],[102.4208732,12.7087858],[102.4155314,12.7070189],[102.4102532,12.7007313],[102.4076583,12.70106],[102.4071871,12.6987683],[102.4028072,12.7009391],[102.4005468,12.6987288],[102.4032015,12.6928612],[102.3931434,12.6873681],[102.3924875,12.6854499],[102.3951405,12.6817507],[102.3939093,12.6785338],[102.3856871,12.6796084],[102.3846113,12.6780445],[102.3834775,12.6715983],[102.3861511,12.6684753],[102.3865883,12.665654],[102.384456,12.6623933],[102.3875386,12.6584644],[102.387326,12.6533205],[102.3887141,12.6515151],[102.3876266,12.6486775],[102.393985,12.6397147],[102.3901654,12.6327671],[102.3917945,12.6323098],[102.3931397,12.6281708],[102.3968347,12.628573],[102.3975095,12.6219866],[102.3997729,12.6224252],[102.4015956,12.6187214],[102.4001687,12.6174909],[102.4014959,12.6149094],[102.3985109,12.6158276],[102.3963729,12.6145157],[102.3965944,12.6112263],[102.3981382,12.6105969],[102.3974679,12.6084214],[102.3945719,12.6092642],[102.3918197,12.6073645],[102.3922336,12.6100336],[102.3882821,12.6098801],[102.3892482,12.6071425],[102.3877883,12.6037879],[102.3901199,12.605844],[102.395273,12.5983618],[102.3970243,12.5993036],[102.4003717,12.5958071],[102.4001141,12.59359],[102.4031682,12.5899995],[102.4073904,12.589044],[102.4079989,12.58581],[102.4101206,12.5867478],[102.4136303,12.5845569],[102.4135424,12.5821688],[102.4158408,12.5817573],[102.4165113,12.5787246],[102.4194623,12.5792775],[102.4189409,12.5765727],[102.4236015,12.5731732],[102.422948,12.5694899],[102.4214019,12.5701302],[102.4200491,12.568611],[102.4186445,12.5697423],[102.4200565,12.5709336],[102.4171192,12.571588],[102.4168318,12.5678353],[102.4142537,12.5700984],[102.4092124,12.5687165],[102.4089793,12.5701502],[102.4052284,12.567507],[102.3994376,12.5673535],[102.3966598,12.571227],[102.3973728,12.5744209],[102.3923161,12.574135],[102.3924774,12.5765495],[102.3883588,12.5766725],[102.3869007,12.5822694],[102.3842934,12.5838246],[102.3801786,12.5831584],[102.380478,12.5852284],[102.3783034,12.5872622],[102.380575,12.5891522],[102.3755896,12.5928972],[102.3764932,12.5959125],[102.3719473,12.5977187],[102.3693238,12.5955697],[102.3676472,12.59665],[102.3655041,12.5944353],[102.3600826,12.596697],[102.3536967,12.5943643],[102.35183,12.5912825],[102.34702,12.5905191],[102.3415058,12.5859743],[102.3355919,12.5764955],[102.3310871,12.5737381],[102.3242066,12.5736018],[102.3186977,12.5701626],[102.3165209,12.5661641],[102.3116811,12.5659751],[102.3113662,12.5636907],[102.3069072,12.561896],[102.3066588,12.5568974],[102.3050622,12.5563477],[102.305952,12.5484386],[102.3128153,12.5444242],[102.316877,12.5370308],[102.3153747,12.5363935],[102.3170616,12.5346888],[102.3159966,12.5351028],[102.3160275,12.5329579],[102.3138662,12.5317133],[102.3149216,12.5304651],[102.3120806,12.5290428],[102.3148535,12.527127],[102.3144861,12.5238972],[102.3198941,12.5232185],[102.3235861,12.5209113],[102.3228036,12.519353],[102.3245189,12.5194711],[102.3243857,12.5181704],[102.3256702,12.5210993],[102.3312896,12.5200133],[102.3337881,12.5180625],[102.3338584,12.5156238],[102.3351387,12.5169982],[102.3380124,12.5136946],[102.3372146,12.5114637],[102.3345527,12.5106605],[102.3389215,12.5057807],[102.3361213,12.5040379],[102.3347252,12.4992269],[102.3328767,12.4989063],[102.3361584,12.492816],[102.3346722,12.4908736],[102.3420351,12.4813206],[102.3419353,12.4766101],[102.3398192,12.4757984],[102.3404117,12.4739434],[102.3374134,12.4708605],[102.3382665,12.4669369],[102.3366757,12.4636545],[102.3342582,12.4639184],[102.3338225,12.4615443],[102.3309547,12.461509],[102.3294736,12.4578956],[102.3259647,12.4584871],[102.3266829,12.4550743],[102.3231596,12.455392],[102.3199561,12.4526127],[102.3200895,12.4481073],[102.3240436,12.4484375],[102.3266199,12.4457404],[102.3297008,12.4454898],[102.3253868,12.4273057],[102.3312337,12.4229459],[102.3347638,12.417841],[102.3498984,12.4132245],[102.3584595,12.4053064],[102.367522,12.4029578],[102.3718523,12.3885607],[102.370259,12.3869226],[102.3639538,12.3857821],[102.359788,12.376848],[102.3515313,12.372362],[102.3455456,12.3648925],[102.3476982,12.3439164],[102.3457887,12.3375297],[102.3398221,12.3287244],[102.3094862,12.3029854],[102.285941,12.299069],[102.2651828,12.2996129],[102.2580223,12.2932941],[102.2564732,12.2836],[102.2424374,12.2836593],[101.9487781,12.1474325],[101.9178207,12.1620384],[101.9019472,12.1724366],[101.8568516,12.215436],[101.8391433,12.2508188],[101.8326737,12.2782828],[101.8161647,12.2655633],[101.7856908,12.2470907],[101.7411888,12.2168538],[101.701216,12.2084939],[101.657841,12.2028069],[101.6401503,12.2037407],[101.5985806,12.2159732],[101.7842086,12.6928339],[101.7904798,12.7001648],[101.7852229,12.7104468],[101.793245,12.7156197],[101.7994772,12.7231465],[101.7991464,12.7313869],[101.7945844,12.7355396],[101.7956808,12.7369833],[101.8000915,12.7374122],[101.802858,12.7402239],[101.8027439,12.7424765],[101.7988791,12.746759],[101.7991958,12.749561],[101.8041493,12.7520885],[101.8066304,12.756301],[101.8107849,12.755218],[101.8120909,12.7501456],[101.819649,12.7541536],[101.8172573,12.7571533],[101.8178364,12.7616563],[101.820228,12.7649134],[101.817012,12.7668324],[101.8174028,12.7737022],[101.8180468,12.7775653],[101.8201741,12.7777387],[101.8213257,12.7808154],[101.8194588,12.7862516],[101.8222601,12.7910668],[101.8177498,12.8009825],[101.8193475,12.7997666],[101.8220349,12.8007378],[101.8206884,12.8029945],[101.8215245,12.8045278],[101.8233325,12.8067507],[101.8247506,12.8063432],[101.8248142,12.8088925],[101.8267418,12.8088371],[101.8261997,12.8104737],[101.8277871,12.8104874],[101.8264268,12.8122174],[101.8275282,12.8123357],[101.8269201,12.8142736],[101.8282721,12.8139129],[101.8286121,12.8166088],[101.8273382,12.8170451],[101.8291005,12.8207712],[101.8276251,12.8216773],[101.8310462,12.8247642],[101.8279557,12.827522],[101.828092,12.8300699],[101.8297551,12.83013],[101.8280376,12.8316861],[101.8287746,12.8390197],[101.8269934,12.8392081],[101.8271432,12.8413608],[101.8245011,12.8418658],[101.8269524,12.844715],[101.8260556,12.8472358],[101.8276539,12.8493982],[101.8261474,12.8525902],[101.8270079,12.8551997],[101.825493,12.8560715],[101.8263042,12.8579145],[101.8238441,12.8621944],[101.8200977,12.864706],[101.8158948,12.8724373],[101.8198462,12.8787498],[101.816681,12.8908388],[101.8190338,12.894953],[101.8174904,12.9007728],[101.8133639,12.8993705],[101.8129004,12.8870361],[101.8113601,12.885198],[101.8086225,12.8852643],[101.8067702,12.887375],[101.8069775,12.9007677],[101.8029798,12.9073261],[101.8022163,12.918643],[101.7992894,12.9267477],[101.7901816,12.9282334],[101.7732295,12.9397323],[101.7560281,12.940503],[101.7524909,12.9453813],[101.7528384,12.9510083],[101.7468225,12.949071],[101.745279,12.9529657],[101.741801,12.9551263],[101.7424472,12.9585991],[101.7386521,12.9594684],[101.7414427,12.9761916],[101.7435187,12.9797395],[101.7532796,12.9854363],[101.759308,12.9988562],[101.756062,13.011938],[101.7539346,13.0145387],[101.7524202,13.0283455],[101.760792,13.0356827],[101.7604355,13.0407798],[101.7581213,13.0434057],[101.7591872,13.0478336],[101.7568207,13.0495875],[101.7504989,13.0487361],[101.7468062,13.0452473],[101.7447081,13.0381176],[101.7378724,13.0337116],[101.7321085,13.0339828],[101.72494,13.0300318],[101.7175636,13.0339412],[101.713858,13.0474071],[101.710354,13.0495311],[101.7109648,13.0563616],[101.7076787,13.0592505],[101.7067746,13.0643998],[101.7029167,13.0716496],[101.706814,13.0779685],[101.6985783,13.0807964],[101.6931283,13.0926338],[101.6924744,13.0977234],[101.6951369,13.0987032],[101.6957797,13.1032245],[101.700233,13.1063394],[101.7001882,13.1089899],[101.6914022,13.1094099],[101.68746,13.1113349],[101.6855146,13.114465],[101.684812,13.1233269],[101.6883639,13.1264353],[101.6902652,13.1316171],[101.6954272,13.1340167],[101.6965872,13.13751],[101.6954089,13.1455021],[101.6965822,13.1523515],[101.7028097,13.1607936],[101.7107143,13.161029],[101.7154878,13.1633947],[101.7172722,13.1700272],[101.7167113,13.1744943],[101.7196551,13.1776172],[101.7171378,13.1822135],[101.7259699,13.178818],[101.731801,13.1786321],[101.7334684,13.181958],[101.7366395,13.1824167],[101.7370632,13.1845155],[101.74092,13.186655],[101.7530193,13.1821356],[101.7554748,13.1872923],[101.758594,13.1890644],[101.7675365,13.1847546],[101.7732883,13.1847471],[101.7902502,13.2033694],[101.7960424,13.2032371],[101.8182698,13.2173316],[101.8239465,13.2255229],[101.8272953,13.2376405],[101.8329565,13.2386906],[101.8367793,13.2338538],[101.8393599,13.2379291],[101.8456993,13.2404966],[101.8545563,13.254319],[101.8565787,13.2539894],[101.8623632,13.2478235],[101.8684732,13.2527888],[101.8705089,13.2522512],[101.8705795,13.2437711],[101.8730192,13.2385318],[101.8716519,13.223235],[101.8751352,13.2222574],[101.8785389,13.2238575],[101.8798888,13.2340639],[101.88348,13.2366237],[101.8884052,13.235397],[101.8898005,13.227206],[101.8918755,13.2268],[101.9019017,13.2352445],[101.9000524,13.2383336],[101.9003091,13.2414048],[101.8963316,13.2438728],[101.8964526,13.2522076],[101.8984084,13.2618456],[101.902054,13.2627382],[101.9055646,13.2710916],[101.9046844,13.2872187],[101.91055,13.2880384],[101.919937,13.2858646],[101.9255634,13.2933967],[101.9279747,13.2871023],[101.9311414,13.286236],[101.9380508,13.293964],[101.941523,13.2915813],[101.9455179,13.2952166],[101.9501443,13.2961164],[101.9561072,13.3000018],[101.956033,13.3030925],[101.9604342,13.3083231],[101.9671882,13.3240205],[101.9889031,13.3332549],[101.9952676,13.3202438],[102.0001143,13.3185928],[102.0048306,13.3110768],[102.0118769,13.2902015],[102.0145672,13.2917484],[102.0211819,13.286648],[102.0297445,13.2876287],[102.0354472,13.2831875],[102.0359283,13.2748208],[102.0281863,13.2667403],[102.0299457,13.2628308],[102.0285225,13.2573945],[102.0299056,13.2497353],[102.0280167,13.2472586],[102.0285602,13.2427377],[102.0262641,13.2387368],[102.0282905,13.2367083],[102.0391553,13.2392012],[102.0433764,13.2424138],[102.0496188,13.2390647],[102.0525549,13.2423891],[102.0571692,13.2408997],[102.0571694,13.2452968],[102.0608519,13.2455497],[102.0608277,13.2518924],[102.0694532,13.2508084],[102.070637,13.2550028],[102.076201,13.253108],[102.0797325,13.2586967],[102.0831678,13.2578027],[102.0879357,13.2602471],[102.0963235,13.2599684],[102.10345,13.2615904],[102.1090607,13.2649242],[102.1129061,13.2698049],[102.1123135,13.2719383],[102.1142371,13.2728769],[102.1141847,13.2752241],[102.1155704,13.2746426],[102.1163361,13.2771156],[102.1181317,13.2775692],[102.1170907,13.279441],[102.1177225,13.2825498],[102.1191927,13.2829727],[102.1174052,13.2842268],[102.1191368,13.2862364],[102.1176344,13.2890488],[102.1190229,13.2891272],[102.1197595,13.2952491],[102.1180301,13.2958315],[102.119805,13.2973213],[102.1181464,13.2977966],[102.118351,13.301065],[102.1197859,13.3018913],[102.1184942,13.3035004],[102.1240379,13.3101836],[102.1222644,13.3118251],[102.1251939,13.3134829],[102.1252017,13.3182401],[102.1279829,13.3200249],[102.127063,13.3214855],[102.1292175,13.3260395],[102.1263828,13.3272342],[102.127825,13.3299309],[102.1266104,13.3317848],[102.129606,13.3361766],[102.1379389,13.3326421],[102.1370419,13.3306153],[102.1387393,13.3281833],[102.1413585,13.327452],[102.1438371,13.3249935],[102.1434253,13.3236466],[102.1460171,13.3230552],[102.149685,13.3191923],[102.1659714,13.3250337],[102.1692104,13.3230519],[102.1705971,13.3198651],[102.1812601,13.3143624],[102.1813677,13.3101744],[102.1840878,13.3040844],[102.1900173,13.3001336],[102.1894743,13.2920677],[102.1911919,13.2921008],[102.1950523,13.2965612],[102.1966709,13.2960313],[102.2010154,13.299411],[102.2055335,13.299692],[102.2077313,13.3027826],[102.2124471,13.3036512],[102.2125694,13.3058708],[102.216915,13.3110854],[102.2165313,13.308005],[102.2191964,13.3034259],[102.2221315,13.3040269],[102.2282961,13.3018792],[102.2322161,13.2925122],[102.2380392,13.291389],[102.2434206,13.2862926],[102.2473266,13.2851591],[102.2559398,13.284711],[102.2611637,13.287998],[102.2647815,13.2875683],[102.2674627,13.289253],[102.2722822,13.2880952],[102.2774548,13.289808],[102.280114,13.2939854],[102.2811971,13.2997393],[102.285083,13.3043596],[102.2881153,13.3028098],[102.286541,13.3011356],[102.2880468,13.2987044],[102.2921634,13.3004586],[102.2976118,13.2969214],[102.3009471,13.2998364],[102.320002,13.3015322],[102.3239243,13.3044639],[102.3274185,13.3048631],[102.3250844,13.3081292],[102.3309221,13.3085816],[102.3305548,13.3163659],[102.3349912,13.3156524],[102.3534851,13.2991399],[102.3500259,13.2915742],[102.3494059,13.2773564],[102.3514603,13.2726734],[102.3624431,13.2685697],[102.3670608,13.2628764],[102.3664762,13.2554163],[102.3705563,13.2367739],[102.3785218,13.227168],[102.3796633,13.2223319],[102.3866781,13.217174],[102.3896691,13.2023457],[102.3932309,13.1991749],[102.3942317,13.1912972],[102.3915658,13.185303],[102.3931431,13.1772583],[102.3961997,13.1753459],[102.3984127,13.1708084],[102.3990263,13.1566015],[102.4016107,13.1511936],[102.4049057,13.1488464],[102.4059128,13.1452508],[102.4110635,13.1439307],[102.4177881,13.137296],[102.4165829,13.1229927],[102.4227275,13.116859],[102.4249654,13.108188],[102.428668,13.1073588],[102.4328325,13.102183],[102.4338384,13.0909304],[102.4396112,13.0855614],[102.4429583,13.085074],[102.4444651,13.0870718],[102.4499897,13.0831481],[102.4594988,13.0821735],[102.494368,13.0134135],[102.505307,13.0054293],[102.5252257,13.005664],[102.5301278,13.002475],[102.5285765,13.0004974],[102.525384,13.0021193],[102.5263072,12.9997225],[102.5209643,12.9999188],[102.5208548,12.9982361],[102.5228561,12.9986449],[102.5225121,12.9969837],[102.5160134,12.9963287],[102.5159644,12.9915554],[102.5135868,12.9914661],[102.5117761,12.9955574],[102.5082371,12.9958408],[102.5074716,12.9941439],[102.5015995,12.9922444],[102.4993403,12.9867294],[102.4965159,12.9869823],[102.4873198,12.9832434],[102.4857218,12.9771633],[102.4888347,12.9759071],[102.4913487,12.9711745],[102.4965353,12.9687827],[102.5007583,12.9606365],[102.4959748,12.952545],[102.4855418,12.9479824],[102.4932782,12.9301599],[102.4926313,12.9284152],[102.4964673,12.9250537],[102.4951436,12.9228425],[102.5015946,12.9151862],[102.5034483,12.9065507],[102.5025455,12.9015457],[102.5091435,12.8950582],[102.5063984,12.8882705],[102.508455,12.8839408],[102.5050774,12.8825082],[102.5077504,12.8658177],[102.5006543,12.8633751],[102.4979298,12.8599192],[102.498185,12.8578029],[102.5011707,12.8498478],[102.5043365,12.848761],[102.5064696,12.8455749],[102.5146823,12.8420789],[102.5163667,12.8391679],[102.5145403,12.836552],[102.5160843,12.833157],[102.5147441,12.8233434],[102.5212012,12.8215059],[102.522574,12.819129],[102.5293542,12.8181526],[102.5295708,12.8150149],[102.5319273,12.8127793],[102.5280666,12.7966062],[102.5295432,12.7923622],[102.5352091,12.7871296],[102.5355969,12.7783657],[102.5335648,12.7770851],[102.5325851,12.7719247],[102.5339539,12.7702005],[102.5324566,12.7675584],[102.5240454,12.7627757],[102.5234569,12.7589912],[102.5175197,12.7518598],[102.5107716,12.7537298],[102.5076683,12.7524003],[102.4983269,12.7566716],[102.4911673,12.7572388]]]}}]}