{"type":"FeatureCollection","features":[{"type":"Feature","properties":{"provinceCode":"21","nameTh":"ระยอง","nameEn":"Rayong"},"geometry":{"type":"Polygon","coordinates":[[[101.7843662,12.6931888],[101.5985806,12.2159732],[101.5614812,12.2333518],[101.5406618,12.2485139],[101.4991208,12.2899844],[101.4894767,12.3050417],[101.4759195,12.300506],[101.4272791,12.2984981],[101.399544,12.2997647],[101.3810276,12.3031057],[101.3629376,12.3127339],[101.3216988,12.3402797],[101.2934726,12.3641977],[101.2757628,12.3827551],[101.2610177,12.4029675],[101.2454923,12.4591474],[101.2236721,12.4435321],[101.204574,12.4369663],[101.1922772,12.4350037],[101.1643816,12.4359158],[101.1670109,12.41831],[101.1557785,12.3916782],[101.1318497,12.3582236],[100.9922746,12.6559809],[100.993164,12.6613966],[100.991663,12.6632457],[100.9928131,12.6645416],[100.9890316,12.6699311],[100.9925823,12.676444],[100.9844476,12.6934459],[100.9884345,12.7028778],[100.987401,12.7037306],[100.9905658,12.706954],[100.9899197,12.7095146],[100.9947989,12.714091],[100.9908839,12.7260861],[100.9944667,12.7278791],[100.9955095,12.7302168],[101.0010915,12.7313628],[101.0034565,12.7339163],[101.0031455,12.7396953],[101.0075586,12.7449098],[101.0086112,12.7515331],[101.0154823,12.7585508],[101.0128779,12.7616733],[101.01148,12.7705941],[101.0160522,12.7733091],[101.0143319,12.7746283],[101.0138378,12.7788343],[101.0143122,12.7919914],[101.0199916,12.7993627],[101.0294665,12.8019527],[101.03199,12.8087988],[101.0367229,12.8122423],[101.0446007,12.8119514],[101.0486153,12.8137991],[101.0525883,12.822848],[101.057504,12.8252623],[101.0579048,12.8281206],[101.0635449,12.8350597],[101.0638046,12.8385875],[101.0621514,12.8410924],[101.0648184,12.8523778],[101.0618553,12.8537824],[101.0615362,12.8580939],[101.0679428,12.861448],[101.0715331,12.8688354],[101.0708318,12.8751505],[101.0744719,12.8801393],[101.0720162,12.8834186],[101.0740624,12.88528],[101.072096,12.8877328],[101.074409,12.892787],[101.0798277,12.8954979],[101.0789183,12.8983114],[101.080689,12.8997789],[101.0761115,12.9042534],[101.0791289,12.9072959],[101.0843934,12.9093685],[101.088614,12.9153518],[101.0886276,12.9246217],[101.0865391,12.9309958],[101.0886918,12.9320724],[101.0894919,12.939979],[101.091691,12.9422057],[101.0885613,12.9468733],[101.0910368,12.9516892],[101.0914239,12.9596738],[101.0977549,12.9627006],[101.1035965,12.9728542],[101.0964598,12.9747528],[101.0941802,12.9779908],[101.0931352,12.9815947],[101.0944172,12.9891723],[101.0887371,13.000094],[101.0902884,13.0048697],[101.0933223,13.0047444],[101.0943458,13.007961],[101.0898701,13.0094998],[101.0915202,13.0097861],[101.0920209,13.0164438],[101.0944263,13.019509],[101.0925017,13.0200822],[101.0931004,13.0221402],[101.0962073,13.0216427],[101.0986527,13.0242393],[101.0949151,13.0270742],[101.0976016,13.0328335],[101.1047262,13.0275234],[101.1108123,13.0326117],[101.1179668,13.0332277],[101.121227,13.031855],[101.1253636,13.027126],[101.134279,13.0251716],[101.1345773,13.0231273],[101.1370973,13.0246126],[101.1394847,13.0239284],[101.141652,13.0280054],[101.1438997,13.0265442],[101.1516896,13.028479],[101.1519423,13.0245383],[101.1562747,13.0256402],[101.1572425,13.0223103],[101.1591642,13.0214537],[101.1616233,13.0256317],[101.1746813,13.0278376],[101.174718,13.0305515],[101.1847921,13.0302201],[101.1882143,13.0396501],[101.1914407,13.0428316],[101.2027545,13.0456507],[101.1975303,13.0531563],[101.1896979,13.0566068],[101.1779428,13.0550424],[101.1741661,13.0621204],[101.1745698,13.0671302],[101.2119859,13.0779649],[101.2138625,13.0793641],[101.2133027,13.0841566],[101.2319439,13.0834298],[101.25471,13.0748378],[101.2598612,13.0746747],[101.2635553,13.0711509],[101.2649071,13.0664255],[101.2708317,13.0617616],[101.2778914,13.0592692],[101.2897892,13.0587331],[101.2924566,13.061545],[101.2955768,13.0600746],[101.3015507,13.0530537],[101.3071334,13.0562042],[101.3084456,13.0595208],[101.3198752,13.0631198],[101.3569864,13.057595],[101.3643859,13.045112],[101.3802311,13.0394369],[101.385277,13.0332533],[101.3917535,13.0290799],[101.3940916,13.0248107],[101.3997735,13.0255459],[101.4013798,13.0281631],[101.4072334,13.0303553],[101.4117639,13.0396721],[101.4223921,13.0395847],[101.4267238,13.0452598],[101.4331103,13.0469699],[101.4352175,13.0515193],[101.4439711,13.0498439],[101.4548732,13.0357916],[101.4564297,13.0365031],[101.4586406,13.0341824],[101.4596437,13.0376646],[101.4646295,13.0419198],[101.46892,13.0518132],[101.4770349,13.0479251],[101.4792719,13.0501177],[101.4821275,13.058404],[101.5144868,13.0591598],[101.5155982,13.060003],[101.5137329,13.0610219],[101.5124683,13.0668504],[101.5141705,13.0690448],[101.5166975,13.0685586],[101.5209981,13.0717376],[101.5201055,13.0751661],[101.5223097,13.0770086],[101.5283791,13.074016],[101.530196,13.0712118],[101.5356751,13.0724547],[101.5361704,13.0710912],[101.5439313,13.0722291],[101.544424,13.0709725],[101.5593983,13.0769701],[101.565423,13.0827101],[101.5677298,13.0880248],[101.5737224,13.0869256],[101.5741762,13.0931641],[101.5775153,13.095711],[101.5760896,13.1011776],[101.5801516,13.1133893],[101.5794966,13.1168681],[101.5848289,13.1227044],[101.582351,13.1288893],[101.5952598,13.1357764],[101.5990318,13.1340374],[101.6153658,13.1370078],[101.6181065,13.1411842],[101.6223476,13.1407805],[101.6229545,13.1448418],[101.6338289,13.1535537],[101.635488,13.1599313],[101.6403827,13.1603062],[101.6476821,13.1635573],[101.6524822,13.1602231],[101.6568577,13.1616462],[101.6610197,13.1544842],[101.6657195,13.1557019],[101.6686893,13.1532216],[101.6735573,13.1555508],[101.6801968,13.1488256],[101.6957721,13.1465967],[101.6964916,13.1372048],[101.6954272,13.1340167],[101.6902652,13.1316171],[101.6883639,13.1264353],[101.684812,13.1233269],[101.6855146,13.114465],[101.68746,13.1113349],[101.6914022,13.1094099],[101.7001882,13.1089899],[101.700233,13.1063394],[101.6957797,13.1032245],[101.6951369,13.0987032],[101.6924744,13.0977234],[101.6931283,13.0926338],[101.6985783,13.0807964],[101.706814,13.0779685],[101.7029167,13.0716496],[101.7067746,13.0643998],[101.7076787,13.0592505],[101.7109648,13.0563616],[101.710354,13.0495311],[101.713858,13.0474071],[101.7175636,13.0339412],[101.72494,13.0300318],[101.7321085,13.0339828],[101.7378724,13.0337116],[101.7447081,13.0381176],[101.7468062,13.0452473],[101.7504989,13.0487361],[101.7568207,13.0495875],[101.7591872,13.0478336],[101.7581213,13.0434057],[101.7604355,13.0407798],[101.760792,13.0356827],[101.7524202,13.0283455],[101.7539346,13.0145387],[101.756062,13.011938],[101.759308,12.9988562],[101.7532796,12.9854363],[101.7435187,12.9797395],[101.7414427,12.9761916],[101.7388423,12.9590683],[101.7424472,12.9585991],[101.741801,12.9551263],[101.745279,12.9529657],[101.7468225,12.949071],[101.7528384,12.9510083],[101.7524909,12.9453813],[101.7560281,12.940503],[101.7732295,12.9397323],[101.7901816,12.9282334],[101.7992894,12.9267477],[101.8022163,12.918643],[101.8029798,12.9073261],[101.8069775,12.9007677],[101.8067702,12.887375],[101.8085532,12.885307],[101.8113601,12.885198],[101.8129004,12.8870361],[101.8133639,12.8993705],[101.8163276,12.9011949],[101.8182186,12.8996635],[101.818874,12.8937376],[101.816681,12.8908388],[101.8198462,12.8787498],[101.8158948,12.8724373],[101.8200977,12.864706],[101.8238441,12.8621944],[101.8262837,12.8579789],[101.825493,12.8560715],[101.8270079,12.8551997],[101.8261474,12.8525902],[101.8276539,12.8493982],[101.8260556,12.8472358],[101.8269524,12.844715],[101.8245011,12.8418658],[101.8271432,12.8413608],[101.8269934,12.8392081],[101.8287746,12.8390197],[101.8280376,12.8316861],[101.8297551,12.83013],[101.828092,12.8300699],[101.8279557,12.827522],[101.8310549,12.8249099],[101.8276251,12.8216773],[101.8291005,12.8207712],[101.8273382,12.8170451],[101.8286121,12.8166088],[101.8282721,12.8139129],[101.8269201,12.8142736],[101.8275282,12.8123357],[101.8264268,12.8122174],[101.8277871,12.8104874],[101.8261997,12.8104737],[101.8267418,12.8088371],[101.8248142,12.8088925],[101.8247506,12.8063432],[101.8233325,12.8067507],[101.8215245,12.8045278],[101.8206884,12.8029945],[101.8220349,12.8007378],[101.8193475,12.7997666],[101.8177498,12.8009825],[101.8222601,12.7910668],[101.8194588,12.7862516],[101.8213257,12.7808154],[101.8201741,12.7777387],[101.8180468,12.7775653],[101.8174028,12.7737022],[101.817012,12.7668324],[101.820228,12.7649134],[101.8178364,12.7616563],[101.8172573,12.7571533],[101.819649,12.7541536],[101.8120909,12.7501456],[101.8107849,12.755218],[101.8066304,12.756301],[101.8041493,12.7520885],[101.7993175,12.7498002],[101.7988791,12.746759],[101.8027439,12.7424765],[101.802858,12.7402239],[101.8000915,12.7374122],[101.7956808,12.7369833],[101.7945844,12.7355396],[101.7991464,12.7313869],[101.7994772,12.7231465],[101.793245,12.7156197],[101.7852985,12.7105997],[101.7861135,12.7066119],[101.7905948,12.7008015],[101.7843662,12.6931888]]]}}]}