{"type":"FeatureCollection","features":[{"type":"Feature","properties":{"id":"TH-LAO-3210102","nameTh":"ระยอง","type":"city_municipality"},"geometry":{"type":"Polygon","coordinates":[[[101.2381488,12.6860697],[101.2366722,12.6754224],[101.2367409,12.6687902],[101.2373585,12.6672479],[101.2363847,12.6650246],[101.2365999,12.664677],[101.2372114,12.664923],[101.2377264,12.6644519],[101.2381663,12.6646979],[101.2386706,12.6642845],[101.2394323,12.6644886],[101.2397864,12.6640542],[101.2405159,12.664206],[101.2407895,12.6637663],[101.2413313,12.6640071],[101.241798,12.6635779],[101.2423988,12.6637454],[101.242887,12.6633214],[101.243461,12.6635779],[101.2439062,12.6630757],[101.2444105,12.6633999],[101.2448772,12.6628349],[101.2454673,12.6629239],[101.2459501,12.6624162],[101.2467011,12.6628611],[101.2473287,12.6623482],[101.2482568,12.6625157],[101.2488308,12.6619138],[101.2492706,12.6622383],[101.250086,12.6617777],[101.2506332,12.662076],[101.2515881,12.6613485],[101.2523391,12.6616835],[101.2526717,12.6612438],[101.2535622,12.661427],[101.2541952,12.6608251],[101.2547906,12.6611862],[101.2554075,12.6606785],[101.2562229,12.6609716],[101.2569471,12.6603122],[101.2574246,12.6606262],[101.257902,12.6605582],[101.2581756,12.6601447],[101.2587708,12.6604378],[101.2596076,12.6597678],[101.2605091,12.6600743],[101.2608849,12.6595954],[101.261843,12.6597244],[101.2623787,12.6591068],[101.2630013,12.6594762],[101.2635454,12.6590149],[101.264401,12.6592235],[101.2651466,12.6584418],[101.2655965,12.6587481],[101.2661477,12.6582989],[101.2670607,12.6584939],[101.2677777,12.6577456],[101.2686809,12.6580012],[101.2690751,12.6573578],[101.2694522,12.6573395],[101.2695808,12.6577393],[101.2704985,12.6570281],[101.2714434,12.6572801],[101.2764126,12.655411],[101.2765066,12.6545178],[101.2782307,12.6528308],[101.276618,12.6550434],[101.2783888,12.6550898],[101.2783554,12.6544711],[101.2788887,12.6549175],[101.280774,12.6549932],[101.28115,12.6546296],[101.2814006,12.6549655],[101.2820089,12.6550031],[101.2825202,12.654489],[101.2835072,12.6547925],[101.2875283,12.653564],[101.2949578,12.667628],[101.2958502,12.6678714],[101.2961329,12.6682768],[101.2962896,12.6695297],[101.2955668,12.6712024],[101.2855007,12.6848501],[101.2796021,12.6895144],[101.278706,12.6935866],[101.2785436,12.6967122],[101.2784968,12.7004036],[101.2790715,12.7016738],[101.2681861,12.7026997],[101.2690494,12.692639],[101.2695944,12.69012],[101.262927,12.6851667],[101.2381488,12.6860697]]]}}]}