{"type":"FeatureCollection","features":[{"type":"Feature","properties":{"provinceCode":"90","nameTh":"สงขลา","nameEn":"Songkhla"},"geometry":{"type":"Polygon","coordinates":[[[100.3350403,7.9312044],[101.3257855,8.1638725],[101.0660591,6.8566524],[101.0626525,6.8512923],[101.0575135,6.8515348],[101.0481788,6.846909],[101.043547,6.8474169],[101.0456593,6.8446208],[101.0428665,6.841891],[101.0431819,6.8384972],[101.0448526,6.8371548],[101.0474073,6.8387119],[101.0505294,6.8361755],[101.0428647,6.8283938],[101.0427325,6.8122305],[101.0442933,6.8087506],[101.0543715,6.8014921],[101.0418742,6.7953091],[101.0390679,6.7880005],[101.0345028,6.7846919],[101.0350298,6.7829601],[101.0285698,6.7795299],[101.0296825,6.7752485],[101.0278663,6.7730331],[101.0272397,6.767945],[101.0326991,6.759376],[101.027442,6.7540993],[101.0289365,6.7487717],[101.0320986,6.7453956],[101.0318459,6.7423929],[101.0301385,6.7373009],[101.0249981,6.734829],[101.0228085,6.7327324],[101.0233477,6.729561],[101.0173905,6.7257958],[101.019644,6.7226798],[101.0250066,6.7200297],[101.0327179,6.7181092],[101.0395775,6.7191278],[101.0392905,6.7063645],[101.0433791,6.7097948],[101.057395,6.7125404],[101.0579171,6.7068693],[101.0606298,6.7056426],[101.062575,6.6983766],[101.0608233,6.6958741],[101.0597232,6.6882461],[101.0636025,6.6871345],[101.0636906,6.6847845],[101.0602848,6.679152],[101.0569606,6.6775318],[101.0550691,6.6716904],[101.0488707,6.6633599],[101.0618515,6.6558227],[101.0689186,6.6441763],[101.0713952,6.6444247],[101.0741374,6.6418209],[101.0880375,6.6426395],[101.0973019,6.6395552],[101.1022883,6.6363331],[101.1051551,6.6295405],[101.0908241,6.6146572],[101.0894875,6.60913],[101.091829,6.604115],[101.0870366,6.6011461],[101.0850795,6.5942501],[101.0870919,6.5734498],[101.0839777,6.5706576],[101.0807375,6.5547711],[101.0731557,6.5517734],[101.0692492,6.5440159],[101.0603855,6.5418235],[101.0431419,6.5416336],[101.0444244,6.5250986],[101.0387055,6.5218849],[101.0351426,6.5153364],[101.0375689,6.5148492],[101.0426344,6.5046067],[101.0417693,6.4939503],[101.0450388,6.4909382],[101.0443711,6.4868567],[101.0337512,6.4856894],[101.0234253,6.4820202],[101.0218088,6.4825843],[101.022093,6.4865658],[101.0207336,6.4877909],[100.9992674,6.4790561],[100.9907541,6.4851288],[100.9851676,6.4843699],[100.9769294,6.4863312],[100.9746208,6.4837397],[100.9762957,6.4819785],[100.9754844,6.4794894],[100.9719712,6.4761627],[100.9730283,6.4679695],[100.9687243,6.4664079],[100.965224,6.4688676],[100.9638692,6.4681381],[100.9611605,6.4609485],[100.9603595,6.4508066],[100.9557119,6.4514532],[100.9538261,6.4500542],[100.9526656,6.4513879],[100.9530574,6.4452868],[100.9489709,6.4424097],[100.9422259,6.4444474],[100.9381267,6.4430292],[100.9358844,6.4461346],[100.9334611,6.4451022],[100.9302026,6.4360179],[100.9221717,6.4265643],[100.9221389,6.4226032],[100.9198804,6.4182348],[100.9198994,6.4099543],[100.9181581,6.4085245],[100.9202655,6.4006645],[100.9184658,6.4009636],[100.9171925,6.3988296],[100.9185374,6.3931164],[100.9224654,6.3907638],[100.9201463,6.3889148],[100.9194925,6.3833335],[100.9227098,6.3824871],[100.9212974,6.3785016],[100.9220984,6.375053],[100.9264418,6.3720773],[100.9267839,6.3708123],[100.9249716,6.3706425],[100.9275587,6.3665496],[100.9253086,6.3598534],[100.9263409,6.3543643],[100.9200436,6.3546548],[100.9205085,6.3513756],[100.9227254,6.3493378],[100.9203638,6.3484764],[100.9201461,6.3447177],[100.9223895,6.3402454],[100.9265783,6.3402261],[100.9252306,6.3365235],[100.9290695,6.3313117],[100.9253957,6.3288443],[100.9292088,6.3283741],[100.9291511,6.3256704],[100.9248343,6.326814],[100.9244346,6.3249341],[100.9263047,6.3221631],[100.9293547,6.322523],[100.9299522,6.3211621],[100.9267434,6.318826],[100.9239199,6.3187716],[100.9232697,6.3208217],[100.917229,6.3180138],[100.915055,6.311213],[100.9124017,6.3111926],[100.9138608,6.3064636],[100.910715,6.3057073],[100.9122489,6.3034403],[100.8976751,6.3036706],[100.8905125,6.2993593],[100.8884435,6.2956007],[100.8839443,6.2965238],[100.8795231,6.2947406],[100.8782456,6.2963573],[100.8705915,6.2936942],[100.8665036,6.2948493],[100.8649946,6.2974549],[100.8620052,6.2933919],[100.8570279,6.2934974],[100.8500866,6.2901309],[100.8446393,6.2948635],[100.8411217,6.3002416],[100.841834,6.306339],[100.845117,6.309234],[100.849924,6.30872],[100.849133,6.314646],[100.840398,6.322602],[100.840691,6.32723],[100.835591,6.338947],[100.828731,6.347444],[100.827764,6.352288],[100.821814,6.356482],[100.822664,6.362571],[100.820729,6.368362],[100.822165,6.370717],[100.821169,6.374343],[100.824276,6.384409],[100.822605,6.385817],[100.821257,6.399158],[100.823924,6.40687],[100.820612,6.417587],[100.81601,6.423323],[100.816742,6.427058],[100.814104,6.430684],[100.815423,6.432957],[100.812991,6.436313],[100.81258,6.442185],[100.810528,6.444512],[100.807714,6.443809],[100.791534,6.448327],[100.787284,6.454497],[100.781773,6.454524],[100.782389,6.456418],[100.776497,6.463048],[100.768964,6.455309],[100.759437,6.45723],[100.757737,6.455742],[100.753164,6.457799],[100.7437,6.470871],[100.743737,6.479592],[100.739071,6.49134],[100.742201,6.495163],[100.743625,6.500371],[100.741882,6.501271],[100.741114,6.506911],[100.73849,6.510423],[100.734385,6.510302],[100.733167,6.505579],[100.730356,6.505354],[100.731593,6.502344],[100.729325,6.500769],[100.730844,6.497378],[100.729326,6.495146],[100.723441,6.495216],[100.720236,6.490838],[100.718887,6.485544],[100.712216,6.481772],[100.709385,6.470872],[100.7034165,6.4697675],[100.6985828,6.4714136],[100.6971463,6.46973],[100.6975548,6.4660538],[100.6937514,6.4642998],[100.686466,6.464903],[100.686578,6.461892],[100.683917,6.456702],[100.684742,6.453657],[100.679101,6.454072],[100.662141,6.450992],[100.652058,6.442584],[100.65039,6.44575],[100.646567,6.446321],[100.645649,6.448639],[100.642557,6.450006],[100.645986,6.453311],[100.646324,6.458397],[100.626252,6.457774],[100.617838,6.459833],[100.614014,6.462134],[100.613827,6.465837],[100.609199,6.469211],[100.608093,6.472083],[100.604551,6.471772],[100.602264,6.468363],[100.595199,6.477377],[100.589164,6.479177],[100.584948,6.477706],[100.57316,6.482603],[100.562516,6.495959],[100.557999,6.492689],[100.552808,6.491444],[100.548347,6.484471],[100.542107,6.491184],[100.536897,6.486841],[100.5319957,6.4898325],[100.5255042,6.4873277],[100.5239799,6.4903998],[100.5188248,6.4885621],[100.5151849,6.4932427],[100.5116066,6.4922667],[100.5079538,6.5005493],[100.5055726,6.4986584],[100.5018979,6.4995385],[100.4996694,6.5067719],[100.4973453,6.5052862],[100.4938158,6.5086384],[100.4927326,6.5166375],[100.4957656,6.5181086],[100.4961997,6.5212817],[100.4902091,6.5254729],[100.4867185,6.5224058],[100.4770137,6.5239578],[100.4704711,6.5204181],[100.4673414,6.5216326],[100.4673589,6.5246104],[100.4623599,6.5252017],[100.4602444,6.5311491],[100.4567545,6.5318369],[100.4536827,6.526773],[100.4395143,6.5270611],[100.4326307,6.522515],[100.4307458,6.523901],[100.4281521,6.5228062],[100.4232953,6.5175554],[100.4175518,6.5190699],[100.4160849,6.5233252],[100.4112163,6.5226874],[100.4081469,6.5287657],[100.403009,6.5298717],[100.402119,6.5363502],[100.3973842,6.533898],[100.3881997,6.5349547],[100.3870648,6.5389533],[100.3842293,6.5384668],[100.3821514,6.5416161],[100.3732974,6.5451115],[100.3689452,6.5391018],[100.3659471,6.5400544],[100.3647784,6.5436843],[100.3596421,6.5480568],[100.3582042,6.5538149],[100.3601627,6.556957],[100.3564673,6.5588372],[100.3555274,6.5616318],[100.3535114,6.5613869],[100.3537805,6.5686737],[100.3515122,6.5729442],[100.3451921,6.5711906],[100.3415336,6.5751476],[100.3415793,6.5802222],[100.3358766,6.5823529],[100.3366198,6.5836135],[100.3348079,6.5849923],[100.3284385,6.5842423],[100.3252336,6.585796],[100.3251569,6.5888202],[100.3202063,6.5917101],[100.3158202,6.6041633],[100.3123472,6.6031691],[100.3071413,6.6057901],[100.3051751,6.6052288],[100.3058558,6.6111053],[100.3099246,6.6108505],[100.3115084,6.6127819],[100.3161066,6.6133188],[100.3260294,6.621392],[100.3235122,6.6251233],[100.3241257,6.6275488],[100.3221488,6.630072],[100.3212662,6.6356787],[100.3165487,6.6348173],[100.3161734,6.6365988],[100.3171739,6.6398457],[100.3218454,6.6420542],[100.3223039,6.6490695],[100.3194744,6.6539878],[100.3237293,6.6568323],[100.3276121,6.6638558],[100.3250945,6.6654683],[100.3188558,6.6643663],[100.3157501,6.6677738],[100.3128863,6.6662233],[100.3089227,6.6666342],[100.3058805,6.6684524],[100.3022396,6.6795177],[100.3004934,6.6803327],[100.297285,6.677913],[100.2942563,6.6797509],[100.2899695,6.6908214],[100.2914007,6.6990952],[100.295115,6.7038088],[100.2934542,6.7073919],[100.2902658,6.7098691],[100.2869608,6.707585],[100.284255,6.7086758],[100.2793059,6.7068413],[100.2776085,6.7041473],[100.2722101,6.7039292],[100.2649948,6.6989218],[100.2615268,6.7072516],[100.2574953,6.7113679],[100.2566352,6.7082101],[100.2528103,6.708577],[100.2532909,6.7037712],[100.2508158,6.7027408],[100.2491158,6.6974644],[100.2468014,6.695591],[100.2437951,6.695889],[100.2437451,6.6934432],[100.237946,6.6921428],[100.2317,6.694906],[100.228761,6.693401],[100.218579,6.702358],[100.218819,6.708872],[100.215666,6.712943],[100.21473,6.71884],[100.211871,6.720493],[100.207702,6.719679],[100.204335,6.723553],[100.2068081,6.7300629],[100.2059394,6.7378899],[100.2073497,6.7486223],[100.2135357,6.7529632],[100.2158383,6.7583209],[100.2127585,6.7687516],[100.199506,6.7761607],[100.1989475,6.7833897],[100.1930922,6.787853],[100.1930176,6.7911015],[100.1956552,6.7955648],[100.1914106,6.7997905],[100.1912375,6.809897],[100.1961939,6.8144034],[100.195243,6.827089],[100.1990029,6.8361953],[100.2032689,6.8408386],[100.2107956,6.8438721],[100.2109742,6.8571871],[100.2148172,6.861653],[100.2176706,6.8685987],[100.2206118,6.8706815],[100.2185998,6.8719206],[100.2185801,6.8797433],[100.212932,6.883268],[100.2115548,6.8877101],[100.2087939,6.8884357],[100.2071612,6.8957555],[100.2008748,6.8993023],[100.1985994,6.9074987],[100.181565,6.9133341],[100.1776047,6.9117624],[100.1736201,6.9134129],[100.1677972,6.9117704],[100.1659626,6.9143731],[100.163477,6.9137991],[100.1573255,6.9194157],[100.1461697,6.9251803],[100.1416054,6.9250567],[100.1378095,6.9220821],[100.1217455,6.9238646],[100.1199403,6.9360413],[100.1123239,6.9431381],[100.1078469,6.9452101],[100.1058192,6.9487513],[100.1017644,6.9486985],[100.0995288,6.9570248],[100.0948184,6.965088],[100.0807866,6.9631711],[100.0786189,6.9640381],[100.0810176,6.9800821],[100.0797754,6.9886139],[100.0832932,6.9948134],[100.0830108,6.9980259],[100.077843,7.0053446],[100.0662537,7.012782],[100.0632065,7.018408],[100.0667928,7.025312],[100.0656537,7.031342],[100.0677083,7.0332522],[100.0705435,7.0317949],[100.0750399,7.0332586],[100.0781718,7.0372306],[100.0790354,7.0419995],[100.0772589,7.0442471],[100.0712541,7.0438437],[100.0707947,7.0458194],[100.0736224,7.0473982],[100.0738695,7.0499192],[100.0637477,7.0569637],[100.0637273,7.0677476],[100.0604722,7.0713911],[100.061279,7.0755366],[100.0630267,7.0762312],[100.0594052,7.0857487],[100.06007,7.0891014],[100.0575002,7.0903309],[100.0545568,7.0951429],[100.0572198,7.1075797],[100.0677259,7.1119246],[100.0677422,7.1189568],[100.0609912,7.1238058],[100.0600668,7.1262564],[100.0635178,7.1348731],[100.0624995,7.1373311],[100.0684444,7.1386151],[100.0750436,7.14716],[100.0833934,7.14619],[100.0906511,7.1483488],[100.0964223,7.1517317],[100.0984125,7.1558917],[100.099961,7.1555173],[100.1051093,7.1608873],[100.1055732,7.1632552],[100.1152115,7.1668031],[100.1195552,7.1645361],[100.1205894,7.1664703],[100.1217114,7.1647597],[100.1236229,7.1655568],[100.1250581,7.1643349],[100.1236982,7.1633592],[100.1289534,7.1592],[100.1339896,7.158839],[100.1340877,7.1549395],[100.1361493,7.1522675],[100.1415622,7.1521529],[100.143716,7.1494774],[100.14526,7.1503072],[100.1477917,7.1489638],[100.1523951,7.1528599],[100.1562307,7.1487029],[100.1579095,7.1516272],[100.1600465,7.1515025],[100.1619536,7.1553597],[100.1658099,7.1558679],[100.1647673,7.1587962],[100.1680409,7.1600996],[100.1660453,7.1628622],[100.1680143,7.1628349],[100.1682068,7.1650263],[100.1702601,7.1646263],[100.1723527,7.1722996],[100.174536,7.1730419],[100.1752103,7.1753598],[100.1775691,7.1741965],[100.1798311,7.1761831],[100.1831472,7.1769992],[100.183868,7.1758178],[100.1849817,7.17785],[100.1872547,7.1767323],[100.1903875,7.1804958],[100.1952105,7.1826198],[100.1977194,7.1809466],[100.2012491,7.1844498],[100.206282,7.1837187],[100.2085952,7.1868783],[100.212819,7.185897],[100.2157045,7.1897168],[100.2204919,7.1909727],[100.2239584,7.1938229],[100.2255161,7.1925116],[100.2327166,7.1941701],[100.2359321,7.1919607],[100.2413061,7.1924839],[100.2502194,7.199448],[100.2578083,7.1969319],[100.261501,7.2012745],[100.2692857,7.2040387],[100.2714997,7.2081247],[100.2736283,7.20769],[100.2799837,7.2109098],[100.2928879,7.2113572],[100.3046092,7.2086083],[100.312033,7.220401],[100.3114175,7.2220634],[100.3146782,7.2266139],[100.313608,7.2273784],[100.3144253,7.2295813],[100.3245974,7.236033],[100.3288193,7.2361955],[100.3342763,7.2391215],[100.3332329,7.2434801],[100.3407236,7.2481798],[100.3415155,7.2508931],[100.3393522,7.2604556],[100.3415755,7.2753363],[100.3454169,7.273734],[100.3483517,7.2775946],[100.3595442,7.277902],[100.3614415,7.2807134],[100.3568178,7.2930489],[100.3584002,7.3002643],[100.362486,7.3026598],[100.3739172,7.304336],[100.3746946,7.3102286],[100.3766888,7.3128007],[100.3784977,7.3132513],[100.3796997,7.3089514],[100.3792623,7.2988869],[100.3848269,7.2894859],[100.3834276,7.2785801],[100.388228,7.273099],[100.3951055,7.2692416],[100.3991365,7.2635645],[100.402939,7.2626549],[100.4086369,7.2653616],[100.4112624,7.2742406],[100.4245653,7.2795453],[100.4277898,7.283754],[100.4257102,7.292494],[100.4285499,7.3099316],[100.4201674,7.319779],[100.4106635,7.3397219],[100.4097936,7.3509015],[100.4013958,7.3769913],[100.3988961,7.4002091],[100.3961968,7.4054493],[100.3861301,7.4163723],[100.3825835,7.424992],[100.387707,7.4970981],[100.386468,7.5118469],[100.3556819,7.5278199],[100.3091563,7.5048079],[100.2960136,7.4954155],[100.2606375,7.4965981],[100.237177,7.5385913],[100.2168162,7.7282659],[100.2082401,7.7518002],[100.2026276,7.7741763],[100.203713,7.7748857],[100.2006708,7.7775787],[100.1774952,7.8764791],[100.2355005,7.8830472],[100.2350684,7.8848231],[100.2420102,7.8865676],[100.240959,7.8899677],[100.2433564,7.8933588],[100.2506717,7.8942253],[100.2504632,7.8962435],[100.2565538,7.8982755],[100.2560629,7.9021131],[100.2664268,7.9047342],[100.2659802,7.9146684],[100.2799043,7.9133671],[100.2945572,7.91598],[100.3082113,7.9138094],[100.3069072,7.9229948],[100.3120094,7.9362116],[100.3216583,7.936608],[100.3266867,7.9389233],[100.3343398,7.935705],[100.3350403,7.9312044]]]}}]}