{"type":"FeatureCollection","features":[{"type":"Feature","properties":{"id":"TH-LAO-3900102","nameTh":"สงขลา","type":"city_municipality"},"geometry":{"type":"Polygon","coordinates":[[[100.5859494,7.181118],[100.5950036,7.1826097],[100.5952698,7.1814406],[100.5957038,7.1822237],[100.5978084,7.1823756],[100.5983813,7.1829161],[100.5990417,7.1819302],[100.5997307,7.1816979],[100.5999646,7.181173],[100.5998502,7.1792878],[100.6012805,7.177566],[100.6031545,7.1763508],[100.6030597,7.1757021],[100.6046464,7.1715851],[100.6052766,7.1704642],[100.6057248,7.1702287],[100.6078158,7.1706382],[100.6094209,7.171937],[100.6098299,7.1729635],[100.6106374,7.1735923],[100.6099495,7.1748253],[100.6100174,7.1763491],[100.6106956,7.176529],[100.6138807,7.1759254],[100.6146206,7.1766565],[100.6157259,7.1770336],[100.6181118,7.1786004],[100.6196085,7.1780309],[100.6201985,7.1786377],[100.6199303,7.1789703],[100.6186724,7.1792151],[100.6179616,7.1798592],[100.6179118,7.1808001],[100.6193231,7.181842],[100.6169765,7.1830763],[100.6140368,7.1863714],[100.6089573,7.194127],[100.5967995,7.2150549],[100.5961137,7.2156773],[100.5948776,7.2156762],[100.5946464,7.2153072],[100.5933384,7.2151376],[100.5931792,7.2148918],[100.5944042,7.2151476],[100.5944286,7.2148582],[100.593465,7.214708],[100.59106,7.2150698],[100.5895113,7.2158303],[100.5885322,7.2169957],[100.5862852,7.2211764],[100.5828722,7.2303183],[100.5817327,7.2320158],[100.5832327,7.2335646],[100.576846,7.2272594],[100.5768396,7.2263679],[100.5751931,7.2235352],[100.5781941,7.2138444],[100.585042,7.196626],[100.5850345,7.1944497],[100.5842482,7.19081],[100.583166,7.1882288],[100.5817514,7.1823537],[100.5859494,7.181118]]]}},{"type":"Feature","properties":{"id":"TH-LAO-3901101","nameTh":"หาดใหญ่","type":"city_municipality"},"geometry":{"type":"Polygon","coordinates":[[[100.452633,7.0279816],[100.4621476,7.0231998],[100.4646264,7.0203747],[100.4654772,7.0181237],[100.4646762,7.0238856],[100.4651378,7.0256367],[100.4657952,7.026372],[100.4794903,7.0350492],[100.4795935,7.0340707],[100.4789498,7.0327972],[100.4795613,7.0324011],[100.4802136,7.0311872],[100.4813681,7.0314875],[100.4818208,7.0311297],[100.4804533,7.0296516],[100.4804447,7.0290893],[100.4818241,7.029091],[100.4822958,7.028709],[100.4821418,7.0280499],[100.4811414,7.0276278],[100.4807496,7.0268604],[100.4820015,7.027074],[100.4825337,7.0267638],[100.4822561,7.0263032],[100.4815306,7.0260894],[100.4814352,7.0256753],[100.4833156,7.024446],[100.4840377,7.0223365],[100.4840001,7.0215232],[100.4972465,7.0224321],[100.5002278,7.0301961],[100.5005526,7.0371517],[100.5014109,7.040065],[100.5026533,7.048302],[100.5061856,7.0474637],[100.5040984,7.0358038],[100.5040322,7.0329943],[100.5023596,7.0329055],[100.5021069,7.0290757],[100.5003531,7.0244002],[100.4978902,7.019325],[100.4993647,7.0185466],[100.4965873,7.0127571],[100.4956471,7.0082765],[100.4935541,7.0028344],[100.484545,6.9873152],[100.4750551,6.9909111],[100.4733344,6.9921235],[100.4722423,6.993461],[100.4720228,6.9915825],[100.4697654,6.9889351],[100.4697783,6.9879469],[100.4613298,6.9872534],[100.4618866,6.9901627],[100.4632014,6.9917483],[100.4629255,6.9924617],[100.4618769,6.9928308],[100.4607765,6.9957744],[100.4601938,6.9990183],[100.4594889,6.9997073],[100.4592979,6.9993996],[100.4598178,6.9979677],[100.4595759,6.9972171],[100.4589852,6.996723],[100.4577828,6.9969935],[100.4577208,6.9989547],[100.4485207,6.9949596],[100.4367812,6.9949987],[100.4316819,6.9924426],[100.4287857,6.9921968],[100.4299412,6.9966122],[100.4311309,6.996903],[100.4318885,6.9979262],[100.4328712,6.9978619],[100.4344857,6.9993698],[100.43671,6.9995101],[100.4373078,7.0000899],[100.4379992,7.0001338],[100.4383041,6.9997738],[100.4396069,7.0000054],[100.4408008,7.0008928],[100.4437046,7.0018563],[100.4447407,7.0014951],[100.4464924,7.0017102],[100.447206,7.001389],[100.4479642,7.0016469],[100.4491165,7.0011102],[100.4495327,7.0018918],[100.4502602,7.0018407],[100.4509122,7.0029337],[100.4518713,7.0031105],[100.4518324,7.003639],[100.4521329,7.0039088],[100.4524656,7.003347],[100.4528948,7.0036218],[100.4515384,7.0062005],[100.4508599,7.0087628],[100.4512361,7.0100745],[100.4525601,7.010641],[100.4528422,7.0116464],[100.4525397,7.0119807],[100.4511149,7.0115292],[100.4506278,7.0116634],[100.4502973,7.0121883],[100.4508157,7.0137094],[100.4521478,7.0154941],[100.4514554,7.0176983],[100.4523266,7.0209071],[100.4504823,7.0219516],[100.4502572,7.0235462],[100.4507154,7.024944],[100.452633,7.0279816]]]}}]}