{"type":"FeatureCollection","features":[{"type":"Feature","properties":{"provinceCode":"42","nameTh":"เลย","nameEn":"Loei"},"geometry":{"type":"Polygon","coordinates":[[[101.9446514,16.845862],[101.9437786,16.8525793],[101.946756,16.8495857],[101.9523899,16.8484276],[101.954425,16.84947],[101.9564074,16.8469828],[101.9623028,16.8523641],[101.9623369,16.8473679],[101.9657345,16.8472511],[101.9657964,16.8448582],[101.969224,16.8470964],[101.9697433,16.8418835],[101.9744985,16.8404197],[101.9786802,16.8452001],[101.978517,16.8400226],[101.9800801,16.8400725],[101.9821618,16.8439728],[101.9873806,16.8436787],[101.9863907,16.8406378],[101.9902159,16.8413135],[101.9909976,16.8398582],[101.9937819,16.8399625],[101.9958767,16.8413505],[101.9953484,16.845188],[101.9977468,16.8435817],[101.9991687,16.8446666],[101.9963919,16.850395],[101.9980925,16.8512437],[101.9987072,16.8488539],[102.0001201,16.8487237],[102.0061164,16.8552298],[102.0044686,16.8563613],[102.0026107,16.8552049],[102.0026461,16.8591762],[101.9998302,16.85867],[101.9994405,16.8602265],[102.0049334,16.8622797],[102.0047467,16.8640668],[102.0101991,16.870463],[102.0119356,16.8703887],[102.0119536,16.8684553],[102.0159313,16.8643015],[102.0178426,16.8647122],[102.0193088,16.8687304],[102.0227603,16.8667157],[102.0258331,16.86224],[102.0278238,16.861658],[102.0317183,16.8636708],[102.0395037,16.8583205],[102.0448429,16.8609096],[102.0430754,16.8652744],[102.0443191,16.8678799],[102.0478863,16.8671896],[102.0517947,16.8694505],[102.0561685,16.8677865],[102.0597315,16.871097],[102.055126,16.8758536],[102.0631221,16.8813897],[102.0629899,16.8870859],[102.0667506,16.886835],[102.068458,16.8920322],[102.0636758,16.8966381],[102.0483421,16.9047951],[102.0458397,16.9158519],[102.0339269,16.9375635],[102.0292112,16.9506746],[102.0357094,16.9558479],[102.045639,16.9601288],[102.0508881,16.9650092],[102.0589004,16.9661912],[102.0631903,16.9620468],[102.0672052,16.9609956],[102.0706514,16.963702],[102.0724931,16.9631777],[102.0759358,16.9660553],[102.0770034,16.9713657],[102.0875555,16.9742822],[102.0913313,16.9804844],[102.1133093,16.991103],[102.1238816,16.9939872],[102.144022,17.0140413],[102.1449252,17.0173264],[102.1470478,17.0174869],[102.1512491,17.0245613],[102.1536434,17.0245048],[102.1542924,17.0229052],[102.1554373,17.0240799],[102.1495208,17.0337452],[102.147979,17.0343911],[102.1482755,17.0325826],[102.1452552,17.0313638],[102.1404024,17.0353854],[102.1351676,17.035252],[102.1334216,17.0372722],[102.1324894,17.0359612],[102.132049,17.037579],[102.1301884,17.0373836],[102.1290053,17.0409343],[102.1250259,17.0421379],[102.1257739,17.0455256],[102.1233532,17.0472047],[102.1221483,17.052932],[102.1203633,17.0524396],[102.1203144,17.0574667],[102.1140762,17.0581118],[102.1120075,17.0604021],[102.1093924,17.0605404],[102.1097888,17.0617631],[102.10606,17.0616002],[102.1063601,17.0647893],[102.1018219,17.0670601],[102.1027286,17.0710517],[102.1014475,17.0721671],[102.1030488,17.0747445],[102.1008887,17.0753169],[102.1015358,17.0765259],[102.1024507,17.075603],[102.1057032,17.0810898],[102.0998846,17.0874884],[102.1012735,17.0878069],[102.1014364,17.0907109],[102.0993319,17.0922862],[102.1004857,17.1011607],[102.0993066,17.099882],[102.0970879,17.1025623],[102.0924614,17.10255],[102.0911297,17.1092387],[102.0867163,17.1144633],[102.0865225,17.1130713],[102.0854646,17.1137896],[102.0831615,17.1119674],[102.079906,17.1119037],[102.0793683,17.1139392],[102.075289,17.1105734],[102.0750936,17.1121827],[102.0725172,17.1119118],[102.0707185,17.1153415],[102.068275,17.1156351],[102.0679334,17.1180912],[102.0656168,17.1197762],[102.0661448,17.121223],[102.0616623,17.1200664],[102.0594912,17.1235833],[102.057809,17.1237991],[102.0580392,17.1264942],[102.0519814,17.127388],[102.0508325,17.133368],[102.0461114,17.1355152],[102.0438675,17.13463],[102.0437222,17.1328886],[102.0414114,17.1339854],[102.0405888,17.1362437],[102.0382114,17.1369523],[102.0385792,17.1385814],[102.0373496,17.1383754],[102.0377865,17.1407323],[102.035244,17.145304],[102.0362855,17.1460876],[102.0342558,17.1470221],[102.0369866,17.1508103],[102.0408047,17.1510899],[102.0423891,17.159036],[102.0443761,17.1601656],[102.0442214,17.1642762],[102.0344586,17.1746233],[102.0294431,17.1857675],[102.0319623,17.1963073],[102.0252731,17.2009407],[102.0235816,17.2042536],[102.0283255,17.2135893],[102.0305318,17.2159531],[102.0340186,17.2155861],[102.0354211,17.2194145],[102.0380009,17.2202878],[102.0373444,17.2178039],[102.0399593,17.215874],[102.0399911,17.2137323],[102.0552876,17.2032137],[102.0663918,17.1920223],[102.0681872,17.1870257],[102.0733236,17.1862795],[102.0776876,17.1828356],[102.0823111,17.1760629],[102.0841511,17.1679411],[102.0877369,17.1720011],[102.0967799,17.1770717],[102.0936074,17.2054793],[102.0908706,17.2096622],[102.0866133,17.2122098],[102.0770692,17.2482039],[102.0698526,17.2473189],[102.0680636,17.2486927],[102.0687163,17.2500534],[102.0674143,17.2499604],[102.0679433,17.2522054],[102.0668038,17.2504381],[102.0648985,17.2508916],[102.0646066,17.2492667],[102.0602689,17.2546245],[102.0563903,17.2535665],[102.0566732,17.2516967],[102.0536904,17.2501339],[102.0474742,17.2553242],[102.0482178,17.2572086],[102.0455549,17.2592976],[102.0466893,17.260603],[102.0453317,17.2627865],[102.0438638,17.2615251],[102.0392316,17.2633212],[102.0343833,17.2629543],[102.0350751,17.2653268],[102.02729,17.276799],[102.0264422,17.281245],[102.0134251,17.2783744],[102.0124562,17.2822519],[102.0146926,17.2878003],[102.0124559,17.2870039],[102.007241,17.2892312],[102.0078477,17.2920539],[102.003129,17.2944404],[102.0036376,17.2964318],[101.992411,17.3058676],[101.9836421,17.3162769],[101.9858218,17.3228871],[101.9879742,17.3227203],[101.9869719,17.3288315],[101.9903367,17.3340615],[102.0114163,17.3342313],[102.0202614,17.3412047],[102.0206908,17.3450578],[102.0142733,17.3577664],[102.0139222,17.3640733],[102.0184821,17.3668097],[102.0180254,17.3739133],[102.0110474,17.3831542],[102.0082392,17.3840501],[102.0071133,17.3868017],[102.004309,17.3872599],[101.9984354,17.3956166],[101.9817885,17.4114714],[101.9822667,17.4148758],[101.9928519,17.4205616],[101.9915191,17.423713],[101.992871,17.4276134],[101.9901662,17.4291027],[101.9903514,17.4322338],[101.9887624,17.4328227],[101.9872755,17.4391023],[101.9909092,17.4443601],[101.9890423,17.4456898],[101.9894012,17.4527316],[101.9879552,17.4551501],[101.9955936,17.4605363],[101.9992723,17.456474],[102.0008753,17.4588537],[102.0034182,17.4592367],[102.0089006,17.4571977],[102.0186542,17.4594599],[102.0248769,17.4582119],[102.0281474,17.4592468],[102.0411818,17.4551351],[102.0464716,17.4557628],[102.0489764,17.450448],[102.0523775,17.4490808],[102.0778256,17.4590164],[102.0805171,17.4624605],[102.0833426,17.4612628],[102.086726,17.4654165],[102.0916507,17.4621592],[102.0958825,17.456581],[102.1027973,17.4534862],[102.1050546,17.4468078],[102.1100305,17.4516938],[102.1131694,17.4515974],[102.1119418,17.4532802],[102.1158714,17.4560892],[102.1210538,17.4516271],[102.1209098,17.4541943],[102.12355,17.4545485],[102.125512,17.4574764],[102.1270716,17.4569063],[102.1267208,17.4593988],[102.1291827,17.4610806],[102.1263667,17.4617096],[102.1259176,17.4638558],[102.1243653,17.4631373],[102.1245694,17.4657778],[102.1208163,17.473138],[102.1174376,17.4730691],[102.1177811,17.4697115],[102.1134376,17.4673934],[102.113926,17.4687383],[102.1109321,17.4706968],[102.1088898,17.4760044],[102.1044572,17.4761026],[102.1083029,17.4809775],[102.1212739,17.4846273],[102.1285165,17.4919825],[102.1291785,17.4979159],[102.127993,17.4975956],[102.1244625,17.5031207],[102.1253474,17.5087644],[102.1354417,17.5087942],[102.135781,17.5154078],[102.1384807,17.5191227],[102.140076,17.5300508],[102.1398098,17.5324087],[102.136685,17.533288],[102.1327907,17.5411377],[102.1355612,17.546987],[102.1343555,17.555688],[102.1272509,17.5636383],[102.1188817,17.5687979],[102.1196046,17.5723751],[102.1153584,17.5772005],[102.1139694,17.5877161],[102.1063793,17.6076611],[102.100295,17.6140547],[102.0977236,17.6129709],[102.0958639,17.6151819],[102.0896918,17.6269802],[102.0865356,17.6283911],[102.084795,17.6312746],[102.0781544,17.6464093],[102.0722808,17.6456838],[102.0675748,17.6490932],[102.0612891,17.6570087],[102.054839,17.6571172],[102.0523432,17.6531091],[102.0485218,17.6531809],[102.0424093,17.6490125],[102.0364316,17.6502914],[102.0362793,17.6562668],[102.0392156,17.6639685],[102.0332915,17.6665744],[102.0264147,17.6768721],[102.0293923,17.6855954],[102.0296561,17.7001995],[102.0256513,17.71744],[102.0232888,17.7217372],[102.0213054,17.7388262],[102.0176345,17.7471389],[102.0186195,17.7512105],[102.0235228,17.7545787],[102.0244164,17.7669924],[102.0296988,17.7756259],[102.028032,17.777293],[102.0297564,17.7858653],[102.0403547,17.7851847],[102.045727,17.7901416],[102.0450356,17.7928524],[102.0398785,17.7965451],[102.0396067,17.800228],[102.03642,17.8057016],[102.0384059,17.8106136],[102.0428021,17.8129529],[102.0476135,17.8200983],[102.0507078,17.8338979],[102.0492439,17.8370191],[102.0520039,17.8471041],[102.0486202,17.8554376],[102.0499802,17.8665232],[102.0523999,17.8717847],[102.0462366,17.8770728],[102.0436308,17.881688],[102.0378605,17.8855861],[102.0359954,17.8979742],[102.0385705,17.9030808],[102.0387925,17.9076537],[102.032208,17.9222332],[102.0331821,17.9260943],[102.0306351,17.933011],[102.0307549,17.9447258],[102.0244583,17.955697],[102.0240339,17.964857],[102.0270798,17.9688862],[102.0249335,17.9717569],[102.0239864,17.9772729],[102.0157361,17.9809063],[102.0256408,17.9913495],[102.0423529,17.9894035],[102.0389022,17.99413],[102.0376191,18.0052406],[102.0392519,18.0177497],[102.0372284,18.0226374],[102.0468104,18.028817],[102.0495841,18.0337552],[102.0540093,18.0362517],[102.0547515,18.0405657],[102.052531,18.0508199],[102.0558057,18.0601599],[102.055353,18.0688759],[102.0525927,18.0748311],[102.0526188,18.0785201],[102.0551399,18.086169],[102.0554988,18.0972939],[102.0607166,18.1021779],[102.0643393,18.1145462],[102.0693252,18.1376462],[102.0679453,18.1430145],[102.0866112,18.159895],[102.1020703,18.1630167],[102.1015452,18.1677221],[102.1029798,18.1684883],[102.1030042,18.1719541],[102.1024579,18.1771807],[102.1004522,18.179534],[102.1028255,18.1817382],[102.1011914,18.187206],[102.1030006,18.1902175],[102.100364,18.1942056],[102.1021523,18.1960072],[102.1008599,18.2003347],[102.1034632,18.2040122],[102.1027977,18.2067746],[102.1056566,18.2135146],[102.088279,18.220272],[102.078699,18.217195],[102.04496,18.198412],[102.03656,18.172065],[102.034685,18.161359],[102.026979,18.150846],[102.01844,18.147833],[101.994783,18.12397],[101.991445,18.12456],[101.982779,18.121477],[101.9585448,18.1011939],[101.937886,18.077401],[101.919844,18.049854],[101.914943,18.044935],[101.910397,18.033719],[101.906916,18.030899],[101.89342,18.027685],[101.888874,18.0288],[101.880279,18.027095],[101.874597,18.028472],[101.856981,18.043951],[101.839791,18.051363],[101.834961,18.051559],[101.824022,18.060414],[101.816209,18.059233],[101.800795,18.064152],[101.793833,18.064677],[101.786801,18.071433],[101.780764,18.067301],[101.768049,18.054248],[101.766273,18.054248],[101.763077,18.042967],[101.756968,18.036146],[101.755263,18.02939],[101.754198,18.005844],[101.744465,17.990829],[101.74276,17.974627],[101.729193,17.948063],[101.728838,17.943209],[101.733526,17.927598],[101.732461,17.922416],[101.723795,17.911528],[101.710583,17.902149],[101.705966,17.903985],[101.702414,17.911266],[101.695595,17.91284],[101.64843,17.896049],[101.631382,17.895327],[101.624989,17.892179],[101.61675,17.893556],[101.611635,17.887194],[101.61199,17.877421],[101.602614,17.857153],[101.599702,17.853283],[101.593238,17.849151],[101.58926,17.848954],[101.586277,17.851512],[101.580878,17.865876],[101.574841,17.869615],[101.569442,17.864171],[101.568093,17.852299],[101.564541,17.841148],[101.5512558,17.8210708],[101.5532807,17.818245],[101.5519442,17.8091649],[101.5539196,17.8073285],[101.5598197,17.8089516],[101.5677438,17.8029036],[101.5734903,17.7926096],[101.5744785,17.7848003],[101.5634159,17.7882236],[101.5523442,17.7889835],[101.548093,17.7875665],[101.5435051,17.7794838],[101.5385719,17.7752356],[101.529659,17.7741053],[101.5217034,17.7764753],[101.5217642,17.7728466],[101.5052059,17.7601274],[101.5039501,17.7553679],[101.497449,17.7548934],[101.4975813,17.7499081],[101.5027867,17.74547],[101.4955733,17.7405673],[101.4941241,17.7275667],[101.4908266,17.724073],[101.4877678,17.7242652],[101.4852461,17.7272393],[101.4868289,17.7294851],[101.486107,17.7356245],[101.4918551,17.7447933],[101.4908142,17.7465046],[101.4868169,17.7463808],[101.4825728,17.7436215],[101.4774919,17.7452237],[101.475372,17.7486845],[101.475652,17.7515837],[101.4838423,17.7551096],[101.4838061,17.7592765],[101.4820683,17.7605518],[101.4768975,17.7571936],[101.4676344,17.754269],[101.4637248,17.7545377],[101.462982,17.7522],[101.4674245,17.7476197],[101.4647129,17.7462852],[101.4591814,17.7473798],[101.4554227,17.7462875],[101.4535188,17.7381957],[101.447855,17.7365878],[101.447152,17.7288262],[101.4430361,17.7340703],[101.4375857,17.731713],[101.4236164,17.7374055],[101.4208613,17.7344577],[101.4204626,17.7301762],[101.416787,17.7304131],[101.4172881,17.735366],[101.4078958,17.7363266],[101.3993091,17.7318858],[101.3969642,17.7279651],[101.4019653,17.7234414],[101.4169512,17.7254264],[101.4227157,17.7237985],[101.4311735,17.7176108],[101.4304277,17.7134074],[101.4214779,17.71221],[101.4130025,17.7070947],[101.4062648,17.7007451],[101.4096662,17.6891926],[101.4052534,17.6867816],[101.4020197,17.6821324],[101.4003246,17.6831052],[101.3976993,17.6905379],[101.3863246,17.6976289],[101.3821163,17.6978274],[101.3781893,17.6922329],[101.3782002,17.6820938],[101.3678811,17.6791782],[101.363331,17.6815605],[101.3610704,17.6808842],[101.3558569,17.6681843],[101.3534674,17.667451],[101.3456718,17.6588978],[101.3385091,17.660434],[101.3325047,17.6544241],[101.3243889,17.6566336],[101.3215404,17.6541064],[101.3064766,17.6506957],[101.3065007,17.6467626],[101.3117246,17.6421229],[101.3116538,17.6372295],[101.3078718,17.6320262],[101.3016786,17.6339111],[101.2959431,17.6315244],[101.2927372,17.6283189],[101.2925334,17.6252337],[101.2881254,17.6230453],[101.2809789,17.6082742],[101.2794935,17.6080594],[101.2774213,17.6114343],[101.2746342,17.6109571],[101.2644292,17.603452],[101.2638895,17.6013197],[101.2592568,17.597574],[101.2599971,17.5904961],[101.2564769,17.5842851],[101.2490886,17.578272],[101.249949,17.5756196],[101.2475774,17.572407],[101.2474964,17.5618292],[101.2427135,17.5542288],[101.2394176,17.5528657],[101.2321327,17.5545986],[101.2295495,17.5363862],[101.2246732,17.5335582],[101.2204045,17.5344684],[101.2117737,17.5308193],[101.1885361,17.5310735],[101.1853784,17.5290115],[101.1822563,17.5291813],[101.1830977,17.525754],[101.1788104,17.5265439],[101.1751352,17.5244205],[101.1776565,17.5204795],[101.1766212,17.5134705],[101.1803527,17.5118647],[101.1784727,17.5095947],[101.1785486,17.506803],[101.179975,17.508634],[101.1812946,17.5012424],[101.1833288,17.4983815],[101.1775358,17.4951751],[101.1696161,17.4940627],[101.1663537,17.4912518],[101.1635002,17.4916153],[101.1647305,17.4875205],[101.1628999,17.4830215],[101.1681781,17.4807387],[101.1648483,17.4785981],[101.1641053,17.4699046],[101.1608308,17.4671619],[101.1497029,17.4667943],[101.1468858,17.4702842],[101.1457111,17.4786325],[101.1425817,17.4760035],[101.1310505,17.4731086],[101.1316815,17.4765155],[101.1301642,17.4809214],[101.1347976,17.4804811],[101.1364617,17.482706],[101.1353617,17.4834765],[101.1267547,17.4817789],[101.1219218,17.4841032],[101.1158374,17.4787202],[101.1099188,17.4799414],[101.1092434,17.4824767],[101.1110227,17.4850574],[101.1070747,17.4920318],[101.1047316,17.4934655],[101.1020932,17.4924531],[101.0978063,17.4954384],[101.0938452,17.4960564],[101.0960525,17.5002249],[101.099804,17.5006896],[101.1007537,17.5023133],[101.0959508,17.5050631],[101.1013612,17.5062723],[101.1032291,17.5092581],[101.094033,17.5091113],[101.0897538,17.5065611],[101.0861184,17.5066446],[101.0846093,17.503803],[101.0811493,17.5059682],[101.0818388,17.504392],[101.0800548,17.5025312],[101.0751215,17.5049298],[101.0648938,17.514925],[101.0618484,17.512062],[101.0605617,17.5194079],[101.0613521,17.5271471],[101.0473401,17.5294904],[101.0459387,17.5452068],[101.0439186,17.5454918],[101.040196,17.5411356],[101.0378285,17.5469435],[101.0242262,17.5518132],[101.0228284,17.5547078],[101.0244487,17.5574081],[101.0213792,17.5563354],[101.0136605,17.5586071],[101.0101434,17.5562663],[101.0032691,17.5564742],[101.0011171,17.5597357],[100.9975336,17.5596275],[100.998738,17.5627174],[100.9924969,17.5665066],[100.9904533,17.565148],[100.9883911,17.5676629],[100.985127,17.5655832],[100.9784997,17.571966],[100.9751068,17.5728293],[100.9734323,17.5688452],[100.9661756,17.5714892],[100.9636702,17.5753854],[100.9596764,17.5755001],[100.9561282,17.5729922],[100.9548307,17.5750072],[100.9534186,17.5737698],[100.9491695,17.5745515],[100.9474982,17.5723681],[100.9465232,17.5737414],[100.9403893,17.5731398],[100.9379919,17.5697466],[100.93238,17.5688192],[100.9306042,17.5709352],[100.9280052,17.5692831],[100.9244809,17.5731259],[100.9171389,17.5762463],[100.9166132,17.5775959],[100.9188858,17.5800057],[100.9180869,17.5816228],[100.9115868,17.5821849],[100.9055114,17.5877743],[100.9038869,17.5918608],[100.9011836,17.5916328],[100.8908407,17.5839295],[100.886119,17.5823232],[100.8792894,17.5837969],[100.877064,17.5795183],[100.8721247,17.5753714],[100.8671411,17.566363],[100.8609366,17.5458114],[100.8648792,17.5412593],[100.8665794,17.5352954],[100.8712574,17.5313109],[100.8716357,17.5284098],[100.8648844,17.516515],[100.8543564,17.5064759],[100.8460418,17.5027244],[100.843747,17.4965278],[100.8442374,17.4894343],[100.8332657,17.4811784],[100.8347836,17.4684856],[100.8473829,17.4595749],[100.8502657,17.4546014],[100.8546633,17.4553158],[100.8552895,17.4511942],[100.8622533,17.4540016],[100.8661567,17.4511453],[100.8696594,17.4516003],[100.8745242,17.4493642],[100.877302,17.4519609],[100.8802222,17.4523466],[100.8861065,17.4604468],[100.8917694,17.4620192],[100.8943375,17.4655799],[100.898852,17.4582138],[100.9035523,17.4583969],[100.9057254,17.4538571],[100.9089759,17.4539862],[100.9110048,17.4514894],[100.9164194,17.4508398],[100.917587,17.4439071],[100.9143431,17.4349236],[100.9169171,17.4321568],[100.9205185,17.4317412],[100.9223556,17.4254988],[100.9207024,17.422995],[100.9246089,17.4204799],[100.9225247,17.4201101],[100.9208164,17.4152184],[100.9227079,17.4117307],[100.9211958,17.4076159],[100.9230215,17.4027892],[100.9184816,17.4019493],[100.9169556,17.3998908],[100.9161686,17.3923023],[100.9178921,17.3895079],[100.9168122,17.3855099],[100.9143586,17.3848752],[100.9147032,17.3801798],[100.912747,17.3775697],[100.9168354,17.3730001],[100.9144841,17.3669105],[100.9167451,17.3643767],[100.9169961,17.3595822],[100.913907,17.3423716],[100.9183233,17.3425926],[100.9186433,17.3398846],[100.9226142,17.337833],[100.936837,17.3354459],[100.9437096,17.3411146],[100.9493887,17.3382464],[100.9565349,17.3374415],[100.9633483,17.3383362],[100.970007,17.3422535],[100.9735841,17.3400209],[100.9869108,17.3389901],[100.9918415,17.3417502],[100.9998621,17.3381244],[101.0078391,17.3321703],[101.0088358,17.3254391],[101.0069312,17.3231778],[101.0107392,17.3156822],[101.0154213,17.3115565],[101.0178822,17.312326],[101.0197429,17.3109553],[101.0220364,17.31354],[101.0236611,17.3113604],[101.0270763,17.3110579],[101.0355741,17.3010377],[101.036129,17.2969513],[101.0384858,17.2966156],[101.048428,17.286235],[101.0612043,17.2810041],[101.0698437,17.2800752],[101.0828481,17.2813506],[101.0818842,17.2733807],[101.0890013,17.2648768],[101.0927714,17.2531077],[101.1097165,17.2335547],[101.1077412,17.2155976],[101.0995769,17.2096945],[101.094454,17.1985701],[101.0823931,17.1922063],[101.0798628,17.1848672],[101.0750812,17.1776856],[101.0752679,17.1693248],[101.079049,17.1693311],[101.0802262,17.1678041],[101.0754903,17.1600241],[101.0799961,17.1533158],[101.077611,17.1483063],[101.0781962,17.1372083],[101.0732982,17.1343675],[101.0699021,17.1299639],[101.0710102,17.1155692],[101.0616881,17.1125169],[101.0509879,17.1150796],[101.0546834,17.1047479],[101.0511761,17.0962074],[101.0561605,17.0942941],[101.0565425,17.0907019],[101.052665,17.0866691],[101.0495627,17.0780421],[101.0518149,17.0739769],[101.0559604,17.0707996],[101.0559129,17.0647138],[101.0582156,17.0603872],[101.0573146,17.0561419],[101.0548507,17.0535111],[101.0570958,17.0484165],[101.0518985,17.0412577],[101.0578042,17.0343187],[101.058261,17.0287626],[101.053688,17.0243154],[101.0556095,17.0168394],[101.0464125,17.0022132],[101.0462095,16.9865949],[101.0431788,16.9856633],[101.0424281,16.9836446],[101.0493513,16.9753298],[101.0450981,16.9714447],[101.0446077,16.9665398],[101.0514366,16.9559717],[101.0419723,16.9518701],[101.0376465,16.9474397],[101.0284158,16.9449744],[101.0263824,16.9429701],[101.0282176,16.9375846],[101.034789,16.9304513],[101.0399556,16.9287732],[101.0422866,16.9299082],[101.0474191,16.9288479],[101.0534085,16.9306844],[101.0593414,16.9283843],[101.0621069,16.9296302],[101.0698703,16.9262098],[101.0718501,16.9217301],[101.0712148,16.9117029],[101.0668748,16.9024791],[101.0740584,16.902207],[101.0790405,16.8995575],[101.0805656,16.9019697],[101.0842918,16.9027625],[101.0929384,16.9088725],[101.1003544,16.9114059],[101.1015921,16.9182549],[101.1049195,16.9239434],[101.1052578,16.9285867],[101.1034412,16.9316903],[101.1072474,16.9349738],[101.1068157,16.9370184],[101.1113887,16.9374176],[101.112499,16.9395127],[101.113339,16.9424169],[101.1120365,16.9465329],[101.1155165,16.9516437],[101.1154964,16.97071],[101.1134418,16.97651],[101.1145741,16.9906015],[101.1127545,16.993757],[101.1147188,16.9981338],[101.1124743,16.9971167],[101.112561,17.0001541],[101.1106506,17.000548],[101.114915,17.0014174],[101.1138823,17.0033537],[101.1093612,17.0032592],[101.1112711,17.0079477],[101.1147109,17.0072076],[101.1132671,17.0095729],[101.1168518,17.0191297],[101.1151459,17.0207621],[101.1275011,17.0238257],[101.1289151,17.0265806],[101.1352624,17.0279244],[101.140152,17.0326325],[101.1549913,17.0342476],[101.1687506,17.0382426],[101.1727224,17.0537384],[101.1785206,17.0559212],[101.1884352,17.06597],[101.2057768,17.0686879],[101.2091488,17.0677577],[101.21838,17.0605685],[101.222699,17.06058],[101.228586,17.0646994],[101.229009,17.0670883],[101.2250359,17.0792566],[101.2252466,17.0853916],[101.2382994,17.0975909],[101.2407463,17.1053972],[101.2439275,17.108795],[101.2497174,17.1116042],[101.255937,17.1099703],[101.2649797,17.1036363],[101.2717083,17.0962617],[101.2776263,17.0981176],[101.2877373,17.107255],[101.2933407,17.1064362],[101.2988792,17.1107741],[101.2999848,17.1136517],[101.3071541,17.1197199],[101.3078109,17.1301687],[101.3197778,17.1374671],[101.3233876,17.1410616],[101.3234067,17.1448103],[101.3308542,17.1464277],[101.3315181,17.1487109],[101.3344983,17.1495394],[101.3375152,17.1538128],[101.3432238,17.1569177],[101.3435164,17.1609588],[101.3510395,17.1632014],[101.3511427,17.1678119],[101.3546202,17.1677795],[101.3561094,17.1706466],[101.3624509,17.1715371],[101.3681443,17.1701672],[101.3696391,17.1682165],[101.3747403,17.1705641],[101.3824042,17.1702457],[101.388996,17.1754498],[101.3982799,17.1779889],[101.4001986,17.1769844],[101.3985524,17.1757865],[101.4000055,17.1738191],[101.4107449,17.1726565],[101.4117499,17.1667194],[101.4145597,17.1676657],[101.4175985,17.1660413],[101.4219524,17.1629266],[101.4257101,17.1566563],[101.4459529,17.14677],[101.4524566,17.1408632],[101.4514887,17.1370132],[101.4528125,17.1359017],[101.4526143,17.1308252],[101.4567777,17.1260231],[101.4559531,17.124006],[101.451736,17.1237398],[101.4520607,17.121638],[101.4591592,17.1151474],[101.4591957,17.1136321],[101.4557955,17.1115243],[101.4579833,17.1072878],[101.4616996,17.1055868],[101.4601388,17.103684],[101.4617799,17.102251],[101.458613,17.0988471],[101.4623967,17.0952384],[101.4671454,17.0950369],[101.468173,17.0930472],[101.4716527,17.0925477],[101.4773478,17.0868857],[101.4808318,17.0725732],[101.4893434,17.0589072],[101.4919276,17.0331124],[101.4958252,17.0278668],[101.4969865,17.0214188],[101.5014746,17.0171631],[101.5042793,17.0101352],[101.5080269,17.0131458],[101.5181284,17.0151893],[101.5206414,17.0192803],[101.5332411,17.0231955],[101.536002,17.022735],[101.5450107,17.0151348],[101.5442615,17.0107095],[101.5467239,17.0020468],[101.5516377,16.9947314],[101.5574041,16.9930411],[101.5602614,16.9938382],[101.5666496,16.9855776],[101.5723683,16.9854515],[101.5751798,16.9837448],[101.5831203,16.9876499],[101.5838211,16.9914075],[101.5870807,16.9937417],[101.5878706,16.9963952],[101.5938429,16.9952702],[101.5976885,16.9966738],[101.5992054,16.999917],[101.6073768,16.9987995],[101.6129759,17.0042886],[101.6126714,17.0091131],[101.6170718,17.0150416],[101.6165528,17.0223589],[101.6213984,17.0278054],[101.6241807,17.0365388],[101.6276421,17.0399006],[101.6287427,17.0451877],[101.6314657,17.0428348],[101.6366873,17.0426611],[101.6364991,17.0448623],[101.6378643,17.0445845],[101.6445789,17.039195],[101.6471114,17.0395199],[101.6496115,17.0423393],[101.6503023,17.0402316],[101.64589,17.035272],[101.6467172,17.032],[101.6454858,17.0283138],[101.6478971,17.0263162],[101.6468144,17.023903],[101.6551446,17.0122856],[101.6544899,17.0051398],[101.6591102,16.998976],[101.6597465,16.9953946],[101.6680341,16.9855673],[101.6687612,16.9801216],[101.6752221,16.9756193],[101.6751784,16.9712464],[101.672906,16.9691643],[101.6737603,16.9664466],[101.6697294,16.9606904],[101.6725625,16.9586733],[101.6726863,16.9521541],[101.6800285,16.9393594],[101.6852202,16.936671],[101.6923055,16.9362334],[101.6887373,16.934402],[101.6872877,16.9313761],[101.6881718,16.9260137],[101.6921733,16.9229308],[101.6894425,16.9222127],[101.687084,16.9239713],[101.6850976,16.9221739],[101.6866664,16.9193059],[101.6828702,16.9124134],[101.6850486,16.8996197],[101.6817614,16.8967926],[101.6786614,16.8854005],[101.6787726,16.883187],[101.6827325,16.8807152],[101.6836682,16.877019],[101.6835207,16.8739513],[101.6798816,16.8718754],[101.6842763,16.8688486],[101.6769934,16.8670054],[101.67952,16.8651728],[101.6787821,16.8613107],[101.6813798,16.8573305],[101.6848865,16.859098],[101.6885976,16.8578789],[101.6862453,16.8546493],[101.6846438,16.8551519],[101.6853972,16.8468074],[101.6880049,16.8452787],[101.6885552,16.8476115],[101.6907527,16.8486293],[101.6898936,16.8422421],[101.6931069,16.8353647],[101.6984283,16.8349569],[101.7008488,16.8316284],[101.6990525,16.8294399],[101.7006659,16.8285412],[101.7068381,16.8299847],[101.7065637,16.8259247],[101.7089176,16.8225985],[101.7186118,16.8159029],[101.7196202,16.8120825],[101.7180685,16.809082],[101.7219121,16.8070979],[101.7194366,16.8038683],[101.7194791,16.7995385],[101.6998928,16.8094144],[101.694009,16.805953],[101.6863825,16.7984801],[101.7043918,16.7841196],[101.7180613,16.7598794],[101.7253579,16.7545057],[101.730843,16.7536406],[101.7454837,16.7573131],[101.7614523,16.7560769],[101.7691016,16.7604902],[101.7744879,16.759877],[101.7855533,16.7622417],[101.7964982,16.7688422],[101.8013136,16.7689233],[101.8213877,16.7779485],[101.8297169,16.7793833],[101.8346847,16.7840016],[101.8437499,16.7857934],[101.8492195,16.7886855],[101.8626444,16.790706],[101.8647421,16.7932021],[101.8673137,16.7934198],[101.8713316,16.8035613],[101.8808434,16.8109957],[101.9014886,16.8132263],[101.9058973,16.8172099],[101.9173193,16.8228079],[101.9269988,16.8311837],[101.9376448,16.8341728],[101.945538,16.8390054],[101.9513229,16.8405232],[101.9446514,16.845862]]]}}]}