{"type":"FeatureCollection","name":"p42-subset","crs":{"type":"name","properties":{"name":"urn:ogc:def:crs:EPSG::32647"}},"features":[{"type":"Feature","properties":{"building":"yes","height":6,"heightSource":"default"},"geometry":{"type":"MultiPolygon","coordinates":[[[[696179.99,1874512.25],[696177.83,1874519.02],[696182.15,1874520.38],[696184.31,1874513.62],[696179.99,1874512.25]]]]}},{"type":"Feature","properties":{"building":"yes","height":6,"heightSource":"default"},"geometry":{"type":"MultiPolygon","coordinates":[[[[696266.4,1874445.01],[696259.73,1874442.9],[696258.58,1874446.52],[696253.37,1874444.87],[696252.38,1874447.93],[696248.69,1874446.76],[696246.87,1874452.42],[696250.4,1874453.54],[696248.8,1874458.52],[696260.85,1874462.33],[696266.4,1874445.01]]]]}},{"type":"Feature","properties":{"building":"yes","height":6,"heightSource":"default"},"geometry":{"type":"MultiPolygon","coordinates":[[[[696433.13,1874656.83],[696443.12,1874658.34],[696444.13,1874651.71],[696434.15,1874650.2],[696433.13,1874656.83]]]]}},{"type":"Feature","properties":{"building":"yes","height":6,"heightSource":"default"},"geometry":{"type":"MultiPolygon","coordinates":[[[[696467.12,1874658.57],[696456.8,1874657.42],[696455.55,1874668.48],[696465.87,1874669.63],[696467.12,1874658.57]]]]}},{"type":"Feature","properties":{"building":"yes","height":6,"heightSource":"default"},"geometry":{"type":"MultiPolygon","coordinates":[[[[696455.12,1874688.85],[696463.09,1874689.32],[696463.43,1874683.63],[696455.46,1874683.17],[696455.12,1874688.85]]]]}},{"type":"Feature","properties":{"building":"yes","height":6,"heightSource":"default"},"geometry":{"type":"MultiPolygon","coordinates":[[[[696455.66,1874692.26],[696448.47,1874690.75],[696446.68,1874699.26],[696453.87,1874700.75],[696455.66,1874692.26]]]]}},{"type":"Feature","properties":{"building":"yes","height":6,"heightSource":"default"},"geometry":{"type":"MultiPolygon","coordinates":[[[[696432.47,1874697.15],[696442.74,1874699.23],[696444.37,1874691.3],[696434.1,1874689.22],[696432.47,1874697.15]]]]}},{"type":"Feature","properties":{"building":"yes","height":6,"heightSource":"default"},"geometry":{"type":"MultiPolygon","coordinates":[[[[696446.36,1874731.91],[696450.75,1874718.32],[696434.14,1874713.02],[696429.75,1874726.61],[696446.36,1874731.91]]]]}},{"type":"Feature","properties":{"building":"yes","height":6,"heightSource":"default"},"geometry":{"type":"MultiPolygon","coordinates":[[[[696427.26,1874734.3],[696448.34,1874741.04],[696450.83,1874733.33],[696446.36,1874731.91],[696429.75,1874726.61],[696427.26,1874734.3]]]]}},{"type":"Feature","properties":{"building":"yes","height":6,"heightSource":"default"},"geometry":{"type":"MultiPolygon","coordinates":[[[[696789.78,1874620.42],[696782.56,1874621.95],[696785.3,1874634.75],[696792.51,1874633.23],[696789.78,1874620.42]]]]}},{"type":"Feature","properties":{"building":"yes","height":6,"heightSource":"default"},"geometry":{"type":"MultiPolygon","coordinates":[[[[696826,1874688.35],[696825.87,1874702.27],[696833.87,1874702.35],[696834,1874688.42],[696826,1874688.35]]]]}},{"type":"Feature","properties":{"building":"yes","height":6,"heightSource":"default"},"geometry":{"type":"MultiPolygon","coordinates":[[[[696747.64,1874757.19],[696747.76,1874762.55],[696756.61,1874762.35],[696756.49,1874756.99],[696747.64,1874757.19]]]]}},{"type":"Feature","properties":{"building":"yes","height":6,"heightSource":"default"},"geometry":{"type":"MultiPolygon","coordinates":[[[[696757.88,1874700.78],[696759.78,1874710.74],[696769.86,1874708.83],[696767.95,1874698.87],[696757.88,1874700.78]]]]}},{"type":"Feature","properties":{"building":"yes","height":6,"heightSource":"default"},"geometry":{"type":"MultiPolygon","coordinates":[[[[696767.45,1874715.92],[696752.98,1874717.05],[696753.75,1874726.71],[696768.22,1874725.58],[696767.45,1874715.92]]]]}},{"type":"Feature","properties":{"building":"yes","height":6,"heightSource":"default"},"geometry":{"type":"MultiPolygon","coordinates":[[[[696692.77,1874666.65],[696678.03,1874666.87],[696678.21,1874678.51],[696692.94,1874678.3],[696692.77,1874666.65]]]]}},{"type":"Feature","properties":{"building":"yes","height":6,"heightSource":"default"},"geometry":{"type":"MultiPolygon","coordinates":[[[[696680.36,1874710.27],[696681.17,1874715.11],[696687.2,1874714.1],[696686.38,1874709.27],[696680.36,1874710.27]]]]}},{"type":"Feature","properties":{"building":"yes","height":6,"heightSource":"default"},"geometry":{"type":"MultiPolygon","coordinates":[[[[696646.26,1874720.74],[696638.9,1874719.48],[696637.09,1874729.97],[696644.45,1874731.23],[696646.26,1874720.74]]]]}},{"type":"Feature","properties":{"building":"yes","height":6,"heightSource":"default"},"geometry":{"type":"MultiPolygon","coordinates":[[[[696628.49,1874726.25],[696635.48,1874727.25],[696637.39,1874714.08],[696630.41,1874713.07],[696628.49,1874726.25]]]]}},{"type":"Feature","properties":{"building":"yes","height":6,"heightSource":"default"},"geometry":{"type":"MultiPolygon","coordinates":[[[[696626.97,1874736.75],[696633.96,1874737.75],[696635.48,1874727.25],[696628.49,1874726.25],[696626.97,1874736.75]]]]}},{"type":"Feature","properties":{"building":"yes","height":6,"heightSource":"default"},"geometry":{"type":"MultiPolygon","coordinates":[[[[696603.11,1874721.47],[696617.64,1874724.14],[696619.74,1874712.79],[696605.21,1874710.13],[696603.11,1874721.47]]]]}},{"type":"Feature","properties":{"building":"yes","height":6,"heightSource":"default"},"geometry":{"type":"MultiPolygon","coordinates":[[[[696605.21,1874710.13],[696600.66,1874709.29],[696598.56,1874720.63],[696603.11,1874721.47],[696605.21,1874710.13]]]]}},{"type":"Feature","properties":{"building":"yes","height":6,"heightSource":"default"},"geometry":{"type":"MultiPolygon","coordinates":[[[[696543.81,1874645.66],[696537.44,1874645.2],[696536.78,1874654.28],[696543.15,1874654.74],[696543.81,1874645.66]]]]}},{"type":"Feature","properties":{"building":"yes","height":6,"heightSource":"default"},"geometry":{"type":"MultiPolygon","coordinates":[[[[696480.17,1874515.28],[696476.05,1874512.49],[696472.58,1874517.57],[696476.71,1874520.36],[696480.17,1874515.28]]]]}},{"type":"Feature","properties":{"building":"yes","height":6,"heightSource":"default"},"geometry":{"type":"MultiPolygon","coordinates":[[[[696529.69,1874566.87],[696526.77,1874565.08],[696524.16,1874569.32],[696527.09,1874571.1],[696529.69,1874566.87]]]]}},{"type":"Feature","properties":{"building":"yes","height":6,"heightSource":"default"},"geometry":{"type":"MultiPolygon","coordinates":[[[[696565.27,1874581.68],[696560.86,1874578.9],[696557.08,1874584.83],[696561.5,1874587.61],[696565.27,1874581.68]]]]}},{"type":"Feature","properties":{"building":"yes","height":6,"heightSource":"default"},"geometry":{"type":"MultiPolygon","coordinates":[[[[696569.24,1874585.69],[696576.25,1874589.4],[696580.32,1874581.76],[696573.31,1874578.07],[696569.24,1874585.69]]]]}},{"type":"Feature","properties":{"building":"yes","height":6,"heightSource":"default"},"geometry":{"type":"MultiPolygon","coordinates":[[[[696531.55,1874612.88],[696525.98,1874620.28],[696534.5,1874626.61],[696540.07,1874619.22],[696531.55,1874612.88]]]]}},{"type":"Feature","properties":{"building":"yes","height":6,"heightSource":"default"},"geometry":{"type":"MultiPolygon","coordinates":[[[[696519.95,1874600.85],[696513.02,1874607.6],[696522.09,1874616.77],[696529.01,1874610.03],[696519.95,1874600.85]]]]}},{"type":"Feature","properties":{"building":"yes","height":6,"heightSource":"default"},"geometry":{"type":"MultiPolygon","coordinates":[[[[696504.64,1874588.21],[696496.38,1874580.91],[696490.43,1874587.55],[696493.14,1874589.94],[696489.26,1874594.28],[696494.82,1874599.19],[696504.64,1874588.21]]]]}},{"type":"Feature","properties":{"building":"yes","height":6,"heightSource":"default"},"geometry":{"type":"MultiPolygon","coordinates":[[[[696495.69,1874567.4],[696492.25,1874564.12],[696487.64,1874568.91],[696491.07,1874572.18],[696495.69,1874567.4]]]]}},{"type":"Feature","properties":{"building":"yes","height":6,"heightSource":"default"},"geometry":{"type":"MultiPolygon","coordinates":[[[[696481.18,1874561.59],[696486,1874565.03],[696489.03,1874560.85],[696484.21,1874557.4],[696481.18,1874561.59]]]]}},{"type":"Feature","properties":{"building":"yes","height":6,"heightSource":"default"},"geometry":{"type":"MultiPolygon","coordinates":[[[[696474.08,1874555.83],[696468.65,1874554.28],[696466.29,1874562.51],[696471.71,1874564.04],[696474.08,1874555.83]]]]}},{"type":"Feature","properties":{"building":"yes","height":6,"heightSource":"default"},"geometry":{"type":"MultiPolygon","coordinates":[[[[696458.16,1874547.17],[696451.47,1874559.6],[696460.42,1874564.35],[696467.11,1874551.91],[696458.16,1874547.17]]]]}},{"type":"Feature","properties":{"building":"yes","height":6,"heightSource":"default"},"geometry":{"type":"MultiPolygon","coordinates":[[[[696453.66,1874540.31],[696445.59,1874538.43],[696442.32,1874552.31],[696450.38,1874554.19],[696453.66,1874540.31]]]]}},{"type":"Feature","properties":{"building":"yes","height":6,"heightSource":"default"},"geometry":{"type":"MultiPolygon","coordinates":[[[[696429.59,1874517.08],[696424.87,1874532.93],[696433.53,1874535.48],[696438.24,1874519.62],[696429.59,1874517.08]]]]}},{"type":"Feature","properties":{"building":"yes","height":6,"heightSource":"default"},"geometry":{"type":"MultiPolygon","coordinates":[[[[696415.16,1874531.99],[696423.42,1874534.07],[696428.46,1874514.24],[696420.2,1874512.16],[696415.16,1874531.99]]]]}},{"type":"Feature","properties":{"building":"yes","height":6,"heightSource":"default"},"geometry":{"type":"MultiPolygon","coordinates":[[[[696412.9,1874558.95],[696427.79,1874562.27],[696433.15,1874538.47],[696418.27,1874535.15],[696412.9,1874558.95]]]]}},{"type":"Feature","properties":{"building":"yes","height":6,"heightSource":"default"},"geometry":{"type":"MultiPolygon","coordinates":[[[[696423.48,1874589.16],[696429.21,1874589.45],[696429.91,1874576.11],[696424.18,1874575.81],[696423.48,1874589.16]]]]}},{"type":"Feature","properties":{"building":"yes","height":6,"heightSource":"default"},"geometry":{"type":"MultiPolygon","coordinates":[[[[696421.31,1874607.59],[696414.73,1874607.35],[696414.51,1874613.18],[696421.09,1874613.42],[696421.31,1874607.59]]]]}},{"type":"Feature","properties":{"building":"yes","height":6,"heightSource":"default"},"geometry":{"type":"MultiPolygon","coordinates":[[[[696411.02,1874607.21],[696414.73,1874607.35],[696421.31,1874607.59],[696421.64,1874598.85],[696411.35,1874598.46],[696411.02,1874607.21]]]]}},{"type":"Feature","properties":{"building":"yes","height":6,"heightSource":"default"},"geometry":{"type":"MultiPolygon","coordinates":[[[[696411.65,1874661.74],[696417.07,1874663.21],[696419.02,1874656.11],[696413.6,1874654.64],[696411.65,1874661.74]]]]}},{"type":"Feature","properties":{"building":"yes","height":6,"heightSource":"default"},"geometry":{"type":"MultiPolygon","coordinates":[[[[696401.41,1874688.62],[696408.82,1874690.12],[696410.25,1874683.07],[696402.84,1874681.58],[696401.41,1874688.62]]]]}},{"type":"Feature","properties":{"building":"yes","height":6,"heightSource":"default"},"geometry":{"type":"MultiPolygon","coordinates":[[[[696391.17,1874713.24],[696401.73,1874714.75],[696403,1874706],[696392.45,1874704.48],[696391.17,1874713.24]]]]}},{"type":"Feature","properties":{"building":"yes","height":6,"heightSource":"default"},"geometry":{"type":"MultiPolygon","coordinates":[[[[696400.33,1874742.29],[696400.72,1874730.93],[696392.95,1874730.66],[696392.55,1874742.02],[696400.33,1874742.29]]]]}},{"type":"Feature","properties":{"building":"yes","height":6,"heightSource":"default"},"geometry":{"type":"MultiPolygon","coordinates":[[[[696379.19,1874773.82],[696376.38,1874773.22],[696373.68,1874785.69],[696379.63,1874786.95],[696380.87,1874781.12],[696388.23,1874782.79],[696390.56,1874772.55],[696380.01,1874770.18],[696379.19,1874773.82]]]]}},{"type":"Feature","properties":{"building":"yes","height":6,"heightSource":"default"},"geometry":{"type":"MultiPolygon","coordinates":[[[[696340.59,1874713.33],[696346.21,1874712.99],[696345.71,1874704.75],[696340.11,1874705.09],[696340.59,1874713.33]]]]}},{"type":"Feature","properties":{"building":"yes","height":6,"heightSource":"default"},"geometry":{"type":"MultiPolygon","coordinates":[[[[696334.19,1874725.48],[696339.67,1874725.04],[696339.09,1874717.76],[696333.61,1874718.2],[696334.19,1874725.48]]]]}},{"type":"Feature","properties":{"building":"yes","height":6,"heightSource":"default"},"geometry":{"type":"MultiPolygon","coordinates":[[[[696333.17,1874712.69],[696327.55,1874713.13],[696327.92,1874717.7],[696322.16,1874718.16],[696322.82,1874726.38],[696334.19,1874725.48],[696333.61,1874718.2],[696333.17,1874712.69]]]]}},{"type":"Feature","properties":{"building":"yes","height":6,"heightSource":"default"},"geometry":{"type":"MultiPolygon","coordinates":[[[[696320.16,1874667.7],[696326.61,1874681.39],[696335.16,1874677.42],[696328.71,1874663.72],[696320.16,1874667.7]]]]}},{"type":"Feature","properties":{"building":"yes","height":6,"heightSource":"default"},"geometry":{"type":"MultiPolygon","coordinates":[[[[696298.78,1874602.18],[696303.63,1874602.51],[696303.93,1874598.24],[696299.08,1874597.91],[696298.78,1874602.18]]]]}},{"type":"Feature","properties":{"building":"yes","height":6,"heightSource":"default"},"geometry":{"type":"MultiPolygon","coordinates":[[[[696295.45,1874622.31],[696293.51,1874631.26],[696304.63,1874633.63],[696306.57,1874624.68],[696295.45,1874622.31]]]]}},{"type":"Feature","properties":{"building":"yes","height":6,"heightSource":"default"},"geometry":{"type":"MultiPolygon","coordinates":[[[[696342.85,1874624.46],[696330.28,1874625.19],[696330.74,1874632.89],[696343.32,1874632.16],[696342.85,1874624.46]]]]}},{"type":"Feature","properties":{"building":"yes","height":6,"heightSource":"default"},"geometry":{"type":"MultiPolygon","coordinates":[[[[696341.86,1874609.4],[696341.75,1874620.76],[696354.61,1874620.88],[696354.71,1874609.52],[696341.86,1874609.4]]]]}},{"type":"Feature","properties":{"building":"yes","height":6,"heightSource":"default"},"geometry":{"type":"MultiPolygon","coordinates":[[[[696405.05,1874543.26],[696392.31,1874540.92],[696388.1,1874563.6],[696400.84,1874565.93],[696405.05,1874543.26]]]]}},{"type":"Feature","properties":{"building":"yes","height":6,"heightSource":"default"},"geometry":{"type":"MultiPolygon","coordinates":[[[[696404.55,1874505.77],[696400.1,1874522.2],[696409.78,1874524.78],[696414.22,1874508.35],[696404.55,1874505.77]]]]}},{"type":"Feature","properties":{"building":"yes","height":6,"heightSource":"default"},"geometry":{"type":"MultiPolygon","coordinates":[[[[696458.75,1874499.14],[696457.29,1874502.16],[696464.04,1874505.37],[696468.93,1874495.26],[696465.36,1874493.56],[696468.17,1874487.74],[696458.42,1874483.09],[696452.19,1874496],[696458.75,1874499.14]]]]}},{"type":"Feature","properties":{"building":"yes","height":6,"heightSource":"default"},"geometry":{"type":"MultiPolygon","coordinates":[[[[696440.38,1874492.47],[696450.07,1874495.4],[696454.61,1874480.62],[696444.92,1874477.68],[696440.38,1874492.47]]]]}},{"type":"Feature","properties":{"building":"yes","height":6,"heightSource":"default"},"geometry":{"type":"MultiPolygon","coordinates":[[[[696441.76,1874468.92],[696452,1874473.27],[696454.21,1874468.15],[696443.96,1874463.79],[696441.76,1874468.92]]]]}},{"type":"Feature","properties":{"building":"yes","height":6,"heightSource":"default"},"geometry":{"type":"MultiPolygon","coordinates":[[[[696419.56,1874459.06],[696408.16,1874457.21],[696405.43,1874473.94],[696416.83,1874475.78],[696419.56,1874459.06]]]]}},{"type":"Feature","properties":{"building":"yes","height":6,"heightSource":"default"},"geometry":{"type":"MultiPolygon","coordinates":[[[[696407.85,1874427.99],[696408.77,1874440.34],[696425.92,1874439.07],[696425,1874426.73],[696407.85,1874427.99]]]]}},{"type":"Feature","properties":{"building":"yes","height":6,"heightSource":"default"},"geometry":{"type":"MultiPolygon","coordinates":[[[[696405.67,1874415.76],[696404.84,1874421.58],[696409.12,1874422.18],[696409.96,1874416.37],[696405.67,1874415.76]]]]}},{"type":"Feature","properties":{"building":"yes","height":6,"heightSource":"default"},"geometry":{"type":"MultiPolygon","coordinates":[[[[696396.4,1874339.56],[696404.11,1874339.63],[696404.23,1874327.14],[696396.51,1874327.06],[696396.48,1874330.47],[696396.4,1874339.56]]]]}},{"type":"Feature","properties":{"building":"yes","height":6,"heightSource":"default"},"geometry":{"type":"MultiPolygon","coordinates":[[[[696386.48,1874330.38],[696386.34,1874345.43],[696396.34,1874345.52],[696396.4,1874339.56],[696396.48,1874330.47],[696386.48,1874330.38]]]]}},{"type":"Feature","properties":{"building":"yes","height":6,"heightSource":"default"},"geometry":{"type":"MultiPolygon","coordinates":[[[[696377.42,1874321.21],[696369.82,1874320.74],[696368.81,1874336.62],[696376.41,1874337.1],[696377.42,1874321.21]]]]}},{"type":"Feature","properties":{"building":"yes","height":6,"heightSource":"default"},"geometry":{"type":"MultiPolygon","coordinates":[[[[696355.74,1874317.32],[696354.74,1874332.92],[696363.69,1874333.5],[696364.69,1874317.89],[696355.74,1874317.32]]]]}},{"type":"Feature","properties":{"building":"yes","height":6,"heightSource":"default"},"geometry":{"type":"MultiPolygon","coordinates":[[[[696336.15,1874334.17],[696345.69,1874333.7],[696344.96,1874319.21],[696335.43,1874319.68],[696336.15,1874334.17]]]]}},{"type":"Feature","properties":{"building":"yes","height":6,"heightSource":"default"},"geometry":{"type":"MultiPolygon","coordinates":[[[[696331.06,1874328.73],[696318.05,1874329.98],[696319.45,1874344.44],[696325.01,1874343.9],[696325.43,1874348.2],[696332.88,1874347.48],[696331.06,1874328.73]]]]}},{"type":"Feature","properties":{"building":"yes","height":6,"heightSource":"default"},"geometry":{"type":"MultiPolygon","coordinates":[[[[696304.05,1874345.22],[696303.78,1874352.39],[696313.78,1874352.77],[696314.04,1874345.6],[696304.05,1874345.22]]]]}},{"type":"Feature","properties":{"building":"yes","height":6,"heightSource":"default"},"geometry":{"type":"MultiPolygon","coordinates":[[[[695917.13,1874257.82],[695912.02,1874263.73],[695917.41,1874268.33],[695922.51,1874262.42],[695917.13,1874257.82]]]]}},{"type":"Feature","properties":{"building":"yes","height":6,"heightSource":"default"},"geometry":{"type":"MultiPolygon","coordinates":[[[[695930.54,1874259.09],[695925.07,1874266.1],[695932.17,1874271.56],[695937.63,1874264.55],[695930.54,1874259.09]]]]}},{"type":"Feature","properties":{"building":"yes","height":6,"heightSource":"default"},"geometry":{"type":"MultiPolygon","coordinates":[[[[695909.84,1874236.47],[695903.51,1874229.92],[695891.17,1874241.73],[695897.5,1874248.27],[695909.84,1874236.47]]]]}},{"type":"Feature","properties":{"building":"yes","height":6,"heightSource":"default"},"geometry":{"type":"MultiPolygon","coordinates":[[[[695891.82,1874225.91],[695886.98,1874231.24],[695893.6,1874237.16],[695898.43,1874231.82],[695891.82,1874225.91]]]]}},{"type":"Feature","properties":{"building":"yes","height":6,"heightSource":"default"},"geometry":{"type":"MultiPolygon","coordinates":[[[[695886.11,1874212.95],[695877.22,1874222.78],[695880.85,1874226.04],[695877.35,1874229.9],[695883.35,1874235.26],[695886.98,1874231.24],[695891.82,1874225.91],[695895.74,1874221.56],[695886.11,1874212.95]]]]}},{"type":"Feature","properties":{"building":"yes","height":6,"heightSource":"default"},"geometry":{"type":"MultiPolygon","coordinates":[[[[695876.51,1874209.76],[695872.76,1874213.9],[695877.21,1874217.88],[695880.96,1874213.75],[695876.51,1874209.76]]]]}},{"type":"Feature","properties":{"building":"yes","height":6,"heightSource":"default"},"geometry":{"type":"MultiPolygon","coordinates":[[[[695875.93,1874202.06],[695872.56,1874204.62],[695876.51,1874209.76],[695879.88,1874207.21],[695875.93,1874202.06]]]]}},{"type":"Feature","properties":{"building":"yes","height":6,"heightSource":"default"},"geometry":{"type":"MultiPolygon","coordinates":[[[[695840.55,1874226.16],[695838.02,1874224.56],[695834.26,1874230.49],[695836.79,1874232.09],[695840.55,1874226.16]]]]}},{"type":"Feature","properties":{"building":"yes","height":6,"heightSource":"default"},"geometry":{"type":"MultiPolygon","coordinates":[[[[695836.35,1874217.88],[695827.84,1874213.71],[695820.26,1874228.98],[695828.78,1874233.14],[695836.35,1874217.88]]]]}},{"type":"Feature","properties":{"building":"yes","height":6,"heightSource":"default"},"geometry":{"type":"MultiPolygon","coordinates":[[[[695787.25,1874181.64],[695780.11,1874192.65],[695790.9,1874199.57],[695798.05,1874188.56],[695787.25,1874181.64]]]]}},{"type":"Feature","properties":{"building":"yes","height":6,"heightSource":"default"},"geometry":{"type":"MultiPolygon","coordinates":[[[[695802.06,1874156.5],[695794.47,1874154.31],[695788.85,1874173.58],[695796.45,1874175.76],[695802.06,1874156.5]]]]}},{"type":"Feature","properties":{"building":"yes","height":6,"heightSource":"default"},"geometry":{"type":"MultiPolygon","coordinates":[[[[695917.26,1874151.9],[695922.79,1874141.16],[695915.84,1874137.63],[695910.32,1874148.37],[695917.26,1874151.9]]]]}},{"type":"Feature","properties":{"building":"yes","height":6,"heightSource":"default"},"geometry":{"type":"MultiPolygon","coordinates":[[[[695934.87,1874010.64],[695938.81,1874015.79],[695944.83,1874011.23],[695940.89,1874006.08],[695934.87,1874010.64]]]]}},{"type":"Feature","properties":{"building":"yes","height":6,"heightSource":"default"},"geometry":{"type":"MultiPolygon","coordinates":[[[[695917.05,1873990.31],[695925.55,1873998.9],[695934.19,1873990.47],[695925.71,1873981.87],[695917.05,1873990.31]]]]}},{"type":"Feature","properties":{"building":"yes","height":6,"heightSource":"default"},"geometry":{"type":"MultiPolygon","coordinates":[[[[695908.2,1874050.99],[695911.48,1874055.81],[695923.55,1874047.69],[695920.28,1874042.87],[695908.2,1874050.99]]]]}},{"type":"Feature","properties":{"building":"yes","height":6,"heightSource":"default"},"geometry":{"type":"MultiPolygon","coordinates":[[[[695907.72,1874010.96],[695895.67,1874019.22],[695909.76,1874039.51],[695921.82,1874031.24],[695907.72,1874010.96]]]]}},{"type":"Feature","properties":{"building":"yes","height":6,"heightSource":"default"},"geometry":{"type":"MultiPolygon","coordinates":[[[[695835.19,1874097.46],[695830.78,1874103.29],[695846.96,1874115.37],[695851.36,1874109.53],[695835.19,1874097.46]]]]}},{"type":"Feature","properties":{"building":"yes","height":6,"heightSource":"default"},"geometry":{"type":"MultiPolygon","coordinates":[[[[695850.26,1874074.59],[695845.18,1874082.02],[695859.66,1874091.81],[695864.74,1874084.39],[695850.26,1874074.59]]]]}},{"type":"Feature","properties":{"building":"yes","height":6,"heightSource":"default"},"geometry":{"type":"MultiPolygon","coordinates":[[[[695836.98,1874059.43],[695849.95,1874046.76],[695845.7,1874042.46],[695832.72,1874055.13],[695836.98,1874059.43]]]]}},{"type":"Feature","properties":{"building":"yes","height":6,"heightSource":"default"},"geometry":{"type":"MultiPolygon","coordinates":[[[[695807.95,1874015.41],[695805.01,1874019.63],[695811.25,1874023.94],[695814.2,1874019.73],[695807.95,1874015.41]]]]}},{"type":"Feature","properties":{"building":"yes","height":6,"heightSource":"default"},"geometry":{"type":"MultiPolygon","coordinates":[[[[695788.15,1874024.04],[695783.55,1874031.68],[695803.45,1874043.51],[695808.05,1874035.87],[695788.15,1874024.04]]]]}},{"type":"Feature","properties":{"building":"yes","height":6,"heightSource":"default"},"geometry":{"type":"MultiPolygon","coordinates":[[[[696381.02,1874484.82],[696392.27,1874486.21],[696393.5,1874476.28],[696382.27,1874474.89],[696381.02,1874484.82]]]]}},{"type":"Feature","properties":{"building":"yes","height":6,"heightSource":"default"},"geometry":{"type":"MultiPolygon","coordinates":[[[[696354.29,1874463.88],[696350.61,1874481.07],[696364.58,1874484.01],[696368.25,1874466.82],[696354.29,1874463.88]]]]}},{"type":"Feature","properties":{"building":"yes","height":6,"heightSource":"default"},"geometry":{"type":"MultiPolygon","coordinates":[[[[696339.65,1874478.75],[696350.61,1874481.07],[696354.29,1874463.88],[696355.1,1874460.09],[696344.14,1874457.77],[696339.65,1874478.75]]]]}},{"type":"Feature","properties":{"building":"yes","height":6,"heightSource":"default"},"geometry":{"type":"MultiPolygon","coordinates":[[[[696328.08,1874463.3],[696324.52,1874477.76],[696335.76,1874480.5],[696339.31,1874466.04],[696328.08,1874463.3]]]]}},{"type":"Feature","properties":{"building":"yes","height":6,"heightSource":"default"},"geometry":{"type":"MultiPolygon","coordinates":[[[[696306.86,1874472.19],[696319.78,1874475.87],[696328.35,1874446.14],[696315.42,1874442.45],[696306.86,1874472.19]]]]}},{"type":"Feature","properties":{"building":"yes","height":6,"heightSource":"default"},"geometry":{"type":"MultiPolygon","coordinates":[[[[696290.88,1874469.77],[696302.39,1874471.87],[696304.79,1874458.83],[696293.28,1874456.73],[696290.88,1874469.77]]]]}},{"type":"Feature","properties":{"building":"yes","height":6,"heightSource":"default"},"geometry":{"type":"MultiPolygon","coordinates":[[[[696280.92,1874459.06],[696275.4,1874457.07],[696271.7,1874467.19],[696277.21,1874469.19],[696278.61,1874465.37],[696280.92,1874459.06]]]]}},{"type":"Feature","properties":{"building":"yes","height":6,"heightSource":"default"},"geometry":{"type":"MultiPolygon","coordinates":[[[[696287.85,1874457.82],[696282.13,1874455.75],[696280.92,1874459.06],[696278.61,1874465.37],[696284.33,1874467.44],[696287.85,1874457.82]]]]}},{"type":"Feature","properties":{"building":"yes","height":6,"heightSource":"default"},"geometry":{"type":"MultiPolygon","coordinates":[[[[696220.46,1874453.21],[696220.79,1874457.87],[696227.93,1874457.37],[696227.6,1874452.71],[696220.46,1874453.21]]]]}},{"type":"Feature","properties":{"building":"yes","height":6,"heightSource":"default"},"geometry":{"type":"MultiPolygon","coordinates":[[[[696223.84,1874427.97],[696221.65,1874436.86],[696231.34,1874439.22],[696233.53,1874430.33],[696223.84,1874427.97]]]]}},{"type":"Feature","properties":{"building":"yes","height":6,"heightSource":"default"},"geometry":{"type":"MultiPolygon","coordinates":[[[[696236.17,1874423.53],[696237.62,1874416.45],[696228.77,1874414.67],[696227.32,1874421.75],[696236.17,1874423.53]]]]}},{"type":"Feature","properties":{"building":"yes","height":6,"heightSource":"default"},"geometry":{"type":"MultiPolygon","coordinates":[[[[696241.38,1874416.49],[696239.12,1874424.64],[696253.08,1874428.45],[696255.34,1874420.31],[696241.38,1874416.49]]]]}},{"type":"Feature","properties":{"building":"yes","height":6,"heightSource":"default"},"geometry":{"type":"MultiPolygon","coordinates":[[[[696260.76,1874360.16],[696260.34,1874374.07],[696272.27,1874374.42],[696272.69,1874360.51],[696260.76,1874360.16]]]]}},{"type":"Feature","properties":{"building":"yes","height":6,"heightSource":"default"},"geometry":{"type":"MultiPolygon","coordinates":[[[[696251.91,1874359.51],[696239.57,1874358.99],[696239.21,1874367.79],[696251.54,1874368.3],[696251.91,1874359.51]]]]}},{"type":"Feature","properties":{"building":"yes","height":6,"heightSource":"default"},"geometry":{"type":"MultiPolygon","coordinates":[[[[696262.31,1874408.45],[696276.87,1874409.44],[696277.44,1874401.09],[696262.88,1874400.1],[696262.31,1874408.45]]]]}},{"type":"Feature","properties":{"building":"yes","height":6,"heightSource":"default"},"geometry":{"type":"MultiPolygon","coordinates":[[[[696338.91,1874391.28],[696331.84,1874391.9],[696332.41,1874398.38],[696339.47,1874397.77],[696339.32,1874396.01],[696338.91,1874391.28]]]]}},{"type":"Feature","properties":{"building":"yes","height":6,"heightSource":"default"},"geometry":{"type":"MultiPolygon","coordinates":[[[[696346.01,1874380.55],[696338.03,1874381.24],[696338.91,1874391.28],[696339.32,1874396.01],[696347.29,1874395.33],[696346.01,1874380.55]]]]}},{"type":"Feature","properties":{"building":"yes","height":6,"heightSource":"default"},"geometry":{"type":"MultiPolygon","coordinates":[[[[696088,1874239.75],[696091.07,1874234.81],[696085.37,1874231.31],[696082.3,1874236.25],[696088,1874239.75]]]]}},{"type":"Feature","properties":{"building":"yes","height":6,"heightSource":"default"},"geometry":{"type":"MultiPolygon","coordinates":[[[[696094.69,1874243.87],[696100.5,1874234.56],[696093.8,1874230.43],[696091.07,1874234.81],[696088,1874239.75],[696094.69,1874243.87]]]]}},{"type":"Feature","properties":{"building":"yes","height":6,"heightSource":"default"},"geometry":{"type":"MultiPolygon","coordinates":[[[[696085.01,1874271.04],[696080.33,1874277.29],[696087.7,1874282.76],[696092.39,1874276.51],[696085.01,1874271.04]]]]}},{"type":"Feature","properties":{"building":"yes","height":6,"heightSource":"default"},"geometry":{"type":"MultiPolygon","coordinates":[[[[696032.98,1874294.29],[696024.24,1874288.97],[696017.28,1874300.26],[696026.01,1874305.58],[696032.98,1874294.29]]]]}},{"type":"Feature","properties":{"building":"yes","height":6,"heightSource":"default"},"geometry":{"type":"MultiPolygon","coordinates":[[[[696033.79,1874310.31],[696040.74,1874299.02],[696032.98,1874294.29],[696026.01,1874305.58],[696033.79,1874310.31]]]]}},{"type":"Feature","properties":{"building":"yes","height":6,"heightSource":"default"},"geometry":{"type":"MultiPolygon","coordinates":[[[[696047.02,1874330.04],[696057.45,1874315.37],[696046.66,1874307.79],[696036.24,1874322.47],[696047.02,1874330.04]]]]}},{"type":"Feature","properties":{"building":"yes","height":6,"heightSource":"default"},"geometry":{"type":"MultiPolygon","coordinates":[[[[696064.69,1874335.6],[696070.52,1874324.01],[696063.53,1874320.54],[696057.7,1874332.13],[696064.69,1874335.6]]]]}},{"type":"Feature","properties":{"building":"yes","height":6,"heightSource":"default"},"geometry":{"type":"MultiPolygon","coordinates":[[[[696073.29,1874338.97],[696076.61,1874332.53],[696071.94,1874330.16],[696068.62,1874336.61],[696073.29,1874338.97]]]]}},{"type":"Feature","properties":{"building":"yes","height":6,"heightSource":"default"},"geometry":{"type":"MultiPolygon","coordinates":[[[[696080.91,1874342.85],[696087.02,1874330.98],[696079.41,1874327.1],[696076.61,1874332.53],[696073.29,1874338.97],[696080.91,1874342.85]]]]}},{"type":"Feature","properties":{"building":"yes","height":6,"heightSource":"default"},"geometry":{"type":"MultiPolygon","coordinates":[[[[696100.53,1874384.21],[696106.6,1874375.75],[696100.82,1874371.64],[696094.73,1874380.11],[696100.53,1874384.21]]]]}},{"type":"Feature","properties":{"building":"yes","height":6,"heightSource":"default"},"geometry":{"type":"MultiPolygon","coordinates":[[[[696127.42,1874380.78],[696131.5,1874370.88],[696123.76,1874367.7],[696119.66,1874377.61],[696127.42,1874380.78]]]]}},{"type":"Feature","properties":{"building":"yes","height":6,"heightSource":"default"},"geometry":{"type":"MultiPolygon","coordinates":[[[[696140.94,1874368.65],[696136.45,1874367.08],[696131.16,1874382.08],[696141.65,1874385.74],[696143.13,1874381.53],[696149.27,1874383.66],[696153.51,1874371.65],[696141.38,1874367.43],[696140.94,1874368.65]]]]}},{"type":"Feature","properties":{"building":"yes","height":6,"heightSource":"default"},"geometry":{"type":"MultiPolygon","coordinates":[[[[696113.28,1874395.97],[696120.23,1874384.4],[696114.24,1874380.83],[696107.27,1874392.41],[696113.28,1874395.97]]]]}},{"type":"Feature","properties":{"building":"yes","height":6,"heightSource":"default"},"geometry":{"type":"MultiPolygon","coordinates":[[[[696125.75,1874406.59],[696130.39,1874398.4],[696123.38,1874394.47],[696118.73,1874402.67],[696125.75,1874406.59]]]]}},{"type":"Feature","properties":{"building":"yes","height":6,"heightSource":"default"},"geometry":{"type":"MultiPolygon","coordinates":[[[[696135.4,1874412.94],[696142.38,1874398.8],[696134.8,1874395.1],[696127.82,1874409.24],[696135.4,1874412.94]]]]}},{"type":"Feature","properties":{"building":"yes","height":6,"heightSource":"default"},"geometry":{"type":"MultiPolygon","coordinates":[[[[696143.64,1874418.69],[696150.04,1874406.55],[696143.37,1874403.07],[696136.97,1874415.22],[696143.64,1874418.69]]]]}},{"type":"Feature","properties":{"building":"yes","height":6,"heightSource":"default"},"geometry":{"type":"MultiPolygon","coordinates":[[[[696149.89,1874422.16],[696155.41,1874411.42],[696150.86,1874409.11],[696145.34,1874419.85],[696149.89,1874422.16]]]]}},{"type":"Feature","properties":{"building":"yes","height":6,"heightSource":"default"},"geometry":{"type":"MultiPolygon","coordinates":[[[[696212.39,1874356.48],[696213.05,1874347.12],[696206.13,1874346.64],[696205.47,1874356.01],[696212.39,1874356.48]]]]}},{"type":"Feature","properties":{"building":"yes","height":6,"heightSource":"default"},"geometry":{"type":"MultiPolygon","coordinates":[[[[696224.02,1874347.88],[696213.05,1874347.12],[696212.39,1874356.48],[696223.35,1874357.25],[696224.02,1874347.88]]]]}},{"type":"Feature","properties":{"building":"yes","height":6,"heightSource":"default"},"geometry":{"type":"MultiPolygon","coordinates":[[[[696209.43,1874379.55],[696220.84,1874382.5],[696222.93,1874374.5],[696211.52,1874371.56],[696209.43,1874379.55]]]]}},{"type":"Feature","properties":{"building":"yes","height":6,"heightSource":"default"},"geometry":{"type":"MultiPolygon","coordinates":[[[[696203.59,1874392.56],[696218.12,1874396.96],[696220.54,1874389.07],[696206.01,1874384.67],[696203.59,1874392.56]]]]}},{"type":"Feature","properties":{"building":"yes","height":6,"heightSource":"default"},"geometry":{"type":"MultiPolygon","coordinates":[[[[696208.56,1874411.36],[696205.63,1874419.84],[696213.48,1874422.52],[696216.43,1874414.04],[696208.56,1874411.36]]]]}},{"type":"Feature","properties":{"building":"yes","height":6,"heightSource":"default"},"geometry":{"type":"MultiPolygon","coordinates":[[[[696178.75,1874422.14],[696171.67,1874419.31],[696168.45,1874427.23],[696175.53,1874430.07],[696178.75,1874422.14]]]]}},{"type":"Feature","properties":{"building":"yes","height":6,"heightSource":"default"},"geometry":{"type":"MultiPolygon","coordinates":[[[[696190.14,1874426.8],[696182.2,1874423.7],[696177.51,1874435.59],[696185.44,1874438.68],[696190.14,1874426.8]]]]}},{"type":"Feature","properties":{"building":"yes","height":6,"heightSource":"default"},"geometry":{"type":"MultiPolygon","coordinates":[[[[696195.26,1874436.53],[696203.73,1874439.42],[696208.46,1874425.74],[696199.99,1874422.85],[696195.26,1874436.53]]]]}},{"type":"Feature","properties":{"building":"yes","height":6,"heightSource":"default"},"geometry":{"type":"MultiPolygon","coordinates":[[[[696203.73,1874439.42],[696195.26,1874436.53],[696192.33,1874445.02],[696200.79,1874447.91],[696203.73,1874439.42]]]]}},{"type":"Feature","properties":{"building":"yes","height":6,"heightSource":"default"},"geometry":{"type":"MultiPolygon","coordinates":[[[[696210.15,1874455.39],[696213.39,1874444.63],[696205.09,1874442.15],[696201.84,1874452.91],[696210.15,1874455.39]]]]}},{"type":"Feature","properties":{"building":"yes","height":6,"heightSource":"default"},"geometry":{"type":"MultiPolygon","coordinates":[[[[695976.07,1874340.17],[695965.36,1874335.63],[695960.39,1874347.23],[695971.1,1874351.76],[695976.07,1874340.17]]]]}},{"type":"Feature","properties":{"building":"yes","height":6,"heightSource":"default"},"geometry":{"type":"MultiPolygon","coordinates":[[[[696034.22,1874476.74],[696031.02,1874484.12],[696036.42,1874486.44],[696039.63,1874479.06],[696034.22,1874476.74]]]]}},{"type":"Feature","properties":{"building":"yes","height":6,"heightSource":"default"},"geometry":{"type":"MultiPolygon","coordinates":[[[[696016.53,1874474.02],[696013.04,1874481.93],[696019.79,1874484.89],[696023.3,1874476.97],[696016.53,1874474.02]]]]}},{"type":"Feature","properties":{"building":"yes","height":6,"heightSource":"default"},"geometry":{"type":"MultiPolygon","coordinates":[[[[695973.14,1874469.35],[695970.09,1874475.93],[695984.6,1874482.61],[695987.65,1874476.02],[695973.14,1874469.35]]]]}},{"type":"Feature","properties":{"building":"yes","height":6,"heightSource":"default"},"geometry":{"type":"MultiPolygon","coordinates":[[[[695971.35,1874448.04],[695966.8,1874457.18],[695999.23,1874473.1],[696003.77,1874463.96],[695971.35,1874448.04]]]]}},{"type":"Feature","properties":{"building":"yes","height":6,"heightSource":"default"},"geometry":{"type":"MultiPolygon","coordinates":[[[[695974.64,1874492.36],[695971.6,1874491.8],[695970.7,1874496.62],[695973.74,1874497.18],[695974.64,1874492.36]]]]}},{"type":"Feature","properties":{"building":"yes","height":6,"heightSource":"default"},"geometry":{"type":"MultiPolygon","coordinates":[[[[695986.08,1874491.91],[695981.96,1874491.05],[695980.77,1874496.71],[695984.88,1874497.57],[695986.08,1874491.91]]]]}},{"type":"Feature","properties":{"building":"yes","height":6,"heightSource":"default"},"geometry":{"type":"MultiPolygon","coordinates":[[[[695972.79,1874506.83],[695988.75,1874510.96],[695990.19,1874505.49],[695974.23,1874501.37],[695972.79,1874506.83]]]]}},{"type":"Feature","properties":{"building":"yes","height":6,"heightSource":"default"},"geometry":{"type":"MultiPolygon","coordinates":[[[[696028.64,1874524.68],[696019.52,1874522.59],[696016.24,1874536.76],[696025.36,1874538.85],[696028.64,1874524.68]]]]}},{"type":"Feature","properties":{"building":"yes","height":6,"heightSource":"default"},"geometry":{"type":"MultiPolygon","coordinates":[[[[696047.94,1874507.54],[696045.71,1874517.62],[696057.97,1874520.29],[696060.2,1874510.21],[696047.94,1874507.54]]]]}},{"type":"Feature","properties":{"building":"yes","height":6,"heightSource":"default"},"geometry":{"type":"MultiPolygon","coordinates":[[[[696083.99,1874508.81],[696084.58,1874503.83],[696077.29,1874502.98],[696075.69,1874516.34],[696082.98,1874517.21],[696083.99,1874508.81]]]]}},{"type":"Feature","properties":{"building":"yes","height":6,"heightSource":"default"},"geometry":{"type":"MultiPolygon","coordinates":[[[[696091.06,1874509.65],[696083.99,1874508.81],[696082.98,1874517.21],[696082.13,1874524.42],[696089.2,1874525.25],[696091.06,1874509.65]]]]}},{"type":"Feature","properties":{"building":"yes","height":6,"heightSource":"default"},"geometry":{"type":"MultiPolygon","coordinates":[[[[696122.58,1874592.01],[696119.75,1874591.82],[696119.42,1874596.64],[696122.25,1874596.83],[696122.58,1874592.01]]]]}},{"type":"Feature","properties":{"building":"yes","height":6,"heightSource":"default"},"geometry":{"type":"MultiPolygon","coordinates":[[[[696182.94,1874676.63],[696172.89,1874675.79],[696171.93,1874687.14],[696181.97,1874687.99],[696182.94,1874676.63]]]]}},{"type":"Feature","properties":{"building":"yes","height":6,"heightSource":"default"},"geometry":{"type":"MultiPolygon","coordinates":[[[[696101.08,1874629.58],[696102.96,1874636.12],[696115.56,1874632.56],[696113.69,1874626.01],[696101.08,1874629.58]]]]}},{"type":"Feature","properties":{"building":"yes","height":6,"heightSource":"default"},"geometry":{"type":"MultiPolygon","coordinates":[[[[696132.43,1874607.72],[696131.08,1874614.49],[696144.78,1874617.18],[696146.12,1874610.41],[696132.43,1874607.72]]]]}},{"type":"Feature","properties":{"building":"yes","height":6,"heightSource":"default"},"geometry":{"type":"MultiPolygon","coordinates":[[[[696169.35,1874570.87],[696161.61,1874569.29],[696159.22,1874580.91],[696166.95,1874582.49],[696169.35,1874570.87]]]]}},{"type":"Feature","properties":{"building":"yes","height":6,"heightSource":"default"},"geometry":{"type":"MultiPolygon","coordinates":[[[[696129.85,1874577.59],[696129.27,1874585.63],[696142.68,1874586.61],[696143.28,1874578.57],[696129.85,1874577.59]]]]}},{"type":"Feature","properties":{"building":"yes","height":6,"heightSource":"default"},"geometry":{"type":"MultiPolygon","coordinates":[[[[696126.65,1874553.71],[696125.47,1874561.45],[696139.44,1874563.57],[696140.64,1874555.83],[696126.65,1874553.71]]]]}},{"type":"Feature","properties":{"building":"yes","height":6,"heightSource":"default"},"geometry":{"type":"MultiPolygon","coordinates":[[[[696127.34,1874541.22],[696126.11,1874550.3],[696130.54,1874550.89],[696131.77,1874541.82],[696127.34,1874541.22]]]]}},{"type":"Feature","properties":{"building":"yes","height":6,"heightSource":"default"},"geometry":{"type":"MultiPolygon","coordinates":[[[[696187.39,1874566.49],[696179.23,1874564.09],[696176.86,1874572.02],[696185.03,1874574.42],[696187.39,1874566.49]]]]}},{"type":"Feature","properties":{"building":"yes","height":6,"heightSource":"default"},"geometry":{"type":"MultiPolygon","coordinates":[[[[696208.69,1874549.94],[696200.63,1874550.13],[696201.05,1874566.89],[696209.11,1874566.69],[696208.69,1874549.94]]]]}},{"type":"Feature","properties":{"building":"yes","height":6,"heightSource":"default"},"geometry":{"type":"MultiPolygon","coordinates":[[[[696223.68,1874548.71],[696215.33,1874547.45],[696214.47,1874553.05],[696222.82,1874554.31],[696223.68,1874548.71]]]]}},{"type":"Feature","properties":{"building":"yes","height":6,"heightSource":"default"},"geometry":{"type":"MultiPolygon","coordinates":[[[[696233.26,1874550.17],[696223.68,1874548.71],[696222.82,1874554.31],[696221.24,1874564.59],[696230.82,1874566.04],[696233.26,1874550.17]]]]}},{"type":"Feature","properties":{"building":"yes","height":6,"heightSource":"default"},"geometry":{"type":"MultiPolygon","coordinates":[[[[696244.96,1874552.83],[696240.19,1874551.6],[696237.82,1874560.66],[696242.58,1874561.89],[696244.96,1874552.83]]]]}},{"type":"Feature","properties":{"building":"yes","height":6,"heightSource":"default"},"geometry":{"type":"MultiPolygon","coordinates":[[[[696272.9,1874557.93],[696264.02,1874554.63],[696259.04,1874567.93],[696267.92,1874571.22],[696272.9,1874557.93]]]]}},{"type":"Feature","properties":{"building":"yes","height":6,"heightSource":"default"},"geometry":{"type":"MultiPolygon","coordinates":[[[[696245.76,1874527],[696237.21,1874525.22],[696234.82,1874536.55],[696243.38,1874538.34],[696245.76,1874527]]]]}},{"type":"Feature","properties":{"building":"yes","height":6,"heightSource":"default"},"geometry":{"type":"MultiPolygon","coordinates":[[[[696294.24,1874537.67],[696287.1,1874537.61],[696287.06,1874542.43],[696294.19,1874542.5],[696294.24,1874537.67]]]]}},{"type":"Feature","properties":{"building":"yes","height":6,"heightSource":"default"},"geometry":{"type":"MultiPolygon","coordinates":[[[[696301.8,1874524.39],[696293.39,1874522.58],[696307.14,1874532.18],[696308.35,1874525.6],[696301.8,1874524.39]]]]}},{"type":"Feature","properties":{"building":"yes","height":6,"heightSource":"default"},"geometry":{"type":"MultiPolygon","coordinates":[[[[696296.67,1874507.57],[696290.17,1874506.16],[696288.55,1874513.51],[696295.07,1874514.91],[696296.67,1874507.57]]]]}},{"type":"Feature","properties":{"building":"yes","height":6,"heightSource":"default"},"geometry":{"type":"MultiPolygon","coordinates":[[[[696305.08,1874509.38],[696296.67,1874507.57],[696295.07,1874514.91],[696293.39,1874522.58],[696301.8,1874524.39],[696305.08,1874509.38]]]]}},{"type":"Feature","properties":{"building":"yes","height":6,"heightSource":"default"},"geometry":{"type":"MultiPolygon","coordinates":[[[[696311.16,1874501.94],[696318.42,1874503],[696319.76,1874493.89],[696312.5,1874492.83],[696311.16,1874501.94]]]]}},{"type":"Feature","properties":{"building":"yes","height":6,"heightSource":"default"},"geometry":{"type":"MultiPolygon","coordinates":[[[[696303.11,1874506.23],[696310.37,1874507.3],[696311.16,1874501.94],[696312.5,1874492.83],[696305.25,1874491.78],[696303.11,1874506.23]]]]}},{"type":"Feature","properties":{"building":"yes","height":6,"heightSource":"default"},"geometry":{"type":"MultiPolygon","coordinates":[[[[696292.3,1874501.59],[696299.04,1874502.92],[696302.05,1874487.89],[696295.29,1874486.57],[696292.3,1874501.59]]]]}},{"type":"Feature","properties":{"building":"yes","height":6,"heightSource":"default"},"geometry":{"type":"MultiPolygon","coordinates":[[[[696278.72,1874499.77],[696285.44,1874502.19],[696289.26,1874491.71],[696282.54,1874489.31],[696278.72,1874499.77]]]]}},{"type":"Feature","properties":{"building":"yes","height":6,"heightSource":"default"},"geometry":{"type":"MultiPolygon","coordinates":[[[[696269.77,1874496.56],[696266.98,1874504.2],[696275.93,1874507.43],[696278.72,1874499.77],[696269.77,1874496.56]]]]}},{"type":"Feature","properties":{"building":"yes","height":6,"heightSource":"default"},"geometry":{"type":"MultiPolygon","coordinates":[[[[696269.77,1874496.56],[696278.72,1874499.77],[696282.54,1874489.31],[696273.58,1874486.08],[696269.77,1874496.56]]]]}},{"type":"Feature","properties":{"building":"yes","height":6,"heightSource":"default"},"geometry":{"type":"MultiPolygon","coordinates":[[[[696261.16,1874500.73],[696266.42,1874488.57],[696258.72,1874485.29],[696253.46,1874497.44],[696261.16,1874500.73]]]]}},{"type":"Feature","properties":{"building":"yes","height":6,"heightSource":"default"},"geometry":{"type":"MultiPolygon","coordinates":[[[[696247.14,1874503.15],[696252.7,1874488.44],[696244.38,1874485.33],[696238.81,1874500.04],[696247.14,1874503.15]]]]}},{"type":"Feature","properties":{"building":"yes","height":6,"heightSource":"default"},"geometry":{"type":"MultiPolygon","coordinates":[[[[696162.64,1874524.52],[696160.23,1874534.19],[696172.21,1874537.15],[696174.62,1874527.46],[696162.64,1874524.52]]]]}},{"type":"Feature","properties":{"building":"yes","height":6,"heightSource":"default"},"geometry":{"type":"MultiPolygon","coordinates":[[[[696169.29,1874520.33],[696172.18,1874511.29],[696166.03,1874509.35],[696163.14,1874518.39],[696169.29,1874520.33]]]]}},{"type":"Feature","properties":{"building":"yes","height":6,"heightSource":"default"},"geometry":{"type":"MultiPolygon","coordinates":[[[[696181.37,1874507.94],[696174,1874505.61],[696172.18,1874511.29],[696169.29,1874520.33],[696176.66,1874522.66],[696177.83,1874519.02],[696179.99,1874512.25],[696181.37,1874507.94]]]]}},{"type":"Feature","properties":{"building":"yes","height":6,"heightSource":"default"},"geometry":{"type":"MultiPolygon","coordinates":[[[[696206.93,1874509.17],[696219.45,1874514.11],[696222.49,1874506.53],[696209.96,1874501.59],[696206.93,1874509.17]]]]}},{"type":"Feature","properties":{"building":"yes","height":6,"heightSource":"default"},"geometry":{"type":"MultiPolygon","coordinates":[[[[696208.79,1874524.23],[696212.18,1874512.34],[696204.46,1874510.16],[696201.07,1874522.06],[696208.79,1874524.23]]]]}},{"type":"Feature","properties":{"building":"yes","height":6,"heightSource":"default"},"geometry":{"type":"MultiPolygon","coordinates":[[[[696199.95,1874507.11],[696204.76,1874497.22],[696192.51,1874491.34],[696187.7,1874501.23],[696199.95,1874507.11]]]]}},{"type":"Feature","properties":{"building":"yes","height":6,"heightSource":"default"},"geometry":{"type":"MultiPolygon","coordinates":[[[[696212.95,1874492.47],[696221.65,1874479.2],[696214.71,1874474.71],[696206.02,1874487.98],[696212.95,1874492.47]]]]}},{"type":"Feature","properties":{"building":"yes","height":6,"heightSource":"default"},"geometry":{"type":"MultiPolygon","coordinates":[[[[696201.86,1874471.49],[696196.54,1874482.55],[696205.07,1874486.61],[696210.39,1874475.55],[696201.86,1874471.49]]]]}},{"type":"Feature","properties":{"building":"yes","height":6,"heightSource":"default"},"geometry":{"type":"MultiPolygon","coordinates":[[[[696206.8,1874462.6],[696203.73,1874470.12],[696209.14,1874472.29],[696212.2,1874464.77],[696206.8,1874462.6]]]]}},{"type":"Feature","properties":{"building":"yes","height":6,"heightSource":"default"},"geometry":{"type":"MultiPolygon","coordinates":[[[[696179.59,1874468.58],[696187.04,1874470.71],[696190.43,1874458.96],[696182.99,1874456.83],[696179.59,1874468.58]]]]}},{"type":"Feature","properties":{"building":"yes","height":6,"heightSource":"default"},"geometry":{"type":"MultiPolygon","coordinates":[[[[696179.44,1874481.32],[696183.36,1874482.46],[696185.37,1874475.62],[696181.46,1874474.49],[696179.44,1874481.32]]]]}},{"type":"Feature","properties":{"building":"yes","height":6,"heightSource":"default"},"geometry":{"type":"MultiPolygon","coordinates":[[[[696175.06,1874480.04],[696179.44,1874481.32],[696181.46,1874474.49],[696181.95,1874472.83],[696177.57,1874471.55],[696175.06,1874480.04]]]]}},{"type":"Feature","properties":{"building":"yes","height":6,"heightSource":"default"},"geometry":{"type":"MultiPolygon","coordinates":[[[[696158.32,1874498.35],[696163.45,1874499.68],[696164.86,1874494.28],[696159.73,1874492.95],[696158.32,1874498.35]]]]}},{"type":"Feature","properties":{"building":"yes","height":6,"heightSource":"default"},"geometry":{"type":"MultiPolygon","coordinates":[[[[696150.01,1874485.63],[696148.25,1874490.86],[696157.08,1874493.78],[696158.83,1874488.55],[696150.01,1874485.63]]]]}},{"type":"Feature","properties":{"building":"yes","height":6,"heightSource":"default"},"geometry":{"type":"MultiPolygon","coordinates":[[[[696154.87,1874485.67],[696166.4,1874489.05],[696168.88,1874480.7],[696157.33,1874477.33],[696154.87,1874485.67]]]]}},{"type":"Feature","properties":{"building":"yes","height":6,"heightSource":"default"},"geometry":{"type":"MultiPolygon","coordinates":[[[[696124.77,1874480.56],[696124.23,1874483.95],[696131.08,1874485.01],[696131.62,1874481.63],[696124.77,1874480.56]]]]}},{"type":"Feature","properties":{"building":"yes","height":6,"heightSource":"default"},"geometry":{"type":"MultiPolygon","coordinates":[[[[696123.64,1874478.85],[696132.48,1874480.22],[696133.5,1874473.7],[696124.65,1874472.33],[696123.64,1874478.85]]]]}},{"type":"Feature","properties":{"building":"yes","height":6,"heightSource":"default"},"geometry":{"type":"MultiPolygon","coordinates":[[[[696110.66,1874491.93],[696108.87,1874500.02],[696114.48,1874501.24],[696116.27,1874493.17],[696110.66,1874491.93]]]]}},{"type":"Feature","properties":{"building":"yes","height":6,"heightSource":"default"},"geometry":{"type":"MultiPolygon","coordinates":[[[[696111.11,1874489.67],[696118.82,1874489.6],[696118.77,1874484.6],[696111.06,1874484.66],[696111.11,1874489.67]]]]}},{"type":"Feature","properties":{"building":"yes","height":6,"heightSource":"default"},"geometry":{"type":"MultiPolygon","coordinates":[[[[696097.02,1874498.91],[696100.45,1874482.89],[696088.65,1874480.39],[696085.21,1874496.41],[696097.02,1874498.91]]]]}},{"type":"Feature","properties":{"building":"yes","height":6,"heightSource":"default"},"geometry":{"type":"MultiPolygon","coordinates":[[[[696103,1874500.82],[696105.56,1874487.2],[696100.92,1874486.34],[696098.37,1874499.95],[696103,1874500.82]]]]}},{"type":"Feature","properties":{"building":"yes","height":6,"heightSource":"default"},"geometry":{"type":"MultiPolygon","coordinates":[[[[696107.43,1874470.46],[696119.41,1874472.57],[696120.86,1874464.4],[696108.88,1874462.31],[696107.43,1874470.46]]]]}},{"type":"Feature","properties":{"building":"yes","height":6,"heightSource":"default"},"geometry":{"type":"MultiPolygon","coordinates":[[[[696147.34,1874480.5],[696149.63,1874464.89],[696140.97,1874463.64],[696138.68,1874479.23],[696147.34,1874480.5]]]]}},{"type":"Feature","properties":{"building":"yes","height":6,"heightSource":"default"},"geometry":{"type":"MultiPolygon","coordinates":[[[[696155.29,1874471.06],[696167.54,1874473.67],[696170.23,1874461.2],[696157.97,1874458.58],[696155.29,1874471.06]]]]}},{"type":"Feature","properties":{"building":"yes","height":6,"heightSource":"default"},"geometry":{"type":"MultiPolygon","coordinates":[[[[696153.9,1874451.45],[696171.55,1874458.15],[696175.59,1874447.64],[696157.94,1874440.93],[696153.9,1874451.45]]]]}},{"type":"Feature","properties":{"building":"yes","height":6,"heightSource":"default"},"geometry":{"type":"MultiPolygon","coordinates":[[[[696141.74,1874453.04],[696150.89,1874454.94],[696153.73,1874441.49],[696144.58,1874439.58],[696141.74,1874453.04]]]]}},{"type":"Feature","properties":{"building":"yes","height":6,"heightSource":"default"},"geometry":{"type":"MultiPolygon","coordinates":[[[[696124.63,1874449.33],[696135.28,1874453.29],[696142.91,1874433.05],[696132.25,1874429.09],[696124.63,1874449.33]]]]}},{"type":"Feature","properties":{"building":"yes","height":6,"heightSource":"default"},"geometry":{"type":"MultiPolygon","coordinates":[[[[696113.84,1874442.55],[696121.83,1874445.58],[696125.79,1874435.25],[696117.79,1874432.22],[696113.84,1874442.55]]]]}},{"type":"Feature","properties":{"building":"yes","height":6,"heightSource":"default"},"geometry":{"type":"MultiPolygon","coordinates":[[[[696104.47,1874425.17],[696112.85,1874430.21],[696119.08,1874419.99],[696110.7,1874414.94],[696104.47,1874425.17]]]]}},{"type":"Feature","properties":{"building":"yes","height":6,"heightSource":"default"},"geometry":{"type":"MultiPolygon","coordinates":[[[[696100.36,1874436.48],[696107.97,1874439.09],[696110.91,1874430.6],[696103.3,1874427.99],[696100.36,1874436.48]]]]}},{"type":"Feature","properties":{"building":"yes","height":6,"heightSource":"default"},"geometry":{"type":"MultiPolygon","coordinates":[[[[696096.87,1874412.6],[696106.96,1874418.08],[696110.43,1874411.79],[696100.34,1874406.29],[696096.87,1874412.6]]]]}},{"type":"Feature","properties":{"building":"yes","height":6,"heightSource":"default"},"geometry":{"type":"MultiPolygon","coordinates":[[[[696091.21,1874407.01],[696097.14,1874410.26],[696101.22,1874402.91],[696095.28,1874399.67],[696091.21,1874407.01]]]]}},{"type":"Feature","properties":{"building":"yes","height":6,"heightSource":"default"},"geometry":{"type":"MultiPolygon","coordinates":[[[[696089.05,1874423.46],[696097.03,1874426.37],[696100.22,1874417.73],[696092.25,1874414.81],[696089.05,1874423.46]]]]}},{"type":"Feature","properties":{"building":"yes","height":6,"heightSource":"default"},"geometry":{"type":"MultiPolygon","coordinates":[[[[696086.92,1874437.64],[696092.93,1874439.51],[696094.99,1874433],[696088.98,1874431.13],[696086.92,1874437.64]]]]}},{"type":"Feature","properties":{"building":"yes","height":6,"heightSource":"default"},"geometry":{"type":"MultiPolygon","coordinates":[[[[696073.05,1874465.03],[696077.8,1874465.7],[696078.41,1874461.45],[696073.66,1874460.78],[696073.05,1874465.03]]]]}},{"type":"Feature","properties":{"building":"yes","height":6,"heightSource":"default"},"geometry":{"type":"MultiPolygon","coordinates":[[[[696067.75,1874482.3],[696081.44,1874484.13],[696082.53,1874476.11],[696068.83,1874474.27],[696067.75,1874482.3]]]]}},{"type":"Feature","properties":{"building":"yes","height":6,"heightSource":"default"},"geometry":{"type":"MultiPolygon","coordinates":[[[[696102.92,1874478.66],[696106.19,1874465.91],[696097.18,1874463.63],[696093.92,1874476.38],[696102.92,1874478.66]]]]}}]}