{"type":"FeatureCollection","features":[{"type":"Feature","properties":{"provinceCode":"26","nameTh":"นครนายก","nameEn":"Nakhon Nayok"},"geometry":{"type":"Polygon","coordinates":[[[101.0727244,14.3995451],[101.0901062,14.3929416],[101.0934207,14.3843986],[101.0978049,14.383186],[101.0978174,14.38188],[101.1033996,14.3807635],[101.1041364,14.3857096],[101.1109026,14.3836539],[101.1147928,14.3854311],[101.1164146,14.3825724],[101.1192338,14.3847096],[101.1233112,14.3832845],[101.1252584,14.3845996],[101.1324377,14.376625],[101.1466072,14.3738157],[101.1511021,14.3702504],[101.1574832,14.3585429],[101.1563215,14.3544278],[101.1572587,14.3477863],[101.1638781,14.3451293],[101.1657239,14.3423758],[101.1663491,14.3480197],[101.1681776,14.3489875],[101.178162,14.3471696],[101.1786959,14.3491923],[101.185472,14.3539418],[101.1867196,14.3670956],[101.1929383,14.3706639],[101.1989088,14.3692752],[101.2030869,14.3712011],[101.2072855,14.3707879],[101.2104823,14.3729835],[101.2118161,14.3819054],[101.2098988,14.3824984],[101.2042071,14.3910076],[101.2050334,14.3976866],[101.2024729,14.4029873],[101.2112756,14.4136174],[101.2091989,14.4282066],[101.2139865,14.4371408],[101.2202826,14.4359085],[101.2271171,14.4306213],[101.2301319,14.4339839],[101.2222111,14.4459411],[101.227482,14.4515821],[101.2317654,14.452164],[101.2342178,14.4588251],[101.2314775,14.4628378],[101.2260754,14.4634866],[101.227004,14.4671155],[101.2251993,14.4723695],[101.2285544,14.4740641],[101.2428317,14.4711043],[101.241258,14.4805507],[101.2440929,14.4886952],[101.2485873,14.489305],[101.2503634,14.4906875],[101.2510848,14.4946279],[101.2561575,14.4977112],[101.2585638,14.4973289],[101.266141,14.5023869],[101.2679517,14.507445],[101.2716874,14.5094712],[101.2726084,14.5124823],[101.2771679,14.5124731],[101.2785304,14.5111708],[101.2783522,14.5059069],[101.28423,14.50207],[101.2825674,14.4986391],[101.2837514,14.4891775],[101.292431,14.4903065],[101.2999762,14.4982735],[101.3064073,14.4983485],[101.3050117,14.4946132],[101.3072359,14.4905575],[101.3054642,14.4868757],[101.3123316,14.4713569],[101.3165634,14.4709793],[101.316832,14.4695362],[101.3245358,14.4694109],[101.3288862,14.4652045],[101.3320943,14.466031],[101.3424123,14.4564574],[101.3487581,14.4535049],[101.352734,14.4545557],[101.3578711,14.4492851],[101.3661166,14.4491951],[101.3643687,14.4457862],[101.3701206,14.44266],[101.370281,14.4378449],[101.3711947,14.4401778],[101.3732907,14.4396864],[101.3769932,14.4351987],[101.3821493,14.434147],[101.3810299,14.4314473],[101.3820571,14.4290911],[101.3793063,14.4290721],[101.3780711,14.4272163],[101.3804926,14.4235095],[101.3882515,14.4238312],[101.3904953,14.4200631],[101.3959963,14.418662],[101.3972214,14.4082271],[101.4066889,14.4041722],[101.4222089,14.3837057],[101.4265032,14.3899372],[101.4336166,14.3891237],[101.4528002,14.3811445],[101.4764538,14.3647851],[101.4769435,14.3597938],[101.481271,14.3535585],[101.4826672,14.3465807],[101.4962033,14.3341098],[101.4962388,14.3263819],[101.492841,14.3227603],[101.4938506,14.3177485],[101.5054838,14.3090008],[101.5049031,14.305733],[101.5001582,14.2990133],[101.5018463,14.2891598],[101.4998622,14.282043],[101.5017798,14.2694581],[101.4934983,14.2671559],[101.4841583,14.2703504],[101.4727317,14.2625056],[101.46373,14.2634543],[101.4498556,14.2556925],[101.4394893,14.2550928],[101.4291216,14.2568435],[101.4138887,14.2537179],[101.395943,14.2733874],[101.3928553,14.2744843],[101.381647,14.2729112],[101.3809744,14.2709083],[101.3835344,14.2672127],[101.3819818,14.2650241],[101.3825106,14.2618553],[101.3782843,14.2574655],[101.38268,14.2491271],[101.3787125,14.2385142],[101.3839795,14.2327305],[101.3825262,14.2289564],[101.3862528,14.2254103],[101.385355,14.221439],[101.3867038,14.2195643],[101.3849755,14.2199888],[101.3840292,14.2153227],[101.3805193,14.2122084],[101.3826241,14.2106662],[101.3775844,14.2117657],[101.3743478,14.2098044],[101.3727171,14.204854],[101.3668844,14.2016316],[101.3638732,14.2030496],[101.3632469,14.2012542],[101.3615303,14.202943],[101.3583156,14.202358],[101.3508866,14.1997788],[101.3504267,14.1973413],[101.3457967,14.1971827],[101.3457456,14.1939525],[101.3421479,14.1918123],[101.3400834,14.1879973],[101.3377326,14.1878487],[101.3346766,14.1838554],[101.3314878,14.1832311],[101.3249056,14.1763739],[101.3172503,14.1740154],[101.3170177,14.1722622],[101.3146815,14.1732114],[101.3147566,14.1716095],[101.3111342,14.1689751],[101.3123587,14.1672353],[101.3114654,14.164502],[101.3037099,14.1626789],[101.2986691,14.1584668],[101.2994371,14.1572135],[101.2962672,14.1578524],[101.2960117,14.1555928],[101.2904414,14.1534224],[101.2886324,14.1494979],[101.28945,14.1457715],[101.2872058,14.1395599],[101.2882412,14.1366052],[101.2864119,14.1336713],[101.2939543,14.1244687],[101.3036317,14.1201924],[101.3085294,14.1118269],[101.3074082,14.1010366],[101.3088137,14.0958702],[101.3163761,14.0858923],[101.3187513,14.0849223],[101.3212922,14.0772935],[101.2784695,14.0548522],[101.2756357,14.0600184],[101.2591773,14.0622014],[101.239906,14.058422],[101.2354275,14.0619444],[101.2303921,14.0564361],[101.226471,14.0548682],[101.2263594,14.052547],[101.2140365,14.0557182],[101.20801,14.0462803],[101.202285,14.0451734],[101.2037238,14.0409944],[101.2010304,14.0377443],[101.1999557,14.0319874],[101.1968078,14.0291324],[101.200351,14.0239201],[101.1983916,14.0230315],[101.1955713,14.0253058],[101.1934698,14.0238317],[101.1969364,14.0162235],[101.196655,14.0137114],[101.1930057,14.0151633],[101.1862412,14.0124256],[101.1780666,14.0121294],[101.1785793,14.0089644],[101.1767384,14.0071436],[101.1725896,14.0116409],[101.170149,14.0081312],[101.1703288,14.0041535],[101.1651562,14.0084572],[101.1637444,14.0052776],[101.1654855,14.0018694],[101.1587834,14.0019351],[101.1558826,14.0041772],[101.154449,14.0007094],[101.1459705,13.9963032],[101.1439204,13.9976564],[101.1440932,14.0019312],[101.1388238,14.001226],[101.1431005,13.9742607],[101.1408903,13.9707447],[101.1378315,13.9697495],[101.1008885,13.9744886],[101.0440607,13.9766666],[101.0211622,13.9709842],[100.9830629,13.9705248],[100.914197,13.9612445],[100.9140203,14.2215155],[100.9466119,14.2372244],[100.9455582,14.2496252],[100.9494803,14.2548914],[100.9483361,14.2575909],[100.9508867,14.2599821],[100.9499586,14.2664479],[100.9516557,14.2720003],[100.9657882,14.2796877],[100.9642788,14.2818227],[100.9765706,14.2892536],[100.975769,14.2902356],[100.9774123,14.2912591],[100.9842332,14.2913614],[100.9869793,14.2871677],[100.9885474,14.2874743],[100.9901718,14.2920463],[100.989792,14.2968283],[100.9914717,14.2994079],[100.9979653,14.3009653],[100.999219,14.2990708],[100.999827,14.3021487],[101.0042327,14.3015654],[101.0063011,14.3067288],[101.0123978,14.3083883],[101.0140615,14.3105899],[101.0126958,14.3134089],[101.0150744,14.3148401],[101.0184168,14.3139415],[101.0205838,14.3175864],[101.0229426,14.3174858],[101.0240102,14.3197527],[101.0226232,14.3208728],[101.0256572,14.324477],[101.0248497,14.3304531],[101.0330302,14.3319927],[101.0328021,14.3337032],[101.0297701,14.3334738],[101.0299155,14.3369184],[101.0328985,14.3375097],[101.0341632,14.3400897],[101.0397756,14.3401785],[101.0412204,14.3449411],[101.0445245,14.3449229],[101.046456,14.3488595],[101.0520873,14.34865],[101.0515869,14.3516359],[101.0478354,14.3504284],[101.0491082,14.3578361],[101.0503891,14.3578298],[101.0520933,14.3625459],[101.0568409,14.3636021],[101.058766,14.3663401],[101.0540484,14.3687214],[101.0556476,14.3741859],[101.0623097,14.3754277],[101.0633115,14.3769396],[101.062994,14.3797156],[101.0578695,14.3845465],[101.0544906,14.3917825],[101.0581043,14.3984144],[101.0567049,14.4101786],[101.0532829,14.412317],[101.0568366,14.414349],[101.058509,14.4130529],[101.0619384,14.4146107],[101.0657605,14.4077071],[101.0716938,14.4053434],[101.0727244,14.3995451]]]}}]}