{"type":"FeatureCollection","name":"p26-subset","crs":{"type":"name","properties":{"name":"urn:ogc:def:crs:EPSG::32647"}},"features":[{"type":"Feature","properties":{"building":"yes","height":6,"heightSource":"default"},"geometry":{"type":"MultiPolygon","coordinates":[[[[747360.05,1582683.24],[747360.11,1582673.21],[747370.06,1582673.28],[747370,1582683.31],[747360.05,1582683.24]]]]}},{"type":"Feature","properties":{"building":"yes","height":6,"heightSource":"default"},"geometry":{"type":"MultiPolygon","coordinates":[[[[747376.43,1582678.19],[747381.77,1582678.04],[747381.6,1582672],[747376.25,1582672.14],[747376.43,1582678.19]]]]}},{"type":"Feature","properties":{"building":"roof","height":6,"heightSource":"default"},"geometry":{"type":"MultiPolygon","coordinates":[[[[747360.11,1582673.21],[747356.67,1582673.21],[747356.75,1582686.6],[747373.76,1582686.69],[747373.9,1582673.24],[747370.06,1582673.28],[747370,1582683.31],[747360.05,1582683.24],[747360.11,1582673.21]]]]}},{"type":"Feature","properties":{"building":"yes","height":6,"heightSource":"default"},"geometry":{"type":"MultiPolygon","coordinates":[[[[746503.1,1582702.24],[746508.36,1582690.71],[746512.75,1582692.69],[746507.5,1582704.22],[746503.1,1582702.24]]]]}},{"type":"Feature","properties":{"building":"yes","height":6,"heightSource":"default"},"geometry":{"type":"MultiPolygon","coordinates":[[[[746512.29,1582705.04],[746517.75,1582706.37],[746520.64,1582694.57],[746515.18,1582693.26],[746512.29,1582705.04]]]]}},{"type":"Feature","properties":{"building":"yes","height":6,"heightSource":"default"},"geometry":{"type":"MultiPolygon","coordinates":[[[[746830.45,1582584.62],[746831.63,1582584.51],[746833.79,1582584.3],[746834.25,1582589.04],[746830.91,1582589.36],[746830.45,1582584.62]]]]}},{"type":"Feature","properties":{"building":"yes","height":6,"heightSource":"default"},"geometry":{"type":"MultiPolygon","coordinates":[[[[746859.71,1582634.04],[746861.77,1582633.82],[746863.14,1582633.68],[746862.61,1582628.84],[746859.18,1582629.2],[746859.71,1582634.04]]]]}},{"type":"Feature","properties":{"building":"yes","height":6,"heightSource":"default"},"geometry":{"type":"MultiPolygon","coordinates":[[[[746816.75,1582607.65],[746816.65,1582606.36],[746816.46,1582603.92],[746820.8,1582603.57],[746821.1,1582607.32],[746816.75,1582607.65]]]]}},{"type":"Feature","properties":{"building":"yes","height":6,"heightSource":"default"},"geometry":{"type":"MultiPolygon","coordinates":[[[[746847.37,1582565.58],[746861.41,1582565.37],[746861.23,1582553.64],[746847.18,1582553.86],[746847.37,1582565.58]]]]}},{"type":"Feature","properties":{"building":"yes","height":6,"heightSource":"default"},"geometry":{"type":"MultiPolygon","coordinates":[[[[746523.51,1582652.52],[746543.63,1582651.61],[746542.22,1582620.89],[746522.11,1582621.8],[746523.51,1582652.52]]]]}},{"type":"Feature","properties":{"building":"yes","height":6,"heightSource":"default"},"geometry":{"type":"MultiPolygon","coordinates":[[[[746526.5,1582691.3],[746539.54,1582693.06],[746543.32,1582665.28],[746530.29,1582663.52],[746526.5,1582691.3]]]]}},{"type":"Feature","properties":{"building":"yes","height":6,"heightSource":"default"},"geometry":{"type":"MultiPolygon","coordinates":[[[[746880.09,1582546.37],[746879.81,1582536.38],[746890.82,1582536.08],[746891.1,1582546.07],[746880.09,1582546.37]]]]}},{"type":"Feature","properties":{"building":"yes","height":6,"heightSource":"default"},"geometry":{"type":"MultiPolygon","coordinates":[[[[746918.33,1582540.25],[746927.99,1582535.6],[746923.45,1582526.28],[746913.78,1582530.93],[746918.33,1582540.25]]]]}},{"type":"Feature","properties":{"building":"yes","height":6,"heightSource":"default"},"geometry":{"type":"MultiPolygon","coordinates":[[[[746930.56,1582509.25],[746938.81,1582505.14],[746934.85,1582497.3],[746926.6,1582501.4],[746930.56,1582509.25]]]]}},{"type":"Feature","properties":{"building":"yes","height":6,"heightSource":"default"},"geometry":{"type":"MultiPolygon","coordinates":[[[[746942.09,1582548.51],[746937.23,1582542.42],[746943.09,1582535.86],[746934.32,1582528.14],[746946.93,1582512.6],[746960.85,1582524.81],[746954.83,1582533.1],[746950.16,1582537.94],[746952.01,1582539.97],[746942.09,1582548.51]]]]}},{"type":"Feature","properties":{"building":"yes","height":6,"heightSource":"default"},"geometry":{"type":"MultiPolygon","coordinates":[[[[746961.34,1582521.25],[746969.64,1582515.64],[746963.66,1582506.88],[746955.36,1582512.49],[746961.34,1582521.25]]]]}},{"type":"Feature","properties":{"building":"yes","height":6,"heightSource":"default"},"geometry":{"type":"MultiPolygon","coordinates":[[[[746972.95,1582509.1],[746982.9,1582501.37],[746975.2,1582491.59],[746961.48,1582502.25],[746964.36,1582505.92],[746968.14,1582502.98],[746972.95,1582509.1]]]]}},{"type":"Feature","properties":{"building":"yes","height":6,"heightSource":"default"},"geometry":{"type":"MultiPolygon","coordinates":[[[[746940.84,1582477.95],[746954.07,1582478.57],[746954.44,1582470.8],[746949.99,1582470.59],[746950.1,1582468.2],[746939.33,1582467.69],[746939.11,1582472.47],[746941.1,1582472.57],[746940.84,1582477.95]]]]}},{"type":"Feature","properties":{"building":"yes","height":6,"heightSource":"default"},"geometry":{"type":"MultiPolygon","coordinates":[[[[746923.77,1582456.12],[746929.74,1582448.24],[746937.6,1582454.12],[746931.64,1582461.99],[746923.77,1582456.12]]]]}},{"type":"Feature","properties":{"building":"yes","height":6,"heightSource":"default"},"geometry":{"type":"MultiPolygon","coordinates":[[[[746984.99,1582459.24],[746990.39,1582465.26],[746989.36,1582466.98],[746991.7,1582469.59],[746987,1582473.74],[746985.02,1582471.53],[746982.37,1582473.87],[746976.21,1582467],[746984.99,1582459.24]]]]}},{"type":"Feature","properties":{"building":"yes","height":6,"heightSource":"default"},"geometry":{"type":"MultiPolygon","coordinates":[[[[747007.94,1582472.86],[746999.85,1582470.02],[746996.98,1582478.1],[747005.06,1582480.95],[747007.94,1582472.86]]]]}},{"type":"Feature","properties":{"building":"yes","height":6,"heightSource":"default"},"geometry":{"type":"MultiPolygon","coordinates":[[[[747017.55,1582472.16],[747023.98,1582478.89],[747025.88,1582477.1],[747028.32,1582479.65],[747032.43,1582475.76],[747030.49,1582473.73],[747032.77,1582471.57],[747025.85,1582464.33],[747017.55,1582472.16]]]]}},{"type":"Feature","properties":{"building":"yes","height":6,"heightSource":"default"},"geometry":{"type":"MultiPolygon","coordinates":[[[[745335.92,1584299.68],[745339.12,1584305.86],[745345.77,1584302.47],[745344.19,1584299.4],[745342.58,1584296.28],[745335.92,1584299.68]]]]}},{"type":"Feature","properties":{"building":"yes","height":6,"heightSource":"default"},"geometry":{"type":"MultiPolygon","coordinates":[[[[745417.53,1584174.79],[745429.75,1584169.3],[745410.99,1584133.16],[745411.78,1584126.41],[745437.45,1584090.99],[745427.11,1584084.13],[745405.2,1584114.53],[745403.68,1584116.64],[745402.38,1584118.46],[745398.2,1584124.26],[745397.45,1584128.88],[745396.81,1584132.88],[745417.53,1584174.79]]]]}},{"type":"Feature","properties":{"building":"yes","height":6,"heightSource":"default"},"geometry":{"type":"MultiPolygon","coordinates":[[[[745375.47,1584289.97],[745399.52,1584297.3],[745406.8,1584273.74],[745403.68,1584272.79],[745395.32,1584270.24],[745382.75,1584266.41],[745382.38,1584267.6],[745375.47,1584289.97]]]]}},{"type":"Feature","properties":{"building":"yes","height":6,"heightSource":"default"},"geometry":{"type":"MultiPolygon","coordinates":[[[[745358.93,1584260.85],[745356.03,1584255.26],[745351.53,1584244.68],[745378.5,1584230.02],[745384.32,1584226.84],[745393.53,1584244.67],[745375.67,1584253.13],[745375.32,1584253.13],[745358.93,1584260.85]]]]}},{"type":"Feature","properties":{"building":"yes","height":6,"heightSource":"default"},"geometry":{"type":"MultiPolygon","coordinates":[[[[745395.32,1584270.24],[745397.71,1584262.4],[745401.7,1584260.48],[745399.64,1584256.95],[745392.17,1584260.94],[745383.56,1584258.67],[745381.32,1584265.26],[745382.38,1584267.6],[745382.75,1584266.41],[745395.32,1584270.24]]]]}},{"type":"Feature","properties":{"building":"yes","height":6,"heightSource":"default"},"geometry":{"type":"MultiPolygon","coordinates":[[[[745381.32,1584265.26],[745375.67,1584253.13],[745393.53,1584244.67],[745399.35,1584242.14],[745404.89,1584252.69],[745406.78,1584251.84],[745411.33,1584260.09],[745403.04,1584263.75],[745401.7,1584260.48],[745399.64,1584256.95],[745392.17,1584260.94],[745383.56,1584258.67],[745381.32,1584265.26]]]]}},{"type":"Feature","properties":{"building":"yes","height":6,"heightSource":"default"},"geometry":{"type":"MultiPolygon","coordinates":[[[[745334.71,1584294.45],[745346.11,1584288.61],[745347.71,1584291.71],[745359.58,1584285.63],[745357.89,1584282.36],[745367.52,1584277.41],[745358.93,1584260.85],[745356.03,1584255.26],[745351.53,1584244.68],[745349.33,1584245.82],[745347.94,1584243.13],[745337.77,1584248.34],[745336.2,1584244.87],[745335.04,1584243.08],[745325.69,1584247.87],[745326.68,1584249.76],[745327.43,1584251.2],[745324.44,1584252.73],[745326.66,1584256.99],[745329.73,1584262.91],[745328.32,1584263.64],[745330.75,1584268.32],[745323.16,1584272.21],[745325.17,1584276.1],[745332.09,1584289.45],[745334.71,1584294.45]]]]}},{"type":"Feature","properties":{"building":"yes","height":6,"heightSource":"default"},"geometry":{"type":"MultiPolygon","coordinates":[[[[745332.09,1584289.45],[745322.32,1584294.45],[745315.4,1584281.1],[745325.17,1584276.1],[745332.09,1584289.45]]]]}},{"type":"Feature","properties":{"building":"yes","height":6,"heightSource":"default"},"geometry":{"type":"MultiPolygon","coordinates":[[[[745292.57,1584282.22],[745293.42,1584283.79],[745295.55,1584287.72],[745313.46,1584277.68],[745315.4,1584281.1],[745322.32,1584294.45],[745326.1,1584302.69],[745323.34,1584303.95],[745324.88,1584307.85],[745322.12,1584309.41],[745323.11,1584311.58],[745318.61,1584313.98],[745316.08,1584309.14],[745309.72,1584312.45],[745312.63,1584317.81],[745308.76,1584319.96],[745305.65,1584321.69],[745307.63,1584326.52],[745290.81,1584335.32],[745289,1584336.27],[745281.34,1584320.38],[745277.7,1584322.64],[745267.29,1584321.68],[745263.77,1584315.36],[745261.32,1584310.97],[745259.5,1584304.19],[745273.76,1584296.86],[745273.93,1584294.13],[745283.53,1584289.33],[745282.53,1584287.16],[745290.17,1584283.05],[745292.57,1584282.22]]]]}},{"type":"Feature","properties":{"building":"yes","height":6,"heightSource":"default"},"geometry":{"type":"MultiPolygon","coordinates":[[[[745283,1584283.42],[745290.17,1584283.05],[745289.77,1584275.53],[745282.6,1584275.9],[745283,1584283.42]]]]}},{"type":"Feature","properties":{"building":"yes","height":6,"heightSource":"default"},"geometry":{"type":"MultiPolygon","coordinates":[[[[745216.24,1584331.53],[745237.43,1584341.52],[745230.94,1584353.53],[745233.52,1584355.14],[745224.67,1584372.46],[745219.92,1584370.11],[745219.03,1584371.69],[745197.98,1584363.13],[745205.66,1584348.82],[745207.82,1584349.71],[745216.24,1584331.53]]]]}},{"type":"Feature","properties":{"building":"yes","height":6,"heightSource":"default"},"geometry":{"type":"MultiPolygon","coordinates":[[[[745394.49,1584110.85],[745402.25,1584100.71],[745403.73,1584098.79],[745405.01,1584097.11],[745427.36,1584067.89],[745421.61,1584063.92],[745425.72,1584058.63],[745406.31,1584044.4],[745401.11,1584051],[745398.61,1584048.85],[745368.03,1584091.63],[745394.49,1584110.85]]]]}},{"type":"Feature","properties":{"building":"yes","height":6,"heightSource":"default"},"geometry":{"type":"MultiPolygon","coordinates":[[[[745264.14,1584981.67],[745298.36,1584945.75],[745285.83,1584930.55],[745283.76,1584928.64],[745267.45,1584938.84],[745244.65,1584962.2],[745264.14,1584981.67]]]]}},{"type":"Feature","properties":{"building":"yes","height":6,"heightSource":"default"},"geometry":{"type":"MultiPolygon","coordinates":[[[[745302.14,1584943.2],[745316.19,1584928.38],[745307.29,1584919.66],[745292.7,1584932.18],[745302.14,1584943.2]]]]}},{"type":"Feature","properties":{"building":"yes","height":6,"heightSource":"default"},"geometry":{"type":"MultiPolygon","coordinates":[[[[745936.13,1584705.65],[745943.57,1584714.52],[745944.58,1584713.66],[745970.04,1584692.69],[745978.99,1584685.23],[745971.56,1584676.36],[745936.13,1584705.65]]]]}},{"type":"Feature","properties":{"building":"yes","height":6,"heightSource":"default"},"geometry":{"type":"MultiPolygon","coordinates":[[[[745944.58,1584713.66],[745949.74,1584719.84],[745975.19,1584698.87],[745970.04,1584692.69],[745944.58,1584713.66]]]]}},{"type":"Feature","properties":{"building":"yes","height":6,"heightSource":"default"},"geometry":{"type":"MultiPolygon","coordinates":[[[[745811.93,1583875.05],[745810.68,1583870.14],[745809.33,1583860.64],[745818.02,1583858.86],[745818.47,1583861.23],[745819.54,1583866.77],[745821.5,1583872.98],[745811.93,1583875.05]]]]}},{"type":"Feature","properties":{"building":"yes","height":6,"heightSource":"default"},"geometry":{"type":"MultiPolygon","coordinates":[[[[745665.21,1583917.99],[745675.07,1583911.92],[745665.24,1583896.15],[745654.7,1583902.63],[745657.81,1583907.62],[745655.46,1583909.07],[745658.67,1583914.24],[745661.71,1583912.37],[745665.21,1583917.99]]]]}},{"type":"Feature","properties":{"building":"yes","height":6,"heightSource":"default"},"geometry":{"type":"MultiPolygon","coordinates":[[[[745607.96,1583924.2],[745627.03,1583916.86],[745623.2,1583907.02],[745604.12,1583914.35],[745607.96,1583924.2]]]]}},{"type":"Feature","properties":{"building":"yes","height":6,"heightSource":"default"},"geometry":{"type":"MultiPolygon","coordinates":[[[[745680.84,1584136.26],[745687.23,1584124.09],[745680.69,1584120.7],[745674.3,1584132.87],[745680.84,1584136.26]]]]}},{"type":"Feature","properties":{"building":"yes","height":6,"heightSource":"default"},"geometry":{"type":"MultiPolygon","coordinates":[[[[745669.59,1584130.6],[745678.59,1584115.22],[745657.15,1584102.81],[745648.14,1584118.21],[745669.59,1584130.6]]]]}},{"type":"Feature","properties":{"building":"yes","height":6,"heightSource":"default"},"geometry":{"type":"MultiPolygon","coordinates":[[[[745641.36,1584115.42],[745645.84,1584107.07],[745641.62,1584104.83],[745628.65,1584097.92],[745626.74,1584101.47],[745629.04,1584102.7],[745626.46,1584107.49],[745641.36,1584115.42]]]]}},{"type":"Feature","properties":{"building":"yes","height":6,"heightSource":"default"},"geometry":{"type":"MultiPolygon","coordinates":[[[[745641.62,1584104.83],[745649.08,1584092.09],[745633.44,1584083.07],[745626.18,1584096.59],[745628.65,1584097.92],[745641.62,1584104.83]]]]}},{"type":"Feature","properties":{"building":"yes","height":6,"heightSource":"default"},"geometry":{"type":"MultiPolygon","coordinates":[[[[745633.44,1584083.07],[745635.77,1584079.09],[745651.4,1584088.11],[745649.08,1584092.09],[745633.44,1584083.07]]]]}},{"type":"Feature","properties":{"building":"yes","height":6,"heightSource":"default"},"geometry":{"type":"MultiPolygon","coordinates":[[[[745651.4,1584088.11],[745661.15,1584070.9],[745645.9,1584062.12],[745635.77,1584079.09],[745651.4,1584088.11]]]]}},{"type":"Feature","properties":{"building":"yes","height":6,"heightSource":"default"},"geometry":{"type":"MultiPolygon","coordinates":[[[[745664.82,1584067.22],[745671.25,1584060.09],[745659.85,1584049.97],[745658.62,1584048.88],[745652.21,1584056.01],[745664.82,1584067.22]]]]}},{"type":"Feature","properties":{"building":"yes","height":6,"heightSource":"default"},"geometry":{"type":"MultiPolygon","coordinates":[[[[745671.25,1584060.09],[745673.11,1584061.53],[745679.85,1584053.54],[745667.95,1584043.19],[745666.64,1584042.05],[745659.85,1584049.97],[745671.25,1584060.09]]]]}},{"type":"Feature","properties":{"building":"yes","height":6,"heightSource":"default"},"geometry":{"type":"MultiPolygon","coordinates":[[[[745679.85,1584053.54],[745681.42,1584055.14],[745688.16,1584047.01],[745674.67,1584035.65],[745667.95,1584043.19],[745679.85,1584053.54]]]]}},{"type":"Feature","properties":{"building":"yes","height":6,"heightSource":"default"},"geometry":{"type":"MultiPolygon","coordinates":[[[[745689.24,1584089.26],[745696.17,1584081.03],[745683.91,1584070.83],[745682.77,1584069.88],[745675.84,1584078.1],[745689.24,1584089.26]]]]}},{"type":"Feature","properties":{"building":"yes","height":6,"heightSource":"default"},"geometry":{"type":"MultiPolygon","coordinates":[[[[745696.17,1584081.03],[745697.75,1584082.3],[745703.96,1584074.78],[745692.36,1584064.3],[745690.75,1584062.85],[745683.91,1584070.83],[745696.17,1584081.03]]]]}},{"type":"Feature","properties":{"building":"yes","height":6,"heightSource":"default"},"geometry":{"type":"MultiPolygon","coordinates":[[[[745703.96,1584074.78],[745705.53,1584076.16],[745712.12,1584068.46],[745705.63,1584062.9],[745699.44,1584057.61],[745698.78,1584057.04],[745692.36,1584064.3],[745703.96,1584074.78]]]]}},{"type":"Feature","properties":{"building":"yes","height":6,"heightSource":"default"},"geometry":{"type":"MultiPolygon","coordinates":[[[[745705.63,1584062.9],[745711.74,1584055.87],[745705.5,1584050.63],[745699.44,1584057.61],[745705.63,1584062.9]]]]}},{"type":"Feature","properties":{"building":"yes","height":6,"heightSource":"default"},"geometry":{"type":"MultiPolygon","coordinates":[[[[745595.64,1584170.63],[745605.99,1584162.64],[745601.46,1584156.84],[745591.11,1584164.83],[745595.64,1584170.63]]]]}},{"type":"Feature","properties":{"building":"yes","height":6,"heightSource":"default"},"geometry":{"type":"MultiPolygon","coordinates":[[[[745516.9,1584309.55],[745515.87,1584299.78],[745532.69,1584298.03],[745533.72,1584307.81],[745516.9,1584309.55]]]]}},{"type":"Feature","properties":{"building":"yes","height":6,"heightSource":"default"},"geometry":{"type":"MultiPolygon","coordinates":[[[[745428.4,1584196.07],[745437.19,1584192.21],[745429.91,1584175.82],[745421.12,1584179.68],[745424.94,1584188.28],[745428.4,1584196.07]]]]}},{"type":"Feature","properties":{"building":"yes","height":6,"heightSource":"default"},"geometry":{"type":"MultiPolygon","coordinates":[[[[743980.03,1585602.7],[743982.7,1585591.21],[743990.76,1585593.06],[743988.09,1585604.55],[743980.03,1585602.7]]]]}},{"type":"Feature","properties":{"building":"yes","height":6,"heightSource":"default"},"geometry":{"type":"MultiPolygon","coordinates":[[[[745267.25,1584248.02],[745270.37,1584240.54],[745275.89,1584242.82],[745272.77,1584250.29],[745267.25,1584248.02]]]]}},{"type":"Feature","properties":{"building":"yes","height":6,"heightSource":"default"},"geometry":{"type":"MultiPolygon","coordinates":[[[[744613.54,1585085.93],[744626.79,1585088.44],[744628.69,1585078.49],[744615.44,1585075.99],[744613.54,1585085.93]]]]}},{"type":"Feature","properties":{"building":"yes","height":6,"heightSource":"default"},"geometry":{"type":"MultiPolygon","coordinates":[[[[747370.37,1582575.61],[747384.19,1582576.02],[747384.94,1582550.86],[747371.13,1582550.45],[747370.37,1582575.61]]]]}},{"type":"Feature","properties":{"building":"roof","height":6,"heightSource":"default"},"geometry":{"type":"MultiPolygon","coordinates":[[[[747384.19,1582576.02],[747389.73,1582576.29],[747390.4,1582550.98],[747384.94,1582550.86],[747384.19,1582576.02]]]]}},{"type":"Feature","properties":{"building":"yes","height":6,"heightSource":"default"},"geometry":{"type":"MultiPolygon","coordinates":[[[[747371.32,1582543],[747386.22,1582543.6],[747386.31,1582541.43],[747386.76,1582530.5],[747386.82,1582528.85],[747387.05,1582523.41],[747372.15,1582522.8],[747371.32,1582543]]]]}},{"type":"Feature","properties":{"building":"yes","height":6,"heightSource":"default"},"geometry":{"type":"MultiPolygon","coordinates":[[[[747335.05,1582535.6],[747346.44,1582533.52],[747343.87,1582519.62],[747332.47,1582521.7],[747335.05,1582535.6]]]]}},{"type":"Feature","properties":{"building":"yes","height":6,"heightSource":"default"},"geometry":{"type":"MultiPolygon","coordinates":[[[[747359.38,1582540.19],[747367.65,1582541.48],[747368.99,1582533.07],[747360.7,1582531.78],[747359.38,1582540.19]]]]}},{"type":"Feature","properties":{"building":"yes","height":6,"heightSource":"default"},"geometry":{"type":"MultiPolygon","coordinates":[[[[747361.95,1582531.03],[747369.34,1582531.71],[747370.27,1582521.66],[747362.89,1582520.98],[747361.95,1582531.03]]]]}},{"type":"Feature","properties":{"building":"yes","height":6,"heightSource":"default"},"geometry":{"type":"MultiPolygon","coordinates":[[[[747372.18,1582516.78],[747387.33,1582517.83],[747387.58,1582514.34],[747387.97,1582508.8],[747388.32,1582503.92],[747388.95,1582494.99],[747390.14,1582478.26],[747374.98,1582477.2],[747373.66,1582495.93],[747373.11,1582503.69],[747372.92,1582506.25],[747372.33,1582514.69],[747372.18,1582516.78]]]]}},{"type":"Feature","properties":{"building":"yes","height":6,"heightSource":"default"},"geometry":{"type":"MultiPolygon","coordinates":[[[[747372.33,1582514.69],[747369.78,1582514.44],[747370.37,1582506.18],[747372.92,1582506.25],[747372.33,1582514.69]]]]}},{"type":"Feature","properties":{"building":"yes","height":6,"heightSource":"default"},"geometry":{"type":"MultiPolygon","coordinates":[[[[747373.11,1582503.69],[747370.32,1582503.52],[747370.42,1582502.17],[747370.9,1582495.76],[747373.66,1582495.93],[747373.11,1582503.69]]]]}},{"type":"Feature","properties":{"building":"yes","height":6,"heightSource":"default"},"geometry":{"type":"MultiPolygon","coordinates":[[[[747370.42,1582502.17],[747363.39,1582501.65],[747363.97,1582494.1],[747370.99,1582494.54],[747370.9,1582495.76],[747370.42,1582502.17]]]]}},{"type":"Feature","properties":{"building":"roof","height":6,"heightSource":"default"},"geometry":{"type":"MultiPolygon","coordinates":[[[[747388.32,1582503.92],[747391.74,1582504.16],[747392.14,1582499.77],[747390.69,1582499.69],[747390.95,1582495.17],[747388.95,1582494.99],[747388.32,1582503.92]]]]}},{"type":"Feature","properties":{"building":"roof","height":6,"heightSource":"default"},"geometry":{"type":"MultiPolygon","coordinates":[[[[747387.58,1582514.34],[747391.56,1582514.59],[747391.83,1582509.12],[747387.97,1582508.8],[747387.58,1582514.34]]]]}},{"type":"Feature","properties":{"building":"roof","height":6,"heightSource":"default"},"geometry":{"type":"MultiPolygon","coordinates":[[[[747386.31,1582541.43],[747390.57,1582541.55],[747390.86,1582530.51],[747386.76,1582530.5],[747386.31,1582541.43]]]]}},{"type":"Feature","properties":{"building":"roof","height":6,"heightSource":"default"},"geometry":{"type":"MultiPolygon","coordinates":[[[[747386.82,1582528.85],[747390.91,1582528.89],[747391.05,1582522.17],[747387.11,1582522.13],[747387.05,1582523.41],[747386.82,1582528.85]]]]}},{"type":"Feature","properties":{"building":"yes","height":6,"heightSource":"default"},"geometry":{"type":"MultiPolygon","coordinates":[[[[746133.09,1583607.37],[746130.25,1583602.45],[746139.56,1583596.5],[746145.4,1583591.1],[746150.39,1583584.82],[746157.43,1583575.39],[746162.31,1583579.75],[746154.1,1583590.03],[746147.66,1583597.15],[746142.7,1583601.71],[746133.09,1583607.37]]]]}},{"type":"Feature","properties":{"building":"yes","height":6,"heightSource":"default"},"geometry":{"type":"MultiPolygon","coordinates":[[[[746407.51,1582955.97],[746417.29,1582956.4],[746417.41,1582953.6],[746424.54,1582953.91],[746425.06,1582942.21],[746408.15,1582941.48],[746407.51,1582955.97]]]]}},{"type":"Feature","properties":{"building":"yes","height":6,"heightSource":"default"},"geometry":{"type":"MultiPolygon","coordinates":[[[[746372.32,1582949.77],[746381.94,1582958.68],[746383.69,1582956.81],[746386.06,1582958.99],[746386.85,1582958.14],[746389.01,1582960.14],[746393.51,1582955.35],[746388.6,1582950.81],[746391.58,1582947.63],[746382.35,1582939.08],[746372.32,1582949.77]]]]}},{"type":"Feature","properties":{"building":"yes","height":6,"heightSource":"default"},"geometry":{"type":"MultiPolygon","coordinates":[[[[746358.31,1582962.44],[746368.56,1582971.73],[746369.81,1582970.38],[746372.02,1582972.38],[746376.44,1582967.57],[746374.37,1582965.69],[746377.83,1582961.91],[746367.42,1582952.49],[746358.31,1582962.44]]]]}},{"type":"Feature","properties":{"building":"yes","height":6,"heightSource":"default"},"geometry":{"type":"MultiPolygon","coordinates":[[[[746349.82,1582973.24],[746356.22,1582965.62],[746364.45,1582972.44],[746358.04,1582980.06],[746349.82,1582973.24]]]]}},{"type":"Feature","properties":{"building":"yes","height":6,"heightSource":"default"},"geometry":{"type":"MultiPolygon","coordinates":[[[[746329.84,1582948.76],[746344.43,1582950.79],[746344.7,1582948.98],[746347.65,1582949.38],[746348.86,1582940.92],[746346.84,1582940.64],[746347.54,1582935.67],[746332,1582933.5],[746329.84,1582948.76]]]]}},{"type":"Feature","properties":{"building":"yes","height":6,"heightSource":"default"},"geometry":{"type":"MultiPolygon","coordinates":[[[[746328.03,1582970.81],[746334.4,1582971.52],[746336.7,1582951.07],[746327.29,1582950.03],[746325.22,1582968.32],[746328.27,1582968.66],[746328.03,1582970.81]]]]}},{"type":"Feature","properties":{"building":"yes","height":6,"heightSource":"default"},"geometry":{"type":"MultiPolygon","coordinates":[[[[746322.94,1582952.42],[746311.01,1582950.85],[746308.79,1582967.46],[746317.69,1582968.64],[746318.07,1582965.83],[746323.74,1582966.57],[746325.07,1582956.61],[746322.94,1582952.42]]]]}},{"type":"Feature","properties":{"building":"yes","height":6,"heightSource":"default"},"geometry":{"type":"MultiPolygon","coordinates":[[[[746305.81,1582965.45],[746306.93,1582950.49],[746309.17,1582950.65],[746309.52,1582945.9],[746302.08,1582945.35],[746301.71,1582950.28],[746292.95,1582949.64],[746291.95,1582962.99],[746293.75,1582963.13],[746293.53,1582965.84],[746301.51,1582966.43],[746301.59,1582965.15],[746305.81,1582965.45]]]]}},{"type":"Feature","properties":{"building":"yes","height":6,"heightSource":"default"},"geometry":{"type":"MultiPolygon","coordinates":[[[[746333.41,1583022.31],[746340.88,1583016.43],[746335.47,1583009.64],[746333.02,1583011.57],[746329.7,1583007.42],[746324.69,1583011.37],[746333.41,1583022.31]]]]}},{"type":"Feature","properties":{"building":"yes","height":6,"heightSource":"default"},"geometry":{"type":"MultiPolygon","coordinates":[[[[746318.42,1583029.9],[746310.26,1583019.06],[746315.47,1583015.19],[746318.21,1583018.85],[746320.48,1583017.16],[746319.59,1583015.98],[746323.67,1583012.96],[746329.72,1583020.99],[746326.32,1583023.52],[746324.01,1583020.46],[746319.73,1583023.62],[746322.29,1583027.02],[746318.42,1583029.9]]]]}},{"type":"Feature","properties":{"building":"yes","height":6,"heightSource":"default"},"geometry":{"type":"MultiPolygon","coordinates":[[[[746304.73,1583039.07],[746316.17,1583031.03],[746313.44,1583027.18],[746315.02,1583026.07],[746311.65,1583021.33],[746310.24,1583022.32],[746307.71,1583018.77],[746306.3,1583019.75],[746304.63,1583017.39],[746300.79,1583020.06],[746302.1,1583021.91],[746300.78,1583022.84],[746299.62,1583021.21],[746295.79,1583023.89],[746297.81,1583026.75],[746296.94,1583027.89],[746298.15,1583029.6],[746297.08,1583030.35],[746298.91,1583032.93],[746299.87,1583032.25],[746304.73,1583039.07]]]]}},{"type":"Feature","properties":{"building":"yes","height":6,"heightSource":"default"},"geometry":{"type":"MultiPolygon","coordinates":[[[[746282.44,1583031.04],[746290.39,1583026.33],[746293.43,1583031.4],[746295.58,1583030.13],[746297.46,1583033.27],[746293.84,1583035.41],[746296.35,1583039.6],[746291.89,1583042.23],[746290.59,1583040.07],[746288.57,1583041.26],[746282.44,1583031.04]]]]}},{"type":"Feature","properties":{"building":"yes","height":6,"heightSource":"default"},"geometry":{"type":"MultiPolygon","coordinates":[[[[746265.52,1583038.12],[746273.99,1583032.49],[746278.45,1583039.12],[746280.61,1583037.69],[746283.5,1583041.99],[746280.61,1583043.91],[746283.03,1583047.5],[746277.15,1583051.41],[746275.42,1583048.83],[746273.54,1583050.08],[746265.52,1583038.12]]]]}},{"type":"Feature","properties":{"building":"yes","height":6,"heightSource":"default"},"geometry":{"type":"MultiPolygon","coordinates":[[[[746264.32,1583060.16],[746269.47,1583055.97],[746267.38,1583053.44],[746272.17,1583049.54],[746263.64,1583039.16],[746253.42,1583047.46],[746256.11,1583050.73],[746255.05,1583051.58],[746260.65,1583058.38],[746261.98,1583057.31],[746264.32,1583060.16]]]]}},{"type":"Feature","properties":{"building":"yes","height":6,"heightSource":"default"},"geometry":{"type":"MultiPolygon","coordinates":[[[[746251.67,1583050.39],[746260.09,1583060.1],[746258.85,1583061.17],[746260.63,1583063.21],[746252.96,1583069.76],[746248.02,1583064.07],[746247.05,1583064.9],[746241.8,1583058.84],[746251.67,1583050.39]]]]}},{"type":"Feature","properties":{"building":"yes","height":6,"heightSource":"default"},"geometry":{"type":"MultiPolygon","coordinates":[[[[746159.68,1583180.05],[746162.21,1583175.12],[746167.83,1583177.96],[746165.31,1583182.9],[746159.68,1583180.05]]]]}},{"type":"Feature","properties":{"building":"yes","height":6,"heightSource":"default"},"geometry":{"type":"MultiPolygon","coordinates":[[[[746162.21,1583174.77],[746172.61,1583179.3],[746174.39,1583175.28],[746175.74,1583175.87],[746179.67,1583166.98],[746167.91,1583161.85],[746162.21,1583174.77]]]]}},{"type":"Feature","properties":{"building":"yes","height":6,"heightSource":"default"},"geometry":{"type":"MultiPolygon","coordinates":[[[[746168.44,1583161.4],[746178.28,1583165.94],[746178.87,1583164.68],[746179.76,1583165.08],[746183.97,1583156.07],[746173.26,1583151.11],[746168.44,1583161.4]]]]}},{"type":"Feature","properties":{"building":"yes","height":6,"heightSource":"default"},"geometry":{"type":"MultiPolygon","coordinates":[[[[746173.32,1583150.67],[746183.93,1583155.39],[746186.99,1583148.62],[746180.99,1583145.95],[746183,1583141.49],[746178.39,1583139.44],[746173.32,1583150.67]]]]}},{"type":"Feature","properties":{"building":"yes","height":6,"heightSource":"default"},"geometry":{"type":"MultiPolygon","coordinates":[[[[746185.21,1583120.61],[746198.26,1583124.01],[746195.86,1583132.91],[746190.79,1583131.59],[746189.91,1583134.92],[746182.02,1583132.86],[746185.21,1583120.61]]]]}},{"type":"Feature","properties":{"building":"yes","height":6,"heightSource":"default"},"geometry":{"type":"MultiPolygon","coordinates":[[[[746185.21,1583120.61],[746188.19,1583109.35],[746199.2,1583112.24],[746201.23,1583112.76],[746198.26,1583124.01],[746185.21,1583120.61]]]]}},{"type":"Feature","properties":{"building":"yes","height":6,"heightSource":"default"},"geometry":{"type":"MultiPolygon","coordinates":[[[[746188.19,1583109.35],[746191.15,1583095.13],[746201.7,1583097.32],[746201.08,1583100.41],[746204.18,1583101.08],[746202.22,1583109.63],[746199.84,1583109.1],[746199.2,1583112.24],[746188.19,1583109.35]]]]}},{"type":"Feature","properties":{"building":"yes","height":6,"heightSource":"default"},"geometry":{"type":"MultiPolygon","coordinates":[[[[746191.01,1583094.35],[746202.37,1583094.51],[746202.79,1583066.91],[746191.43,1583066.73],[746191.01,1583094.35]]]]}},{"type":"Feature","properties":{"building":"yes","height":6,"heightSource":"default"},"geometry":{"type":"MultiPolygon","coordinates":[[[[746190.8,1583054.25],[746202.25,1583059],[746207.25,1583047.11],[746195.79,1583042.36],[746190.8,1583054.25]]]]}},{"type":"Feature","properties":{"building":"yes","height":6,"heightSource":"default"},"geometry":{"type":"MultiPolygon","coordinates":[[[[746195.79,1583042.36],[746203.35,1583024.91],[746214.51,1583030.06],[746207.25,1583047.11],[746195.79,1583042.36]]]]}},{"type":"Feature","properties":{"building":"yes","height":6,"heightSource":"default"},"geometry":{"type":"MultiPolygon","coordinates":[[[[746227.58,1583040.76],[746219.48,1583030],[746231.71,1583020.91],[746239.59,1583031.38],[746235.4,1583034.49],[746237.27,1583036.98],[746230.62,1583041.93],[746228.97,1583039.73],[746227.58,1583040.76]]]]}},{"type":"Feature","properties":{"building":"yes","height":6,"heightSource":"default"},"geometry":{"type":"MultiPolygon","coordinates":[[[[746215.98,1583027.66],[746220.64,1583023.82],[746218.19,1583020.86],[746219.95,1583019.41],[746222.4,1583022.37],[746227.23,1583018.38],[746218.93,1583008.42],[746214.44,1583012.12],[746217.46,1583015.74],[746214.89,1583017.85],[746211.47,1583013.75],[746207.27,1583017.19],[746215.98,1583027.66]]]]}},{"type":"Feature","properties":{"building":"yes","height":6,"heightSource":"default"},"geometry":{"type":"MultiPolygon","coordinates":[[[[746232.73,1583020.21],[746245.38,1583011.2],[746251.99,1583020.38],[746247.11,1583023.86],[746249.54,1583027.23],[746243.78,1583031.33],[746242.45,1583029.47],[746240.44,1583030.9],[746232.73,1583020.21]]]]}},{"type":"Feature","properties":{"building":"yes","height":6,"heightSource":"default"},"geometry":{"type":"MultiPolygon","coordinates":[[[[746220.9,1583006.77],[746228.95,1583017.37],[746234.25,1583013.38],[746232.06,1583010.5],[746233.52,1583009.4],[746235.68,1583012.25],[746241.17,1583008.13],[746233.18,1582997.6],[746227.75,1583001.66],[746229.95,1583004.56],[746227.89,1583006.1],[746225.68,1583003.19],[746220.9,1583006.77]]]]}},{"type":"Feature","properties":{"building":"yes","height":6,"heightSource":"default"},"geometry":{"type":"MultiPolygon","coordinates":[[[[746243.5,1583007.38],[746235.6,1582996.23],[746240.34,1582992.91],[746242.13,1582995.43],[746244.09,1582994.06],[746241.21,1582989.99],[746246.63,1582986.19],[746255.66,1582998.94],[746249.6,1583003.17],[746247.01,1582999.53],[746246.2,1583000.09],[746248.76,1583003.7],[746243.5,1583007.38]]]]}},{"type":"Feature","properties":{"building":"yes","height":6,"heightSource":"default"},"geometry":{"type":"MultiPolygon","coordinates":[[[[746256.7,1582997.8],[746262.4,1582993.83],[746259.27,1582989.39],[746260.88,1582988.28],[746263.42,1582991.9],[746268.62,1582988.28],[746260.61,1582976.91],[746255.95,1582980.16],[746258.03,1582983.11],[746256.29,1582984.34],[746253.83,1582980.85],[746247.73,1582985.08],[746256.7,1582997.8]]]]}},{"type":"Feature","properties":{"building":"yes","height":6,"heightSource":"default"},"geometry":{"type":"MultiPolygon","coordinates":[[[[746293.93,1582986.64],[746301.61,1582999.33],[746313.06,1582992.49],[746305.37,1582979.8],[746293.93,1582986.64]]]]}},{"type":"Feature","properties":{"building":"yes","height":6,"heightSource":"default"},"geometry":{"type":"MultiPolygon","coordinates":[[[[746278.48,1582993.66],[746285.36,1583004.2],[746287.06,1583003.1],[746288.66,1583005.55],[746295.87,1583000.91],[746294.49,1582998.81],[746297.92,1582996.6],[746290.8,1582985.72],[746278.48,1582993.66]]]]}},{"type":"Feature","properties":{"building":"yes","height":6,"heightSource":"default"},"geometry":{"type":"MultiPolygon","coordinates":[[[[746261.24,1583000.67],[746272.72,1582993.06],[746279.59,1583003.29],[746276.34,1583005.45],[746278.01,1583007.95],[746271.55,1583012.23],[746269.96,1583009.89],[746268.21,1583011.05],[746261.24,1583000.67]]]]}},{"type":"Feature","properties":{"building":"yes","height":6,"heightSource":"default"},"geometry":{"type":"MultiPolygon","coordinates":[[[[746247.62,1583009.95],[746259.43,1583002.15],[746265.57,1583011.35],[746262.16,1583013.6],[746263.87,1583016.14],[746257.28,1583020.5],[746255.51,1583017.83],[746253.69,1583019.03],[746247.62,1583009.95]]]]}},{"type":"Feature","properties":{"building":"yes","height":6,"heightSource":"default"},"geometry":{"type":"MultiPolygon","coordinates":[[[[746187.29,1583551.73],[746189.71,1583549.43],[746191.35,1583551.15],[746196.67,1583546.11],[746188.79,1583537.89],[746183.55,1583542.84],[746182.99,1583542.26],[746181.67,1583543.51],[746180.5,1583542.28],[746177.76,1583544.86],[746181.82,1583549.1],[746183.37,1583547.64],[746187.29,1583551.73]]]]}},{"type":"Feature","properties":{"building":"yes","height":6,"heightSource":"default"},"geometry":{"type":"MultiPolygon","coordinates":[[[[746193.33,1583542.08],[746194.2,1583541.27],[746195.28,1583542.42],[746197.06,1583540.79],[746195.9,1583539.55],[746198.44,1583537.21],[746193.42,1583531.82],[746188.23,1583536.61],[746193.33,1583542.08]]]]}},{"type":"Feature","properties":{"building":"yes","height":6,"heightSource":"default"},"geometry":{"type":"MultiPolygon","coordinates":[[[[746233.92,1583375.17],[746236.87,1583368.94],[746247.68,1583374.15],[746244.79,1583380.25],[746233.92,1583375.17]]]]}},{"type":"Feature","properties":{"building":"yes","height":6,"heightSource":"default"},"geometry":{"type":"MultiPolygon","coordinates":[[[[746344.7,1583417.55],[746345.11,1583405.96],[746359.42,1583406.47],[746359.02,1583418.04],[746344.7,1583417.55]]]]}},{"type":"Feature","properties":{"building":"yes","height":6,"heightSource":"default"},"geometry":{"type":"MultiPolygon","coordinates":[[[[746388.64,1583411.79],[746395.67,1583410.89],[746393.96,1583397.79],[746386.92,1583398.69],[746388.64,1583411.79]]]]}},{"type":"Feature","properties":{"building":"yes","height":6,"heightSource":"default"},"geometry":{"type":"MultiPolygon","coordinates":[[[[746205.45,1583425.36],[746206.72,1583420.38],[746202.69,1583419.36],[746203.19,1583417.36],[746199.76,1583416.48],[746197.96,1583423.46],[746205.45,1583425.36]]]]}},{"type":"Feature","properties":{"building":"yes","height":6,"heightSource":"default"},"geometry":{"type":"MultiPolygon","coordinates":[[[[746225.47,1583424.13],[746230.16,1583414.56],[746218.54,1583408.94],[746213.86,1583418.5],[746225.47,1583424.13]]]]}},{"type":"Feature","properties":{"building":"yes","height":6,"heightSource":"default"},"geometry":{"type":"MultiPolygon","coordinates":[[[[746233.05,1583440.61],[746237.68,1583426.12],[746230.32,1583423.83],[746229.06,1583426.9],[746222.28,1583424.82],[746219.22,1583434.29],[746223.1,1583437.2],[746233.05,1583440.61]]]]}},{"type":"Feature","properties":{"building":"yes","height":6,"heightSource":"default"},"geometry":{"type":"MultiPolygon","coordinates":[[[[745433.04,1584075.02],[745435.7,1584072.89],[745432.05,1584068.4],[745429.4,1584070.53],[745433.04,1584075.02]]]]}},{"type":"Feature","properties":{"building":"yes","height":6,"heightSource":"default"},"geometry":{"type":"MultiPolygon","coordinates":[[[[745456.38,1584062.72],[745461.47,1584057.45],[745459.22,1584055.28],[745454.12,1584060.55],[745456.38,1584062.72]]]]}},{"type":"Feature","properties":{"building":"yes","height":6,"heightSource":"default"},"geometry":{"type":"MultiPolygon","coordinates":[[[[746142.5,1583793.59],[746155.57,1583786.99],[746151.07,1583778.23],[746148.68,1583779.43],[746138.01,1583784.83],[746142.5,1583793.59]]]]}},{"type":"Feature","properties":{"building":"yes","height":6,"heightSource":"default"},"geometry":{"type":"MultiPolygon","coordinates":[[[[746155.53,1583784.77],[746158.7,1583791.57],[746171.27,1583785.78],[746168.09,1583778.98],[746155.53,1583784.77]]]]}},{"type":"Feature","properties":{"building":"yes","height":6,"heightSource":"default"},"geometry":{"type":"MultiPolygon","coordinates":[[[[746178.57,1583799.01],[746173.86,1583787.63],[746180.12,1583784.94],[746184.99,1583796.39],[746178.57,1583799.01]]]]}},{"type":"Feature","properties":{"building":"yes","height":6,"heightSource":"default"},"geometry":{"type":"MultiPolygon","coordinates":[[[[746180.12,1583784.94],[746184.99,1583796.39],[746185.59,1583797.8],[746206.28,1583789.13],[746204.4,1583784.71],[746201.66,1583778.25],[746200.81,1583776.27],[746180.12,1583784.94]]]]}},{"type":"Feature","properties":{"building":"yes","height":6,"heightSource":"default"},"geometry":{"type":"MultiPolygon","coordinates":[[[[746201.66,1583778.25],[746207.51,1583774.75],[746210.49,1583781.26],[746204.4,1583784.71],[746201.66,1583778.25]]]]}},{"type":"Feature","properties":{"building":"yes","height":6,"heightSource":"default"},"geometry":{"type":"MultiPolygon","coordinates":[[[[745731.33,1583912.76],[745734.11,1583916.95],[745738.87,1583918.29],[745741.45,1583916.6],[745747.08,1583912.92],[745742.24,1583905.62],[745731.33,1583912.76]]]]}},{"type":"Feature","properties":{"building":"yes","height":6,"heightSource":"default"},"geometry":{"type":"MultiPolygon","coordinates":[[[[744959.15,1584935.4],[744952.99,1584929.59],[744964.12,1584916.9],[744971.29,1584924.17],[744973.61,1584922.32],[744978.2,1584926.54],[744971.46,1584934.95],[744964.86,1584928.98],[744959.15,1584935.4]]]]}},{"type":"Feature","properties":{"building":"yes","height":6,"heightSource":"default"},"geometry":{"type":"MultiPolygon","coordinates":[[[[744996.26,1584930.48],[744999.3,1584926.89],[744995.59,1584923.8],[744992.56,1584927.39],[744996.26,1584930.48]]]]}},{"type":"Feature","properties":{"building":"yes","height":6,"heightSource":"default"},"geometry":{"type":"MultiPolygon","coordinates":[[[[743914.7,1585651.69],[743917.36,1585648.85],[743937.88,1585656.96],[743936.03,1585661.25],[743914.7,1585651.69]]]]}},{"type":"Feature","properties":{"building":"yes","height":6,"heightSource":"default"},"geometry":{"type":"MultiPolygon","coordinates":[[[[743888.2,1585620.24],[743895.68,1585603.7],[743910.96,1585610.53],[743907.38,1585618.45],[743903.28,1585616.61],[743901.34,1585620.92],[743897.63,1585619.27],[743895.68,1585623.58],[743888.2,1585620.24]]]]}},{"type":"Feature","properties":{"building":"roof","height":6,"heightSource":"default"},"geometry":{"type":"MultiPolygon","coordinates":[[[[745402.38,1584118.46],[745405.2,1584114.53],[745401.68,1584112.34],[745409.76,1584100.49],[745405.01,1584097.11],[745402.25,1584100.71],[745404.25,1584102.02],[745395.89,1584113.29],[745402.38,1584118.46]]]]}},{"type":"Feature","properties":{"building":"yes","height":6,"heightSource":"default"},"geometry":{"type":"MultiPolygon","coordinates":[[[[745533.82,1584498.84],[745540.27,1584500.17],[745543.94,1584482.72],[745538.07,1584481.49],[745536.84,1584487.3],[745531.32,1584486.15],[745530.08,1584492.04],[745535.03,1584493.07],[745533.82,1584498.84]]]]}},{"type":"Feature","properties":{"building":"yes","height":6,"heightSource":"default"},"geometry":{"type":"MultiPolygon","coordinates":[[[[745561.97,1584469.56],[745563.89,1584463],[745562.73,1584462.67],[745564.75,1584455.77],[745559.34,1584454.22],[745560.42,1584450.49],[745556.93,1584449.49],[745554.11,1584459.17],[745551.41,1584458.39],[745550.46,1584461.62],[745548.95,1584461.19],[745548.43,1584462.99],[745552.18,1584464.07],[745551.86,1584465.2],[745553.6,1584465.7],[745553.22,1584467.04],[745561.97,1584469.56]]]]}},{"type":"Feature","properties":{"building":"yes","height":6,"heightSource":"default"},"geometry":{"type":"MultiPolygon","coordinates":[[[[746556.99,1583835.3],[746571.1,1583835.34],[746571.15,1583817.51],[746557.04,1583817.46],[746556.99,1583835.3]]]]}},{"type":"Feature","properties":{"building":"yes","height":6,"heightSource":"default"},"geometry":{"type":"MultiPolygon","coordinates":[[[[746572.14,1583846.55],[746572.33,1583831.82],[746578.89,1583831.91],[746581.59,1583831.94],[746581.4,1583846.68],[746572.14,1583846.55]]]]}},{"type":"Feature","properties":{"building":"yes","height":6,"heightSource":"default"},"geometry":{"type":"MultiPolygon","coordinates":[[[[746584.26,1583848.4],[746586.06,1583833.1],[746593.65,1583833.98],[746591.85,1583849.28],[746584.26,1583848.4]]]]}},{"type":"Feature","properties":{"building":"yes","height":6,"heightSource":"default"},"geometry":{"type":"MultiPolygon","coordinates":[[[[746632.1,1583880.04],[746632.54,1583874.01],[746633.66,1583859.06],[746620.26,1583858.06],[746618.89,1583876.28],[746622.42,1583876.54],[746622.21,1583879.31],[746632.1,1583880.04]]]]}},{"type":"Feature","properties":{"building":"yes","height":6,"heightSource":"default"},"geometry":{"type":"MultiPolygon","coordinates":[[[[746603.87,1583847.08],[746613.71,1583847.61],[746613.3,1583853.65],[746612.87,1583859.68],[746611.57,1583859.67],[746610.04,1583867.86],[746605.01,1583864.5],[746605.78,1583859.76],[746602.6,1583859.01],[746603.87,1583847.08]]]]}},{"type":"Feature","properties":{"building":"yes","height":6,"heightSource":"default"},"geometry":{"type":"MultiPolygon","coordinates":[[[[746603.7,1583841.1],[746604.9,1583831.82],[746607.86,1583832.31],[746616.23,1583833.27],[746615.02,1583842.55],[746603.7,1583841.1]]]]}},{"type":"Feature","properties":{"building":"yes","height":6,"heightSource":"default"},"geometry":{"type":"MultiPolygon","coordinates":[[[[746607.86,1583832.31],[746608.77,1583824.57],[746619.67,1583825.83],[746618.77,1583833.57],[746616.23,1583833.27],[746607.86,1583832.31]]]]}},{"type":"Feature","properties":{"building":"yes","height":6,"heightSource":"default"},"geometry":{"type":"MultiPolygon","coordinates":[[[[746621.65,1583810.9],[746620.2,1583795.78],[746626.01,1583794.83],[746629.59,1583797.74],[746634.95,1583797.08],[746636.02,1583807.45],[746629.78,1583808.54],[746629.9,1583810.55],[746621.65,1583810.9]]]]}},{"type":"Feature","properties":{"building":"yes","height":6,"heightSource":"default"},"geometry":{"type":"MultiPolygon","coordinates":[[[[745333.72,1584158.74],[745344.38,1584156.18],[745342.89,1584150.09],[745339.32,1584150.95],[745338.83,1584148.97],[745342.34,1584148.13],[745340.62,1584141.05],[745330.04,1584143.59],[745333.72,1584158.74]]]]}},{"type":"Feature","properties":{"building":"yes","height":6,"heightSource":"default"},"geometry":{"type":"MultiPolygon","coordinates":[[[[745327.83,1584138.64],[745324.53,1584120.59],[745336.09,1584118.51],[745337.67,1584127.14],[745333.35,1584127.92],[745333.68,1584129.68],[745338.11,1584128.88],[745339.52,1584136.55],[745327.83,1584138.64]]]]}},{"type":"Feature","properties":{"building":"yes","height":6,"heightSource":"default"},"geometry":{"type":"MultiPolygon","coordinates":[[[[745323.27,1584113.35],[745320.16,1584096.62],[745330.77,1584094.66],[745332.15,1584102.07],[745327.51,1584102.92],[745327.86,1584104.76],[745332.8,1584103.86],[745334.2,1584111.35],[745323.27,1584113.35]]]]}},{"type":"Feature","properties":{"building":"yes","height":6,"heightSource":"default"},"geometry":{"type":"MultiPolygon","coordinates":[[[[745317.93,1584087.7],[745315.36,1584072.45],[745325.69,1584070.74],[745326.74,1584076.99],[745322.62,1584077.67],[745323.13,1584080.7],[745327.35,1584080],[745328.35,1584085.96],[745317.93,1584087.7]]]]}},{"type":"Feature","properties":{"building":"yes","height":6,"heightSource":"default"},"geometry":{"type":"MultiPolygon","coordinates":[[[[745316.27,1584066.06],[745313.69,1584047.75],[745326.59,1584045.97],[745327.78,1584054.4],[745323.82,1584054.96],[745324.08,1584056.8],[745328.14,1584056.24],[745329.27,1584064.27],[745316.27,1584066.06]]]]}},{"type":"Feature","properties":{"building":"yes","height":6,"heightSource":"default"},"geometry":{"type":"MultiPolygon","coordinates":[[[[745313.3,1584038.91],[745316.63,1584020.76],[745327.47,1584022.73],[745325.92,1584031.17],[745322.98,1584030.63],[745322.62,1584032.59],[745325.31,1584033.08],[745323.88,1584040.83],[745313.3,1584038.91]]]]}},{"type":"Feature","properties":{"building":"yes","height":6,"heightSource":"default"},"geometry":{"type":"MultiPolygon","coordinates":[[[[745319.63,1584013.77],[745326.91,1583998.19],[745336.45,1584002.59],[745333.22,1584009.5],[745330.62,1584008.31],[745329.63,1584010.44],[745332.21,1584011.64],[745329.16,1584018.17],[745319.63,1584013.77]]]]}},{"type":"Feature","properties":{"building":"yes","height":6,"heightSource":"default"},"geometry":{"type":"MultiPolygon","coordinates":[[[[745225.9,1584325.5],[745221.01,1584322.86],[745239.22,1584292.46],[745244.44,1584295.47],[745225.9,1584325.5]]]]}},{"type":"Feature","properties":{"building":"yes","height":6,"heightSource":"default"},"geometry":{"type":"MultiPolygon","coordinates":[[[[744999.8,1584664.2],[744996.74,1584651.58],[745003.4,1584649.98],[745006.46,1584662.62],[744999.8,1584664.2]]]]}},{"type":"Feature","properties":{"building":"yes","height":6,"heightSource":"default"},"geometry":{"type":"MultiPolygon","coordinates":[[[[745006.92,1584659.17],[745004.48,1584649.49],[745018.9,1584645.91],[745021.34,1584655.58],[745006.92,1584659.17]]]]}},{"type":"Feature","properties":{"building":"yes","height":6,"heightSource":"default"},"geometry":{"type":"MultiPolygon","coordinates":[[[[744987.19,1584638.91],[744991.66,1584637.28],[744989.23,1584630.68],[744984.76,1584632.31],[744987.19,1584638.91]]]]}},{"type":"Feature","properties":{"building":"yes","height":6,"heightSource":"default"},"geometry":{"type":"MultiPolygon","coordinates":[[[[744025.28,1585340.88],[744029.6,1585337.93],[744038.01,1585350.07],[744045.35,1585345.05],[744051.44,1585353.84],[744041.95,1585360.34],[744036.02,1585351.78],[744033.86,1585353.26],[744025.28,1585340.88]]]]}},{"type":"Feature","properties":{"building":"yes","height":6,"heightSource":"default"},"geometry":{"type":"MultiPolygon","coordinates":[[[[744050.59,1585349.4],[744054.86,1585346.61],[744052.4,1585342.9],[744048.12,1585345.69],[744050.59,1585349.4]]]]}},{"type":"Feature","properties":{"building":"yes","height":6,"heightSource":"default"},"geometry":{"type":"MultiPolygon","coordinates":[[[[744060.43,1585375.99],[744068.07,1585370.75],[744062.08,1585362.13],[744054.43,1585367.38],[744060.43,1585375.99]]]]}},{"type":"Feature","properties":{"building":"yes","height":6,"heightSource":"default"},"geometry":{"type":"MultiPolygon","coordinates":[[[[744043.97,1585361.14],[744051.85,1585355.38],[744055.12,1585359.78],[744047.23,1585365.55],[744043.97,1585361.14]]]]}},{"type":"Feature","properties":{"building":"yes","height":6,"heightSource":"default"},"geometry":{"type":"MultiPolygon","coordinates":[[[[744015.46,1585787.89],[744039.06,1585779.66],[744037.13,1585774.2],[744013.53,1585782.42],[744015.46,1585787.89]]]]}},{"type":"Feature","properties":{"building":"yes","height":6,"heightSource":"default"},"geometry":{"type":"MultiPolygon","coordinates":[[[[744005.07,1585780.52],[744028.3,1585772.01],[744025.8,1585765.29],[744002.58,1585773.8],[744005.07,1585780.52]]]]}},{"type":"Feature","properties":{"building":"yes","height":6,"heightSource":"default"},"geometry":{"type":"MultiPolygon","coordinates":[[[[743994.54,1585771.87],[744017.52,1585762.47],[744014.96,1585756.28],[743991.98,1585765.68],[743994.54,1585771.87]]]]}},{"type":"Feature","properties":{"building":"yes","height":6,"heightSource":"default"},"geometry":{"type":"MultiPolygon","coordinates":[[[[745168.45,1585052.56],[745173.52,1585055.93],[745178.72,1585048.18],[745173.65,1585044.82],[745168.45,1585052.56]]]]}},{"type":"Feature","properties":{"building":"yes","height":6,"heightSource":"default"},"geometry":{"type":"MultiPolygon","coordinates":[[[[745179.69,1585055.49],[745186.32,1585048.13],[745189.35,1585050.83],[745182.73,1585058.19],[745179.69,1585055.49]]]]}},{"type":"Feature","properties":{"building":"yes","height":6,"heightSource":"default"},"geometry":{"type":"MultiPolygon","coordinates":[[[[746172.71,1583753.83],[746183.39,1583748.01],[746176.89,1583736.22],[746166.2,1583742.04],[746172.71,1583753.83]]]]}},{"type":"Feature","properties":{"building":"yes","height":6,"heightSource":"default"},"geometry":{"type":"MultiPolygon","coordinates":[[[[747337.17,1582596.01],[747336.12,1582583.78],[747347.19,1582582.84],[747347.44,1582585.72],[747354.99,1582585.08],[747355.92,1582595.9],[747346.09,1582596.73],[747345.97,1582595.27],[747337.17,1582596.01]]]]}},{"type":"Feature","properties":{"building":"yes","height":6,"heightSource":"default"},"geometry":{"type":"MultiPolygon","coordinates":[[[[747265.21,1582657.66],[747270.92,1582643.67],[747280.38,1582647.49],[747274.66,1582661.48],[747265.21,1582657.66]]]]}},{"type":"Feature","properties":{"building":"yes","height":6,"heightSource":"default"},"geometry":{"type":"MultiPolygon","coordinates":[[[[747246.67,1582747],[747247.26,1582732.43],[747256.26,1582732.81],[747256.16,1582735.2],[747262.89,1582735.48],[747262.62,1582742.06],[747256.07,1582741.78],[747255.84,1582747.38],[747246.67,1582747]]]]}},{"type":"Feature","properties":{"building":"yes","height":6,"heightSource":"default"},"geometry":{"type":"MultiPolygon","coordinates":[[[[747278.49,1582777.22],[747270.89,1582761.64],[747287.06,1582753.86],[747292.57,1582765.12],[747283.82,1582769.34],[747285.92,1582773.62],[747278.49,1582777.22]]]]}},{"type":"Feature","properties":{"building":"yes","height":6,"heightSource":"default"},"geometry":{"type":"MultiPolygon","coordinates":[[[[747082.51,1582820.63],[747078.94,1582808.38],[747099.76,1582802.4],[747103.32,1582814.64],[747082.51,1582820.63]]]]}},{"type":"Feature","properties":{"building":"yes","height":6,"heightSource":"default"},"geometry":{"type":"MultiPolygon","coordinates":[[[[747134.5,1582773.85],[747147.09,1582772.38],[747145.23,1582756.8],[747132.64,1582758.28],[747134.5,1582773.85]]]]}},{"type":"Feature","properties":{"building":"yes","height":6,"heightSource":"default"},"geometry":{"type":"MultiPolygon","coordinates":[[[[747193.01,1582754.28],[747200.66,1582752.86],[747197.29,1582734.98],[747189.63,1582736.41],[747193.01,1582754.28]]]]}},{"type":"Feature","properties":{"building":"yes","height":6,"heightSource":"default"},"geometry":{"type":"MultiPolygon","coordinates":[[[[746963.78,1582852.67],[746961.51,1582847.13],[746972.66,1582842.64],[746974.92,1582848.17],[746963.78,1582852.67]]]]}},{"type":"Feature","properties":{"building":"yes","height":6,"heightSource":"default"},"geometry":{"type":"MultiPolygon","coordinates":[[[[745476.1,1584005.68],[745481.73,1584019.24],[745491.72,1584015.16],[745489.84,1584010.63],[745491.89,1584009.8],[745486.6,1583997.03],[745478.91,1584000.18],[745480.46,1584003.9],[745476.1,1584005.68]]]]}},{"type":"Feature","properties":{"building":"yes","height":6,"heightSource":"default"},"geometry":{"type":"MultiPolygon","coordinates":[[[[745489.56,1583997.03],[745496.31,1584012.92],[745505.09,1584009.25],[745503.06,1584004.49],[745506,1584003.26],[745501.26,1583992.13],[745489.56,1583997.03]]]]}},{"type":"Feature","properties":{"building":"yes","height":6,"heightSource":"default"},"geometry":{"type":"MultiPolygon","coordinates":[[[[745509.94,1584006.28],[745503.92,1583990.86],[745516.46,1583986.04],[745520.9,1583997.4],[745516.28,1583999.17],[745517.86,1584003.23],[745509.94,1584006.28]]]]}},{"type":"Feature","properties":{"building":"yes","height":6,"heightSource":"default"},"geometry":{"type":"MultiPolygon","coordinates":[[[[745525.11,1584000.6],[745518.9,1583985.06],[745531.36,1583980.15],[745535.62,1583990.82],[745531.22,1583992.56],[745533.17,1583997.42],[745525.11,1584000.6]]]]}},{"type":"Feature","properties":{"building":"yes","height":6,"heightSource":"default"},"geometry":{"type":"MultiPolygon","coordinates":[[[[745533.85,1583979.54],[745546.12,1583974.86],[745549.83,1583984.44],[745544.77,1583986.37],[745546.99,1583992.1],[745539.77,1583994.87],[745533.85,1583979.54]]]]}},{"type":"Feature","properties":{"building":"yes","height":6,"heightSource":"default"},"geometry":{"type":"MultiPolygon","coordinates":[[[[745548.2,1583974.12],[745554.79,1583988.84],[745561.38,1583985.92],[745557.24,1583976.69],[745562.71,1583974.27],[745559.23,1583966.52],[745551.6,1583969.9],[745552.61,1583972.17],[745548.2,1583974.12]]]]}},{"type":"Feature","properties":{"building":"yes","height":6,"heightSource":"default"},"geometry":{"type":"MultiPolygon","coordinates":[[[[745459.85,1583984.34],[745468.28,1583981.1],[745463.29,1583968.41],[745454.83,1583971.66],[745459.85,1583984.34]]]]}},{"type":"Feature","properties":{"building":"yes","height":6,"heightSource":"default"},"geometry":{"type":"MultiPolygon","coordinates":[[[[745468.28,1583981.1],[745479.04,1583976.92],[745474.04,1583964.23],[745463.29,1583968.41],[745468.28,1583981.1]]]]}},{"type":"Feature","properties":{"building":"yes","height":6,"heightSource":"default"},"geometry":{"type":"MultiPolygon","coordinates":[[[[745479.04,1583976.92],[745491.04,1583972.27],[745486.08,1583959.57],[745474.04,1583964.23],[745479.04,1583976.92]]]]}},{"type":"Feature","properties":{"building":"yes","height":6,"heightSource":"default"},"geometry":{"type":"MultiPolygon","coordinates":[[[[745491.04,1583972.27],[745502.07,1583968.01],[745497.08,1583955.32],[745486.08,1583959.57],[745491.04,1583972.27]]]]}},{"type":"Feature","properties":{"building":"yes","height":6,"heightSource":"default"},"geometry":{"type":"MultiPolygon","coordinates":[[[[745502.07,1583968.01],[745513.32,1583963.62],[745508.3,1583950.95],[745497.08,1583955.32],[745502.07,1583968.01]]]]}},{"type":"Feature","properties":{"building":"yes","height":6,"heightSource":"default"},"geometry":{"type":"MultiPolygon","coordinates":[[[[745513.32,1583963.62],[745524.26,1583959.33],[745519.2,1583946.66],[745508.3,1583950.95],[745513.32,1583963.62]]]]}},{"type":"Feature","properties":{"building":"yes","height":6,"heightSource":"default"},"geometry":{"type":"MultiPolygon","coordinates":[[[[745524.26,1583959.33],[745535.04,1583955.19],[745530.01,1583942.37],[745519.2,1583946.66],[745524.26,1583959.33]]]]}},{"type":"Feature","properties":{"building":"yes","height":6,"heightSource":"default"},"geometry":{"type":"MultiPolygon","coordinates":[[[[745535.04,1583955.19],[745544.72,1583951.44],[745539.69,1583938.61],[745530.01,1583942.37],[745535.04,1583955.19]]]]}},{"type":"Feature","properties":{"building":"yes","height":6,"heightSource":"default"},"geometry":{"type":"MultiPolygon","coordinates":[[[[745196.72,1585006.08],[745206.13,1584996.15],[745201.21,1584991.55],[745191.8,1585001.49],[745196.72,1585006.08]]]]}},{"type":"Feature","properties":{"building":"yes","height":6,"heightSource":"default"},"geometry":{"type":"MultiPolygon","coordinates":[[[[745994.09,1585121.22],[745997.49,1585119.98],[745995.57,1585114.77],[745992.17,1585116.01],[745994.09,1585121.22]]]]}},{"type":"Feature","properties":{"building":"yes","height":6,"heightSource":"default"},"geometry":{"type":"MultiPolygon","coordinates":[[[[745971.56,1585116.68],[745970.11,1585111.78],[745977.4,1585109.64],[745978.85,1585114.54],[745971.56,1585116.68]]]]}},{"type":"Feature","properties":{"building":"yes","height":6,"heightSource":"default"},"geometry":{"type":"MultiPolygon","coordinates":[[[[745964.68,1585117.1],[745968.38,1585116.28],[745967.52,1585112.47],[745963.82,1585113.28],[745964.68,1585117.1]]]]}},{"type":"Feature","properties":{"building":"yes","height":6,"heightSource":"default"},"geometry":{"type":"MultiPolygon","coordinates":[[[[745960.34,1585096.19],[745970.99,1585091.99],[745974.31,1585101.38],[745970.99,1585102.6],[745969.71,1585099.22],[745962.87,1585101.76],[745960.34,1585096.19]]]]}},{"type":"Feature","properties":{"building":"yes","height":6,"heightSource":"default"},"geometry":{"type":"MultiPolygon","coordinates":[[[[745982.3,1585100.73],[745995.18,1585096.36],[745989.7,1585080.43],[745976.83,1585084.8],[745982.3,1585100.73]]]]}},{"type":"Feature","properties":{"building":"yes","height":6,"heightSource":"default"},"geometry":{"type":"MultiPolygon","coordinates":[[[[745986.48,1585075.42],[745990.13,1585075.46],[745990.24,1585066.99],[745986.59,1585066.94],[745986.48,1585075.42]]]]}},{"type":"Feature","properties":{"building":"yes","height":6,"heightSource":"default"},"geometry":{"type":"MultiPolygon","coordinates":[[[[745951.44,1585073.91],[745962.09,1585069.71],[745970.99,1585091.99],[745960.34,1585096.19],[745951.44,1585073.91]]]]}},{"type":"Feature","properties":{"building":"yes","height":6,"heightSource":"default"},"geometry":{"type":"MultiPolygon","coordinates":[[[[745982.1,1585052.42],[745998.29,1585052.51],[745998.51,1585014.34],[745982.32,1585014.24],[745982.1,1585052.42]]]]}},{"type":"Feature","properties":{"building":"yes","height":6,"heightSource":"default"},"geometry":{"type":"MultiPolygon","coordinates":[[[[745983.87,1585006.67],[745990.18,1585006.8],[745990.06,1585013.04],[745998.62,1585013.2],[745998.75,1585006.89],[745992.22,1585006.76],[745992.34,1585000.13],[745984,1584999.97],[745983.87,1585006.67]]]]}},{"type":"Feature","properties":{"building":"yes","height":6,"heightSource":"default"},"geometry":{"type":"MultiPolygon","coordinates":[[[[745951.04,1585019.58],[745950.73,1585013.24],[745940.38,1585013.72],[745929.07,1585031.15],[745936.61,1585040.28],[745939.09,1585038.26],[745942.73,1585042.66],[745950.73,1585036.12],[745949.56,1585022.59],[745951.04,1585019.58]]]]}},{"type":"Feature","properties":{"building":"yes","height":6,"heightSource":"default"},"geometry":{"type":"MultiPolygon","coordinates":[[[[745227.79,1584989.6],[745232.9,1584984.61],[745237.21,1584988.98],[745232.1,1584993.96],[745227.79,1584989.6]]]]}},{"type":"Feature","properties":{"building":"yes","height":6,"heightSource":"default"},"geometry":{"type":"MultiPolygon","coordinates":[[[[745282.8,1584925.5],[745285.83,1584930.55],[745306.44,1584918.33],[745303.41,1584913.28],[745282.8,1584925.5]]]]}},{"type":"Feature","properties":{"building":"yes","height":6,"heightSource":"default"},"geometry":{"type":"MultiPolygon","coordinates":[[[[745321,1584931.36],[745309.65,1584920.36],[745317.87,1584911.99],[745329.22,1584922.99],[745321,1584931.36]]]]}},{"type":"Feature","properties":{"building":"yes","height":6,"heightSource":"default"},"geometry":{"type":"MultiPolygon","coordinates":[[[[746002.81,1584676.33],[746014.58,1584671.99],[746018.1,1584681.37],[746006.34,1584685.72],[746002.81,1584676.33]]]]}},{"type":"Feature","properties":{"building":"yes","height":6,"heightSource":"default"},"geometry":{"type":"MultiPolygon","coordinates":[[[[746007.19,1584687.01],[746018.26,1584683.04],[746020.45,1584689.07],[746009.38,1584693.05],[746007.19,1584687.01]]]]}},{"type":"Feature","properties":{"building":"yes","height":6,"heightSource":"default"},"geometry":{"type":"MultiPolygon","coordinates":[[[[745957.74,1584738.14],[745964.24,1584733.93],[745967.46,1584738.82],[745960.97,1584743.04],[745957.74,1584738.14]]]]}},{"type":"Feature","properties":{"building":"yes","height":6,"heightSource":"default"},"geometry":{"type":"MultiPolygon","coordinates":[[[[745973.67,1584750.14],[745985.9,1584738.42],[745991.58,1584744.27],[745979.35,1584756],[745973.67,1584750.14]]]]}},{"type":"Feature","properties":{"building":"yes","height":6,"heightSource":"default"},"geometry":{"type":"MultiPolygon","coordinates":[[[[745990.41,1584733.18],[746003.72,1584721.26],[746011.2,1584729.51],[745997.89,1584741.42],[745990.41,1584733.18]]]]}},{"type":"Feature","properties":{"building":"yes","height":6,"heightSource":"default"},"geometry":{"type":"MultiPolygon","coordinates":[[[[745980.68,1584724.03],[745989.3,1584716.72],[745994.6,1584722.88],[745985.99,1584730.19],[745980.68,1584724.03]]]]}},{"type":"Feature","properties":{"building":"yes","height":6,"heightSource":"default"},"geometry":{"type":"MultiPolygon","coordinates":[[[[746073.1,1584596.26],[746083.15,1584593.52],[746080.66,1584584.54],[746070.62,1584587.28],[746073.1,1584596.26]]]]}},{"type":"Feature","properties":{"building":"yes","height":6,"heightSource":"default"},"geometry":{"type":"MultiPolygon","coordinates":[[[[746074.72,1584566.88],[746086.64,1584563.85],[746083.82,1584552.91],[746071.92,1584555.92],[746073.38,1584561.65],[746074.72,1584566.88]]]]}},{"type":"Feature","properties":{"building":"yes","height":6,"heightSource":"default"},"geometry":{"type":"MultiPolygon","coordinates":[[[[747004.26,1584028.31],[747004.44,1584014.36],[747033.96,1584014.76],[747033.77,1584028.7],[747004.26,1584028.31]]]]}},{"type":"Feature","properties":{"building":"yes","height":6,"heightSource":"default"},"geometry":{"type":"MultiPolygon","coordinates":[[[[746943.87,1584054.52],[746932.67,1584017.01],[746951.4,1584012.87],[746971.25,1584008.48],[746980.45,1584043.95],[746961.59,1584049.52],[746963.75,1584056.65],[746947.12,1584063.32],[746943.87,1584054.52]]]]}},{"type":"Feature","properties":{"building":"yes","height":6,"heightSource":"default"},"geometry":{"type":"MultiPolygon","coordinates":[[[[746951.4,1584012.87],[746948.57,1583989.55],[746965.74,1583986.44],[746987.72,1583982.46],[746990.83,1584004.5],[746971.25,1584008.48],[746951.4,1584012.87]]]]}},{"type":"Feature","properties":{"building":"yes","height":6,"heightSource":"default"},"geometry":{"type":"MultiPolygon","coordinates":[[[[746928.13,1584004.78],[746927.49,1584000.66],[746932.99,1583999.82],[746932.54,1583996.99],[746944.14,1583995.22],[746946.12,1584007.98],[746934.51,1584009.75],[746933.61,1584003.93],[746928.13,1584004.78]]]]}},{"type":"Feature","properties":{"building":"yes","height":6,"heightSource":"default"},"geometry":{"type":"MultiPolygon","coordinates":[[[[746922.75,1583994.91],[746920.65,1583973.17],[746942.69,1583969.36],[746953.13,1583967.59],[746951.89,1583961.25],[747003.41,1583946.66],[747007.04,1583960.78],[747004,1583961.76],[747006.77,1583973.59],[746965.74,1583986.44],[746948.57,1583989.55],[746922.75,1583994.91]]]]}},{"type":"Feature","properties":{"building":"yes","height":6,"heightSource":"default"},"geometry":{"type":"MultiPolygon","coordinates":[[[[746394.23,1584240.35],[746391.87,1584232.76],[746393.73,1584232.2],[746390.94,1584223.26],[746404.87,1584218.98],[746409.29,1584233.18],[746400.71,1584235.82],[746401.42,1584238.14],[746394.23,1584240.35]]]]}},{"type":"Feature","properties":{"building":"yes","height":6,"heightSource":"default"},"geometry":{"type":"MultiPolygon","coordinates":[[[[746465.73,1584287.72],[746462.07,1584274.78],[746486.29,1584268.01],[746490.09,1584281.49],[746488.35,1584281.98],[746491.28,1584292.35],[746479.19,1584295.73],[746476.67,1584286.82],[746471.65,1584288.23],[746471.08,1584286.22],[746465.73,1584287.72]]]]}},{"type":"Feature","properties":{"building":"yes","height":6,"heightSource":"default"},"geometry":{"type":"MultiPolygon","coordinates":[[[[746537.88,1584265.23],[746549.83,1584263.19],[746547.22,1584248.12],[746535.28,1584250.16],[746537.88,1584265.23]]]]}},{"type":"Feature","properties":{"building":"yes","height":6,"heightSource":"default"},"geometry":{"type":"MultiPolygon","coordinates":[[[[746590.61,1584244.98],[746603.45,1584240.13],[746601.87,1584236.02],[746604.37,1584235.08],[746600.77,1584225.68],[746585.45,1584231.48],[746590.61,1584244.98]]]]}},{"type":"Feature","properties":{"building":"yes","height":6,"heightSource":"default"},"geometry":{"type":"MultiPolygon","coordinates":[[[[746590.66,1584208.98],[746587.65,1584195.03],[746594.46,1584193.57],[746593.6,1584189.57],[746606.25,1584186.88],[746607.96,1584194.82],[746605.48,1584195.36],[746606.54,1584200.27],[746595.32,1584202.66],[746596.43,1584207.75],[746590.66,1584208.98]]]]}},{"type":"Feature","properties":{"building":"yes","height":6,"heightSource":"default"},"geometry":{"type":"MultiPolygon","coordinates":[[[[746538.66,1584317.79],[746534.37,1584302.11],[746542.11,1584300.02],[746541.44,1584297.56],[746547.89,1584295.82],[746551.29,1584308.24],[746547.63,1584312.52],[746548.69,1584316.37],[746543.88,1584317.68],[746543.56,1584316.47],[746538.66,1584317.79]]]]}},{"type":"Feature","properties":{"building":"yes","height":6,"heightSource":"default"},"geometry":{"type":"MultiPolygon","coordinates":[[[[746529.07,1584336.7],[746535.77,1584336.02],[746533.52,1584314.5],[746523.25,1584315.56],[746524.59,1584328.31],[746528.15,1584327.95],[746529.07,1584336.7]]]]}},{"type":"Feature","properties":{"building":"yes","height":6,"heightSource":"default"},"geometry":{"type":"MultiPolygon","coordinates":[[[[746483.2,1584326.46],[746481.73,1584319.61],[746487.05,1584318.49],[746486.39,1584315.39],[746499.98,1584312.54],[746501.73,1584320.79],[746498.84,1584321.39],[746499.63,1584325.06],[746489.28,1584327.23],[746488.85,1584325.27],[746483.2,1584326.46]]]]}},{"type":"Feature","properties":{"building":"yes","height":6,"heightSource":"default"},"geometry":{"type":"MultiPolygon","coordinates":[[[[746492.86,1584358.71],[746504.24,1584356.85],[746501.14,1584338.13],[746489.75,1584339.99],[746492.86,1584358.71]]]]}},{"type":"Feature","properties":{"building":"yes","height":6,"heightSource":"default"},"geometry":{"type":"MultiPolygon","coordinates":[[[[746457.56,1584358.12],[746474.52,1584356.33],[746472.53,1584337.83],[746455.59,1584339.62],[746457.56,1584358.12]]]]}},{"type":"Feature","properties":{"building":"yes","height":6,"heightSource":"default"},"geometry":{"type":"MultiPolygon","coordinates":[[[[746544.15,1584368.29],[746540.9,1584353.46],[746550.76,1584351.32],[746551.78,1584355.94],[746560.51,1584354.05],[746562.97,1584365.24],[746558.12,1584366.29],[746558.94,1584370.04],[746548.65,1584372.26],[746547.62,1584367.53],[746544.15,1584368.29]]]]}},{"type":"Feature","properties":{"building":"yes","height":6,"heightSource":"default"},"geometry":{"type":"MultiPolygon","coordinates":[[[[746574.51,1584391.85],[746570.81,1584377.23],[746583.65,1584374.01],[746591.35,1584372.08],[746594.32,1584383.79],[746588.91,1584385.14],[746589.65,1584388.05],[746574.51,1584391.85]]]]}},{"type":"Feature","properties":{"building":"yes","height":6,"heightSource":"default"},"geometry":{"type":"MultiPolygon","coordinates":[[[[746583.65,1584374.01],[746578.33,1584354.68],[746594.16,1584350.23],[746599.32,1584369.98],[746591.35,1584372.08],[746583.65,1584374.01]]]]}},{"type":"Feature","properties":{"building":"yes","height":6,"heightSource":"default"},"geometry":{"type":"MultiPolygon","coordinates":[[[[746606.75,1584342.13],[746604.82,1584330.57],[746612.3,1584329.33],[746612.67,1584331.51],[746617.8,1584330.65],[746618.87,1584337.05],[746613.72,1584337.9],[746614.22,1584340.9],[746606.75,1584342.13]]]]}},{"type":"Feature","properties":{"building":"yes","height":6,"heightSource":"default"},"geometry":{"type":"MultiPolygon","coordinates":[[[[746617.11,1584363.26],[746613.92,1584344.65],[746626.91,1584342.45],[746627.2,1584344.1],[746639.47,1584342.03],[746642.37,1584359],[746617.11,1584363.26]]]]}},{"type":"Feature","properties":{"building":"yes","height":6,"heightSource":"default"},"geometry":{"type":"MultiPolygon","coordinates":[[[[746548.22,1584399.6],[746546.49,1584392.21],[746558.78,1584389.37],[746560.51,1584396.76],[746548.22,1584399.6]]]]}},{"type":"Feature","properties":{"building":"yes","height":6,"heightSource":"default"},"geometry":{"type":"MultiPolygon","coordinates":[[[[746485.09,1584400.01],[746482.16,1584384.57],[746483.8,1584384.26],[746492.61,1584382.63],[746494.51,1584382.25],[746496.84,1584394.49],[746493.26,1584395.16],[746493.86,1584398.37],[746485.09,1584400.01]]]]}},{"type":"Feature","properties":{"building":"yes","height":6,"heightSource":"default"},"geometry":{"type":"MultiPolygon","coordinates":[[[[746483.8,1584384.26],[746483.01,1584379.99],[746491.83,1584378.37],[746492.61,1584382.63],[746483.8,1584384.26]]]]}},{"type":"Feature","properties":{"building":"yes","height":6,"heightSource":"default"},"geometry":{"type":"MultiPolygon","coordinates":[[[[746495.83,1584383.07],[746510.64,1584380.43],[746513.16,1584394.35],[746504.34,1584395.91],[746504.77,1584398.02],[746498.68,1584399.08],[746495.83,1584383.07]]]]}},{"type":"Feature","properties":{"building":"yes","height":6,"heightSource":"default"},"geometry":{"type":"MultiPolygon","coordinates":[[[[746498.68,1584399.08],[746500.34,1584408.38],[746506.42,1584407.3],[746504.77,1584398.02],[746498.68,1584399.08]]]]}},{"type":"Feature","properties":{"building":"yes","height":6,"heightSource":"default"},"geometry":{"type":"MultiPolygon","coordinates":[[[[746459.88,1584400.97],[746467.24,1584399.59],[746464.04,1584382.79],[746452.06,1584385.04],[746454.58,1584398.29],[746459.21,1584397.43],[746459.88,1584400.97]]]]}},{"type":"Feature","properties":{"building":"yes","height":6,"heightSource":"default"},"geometry":{"type":"MultiPolygon","coordinates":[[[[746389.59,1584375.02],[746386.92,1584365.82],[746396.21,1584363.15],[746398.88,1584372.34],[746389.59,1584375.02]]]]}},{"type":"Feature","properties":{"building":"yes","height":6,"heightSource":"default"},"geometry":{"type":"MultiPolygon","coordinates":[[[[746403.34,1584403.57],[746401.78,1584397.51],[746408.14,1584395.89],[746409.53,1584401.29],[746408.45,1584401.57],[746409.14,1584404.23],[746405.32,1584405.2],[746404.8,1584403.18],[746403.34,1584403.57]]]]}},{"type":"Feature","properties":{"building":"yes","height":6,"heightSource":"default"},"geometry":{"type":"MultiPolygon","coordinates":[[[[746393.99,1584383.58],[746406.02,1584380.3],[746408.94,1584390.9],[746406.67,1584391.52],[746407.53,1584394.62],[746397.69,1584397.3],[746396.52,1584393.08],[746393.14,1584391.76],[746392.33,1584388.84],[746395.22,1584388.05],[746393.99,1584383.58]]]]}},{"type":"Feature","properties":{"building":"yes","height":6,"heightSource":"default"},"geometry":{"type":"MultiPolygon","coordinates":[[[[746381.11,1584421.47],[746395.54,1584416.52],[746390.76,1584402.77],[746380.08,1584406.43],[746381,1584409.06],[746377.25,1584410.34],[746381.11,1584421.47]]]]}},{"type":"Feature","properties":{"building":"yes","height":6,"heightSource":"default"},"geometry":{"type":"MultiPolygon","coordinates":[[[[746271.5,1584325.05],[746276.91,1584318.2],[746285.52,1584324.91],[746280.11,1584331.77],[746271.5,1584325.05]]]]}},{"type":"Feature","properties":{"building":"yes","height":6,"heightSource":"default"},"geometry":{"type":"MultiPolygon","coordinates":[[[[746245.08,1584315.29],[746253.14,1584308.32],[746261.47,1584317.84],[746253.41,1584324.81],[746245.08,1584315.29]]]]}},{"type":"Feature","properties":{"building":"yes","height":6,"heightSource":"default"},"geometry":{"type":"MultiPolygon","coordinates":[[[[746231.97,1584330.25],[746235.47,1584334.61],[746242.08,1584341.85],[746246.34,1584338.19],[746244.29,1584335.83],[746247.25,1584333.28],[746239.19,1584324.04],[746231.97,1584330.25]]]]}},{"type":"Feature","properties":{"building":"yes","height":6,"heightSource":"default"},"geometry":{"type":"MultiPolygon","coordinates":[[[[746238.16,1584356.16],[746245.97,1584348.93],[746244.68,1584347.36],[746246.01,1584346.15],[746242.08,1584341.85],[746235.47,1584334.61],[746232.64,1584337.16],[746228.06,1584332.16],[746219.38,1584340],[746223.67,1584344.69],[746225.87,1584342.71],[746238.16,1584356.16]]]]}},{"type":"Feature","properties":{"building":"yes","height":6,"heightSource":"default"},"geometry":{"type":"MultiPolygon","coordinates":[[[[746310.25,1584390.37],[746319.58,1584388.74],[746317.56,1584377.31],[746308.23,1584378.93],[746310.25,1584390.37]]]]}},{"type":"Feature","properties":{"building":"yes","height":6,"heightSource":"default"},"geometry":{"type":"MultiPolygon","coordinates":[[[[746319.6,1584413.75],[746330.02,1584411.78],[746326.83,1584395.27],[746316.61,1584397.22],[746316.88,1584398.64],[746312.64,1584399.44],[746314.52,1584409.15],[746318.57,1584408.39],[746319.6,1584413.75]]]]}},{"type":"Feature","properties":{"building":"yes","height":6,"heightSource":"default"},"geometry":{"type":"MultiPolygon","coordinates":[[[[746339.54,1584409.47],[746349.86,1584407.22],[746347.4,1584396.02],[746337.08,1584398.25],[746339.54,1584409.47]]]]}},{"type":"Feature","properties":{"building":"yes","height":6,"heightSource":"default"},"geometry":{"type":"MultiPolygon","coordinates":[[[[746254.83,1584421.23],[746258.16,1584413.54],[746245.52,1584408.1],[746242.17,1584415.79],[746254.83,1584421.23]]]]}},{"type":"Feature","properties":{"building":"yes","height":6,"heightSource":"default"},"geometry":{"type":"MultiPolygon","coordinates":[[[[746231.58,1584433.45],[746236.22,1584421.32],[746247.92,1584425.74],[746242.58,1584439.71],[746237.18,1584437.67],[746237.88,1584435.83],[746231.58,1584433.45]]]]}},{"type":"Feature","properties":{"building":"yes","height":6,"heightSource":"default"},"geometry":{"type":"MultiPolygon","coordinates":[[[[746260.51,1584427.03],[746264.13,1584417.57],[746272.74,1584420.81],[746269.72,1584428.7],[746267.79,1584427.98],[746267.19,1584429.54],[746260.51,1584427.03]]]]}},{"type":"Feature","properties":{"building":"yes","height":6,"heightSource":"default"},"geometry":{"type":"MultiPolygon","coordinates":[[[[746279.21,1584424.89],[746283.65,1584414.56],[746300.29,1584421.64],[746294.47,1584435.17],[746290.6,1584433.57],[746284.83,1584431.02],[746283.69,1584430.58],[746285.06,1584427.38],[746279.21,1584424.89]]]]}},{"type":"Feature","properties":{"building":"yes","height":6,"heightSource":"default"},"geometry":{"type":"MultiPolygon","coordinates":[[[[746290.6,1584433.57],[746288.04,1584439.29],[746282.27,1584436.73],[746284.83,1584431.02],[746290.6,1584433.57]]]]}},{"type":"Feature","properties":{"building":"yes","height":6,"heightSource":"default"},"geometry":{"type":"MultiPolygon","coordinates":[[[[746249.32,1582963.11],[746251.93,1582961.03],[746253.4,1582962.86],[746250.8,1582964.94],[746249.32,1582963.11]]]]}},{"type":"Feature","properties":{"building":"yes","height":6,"heightSource":"default"},"geometry":{"type":"MultiPolygon","coordinates":[[[[746141.31,1584657.16],[746140.45,1584644.5],[746153.92,1584643.6],[746154.78,1584656.26],[746141.31,1584657.16]]]]}},{"type":"Feature","properties":{"building":"yes","height":6,"heightSource":"default"},"geometry":{"type":"MultiPolygon","coordinates":[[[[746151.91,1584615.19],[746156.51,1584614.04],[746155.08,1584608.45],[746150.49,1584609.6],[746151.91,1584615.19]]]]}},{"type":"Feature","properties":{"building":"yes","height":6,"heightSource":"default"},"geometry":{"type":"MultiPolygon","coordinates":[[[[746190.01,1584551.01],[746202.56,1584546.78],[746199.01,1584536.38],[746186.46,1584540.6],[746190.01,1584551.01]]]]}},{"type":"Feature","properties":{"building":"yes","height":6,"heightSource":"default"},"geometry":{"type":"MultiPolygon","coordinates":[[[[746207.87,1584474.9],[746211.96,1584464.05],[746223.07,1584468.2],[746221.55,1584472.21],[746227.06,1584474.27],[746224.47,1584481.09],[746207.87,1584474.9]]]]}},{"type":"Feature","properties":{"building":"yes","height":6,"heightSource":"default"},"geometry":{"type":"MultiPolygon","coordinates":[[[[746231.79,1584486.16],[746235.13,1584477.54],[746242.31,1584480.28],[746238.98,1584488.9],[746231.79,1584486.16]]]]}},{"type":"Feature","properties":{"building":"yes","height":6,"heightSource":"default"},"geometry":{"type":"MultiPolygon","coordinates":[[[[746212.66,1584463.15],[746215.09,1584453.75],[746225.78,1584456.49],[746223.34,1584465.89],[746212.66,1584463.15]]]]}},{"type":"Feature","properties":{"building":"yes","height":6,"heightSource":"default"},"geometry":{"type":"MultiPolygon","coordinates":[[[[746224.43,1584466.11],[746228.13,1584455.07],[746234.04,1584457.02],[746230.33,1584468.06],[746224.43,1584466.11]]]]}},{"type":"Feature","properties":{"building":"yes","height":6,"heightSource":"default"},"geometry":{"type":"MultiPolygon","coordinates":[[[[746236.31,1584460.22],[746239.51,1584452.4],[746244.05,1584454.24],[746240.84,1584462.04],[746236.31,1584460.22]]]]}},{"type":"Feature","properties":{"building":"yes","height":6,"heightSource":"default"},"geometry":{"type":"MultiPolygon","coordinates":[[[[746231.72,1584468.95],[746235.27,1584460.65],[746241.18,1584463.14],[746237.63,1584471.45],[746231.72,1584468.95]]]]}},{"type":"Feature","properties":{"building":"yes","height":6,"heightSource":"default"},"geometry":{"type":"MultiPolygon","coordinates":[[[[746239.81,1584471.24],[746244.75,1584460.05],[746251.35,1584462.92],[746246.4,1584474.12],[746239.81,1584471.24]]]]}},{"type":"Feature","properties":{"building":"yes","height":6,"heightSource":"default"},"geometry":{"type":"MultiPolygon","coordinates":[[[[746253.72,1584437.1],[746256,1584430.86],[746267.91,1584435.16],[746264.71,1584443.92],[746257.29,1584441.24],[746258.21,1584438.72],[746253.72,1584437.1]]]]}},{"type":"Feature","properties":{"building":"yes","height":6,"heightSource":"default"},"geometry":{"type":"MultiPolygon","coordinates":[[[[746257.54,1584477.03],[746263.35,1584463.37],[746274.31,1584467.98],[746268.51,1584481.64],[746257.54,1584477.03]]]]}},{"type":"Feature","properties":{"building":"yes","height":6,"heightSource":"default"},"geometry":{"type":"MultiPolygon","coordinates":[[[[746270.06,1584447.37],[746272.19,1584441.81],[746283.24,1584445.97],[746281.11,1584451.54],[746270.06,1584447.37]]]]}},{"type":"Feature","properties":{"building":"yes","height":6,"heightSource":"default"},"geometry":{"type":"MultiPolygon","coordinates":[[[[746288.74,1584459.01],[746292.64,1584448.59],[746304.05,1584452.92],[746300.1,1584463.22],[746299.05,1584462.66],[746288.74,1584459.01]]]]}},{"type":"Feature","properties":{"building":"yes","height":6,"heightSource":"default"},"geometry":{"type":"MultiPolygon","coordinates":[[[[746299.05,1584462.66],[746297.25,1584467.67],[746286.95,1584464.02],[746288.74,1584459.01],[746299.05,1584462.66]]]]}},{"type":"Feature","properties":{"building":"yes","height":6,"heightSource":"default"},"geometry":{"type":"MultiPolygon","coordinates":[[[[746300.1,1584438.53],[746303.55,1584429.59],[746311.78,1584432.73],[746308.33,1584441.67],[746300.1,1584438.53]]]]}},{"type":"Feature","properties":{"building":"yes","height":6,"heightSource":"default"},"geometry":{"type":"MultiPolygon","coordinates":[[[[746337.32,1584458.13],[746341.39,1584447.71],[746349.44,1584450.82],[746345.36,1584461.24],[746337.32,1584458.13]]]]}},{"type":"Feature","properties":{"building":"yes","height":6,"heightSource":"default"},"geometry":{"type":"MultiPolygon","coordinates":[[[[746325.5,1584448.14],[746319.65,1584445.89],[746323.31,1584436.5],[746331.79,1584439.79],[746330.03,1584444.31],[746335.35,1584446.35],[746332.15,1584454.54],[746324.2,1584451.48],[746325.5,1584448.14]]]]}},{"type":"Feature","properties":{"building":"yes","height":6,"heightSource":"default"},"geometry":{"type":"MultiPolygon","coordinates":[[[[746313.09,1584465.16],[746317.36,1584454.2],[746327.38,1584458.07],[746323.11,1584469.02],[746313.09,1584465.16]]]]}},{"type":"Feature","properties":{"building":"yes","height":6,"heightSource":"default"},"geometry":{"type":"MultiPolygon","coordinates":[[[[746354.98,1584459.64],[746359,1584450.77],[746371.62,1584456.42],[746367.61,1584465.29],[746354.98,1584459.64]]]]}},{"type":"Feature","properties":{"building":"yes","height":6,"heightSource":"default"},"geometry":{"type":"MultiPolygon","coordinates":[[[[746369.82,1584465.3],[746374.98,1584456.98],[746382.14,1584461.36],[746376.99,1584469.67],[746369.82,1584465.3]]]]}},{"type":"Feature","properties":{"building":"yes","height":6,"heightSource":"default"},"geometry":{"type":"MultiPolygon","coordinates":[[[[746345.55,1584478.13],[746350.76,1584467.67],[746356.95,1584470.71],[746351.74,1584481.17],[746345.55,1584478.13]]]]}},{"type":"Feature","properties":{"building":"yes","height":6,"heightSource":"default"},"geometry":{"type":"MultiPolygon","coordinates":[[[[746241.16,1584495.49],[746244.55,1584487.66],[746246.12,1584488.56],[746253.61,1584491.47],[746253.15,1584492.63],[746250.14,1584499.33],[746241.16,1584495.49]]]]}},{"type":"Feature","properties":{"building":"yes","height":6,"heightSource":"default"},"geometry":{"type":"MultiPolygon","coordinates":[[[[746246.12,1584488.56],[746250,1584478.74],[746266.93,1584485.31],[746262.6,1584496.3],[746253.15,1584492.63],[746253.61,1584491.47],[746246.12,1584488.56]]]]}},{"type":"Feature","properties":{"building":"yes","height":6,"heightSource":"default"},"geometry":{"type":"MultiPolygon","coordinates":[[[[746272.86,1584497.97],[746276.54,1584489.84],[746283.2,1584492.8],[746279.52,1584500.93],[746272.86,1584497.97]]]]}},{"type":"Feature","properties":{"building":"yes","height":6,"heightSource":"default"},"geometry":{"type":"MultiPolygon","coordinates":[[[[746287.82,1584504.51],[746296.87,1584508.28],[746300.64,1584499.37],[746291.59,1584495.6],[746287.82,1584504.51]]]]}},{"type":"Feature","properties":{"building":"yes","height":6,"heightSource":"default"},"geometry":{"type":"MultiPolygon","coordinates":[[[[746296.25,1584522.1],[746305.49,1584526.26],[746311.36,1584513.39],[746302.12,1584509.24],[746296.25,1584522.1]]]]}},{"type":"Feature","properties":{"building":"yes","height":6,"heightSource":"default"},"geometry":{"type":"MultiPolygon","coordinates":[[[[746309.42,1584520.74],[746313.52,1584512.58],[746322.2,1584516.9],[746321.61,1584518.01],[746317.75,1584524.89],[746309.42,1584520.74]]]]}},{"type":"Feature","properties":{"building":"yes","height":6,"heightSource":"default"},"geometry":{"type":"MultiPolygon","coordinates":[[[[746321.61,1584518.01],[746327.37,1584521.06],[746328.55,1584520.07],[746333.69,1584523.06],[746346.88,1584500.68],[746337.44,1584495.17],[746335.63,1584498.24],[746330.89,1584495.49],[746325.51,1584504.62],[746328.43,1584506.31],[746322.2,1584516.9],[746321.61,1584518.01]]]]}},{"type":"Feature","properties":{"building":"yes","height":6,"heightSource":"default"},"geometry":{"type":"MultiPolygon","coordinates":[[[[746307.14,1584500.06],[746315.18,1584503.42],[746321.35,1584488.87],[746313.31,1584485.51],[746307.14,1584500.06]]]]}},{"type":"Feature","properties":{"building":"yes","height":6,"heightSource":"default"},"geometry":{"type":"MultiPolygon","coordinates":[[[[746306.03,1584495.79],[746301.2,1584493.68],[746307.88,1584478.63],[746312.71,1584480.75],[746306.03,1584495.79]]]]}},{"type":"Feature","properties":{"building":"yes","height":6,"heightSource":"default"},"geometry":{"type":"MultiPolygon","coordinates":[[[[746241.11,1584655.9],[746250.07,1584652.44],[746253.28,1584660.65],[746244.33,1584664.11],[746241.11,1584655.9]]]]}},{"type":"Feature","properties":{"building":"yes","height":6,"heightSource":"default"},"geometry":{"type":"MultiPolygon","coordinates":[[[[746254.98,1584638.44],[746267.66,1584633.25],[746274.17,1584648.95],[746268.73,1584651.17],[746267.99,1584649.38],[746260.74,1584652.34],[746254.98,1584638.44]]]]}},{"type":"Feature","properties":{"building":"yes","height":6,"heightSource":"default"},"geometry":{"type":"MultiPolygon","coordinates":[[[[746305.72,1584666.62],[746301.17,1584659.1],[746306.55,1584655.98],[746303.57,1584649.34],[746312.3,1584645.39],[746317.83,1584657.53],[746311.41,1584662.36],[746305.72,1584666.62]]]]}},{"type":"Feature","properties":{"building":"yes","height":6,"heightSource":"default"},"geometry":{"type":"MultiPolygon","coordinates":[[[[746381,1584653.27],[746391.02,1584650.5],[746390.09,1584647.13],[746397.81,1584645],[746396.99,1584642.06],[746399.5,1584641.36],[746395.85,1584628.26],[746387.85,1584630.47],[746387.84,1584632.05],[746375.99,1584635.32],[746381,1584653.27]]]]}},{"type":"Feature","properties":{"building":"yes","height":6,"heightSource":"default"},"geometry":{"type":"MultiPolygon","coordinates":[[[[746394.68,1584691.45],[746414.59,1584684.98],[746408.97,1584667.94],[746397.27,1584671.74],[746398.37,1584675.08],[746390.16,1584677.74],[746394.68,1584691.45]]]]}},{"type":"Feature","properties":{"building":"yes","height":6,"heightSource":"default"},"geometry":{"type":"MultiPolygon","coordinates":[[[[746457.91,1584792.36],[746459.74,1584791.85],[746465.59,1584790.15],[746472.91,1584787.94],[746477.29,1584802.59],[746462.27,1584807],[746457.91,1584792.36]]]]}},{"type":"Feature","properties":{"building":"yes","height":6,"heightSource":"default"},"geometry":{"type":"MultiPolygon","coordinates":[[[[746459.74,1584791.85],[746456.06,1584779.36],[746461.93,1584777.66],[746465.59,1584790.15],[746459.74,1584791.85]]]]}},{"type":"Feature","properties":{"building":"yes","height":6,"heightSource":"default"},"geometry":{"type":"MultiPolygon","coordinates":[[[[746407.19,1584778.73],[746417.54,1584774.92],[746414.34,1584766.3],[746403.98,1584770.11],[746407.19,1584778.73]]]]}},{"type":"Feature","properties":{"building":"yes","height":6,"heightSource":"default"},"geometry":{"type":"MultiPolygon","coordinates":[[[[745375.47,1584289.97],[745372.05,1584288.15],[745372.42,1584286.28],[745361.59,1584283.3],[745359.58,1584285.63],[745357.89,1584282.36],[745367.52,1584277.41],[745358.93,1584260.85],[745375.32,1584253.13],[745381.32,1584265.26],[745382.38,1584267.6],[745375.47,1584289.97]]]]}},{"type":"Feature","properties":{"building":"house","height":6,"heightSource":"default"},"geometry":{"type":"MultiPolygon","coordinates":[[[[743929.37,1585764.65],[743939.86,1585751.7],[743951.34,1585758.14],[743941.66,1585771.9],[743929.37,1585764.65]]]]}},{"type":"Feature","properties":{"building":"yes","height":6,"heightSource":"default"},"geometry":{"type":"MultiPolygon","coordinates":[[[[748182.46,1584157.27],[748226.21,1584193.44],[748238.89,1584178.27],[748195.15,1584142.11],[748182.46,1584157.27]]]]}},{"type":"Feature","properties":{"building":"yes","height":6,"heightSource":"default"},"geometry":{"type":"MultiPolygon","coordinates":[[[[749026.68,1582875.91],[749045.97,1582873.26],[749040.4,1582833.5],[749021.12,1582836.17],[749026.68,1582875.91]]]]}},{"type":"Feature","properties":{"building":"yes","height":6,"heightSource":"default"},"geometry":{"type":"MultiPolygon","coordinates":[[[[749040.18,1582890.81],[749042.72,1582907.75],[749046.64,1582907.17],[749051.26,1582937.92],[749084.83,1582932.94],[749079.04,1582894.4],[749062.63,1582896.84],[749061.27,1582887.69],[749040.18,1582890.81]]]]}},{"type":"Feature","properties":{"building":"yes","height":6,"heightSource":"default"},"geometry":{"type":"MultiPolygon","coordinates":[[[[749034.36,1582828.11],[749066.94,1582823.86],[749064.53,1582805.52],[749031.93,1582809.77],[749034.36,1582828.11]]]]}},{"type":"Feature","properties":{"building":"yes","height":6,"heightSource":"default"},"geometry":{"type":"MultiPolygon","coordinates":[[[[749067.47,1582870.34],[749086.96,1582867.66],[749081.37,1582827.69],[749061.88,1582830.38],[749067.47,1582870.34]]]]}},{"type":"Feature","properties":{"building":"yes","height":6,"heightSource":"default"},"geometry":{"type":"MultiPolygon","coordinates":[[[[743187.07,1578189.76],[743163.55,1578195.86],[743150.01,1578159.19],[743095.15,1578172.75],[743087.22,1578154.27],[743122.97,1578140.51],[743118.18,1578126.36],[743128.06,1578123.29],[743113.09,1578085.46],[743121.54,1578079.79],[743126.68,1578086.46],[743138.62,1578079.09],[743151.05,1578081.23],[743157.91,1578090.5],[743161.54,1578105.21],[743177.12,1578110.53],[743181.37,1578120.93],[743169.76,1578123.7],[743159.67,1578118.71],[743148.6,1578125.8],[743150.25,1578134.73],[743162.43,1578131.97],[743166.32,1578149.28],[743159.34,1578152.38],[743166.07,1578175.45],[743182.04,1578171],[743187.07,1578189.76]]]]}},{"type":"Feature","properties":{"building":"yes","height":6,"heightSource":"default"},"geometry":{"type":"MultiPolygon","coordinates":[[[[743201.66,1578148.18],[743242.28,1578139.37],[743238.41,1578120.91],[743203.9,1578125.76],[743199.23,1578129.74],[743197.4,1578139.51],[743201.66,1578148.18]]]]}},{"type":"Feature","properties":{"building":"yes","height":6,"heightSource":"default"},"geometry":{"type":"MultiPolygon","coordinates":[[[[747676.32,1580202.29],[747667.94,1580202.44],[747668.13,1580212.37],[747676.51,1580212.21],[747676.32,1580202.29]]]]}},{"type":"Feature","properties":{"building":"yes","height":6,"heightSource":"default"},"geometry":{"type":"MultiPolygon","coordinates":[[[[747594.16,1580210.15],[747583.43,1580211.02],[747584.59,1580225.22],[747578.24,1580225.73],[747580.36,1580251.55],[747577.92,1580251.74],[747578.69,1580261.16],[747598.22,1580259.58],[747646.2,1580261.25],[747647.63,1580212.74],[747629.15,1580212.2],[747629.38,1580204.86],[747593.64,1580203.81],[747594.16,1580210.15]]]]}},{"type":"Feature","properties":{"building":"yes","height":6,"heightSource":"default"},"geometry":{"type":"MultiPolygon","coordinates":[[[[747609.62,1580286.06],[747644.48,1580289.14],[747646.33,1580268.35],[747611.48,1580265.27],[747609.62,1580286.06]]]]}},{"type":"Feature","properties":{"building":"yes","height":6,"heightSource":"default"},"geometry":{"type":"MultiPolygon","coordinates":[[[[749717.64,1583476.12],[749718.67,1583466.87],[749694.56,1583464.2],[749693.52,1583473.45],[749717.64,1583476.12]]]]}},{"type":"Feature","properties":{"building":"yes","height":6,"heightSource":"default"},"geometry":{"type":"MultiPolygon","coordinates":[[[[749689.58,1583472.62],[749690.86,1583463.32],[749639.34,1583456.3],[749638.06,1583465.62],[749689.58,1583472.62]]]]}},{"type":"Feature","properties":{"building":"yes","height":6,"heightSource":"default"},"geometry":{"type":"MultiPolygon","coordinates":[[[[749691.75,1583436.49],[749692.78,1583426.24],[749657.4,1583422.72],[749656.37,1583431.97],[749691.75,1583436.49]]]]}},{"type":"Feature","properties":{"building":"yes","height":6,"heightSource":"default"},"geometry":{"type":"MultiPolygon","coordinates":[[[[749719.51,1583439.36],[749720.55,1583430.1],[749696.43,1583427.43],[749695.39,1583436.68],[749719.51,1583439.36]]]]}},{"type":"Feature","properties":{"building":"yes","height":6,"heightSource":"default"},"geometry":{"type":"MultiPolygon","coordinates":[[[[748391.85,1581685.08],[748378.99,1581651.72],[748356.03,1581660.45],[748368.88,1581693.82],[748391.85,1581685.08]]]]}},{"type":"Feature","properties":{"building":"yes","height":6,"heightSource":"default"},"geometry":{"type":"MultiPolygon","coordinates":[[[[749860.3,1583349.6],[749924.33,1583343.3],[749922.63,1583326.24],[749858.59,1583332.55],[749860.3,1583349.6]]]]}},{"type":"Feature","properties":{"building":"yes","height":6,"heightSource":"default"},"geometry":{"type":"MultiPolygon","coordinates":[[[[750629.21,1583848.82],[750633.13,1583836.77],[750611.17,1583828.99],[750609.59,1583834.52],[750624.92,1583847.77],[750629.21,1583848.82]]]]}},{"type":"Feature","properties":{"building":"yes","height":6,"heightSource":"default"},"geometry":{"type":"MultiPolygon","coordinates":[[[[750440.09,1583819.19],[750437.58,1583809.77],[750426.91,1583812.57],[750429.43,1583822],[750440.09,1583819.19]]]]}}]}