{"type":"FeatureCollection","features":[{"type":"Feature","properties":{"provinceCode":"25","nameTh":"ปราจีนบุรี","nameEn":"Prachin Buri"},"geometry":{"type":"Polygon","coordinates":[[[101.4281462,13.8372056],[101.4372799,13.8307569],[101.4377412,13.8281889],[101.4395953,13.8272511],[101.45829,13.8281579],[101.4636792,13.8248476],[101.4698873,13.8240626],[101.4758523,13.819919],[101.4761365,13.8166907],[101.4795129,13.8151443],[101.4811007,13.8124823],[101.484466,13.8122404],[101.4883548,13.8096012],[101.4893806,13.8054101],[101.4938064,13.8041381],[101.501374,13.7987386],[101.5066604,13.7974279],[101.5200686,13.7889088],[101.5204224,13.7902352],[101.5230386,13.7886887],[101.523348,13.7816208],[101.5249578,13.7808493],[101.5239812,13.7778678],[101.5275187,13.7787202],[101.529433,13.7767407],[101.531921,13.7770487],[101.5328392,13.7738713],[101.5350243,13.7768618],[101.5339068,13.7800664],[101.5365303,13.7845243],[101.5457244,13.7859591],[101.5461463,13.7918248],[101.5510394,13.7933881],[101.553153,13.7851318],[101.554989,13.7840403],[101.5582779,13.7757976],[101.5560048,13.7748622],[101.5579992,13.7706349],[101.5610808,13.7703923],[101.5627468,13.7654778],[101.5657276,13.7644833],[101.5662115,13.7627805],[101.572499,13.7609237],[101.5759772,13.7543977],[101.5808256,13.7522197],[101.5822318,13.7483284],[101.5870928,13.74547],[101.5890719,13.7382243],[101.5948135,13.7353172],[101.595862,13.7391021],[101.5985984,13.7373985],[101.5989698,13.7388786],[101.6026773,13.7378285],[101.6037602,13.7401251],[101.609203,13.7391783],[101.611583,13.7350271],[101.6130754,13.7371715],[101.6233117,13.7422347],[101.6241456,13.7442361],[101.6264227,13.7433061],[101.6288882,13.7461324],[101.6322794,13.7463591],[101.6326227,13.7484324],[101.6438728,13.7463443],[101.6441313,13.7448386],[101.6645774,13.7335453],[101.6704452,13.7396587],[101.6743298,13.7486193],[101.6796043,13.755267],[101.6871148,13.757627],[101.696798,13.7554368],[101.6997688,13.7575355],[101.7255156,13.7551237],[101.7310971,13.766212],[101.7390436,13.7695957],[101.758532,13.7727108],[101.7596467,13.7698482],[101.7663401,13.7679825],[101.7666339,13.7623639],[101.7679254,13.762254],[101.7693213,13.7575351],[101.7675176,13.7560949],[101.7642398,13.7568768],[101.7626358,13.7542454],[101.764396,13.751139],[101.7675653,13.7507937],[101.7767219,13.7438326],[101.7832227,13.7416759],[101.7902834,13.7366068],[101.7894621,13.7336788],[101.7925636,13.7329776],[101.7918532,13.7257448],[101.7892663,13.7207445],[101.7911616,13.7200525],[101.7910613,13.7173745],[101.7934532,13.7166232],[101.7921008,13.7159511],[101.7935282,13.7050247],[101.7953327,13.7040587],[101.7990901,13.7054875],[101.8070954,13.7037001],[101.8108477,13.6986536],[101.8127055,13.7022286],[101.8171297,13.7029637],[101.8178455,13.7056884],[101.8214219,13.7044888],[101.8282644,13.7052372],[101.8319951,13.7019116],[101.8329958,13.6939987],[101.8364083,13.6930288],[101.840061,13.6845898],[101.8393768,13.6825434],[101.8412776,13.6804138],[101.8357409,13.6742738],[101.8365861,13.6701716],[101.8387474,13.6686538],[101.8366995,13.6642436],[101.8383295,13.6634494],[101.8380252,13.6562157],[101.8351127,13.6546792],[101.8330913,13.649231],[101.8327296,13.6470451],[101.8350312,13.6441726],[101.8319845,13.6360662],[101.8593935,13.6359164],[101.8615671,13.6328068],[101.8632389,13.6334125],[101.8657213,13.6312579],[101.8646102,13.6204046],[101.8702717,13.6109828],[101.8712067,13.6037702],[101.8746201,13.6011947],[101.8789,13.6018638],[101.8815999,13.5985672],[101.8852645,13.5971653],[101.8894316,13.5823409],[101.8923756,13.584824],[101.8974335,13.5827169],[101.9013489,13.5857714],[101.9064263,13.5871316],[101.9166185,13.5859654],[101.9127707,13.5884629],[101.9134516,13.5932777],[101.9088188,13.6001419],[101.9095812,13.605341],[101.9162196,13.6074678],[101.9189594,13.6105651],[101.920537,13.609463],[101.9253504,13.6109988],[101.9340988,13.6108688],[101.9357779,13.6135491],[101.9420692,13.6165501],[101.9421666,13.6204205],[101.9370052,13.6272422],[101.9368937,13.6322553],[101.9408907,13.6434279],[101.9386273,13.6466484],[101.9433099,13.6494999],[101.9483044,13.6666512],[101.9464009,13.6689723],[101.9478419,13.6725314],[101.9442535,13.6774432],[101.9456359,13.6881176],[101.9425288,13.6919561],[101.9442937,13.6933505],[101.943103,13.6936096],[101.9423091,13.6986576],[101.9432739,13.7021149],[101.9415356,13.7016276],[101.9417456,13.7063157],[101.93881,13.7070553],[101.9402302,13.7080818],[101.9400365,13.7124028],[101.9372888,13.7144501],[101.9392884,13.7172843],[101.9384797,13.7191085],[101.9398052,13.7193498],[101.9379267,13.7228312],[101.9418536,13.7387163],[101.9357514,13.740798],[101.9399016,13.7462265],[101.9421878,13.7548291],[101.9413119,13.7575305],[101.9447128,13.7847169],[101.9438985,13.7887615],[101.9462374,13.7946046],[101.9354011,13.798454],[101.9360245,13.8007064],[101.9331527,13.8041719],[101.937401,13.8103374],[101.9316093,13.8141354],[101.9306466,13.8133095],[101.9235409,13.8160735],[101.926952,13.822637],[101.9201635,13.8326316],[101.9249633,13.8434928],[101.9253806,13.850187],[101.9286231,13.8555883],[101.926431,13.8559215],[101.9248489,13.8593336],[101.9178944,13.8641785],[101.9135313,13.8750754],[101.9113733,13.8767036],[101.9131486,13.8791631],[101.9119343,13.8800441],[101.9136748,13.8857493],[101.9120776,13.886087],[101.9114285,13.8840078],[101.9094519,13.885251],[101.910568,13.8931441],[101.9089229,13.8934053],[101.9115698,13.8982287],[101.9140991,13.899186],[101.9133379,13.9020552],[101.91469,13.9030341],[101.9111237,13.9053547],[101.9108662,13.9029508],[101.9093982,13.9031344],[101.9096775,13.9097451],[101.9067466,13.9073373],[101.9039227,13.9071874],[101.9064695,13.9095212],[101.9050147,13.9127535],[101.905626,13.9172883],[101.909285,13.9207609],[101.9087727,13.9239808],[101.9070977,13.9246832],[101.909537,13.9267114],[101.9086993,13.9283893],[101.9122716,13.9298179],[101.9105391,13.9335231],[101.9120722,13.9355468],[101.9147706,13.9348177],[101.9145099,13.9374961],[101.9214091,13.9371092],[101.9243681,13.9403233],[101.9263458,13.9395049],[101.9267138,13.9356956],[101.9293968,13.93702],[101.930286,13.9336273],[101.9367814,13.9338137],[101.9393555,13.936039],[101.9417505,13.9309183],[101.9512626,13.9343184],[101.9509618,13.9402052],[101.9465474,13.9393787],[101.9450347,13.9404721],[101.9464991,13.9421641],[101.945392,13.9478702],[101.9417625,13.9506211],[101.939729,13.9574566],[101.937295,13.9599443],[101.9372074,13.9620775],[101.9401601,13.9636411],[101.9415679,13.9665847],[101.9402728,13.9724565],[101.9440566,13.976285],[101.9484645,13.9961284],[101.9402933,14.0148381],[101.9397783,14.0195639],[101.949757,14.0229022],[101.9597282,14.022649],[101.9719746,14.0284859],[101.992881,14.0328995],[102.0072591,14.0323595],[102.0401876,14.036408],[102.0545801,14.0341954],[102.0685738,14.0359107],[102.0752689,14.0350616],[102.0781501,14.0471842],[102.086183,14.0512532],[102.0889947,14.0485531],[102.0940541,14.0492981],[102.0989977,14.0459663],[102.1062777,14.0458817],[102.1100874,14.0421476],[102.1136024,14.0444137],[102.1222295,14.0441911],[102.1241794,14.0468937],[102.1198301,14.0497258],[102.1184455,14.0534955],[102.1205769,14.058738],[102.1180804,14.0657653],[102.1176284,14.0792735],[102.1227402,14.0826801],[102.1231,14.0891992],[102.1257964,14.0912561],[102.1261832,14.0960161],[102.1241802,14.0987277],[102.1219916,14.0987561],[102.1117696,14.0901239],[102.1037046,14.0915972],[102.0999283,14.0944968],[102.0898183,14.0931053],[102.0917869,14.097832],[102.0990706,14.1056066],[102.0998262,14.1111766],[102.0976004,14.1162271],[102.0975623,14.1257203],[102.1037295,14.1396607],[102.1062059,14.1517591],[102.1007554,14.1570146],[102.0933842,14.1581863],[102.0841386,14.162854],[102.0778553,14.1623061],[102.0692948,14.1657497],[102.0612161,14.174908],[102.0529602,14.1800706],[102.0524163,14.1821612],[102.0406851,14.1883211],[102.0345627,14.1982837],[102.0193773,14.2012556],[102.0152046,14.2003288],[102.0114554,14.2028756],[102.0074587,14.2031139],[102.004372,14.2065769],[102.0013694,14.2066773],[101.9934783,14.214694],[101.9666294,14.2275919],[101.979644,14.2343876],[101.9817954,14.2384352],[101.9730655,14.2392987],[101.958541,14.2451667],[101.9451885,14.246775],[101.9421643,14.2551691],[101.9387262,14.2577581],[101.9398611,14.2617527],[101.9368102,14.2681098],[101.93628,14.2734642],[101.9286927,14.2832397],[101.9283641,14.2877409],[101.9296136,14.2916191],[101.9356829,14.2936344],[101.9433788,14.3023944],[101.9393837,14.3086769],[101.9355492,14.3110446],[101.9336062,14.3218529],[101.9303272,14.3231031],[101.9304253,14.3263021],[101.92666,14.327987],[101.9233891,14.3271827],[101.9227458,14.3302848],[101.9188466,14.3297088],[101.9166291,14.3321533],[101.9104125,14.325847],[101.9020407,14.327187],[101.8943035,14.3306432],[101.8923561,14.3265288],[101.8922497,14.3211243],[101.8897601,14.3199769],[101.8873968,14.3227974],[101.8779669,14.3225045],[101.8732983,14.3274508],[101.8710423,14.327872],[101.8672894,14.3340115],[101.8594301,14.3418939],[101.838523,14.3524688],[101.8413097,14.3649942],[101.8359706,14.3625671],[101.8301867,14.3621953],[101.828564,14.3559128],[101.8236978,14.3502739],[101.8169131,14.3503312],[101.8115458,14.347634],[101.8079058,14.3483775],[101.804391,14.3525484],[101.7953779,14.3585158],[101.7929419,14.3570312],[101.7884574,14.3597436],[101.7855253,14.3571315],[101.7797393,14.3571672],[101.7809427,14.3524511],[101.7732647,14.3506274],[101.7734392,14.3469636],[101.771842,14.3450523],[101.7582259,14.3433866],[101.7533269,14.3451715],[101.7495964,14.348907],[101.7478147,14.3481441],[101.7467414,14.3323468],[101.7504889,14.3246079],[101.7480353,14.3201821],[101.7478313,14.3142705],[101.7415468,14.3083902],[101.726761,14.3201501],[101.7202241,14.3278547],[101.7088578,14.33463],[101.68928,14.3595871],[101.6657295,14.3804419],[101.6583748,14.3903139],[101.6540853,14.392923],[101.6483794,14.3930545],[101.6480347,14.3977609],[101.649809,14.4014927],[101.6488213,14.4039285],[101.6417132,14.4075602],[101.6306261,14.4061826],[101.6271746,14.4134052],[101.6198596,14.4156869],[101.6183368,14.418557],[101.6227852,14.4277232],[101.6081919,14.4390827],[101.6000543,14.4414296],[101.5896917,14.4416386],[101.5751902,14.4358162],[101.5469923,14.4361472],[101.5415952,14.4296604],[101.54079,14.4254947],[101.5305021,14.4260347],[101.5134275,14.4328313],[101.5027343,14.4397308],[101.4912805,14.4528054],[101.4877466,14.461587],[101.485095,14.4625255],[101.4787545,14.4615101],[101.4741687,14.4581568],[101.4698837,14.4596621],[101.4599972,14.4568279],[101.4369102,14.4462791],[101.4378726,14.4423542],[101.436221,14.4387191],[101.4419672,14.4274348],[101.445488,14.4268746],[101.4474511,14.4211881],[101.4420827,14.4165443],[101.4391024,14.4072568],[101.4395727,14.4023646],[101.4338689,14.394676],[101.4323043,14.3894911],[101.4528002,14.3811445],[101.47391,14.3673188],[101.4768935,14.3641822],[101.4769435,14.3597938],[101.481271,14.3535585],[101.4826672,14.3465807],[101.4962033,14.3341098],[101.4962388,14.3263819],[101.492841,14.3227603],[101.4938506,14.3177485],[101.5054838,14.3090008],[101.5049031,14.305733],[101.5001582,14.2990133],[101.5017495,14.2913434],[101.4998622,14.282043],[101.5016474,14.2691452],[101.4934983,14.2671559],[101.4841583,14.2703504],[101.4727317,14.2625056],[101.46373,14.2634543],[101.4498556,14.2556925],[101.4394893,14.2550928],[101.4291216,14.2568435],[101.4138887,14.2537179],[101.395943,14.2733874],[101.3928553,14.2744843],[101.381647,14.2729112],[101.3809744,14.2709083],[101.3835344,14.2672127],[101.3819818,14.2650241],[101.3825106,14.2618553],[101.3782843,14.2574655],[101.38268,14.2491271],[101.3787125,14.2385142],[101.3839795,14.2327305],[101.3825262,14.2289564],[101.3862528,14.2254103],[101.385355,14.221439],[101.3867038,14.2195643],[101.3849755,14.2199888],[101.3840292,14.2153227],[101.3805193,14.2122084],[101.3826241,14.2106662],[101.3775844,14.2117657],[101.3743478,14.2098044],[101.3727171,14.204854],[101.3668844,14.2016316],[101.3638732,14.2030496],[101.3632469,14.2012542],[101.3615303,14.202943],[101.3583156,14.202358],[101.3508866,14.1997788],[101.3504267,14.1973413],[101.3457967,14.1971827],[101.3457456,14.1939525],[101.3421479,14.1918123],[101.3400834,14.1879973],[101.3377326,14.1878487],[101.3346766,14.1838554],[101.3314878,14.1832311],[101.3249056,14.1763739],[101.3172503,14.1740154],[101.3170177,14.1722622],[101.3146815,14.1732114],[101.3147566,14.1716095],[101.3111342,14.1689751],[101.3123587,14.1672353],[101.3114654,14.164502],[101.3037099,14.1626789],[101.2986691,14.1584668],[101.2994371,14.1572135],[101.2962672,14.1578524],[101.2960117,14.1555928],[101.2904414,14.1534224],[101.2886324,14.1494979],[101.28945,14.1457715],[101.2872058,14.1395599],[101.2882412,14.1366052],[101.2864119,14.1336713],[101.2939543,14.1244687],[101.3036317,14.1201924],[101.3085294,14.1118269],[101.3074082,14.1010366],[101.3088137,14.0958702],[101.3163761,14.0858923],[101.3187513,14.0849223],[101.3212922,14.0772935],[101.2784695,14.0548522],[101.2756357,14.0600184],[101.2591773,14.0622014],[101.239906,14.058422],[101.2354275,14.0619444],[101.2303921,14.0564361],[101.226471,14.0548682],[101.2263594,14.052547],[101.2140365,14.0557182],[101.20801,14.0462803],[101.202285,14.0451734],[101.2037238,14.0409944],[101.2010304,14.0377443],[101.1999557,14.0319874],[101.1968078,14.0291324],[101.200351,14.0239201],[101.1983916,14.0230315],[101.1955713,14.0253058],[101.1934698,14.0238317],[101.1969364,14.0162235],[101.196655,14.0137114],[101.1930057,14.0151633],[101.1862412,14.0124256],[101.1780666,14.0121294],[101.1785793,14.0089644],[101.1767384,14.0071436],[101.1725896,14.0116409],[101.170149,14.0081312],[101.1703288,14.0041535],[101.1651562,14.0084572],[101.1637444,14.0052776],[101.1654855,14.0018694],[101.1587834,14.0019351],[101.1558826,14.0041772],[101.154449,14.0007094],[101.1459705,13.9963032],[101.1439204,13.9976564],[101.1440932,14.0019312],[101.1388238,14.001226],[101.14311,13.9734015],[101.1419685,13.9713541],[101.1378315,13.9697495],[101.137422,13.9676869],[101.1411247,13.9634312],[101.148149,13.961892],[101.1485397,13.956696],[101.1544122,13.9447994],[101.1548979,13.9379992],[101.1523333,13.9330632],[101.1526144,13.9305334],[101.1547098,13.9299967],[101.159383,13.934509],[101.1608304,13.9330616],[101.1609801,13.9250261],[101.152115,13.9119488],[101.1522744,13.9033961],[101.1558121,13.897346],[101.1538624,13.895939],[101.1475308,13.8965621],[101.1456276,13.894165],[101.1479625,13.8891599],[101.1509954,13.8888873],[101.1601523,13.8962447],[101.1619518,13.8941756],[101.1614242,13.8891212],[101.1527216,13.8796421],[101.1497834,13.8800338],[101.1432494,13.887911],[101.1394858,13.8840913],[101.1407745,13.8773407],[101.1441929,13.8716836],[101.161094,13.8628609],[101.1596501,13.8587138],[101.1488711,13.8554902],[101.1479504,13.8527787],[101.1496212,13.8516267],[101.1590289,13.8541303],[101.161948,13.8530808],[101.1662868,13.8584641],[101.1740258,13.8579845],[101.1757813,13.8602719],[101.1750738,13.8620082],[101.1814803,13.8611404],[101.1886163,13.8672899],[101.1892346,13.8696101],[101.1947559,13.8712714],[101.1944997,13.874098],[101.2007157,13.8747633],[101.2011543,13.8782292],[101.2086269,13.8782787],[101.2106453,13.8760888],[101.2224343,13.8771669],[101.2234466,13.8829728],[101.2207322,13.8862589],[101.2250201,13.8861656],[101.2411052,13.8794782],[101.2456705,13.8761675],[101.2515351,13.8681003],[101.2619855,13.8700768],[101.2654039,13.8743567],[101.2704327,13.8765703],[101.2737808,13.8757525],[101.2784667,13.8786249],[101.296332,13.8712653],[101.2980115,13.8727658],[101.3006957,13.8716124],[101.3050372,13.8750785],[101.3083871,13.8742655],[101.3170482,13.8679109],[101.3322931,13.8668469],[101.3359225,13.8702514],[101.3362383,13.8612367],[101.3424181,13.8590649],[101.3494293,13.8698137],[101.3524459,13.8698729],[101.3565683,13.8643376],[101.3603761,13.8692727],[101.3654711,13.8655465],[101.3694534,13.8654856],[101.3701028,13.8671224],[101.377916,13.8640031],[101.3775805,13.8597464],[101.3794129,13.8560503],[101.3919716,13.8436768],[101.3930525,13.8454704],[101.4184225,13.8361499],[101.4281462,13.8372056]]]}}]}