{"type":"FeatureCollection","features":[{"type":"Feature","properties":{"provinceCode":"77","nameTh":"ประจวบคีรีขันธ์","nameEn":"Prachuap Khiri Khan"},"geometry":{"type":"Polygon","coordinates":[[[99.2584929,10.9653509],[99.2563356,10.969061],[99.2497039,10.968663],[99.2467026,10.9723129],[99.2410127,10.9719686],[99.240471,10.9780152],[99.2319602,10.9774458],[99.2293614,10.9807781],[99.2228658,10.9836051],[99.2152498,10.9826713],[99.2064892,10.9901014],[99.2031659,10.989399],[99.2033491,10.9858864],[99.2020438,10.9851131],[99.2007742,10.9892376],[99.2023731,10.9904274],[99.198291,10.9918879],[99.2000912,10.99709],[99.1967263,10.9964703],[99.1919121,10.9996424],[99.1911337,10.9962058],[99.1857215,10.9985925],[99.1862411,10.9957665],[99.181942,10.9976665],[99.1826295,10.9997264],[99.179893,10.9993235],[99.180752,11.0024834],[99.1779969,11.0005643],[99.1775157,11.0036522],[99.1747808,11.0000356],[99.1709697,11.0030956],[99.1694089,11.0009641],[99.1672388,11.0034709],[99.1693777,11.0043165],[99.1653151,11.0082823],[99.1657689,11.0110011],[99.1634548,11.0099476],[99.1632704,11.0116357],[99.1618185,11.010663],[99.159058,11.0124673],[99.1542083,11.0120795],[99.152044,11.0134978],[99.1531146,11.0161541],[99.1501651,11.0141768],[99.1475444,11.0160199],[99.1513398,11.019815],[99.1519784,11.0320034],[99.153576,11.033784],[99.15837,11.033836],[99.164476,11.039],[99.164761,11.04245],[99.171952,11.044505],[99.17258,11.04656],[99.170069,11.051881],[99.171438,11.055253],[99.174463,11.058704],[99.180227,11.060153],[99.177173,11.063287],[99.180169,11.072586],[99.177915,11.073903],[99.177402,11.077196],[99.179428,11.082965],[99.183793,11.084519],[99.190128,11.084151],[99.19301,11.087338],[99.200685,11.091079],[99.20137,11.09532],[99.204794,11.099087],[99.212441,11.09856],[99.213069,11.100773],[99.216721,11.101958],[99.217777,11.106146],[99.223398,11.106937],[99.226479,11.10915],[99.23036,11.119502],[99.230417,11.128538],[99.229846,11.130935],[99.22451,11.135387],[99.225709,11.142104],[99.232928,11.143184],[99.240746,11.155565],[99.244484,11.155354],[99.25447,11.169421],[99.253015,11.174637],[99.260234,11.187097],[99.258208,11.191839],[99.261746,11.193972],[99.264429,11.201875],[99.26537,11.208382],[99.26363,11.214809],[99.270421,11.223476],[99.271105,11.226637],[99.274815,11.228797],[99.275699,11.232722],[99.280407,11.236911],[99.282804,11.243654],[99.291279,11.248211],[99.296386,11.248132],[99.298785,11.252971],[99.307167,11.255161],[99.308039,11.259883],[99.310922,11.263017],[99.311491,11.267858],[99.324477,11.281939],[99.325884,11.287016],[99.323733,11.297985],[99.312387,11.316381],[99.318606,11.319708],[99.320385,11.325214],[99.325837,11.328208],[99.327779,11.336172],[99.331208,11.336913],[99.334056,11.333961],[99.342101,11.333049],[99.341508,11.337406],[99.344368,11.348311],[99.346507,11.351305],[99.351657,11.353098],[99.357551,11.358818],[99.360551,11.362907],[99.360249,11.365344],[99.365736,11.371569],[99.379233,11.375679],[99.385615,11.382065],[99.395416,11.382806],[99.40217,11.388924],[99.401868,11.394054],[99.39881,11.401535],[99.399357,11.403928],[99.404181,11.406236],[99.401449,11.412568],[99.402751,11.423784],[99.399171,11.432756],[99.394921,11.438317],[99.395117,11.440429],[99.399694,11.443038],[99.400418,11.44526],[99.395704,11.451656],[99.393728,11.46122],[99.396555,11.461424],[99.397845,11.464096],[99.4011,11.463806],[99.403449,11.465921],[99.409936,11.464611],[99.411935,11.466693],[99.410796,11.472983],[99.419821,11.476063],[99.419881,11.480431],[99.422127,11.481734],[99.427117,11.481954],[99.43004,11.478705],[99.432704,11.481881],[99.440576,11.479513],[99.444274,11.480284],[99.442186,11.487534],[99.444075,11.491039],[99.447771,11.493301],[99.449439,11.499893],[99.447386,11.502115],[99.448567,11.50459],[99.451295,11.507008],[99.452208,11.510675],[99.456795,11.511809],[99.456841,11.513798],[99.460223,11.514974],[99.463235,11.522673],[99.4662,11.523379],[99.467451,11.527549],[99.4744,11.533174],[99.474053,11.538841],[99.469651,11.544166],[99.471273,11.547053],[99.468817,11.549662],[99.465922,11.5487],[99.463026,11.549812],[99.463837,11.557597],[99.465783,11.562259],[99.467659,11.563029],[99.468377,11.567306],[99.464879,11.575839],[99.460524,11.579411],[99.458393,11.583709],[99.46386,11.589655],[99.46159,11.594146],[99.462053,11.598659],[99.465528,11.60084],[99.468146,11.607406],[99.467844,11.615105],[99.475165,11.62398],[99.478269,11.623916],[99.483851,11.627124],[99.493098,11.625338],[99.497194,11.628061],[99.496068,11.630311],[99.498654,11.632834],[99.507804,11.636555],[99.517302,11.63647],[99.522885,11.625541],[99.531247,11.6209],[99.541231,11.623595],[99.546026,11.627936],[99.55015,11.628557],[99.556011,11.624279],[99.565462,11.626675],[99.565972,11.630054],[99.572438,11.636999],[99.56991,11.64265],[99.574079,11.648424],[99.582998,11.654819],[99.586424,11.660367],[99.585096,11.673036],[99.582802,11.677417],[99.585558,11.682302],[99.588502,11.683555],[99.588087,11.688511],[99.599107,11.696204],[99.597924,11.7009],[99.602258,11.707205],[99.606001,11.707116],[99.609987,11.710647],[99.611992,11.7093],[99.615773,11.711118],[99.6199,11.717984],[99.619038,11.72236],[99.628824,11.723816],[99.630312,11.722679],[99.634166,11.727124],[99.636262,11.727168],[99.639588,11.741506],[99.637061,11.746069],[99.639941,11.750305],[99.636884,11.756055],[99.640384,11.761122],[99.639596,11.764657],[99.643441,11.767889],[99.644246,11.774383],[99.64119,11.777858],[99.643194,11.784959],[99.641124,11.789829],[99.641995,11.791179],[99.645709,11.790527],[99.648092,11.802831],[99.651371,11.807758],[99.650534,11.811109],[99.653482,11.813331],[99.6593,11.810584],[99.660352,11.820461],[99.664904,11.823147],[99.657821,11.829307],[99.65013,11.82955],[99.641042,11.82732],[99.639399,11.829626],[99.636029,11.828321],[99.635635,11.831765],[99.632332,11.831871],[99.630277,11.833813],[99.625413,11.831659],[99.622011,11.833085],[99.624197,11.837136],[99.623457,11.843189],[99.625249,11.849623],[99.620401,11.855221],[99.613367,11.858862],[99.613695,11.861654],[99.609899,11.86484],[99.609965,11.868528],[99.603408,11.870849],[99.599891,11.87892],[99.595782,11.875764],[99.595125,11.872609],[99.588009,11.872245],[99.589192,11.885383],[99.584311,11.890118],[99.579413,11.903424],[99.579791,11.906382],[99.585774,11.913194],[99.586201,11.929383],[99.579463,11.943661],[99.586168,11.949274],[99.59141,11.951185],[99.593169,11.954994],[99.591049,11.965387],[99.593744,11.971213],[99.593531,11.97757],[99.59026,11.980772],[99.589833,11.984489],[99.592249,11.992515],[99.588568,11.997446],[99.581421,12.00077],[99.574943,12.00761],[99.568316,12.007094],[99.565039,12.010428],[99.53801,12.014243],[99.53652,12.01689],[99.538382,12.02672],[99.541435,12.031291],[99.540504,12.039162],[99.535552,12.041637],[99.535254,12.049473],[99.532499,12.053357],[99.5341,12.066005],[99.540355,12.074495],[99.544004,12.075561],[99.548062,12.08185],[99.550147,12.082469],[99.550556,12.090237],[99.556215,12.094602],[99.554763,12.10426],[99.556029,12.106735],[99.554912,12.108591],[99.55562,12.113884],[99.560423,12.119349],[99.560199,12.125501],[99.562284,12.131069],[99.569656,12.136912],[99.571294,12.144508],[99.564928,12.144886],[99.562024,12.147774],[99.556476,12.147705],[99.549998,12.150626],[99.539201,12.144199],[99.532015,12.147705],[99.52967,12.14798],[99.525947,12.14499],[99.52267,12.147189],[99.515224,12.14767],[99.512804,12.144818],[99.50748,12.143168],[99.500741,12.143787],[99.495315,12.130073],[99.484933,12.129212],[99.479213,12.13406],[99.475545,12.131241],[99.473312,12.131602],[99.474801,12.15482],[99.472809,12.15769],[99.477109,12.160542],[99.477388,12.163601],[99.486919,12.165664],[99.490159,12.173088],[99.488036,12.181423],[99.495241,12.189878],[99.494328,12.192765],[99.496395,12.197542],[99.49552,12.199811],[99.492281,12.200756],[99.490531,12.209985],[99.486733,12.212202],[99.487255,12.218405],[99.484909,12.22088],[99.481391,12.221688],[99.481949,12.223819],[99.478766,12.226431],[99.478356,12.22937],[99.471003,12.234697],[99.47199,12.240746],[99.476904,12.242946],[99.478412,12.248153],[99.482293,12.252607],[99.480976,12.255159],[99.48249,12.260022],[99.480416,12.266829],[99.484465,12.273757],[99.481766,12.276522],[99.481733,12.279652],[99.476105,12.280108],[99.474689,12.283026],[99.466032,12.282539],[99.464683,12.285092],[99.461424,12.286429],[99.462181,12.297399],[99.457375,12.300073],[99.456585,12.303872],[99.452734,12.308218],[99.454051,12.310223],[99.453064,12.312593],[99.448192,12.312441],[99.444999,12.316939],[99.446645,12.319066],[99.445789,12.322713],[99.443353,12.323685],[99.443419,12.327514],[99.445987,12.32873],[99.446316,12.331738],[99.433841,12.342799],[99.435947,12.343863],[99.437231,12.349151],[99.443847,12.351156],[99.44365,12.355654],[99.432228,12.364102],[99.433512,12.368204],[99.437297,12.37024],[99.436902,12.375072],[99.442498,12.382699],[99.443518,12.391968],[99.441806,12.400537],[99.445888,12.407101],[99.442728,12.410808],[99.43519,12.413756],[99.426764,12.42427],[99.426303,12.430986],[99.424098,12.431351],[99.424986,12.448429],[99.413663,12.450101],[99.408134,12.456421],[99.400994,12.459914],[99.4029,12.462772],[99.403262,12.469671],[99.406619,12.472831],[99.406126,12.480914],[99.412083,12.484227],[99.416264,12.488998],[99.421761,12.48915],[99.425151,12.491368],[99.425381,12.496899],[99.419725,12.505948],[99.420345,12.515449],[99.417405,12.524764],[99.422288,12.528973],[99.42365,12.539595],[99.421533,12.545933],[99.422598,12.555995],[99.4303,12.555633],[99.435547,12.565408],[99.430543,12.570053],[99.430907,12.572121],[99.427804,12.576728],[99.428411,12.579642],[99.432957,12.583502],[99.435479,12.581759],[99.4552985,12.5791885],[99.4614035,12.5819262],[99.4635267,12.5857098],[99.4692569,12.5865328],[99.473429,12.5891151],[99.4791107,12.5901469],[99.4833069,12.5884032],[99.4877571,12.5908645],[99.4912839,12.5896363],[99.4967717,12.5929517],[99.49706,12.57808],[99.4987425,12.5734199],[99.5053752,12.5688453],[99.5099397,12.5683578],[99.5144559,12.5637389],[99.520224,12.5645499],[99.5240743,12.5632081],[99.5260936,12.5653681],[99.5305877,12.565753],[99.535048,12.5686639],[99.5364071,12.5725888],[99.5398322,12.5736281],[99.5443711,12.5785801],[99.548385,12.579837],[99.5565529,12.5774569],[99.5778948,12.5779137],[99.5801372,12.5745553],[99.588203,12.5705472],[99.590377,12.5722371],[99.5981173,12.5731791],[99.6090413,12.5795316],[99.6115988,12.5790684],[99.6165746,12.5812618],[99.6236087,12.5946674],[99.6283001,12.5998188],[99.6235569,12.6057374],[99.6186009,12.6074508],[99.6137624,12.6152323],[99.613994,12.6191226],[99.6196078,12.6225042],[99.6197943,12.6277743],[99.6173697,12.6304162],[99.6196048,12.6319714],[99.6201528,12.635087],[99.6162314,12.6407378],[99.6225049,12.6446011],[99.6379489,12.6409402],[99.6475158,12.64257],[99.6496441,12.6398392],[99.6559957,12.6388906],[99.6581974,12.6330276],[99.6639601,12.6376378],[99.671365,12.635987],[99.6731942,12.637511],[99.6751515,12.6348724],[99.6777513,12.6369558],[99.6792834,12.6349469],[99.6840233,12.6354637],[99.6863894,12.632239],[99.6925114,12.6307621],[99.7109823,12.6321932],[99.7318112,12.6305413],[99.7445165,12.6193736],[99.7547614,12.6188746],[99.7578452,12.6154376],[99.7681229,12.6142038],[99.7728846,12.6174468],[99.7729952,12.6227346],[99.7772008,12.6258218],[99.7826362,12.6222119],[99.7850141,12.6250794],[99.7843398,12.6216908],[99.7878384,12.621483],[99.7876611,12.6233002],[99.7908175,12.6222722],[99.7945547,12.6290639],[99.7982348,12.6298918],[99.7972443,12.6290679],[99.7981918,12.6281819],[99.8013804,12.6301678],[99.8022293,12.6290346],[99.8055221,12.6314317],[99.8123314,12.6284659],[99.8263365,12.633361],[99.8308096,12.6303307],[99.8328542,12.6314463],[99.8336066,12.6294313],[99.8368001,12.6304779],[99.8402463,12.6261599],[99.846279,12.6302155],[99.8493379,12.6283808],[99.8543079,12.6299809],[99.8538506,12.6275271],[99.8557657,12.62501],[99.8641656,12.6233218],[99.8711757,12.6265284],[99.8759763,12.6262587],[99.8836327,12.6201073],[99.8903323,12.6240757],[99.8932293,12.6289815],[99.8975774,12.6284988],[99.9050338,12.636183],[99.9162013,12.639094],[99.9211139,12.6391375],[99.9223538,12.6369251],[99.9261247,12.6361629],[99.9270199,12.6392136],[99.9296233,12.6397664],[99.9402656,12.6362687],[99.9452825,12.632757],[99.9521805,12.6349828],[99.9555376,12.6326584],[100.4536557,12.660211],[100.4534436,12.3861828],[100.2158554,12.3842929],[100.2126392,12.3274476],[100.2380619,12.2788808],[100.2430841,12.2560837],[100.23869,12.1801379],[100.228036,12.1607736],[100.2231056,12.1357281],[100.2060464,12.1075254],[100.1866627,12.0796369],[100.1688612,12.0575485],[100.1634488,12.0268475],[100.1417308,11.9951431],[100.1152072,11.9639143],[100.0909009,11.942151],[100.0745966,11.9306488],[100.0367574,11.8900772],[100.0401366,11.8807402],[100.0419051,11.815003],[100.0413664,11.7130454],[100.033343,11.6826546],[100.0142817,11.6442005],[99.983143,11.6089963],[99.9830537,11.5834677],[99.9789032,11.5490866],[99.9704553,11.5267962],[99.9548903,11.5078919],[99.9324591,11.4741803],[99.9103829,11.4528479],[99.8845994,11.4342765],[99.8510688,11.414808],[99.8329257,11.4102738],[99.8163256,11.4032881],[99.8178162,11.3826458],[99.8179836,11.3326548],[99.8075133,11.3001209],[99.7705578,11.2307921],[99.7792454,11.2139731],[99.7768289,11.1788172],[99.7694284,11.1319022],[99.7737247,11.1173676],[99.7744699,11.0475758],[99.7665793,11.0186249],[99.7471393,10.9725986],[99.502717,10.9919099],[99.4917427,10.9882428],[99.4839503,10.990277],[99.4794105,10.9889298],[99.475464,10.9895026],[99.4695385,10.9935614],[99.4647629,10.989844],[99.4598678,10.988936],[99.4567699,10.9826753],[99.4520412,10.9812688],[99.4482647,10.9774333],[99.4359777,10.9713946],[99.4275024,10.9712933],[99.4263922,10.9680985],[99.4208604,10.9660317],[99.4156467,10.9597404],[99.4073271,10.9547062],[99.4006618,10.9579413],[99.3899977,10.9594052],[99.3820291,10.9624869],[99.3778023,10.9662109],[99.375574,10.9725406],[99.3747707,10.9706302],[99.3698652,10.9685928],[99.3620736,10.9691283],[99.3505576,10.9718186],[99.3447557,10.9756095],[99.3390817,10.9713728],[99.3358785,10.9637955],[99.3321534,10.9650371],[99.3301312,10.9680798],[99.3214495,10.9708387],[99.3188596,10.9687378],[99.3110713,10.9685357],[99.3056722,10.965337],[99.2997484,10.9688097],[99.2899173,10.9694708],[99.2810152,10.9584456],[99.2758607,10.9637022],[99.2721042,10.9645624],[99.2654114,10.9695126],[99.2585839,10.9678717],[99.2584929,10.9653509]]]}}]}