{"type":"FeatureCollection","features":[{"type":"Feature","properties":{"id":"TH-LAO-4770102","nameTh":"ประจวบคีรีขันธ์","type":"town_municipality"},"geometry":{"type":"Polygon","coordinates":[[[99.8045378,11.850483],[99.8055868,11.850184],[99.8081956,11.8507873],[99.8086796,11.8504394],[99.8089094,11.8494048],[99.8087039,11.8487103],[99.8075185,11.8474105],[99.8036934,11.8452686],[99.8033783,11.8424283],[99.8073572,11.8411277],[99.8078411,11.8407229],[99.809447,11.8374233],[99.8112014,11.8390857],[99.8150981,11.841566],[99.8206596,11.8428263],[99.825349,11.842878],[99.8283242,11.8424123],[99.8277404,11.83936],[99.8240546,11.8398394],[99.820786,11.8397336],[99.8176502,11.8391817],[99.8143803,11.837612],[99.8098373,11.8338905],[99.8074238,11.8312854],[99.8025396,11.8244691],[99.8009375,11.8214147],[99.8003025,11.8188581],[99.798581,11.8178897],[99.7994324,11.8161183],[99.7995722,11.8151064],[99.7992277,11.8125131],[99.7992834,11.808191],[99.8027759,11.8082152],[99.7995963,11.8080492],[99.7993512,11.8054756],[99.8008006,11.8001687],[99.8027321,11.7965937],[99.8013991,11.795926],[99.8001209,11.7959326],[99.7999659,11.7961643],[99.7977826,11.7954791],[99.7967505,11.7942055],[99.7969994,11.7924379],[99.796198,11.7917884],[99.7959033,11.7910575],[99.7939729,11.7897081],[99.7914076,11.7887943],[99.7895483,11.7886173],[99.7891152,11.7876295],[99.7816906,11.7876164],[99.7794679,11.7864188],[99.7757007,11.7835179],[99.7738954,11.7830978],[99.7708683,11.7834034],[99.7786544,11.8211263],[99.7897277,11.8190839],[99.7890321,11.8228284],[99.7892159,11.8245511],[99.7899431,11.8265674],[99.8025813,11.8478511],[99.8045378,11.850483]]]}},{"type":"Feature","properties":{"id":"TH-LAO-5770702","nameTh":"หนองพลับ","type":"subdistrict_municipality"},"geometry":{"type":"Polygon","coordinates":[[[99.7281019,12.602724],[99.73111,12.6027418],[99.7335649,12.6032177],[99.7426675,12.6022328],[99.7455291,12.6026038],[99.75859,12.6004216],[99.7723905,12.6103317],[99.7912374,12.5951276],[99.7859133,12.5877853],[99.7840251,12.5890847],[99.7797403,12.590036],[99.7669088,12.5888841],[99.7610133,12.5877021],[99.7312493,12.5835814],[99.7251965,12.5835228],[99.7199952,12.584515],[99.7207814,12.5890152],[99.7281019,12.602724]]]}},{"type":"Feature","properties":{"id":"TH-LAO-5770103","nameTh":"คลองวาฬ","type":"subdistrict_municipality"},"geometry":{"type":"Polygon","coordinates":[[[99.7745447,11.7316736],[99.7773481,11.7340758],[99.7794259,11.7351493],[99.7814522,11.7355575],[99.7826746,11.7341746],[99.7823766,11.7336991],[99.7826962,11.7334993],[99.7830234,11.7340653],[99.7817519,11.7353555],[99.7820264,11.7355977],[99.7818187,11.7358292],[99.7815322,11.7356111],[99.7809617,11.7362512],[99.7812682,11.7375712],[99.7825004,11.7383213],[99.78283,11.7390365],[99.7870783,11.7426308],[99.7883377,11.7432119],[99.7893183,11.7442924],[99.7896729,11.7442318],[99.7907543,11.7425901],[99.7909899,11.7427645],[99.7898532,11.7441371],[99.7913155,11.7452011],[99.7920265,11.7451771],[99.7922542,11.7462606],[99.792953,11.7469236],[99.793514,11.748169],[99.7935869,11.7498244],[99.7929724,11.7522596],[99.7941744,11.7558396],[99.7938422,11.7565322],[99.79331,11.7567316],[99.7924831,11.755488],[99.7778214,11.7419862],[99.7745447,11.7316736]]]}},{"type":"Feature","properties":{"id":"TH-LAO-5770801","nameTh":"ไร่เก่า","type":"subdistrict_municipality"},"geometry":{"type":"Polygon","coordinates":[[[99.8626616,12.2555428],[99.8680074,12.2535654],[99.8708468,12.2517342],[99.8793337,12.2517754],[99.8873256,12.2499456],[99.884794,12.2242064],[99.8816571,12.2153001],[99.8861936,12.2137924],[99.8832971,12.2060612],[99.8721248,12.2102936],[99.869935,12.209828],[99.8664823,12.2097728],[99.8642248,12.2110803],[99.8625021,12.2110836],[99.8612914,12.2120756],[99.8598415,12.2126997],[99.8524492,12.2145756],[99.8626616,12.2555428]]]}},{"type":"Feature","properties":{"id":"TH-LAO-5770807","nameTh":"ไร่ใหม่","type":"subdistrict_municipality"},"geometry":{"type":"Polygon","coordinates":[[[99.8789866,12.2076731],[99.864307,12.1691537],[99.8458246,12.1761665],[99.8415313,12.1772466],[99.7952003,12.2125935],[99.8312114,12.2221243],[99.8337757,12.2212725],[99.8393802,12.2210645],[99.8421554,12.2198453],[99.8464245,12.2193304],[99.8488536,12.2184347],[99.8510137,12.2161637],[99.851576,12.2150222],[99.8533697,12.2142269],[99.8598415,12.2126997],[99.8612914,12.2120756],[99.8625021,12.2110836],[99.8642248,12.2110803],[99.8664823,12.2097728],[99.869935,12.209828],[99.872025,12.2103187],[99.8789866,12.2076731]]]}}]}