{"type":"FeatureCollection","features":[{"type":"Feature","properties":{"provinceCode":"40","nameTh":"ขอนแก่น","nameEn":"Khon Kaen"},"geometry":{"type":"Polygon","coordinates":[[[102.1834825,16.5041597],[102.1907569,16.5031857],[102.1906577,16.5013135],[102.1892013,16.5013753],[102.1922429,16.4986646],[102.1943565,16.4990581],[102.1937288,16.501581],[102.1958058,16.500386],[102.196057,16.5019719],[102.1979131,16.5017482],[102.1984924,16.5043893],[102.2058631,16.5031677],[102.2040392,16.500362],[102.206649,16.4980757],[102.2091033,16.4978648],[102.2128178,16.501714],[102.2142454,16.5013816],[102.2123916,16.499017],[102.2179787,16.4977928],[102.2170265,16.4935956],[102.2287451,16.4866695],[102.2281228,16.4841104],[102.2316878,16.4840757],[102.2348133,16.4864026],[102.2420274,16.480255],[102.2404507,16.4787458],[102.2426126,16.4772772],[102.2420144,16.4741675],[102.244297,16.4729612],[102.2440663,16.4694477],[102.2569499,16.4666713],[102.2553306,16.4610706],[102.2591076,16.4598641],[102.2593356,16.4614795],[102.2645954,16.4618679],[102.2666768,16.4602782],[102.2658345,16.4593368],[102.2678435,16.4588429],[102.2669852,16.4568596],[102.2680742,16.4574847],[102.2692356,16.4556146],[102.270802,16.4582333],[102.271207,16.4568236],[102.2734198,16.4560185],[102.2739616,16.457832],[102.2765687,16.4558744],[102.2755549,16.457567],[102.2766942,16.4605202],[102.278856,16.4604508],[102.2774532,16.4587479],[102.2780943,16.4568367],[102.279894,16.4589254],[102.2830993,16.4581974],[102.2844742,16.455784],[102.2831124,16.4549291],[102.287247,16.4532302],[102.287706,16.4547072],[102.2887871,16.4530738],[102.2893219,16.4541252],[102.291302,16.4487228],[102.2931796,16.4487047],[102.2925695,16.4465282],[102.2951578,16.4458529],[102.2962884,16.4473517],[102.3007688,16.4450508],[102.3009617,16.4482428],[102.3045788,16.448165],[102.3069802,16.4512948],[102.3117737,16.4504838],[102.3111426,16.4547599],[102.3134799,16.4534276],[102.3173616,16.4559021],[102.3182073,16.4518656],[102.3195899,16.4523155],[102.3179315,16.4490505],[102.3199863,16.4476153],[102.3191489,16.4457712],[102.3212896,16.4460295],[102.3218941,16.4480636],[102.3236236,16.4452564],[102.325168,16.4477135],[102.3297904,16.445448],[102.3320259,16.4472247],[102.3324277,16.4448476],[102.3344624,16.4465884],[102.3359925,16.4447468],[102.3359831,16.4478654],[102.3392745,16.4457841],[102.3410919,16.4475496],[102.3432924,16.4462053],[102.3422693,16.4488176],[102.3455093,16.4496667],[102.3460396,16.451645],[102.3485017,16.4502223],[102.3499033,16.4520482],[102.3520618,16.4504957],[102.3538418,16.4512081],[102.35522,16.449129],[102.3565118,16.4505449],[102.3579134,16.4478274],[102.359329,16.4501708],[102.3626718,16.4502067],[102.3622654,16.4527203],[102.3651667,16.4529713],[102.3659072,16.4509863],[102.364279,16.4494606],[102.3684347,16.4473994],[102.3659212,16.4464921],[102.3667809,16.4417715],[102.365405,16.438171],[102.370649,16.4389781],[102.3734328,16.4355924],[102.3763031,16.4347613],[102.3757415,16.438177],[102.3777368,16.4383402],[102.3774081,16.4400813],[102.3818961,16.4428854],[102.3824544,16.445181],[102.3838749,16.4417986],[102.3848643,16.4452],[102.3905796,16.4428791],[102.3915987,16.4453616],[102.3930094,16.4452364],[102.3925782,16.447006],[102.3942466,16.4457608],[102.3947256,16.4469997],[102.3971521,16.445699],[102.3991458,16.4467715],[102.4001055,16.4492524],[102.3980271,16.4490843],[102.3993587,16.45127],[102.397381,16.4527742],[102.3962841,16.4505607],[102.3947655,16.4528978],[102.3969032,16.4534496],[102.3943479,16.4546789],[102.397496,16.4578692],[102.3941937,16.4588821],[102.3988798,16.4590314],[102.3980895,16.4606149],[102.3993205,16.462004],[102.3952308,16.4630324],[102.3975048,16.4638156],[102.3967586,16.46645],[102.3987975,16.4654977],[102.4008747,16.4675178],[102.4009834,16.4647201],[102.4033484,16.4657935],[102.4018552,16.4631291],[102.4052934,16.4621031],[102.4039457,16.4604561],[102.4053393,16.4601804],[102.4052263,16.4565779],[102.4083166,16.4530173],[102.4078297,16.4504826],[102.4097779,16.4473412],[102.4089971,16.4450637],[102.4062516,16.4437733],[102.4054598,16.4394678],[102.4065736,16.4400416],[102.4077077,16.4351433],[102.4154315,16.4267883],[102.4157341,16.4224854],[102.4178831,16.420375],[102.4220896,16.4196143],[102.4253581,16.4146815],[102.4304847,16.4130467],[102.4350215,16.4091218],[102.4432842,16.4077924],[102.449307,16.3971557],[102.4588677,16.3946878],[102.4469663,16.3786708],[102.446666,16.3581547],[102.444155,16.3465694],[102.4358716,16.335097],[102.4372895,16.3278044],[102.4300096,16.3222482],[102.4226587,16.3084483],[102.4171906,16.292467],[102.4168353,16.2861523],[102.4108183,16.2712462],[102.4131953,16.260546],[102.4178343,16.2531207],[102.4083146,16.2478577],[102.4031242,16.242879],[102.3848453,16.2133606],[102.3647666,16.1883736],[102.3453171,16.1605562],[102.3394794,16.1468227],[102.334301,16.1395234],[102.3150994,16.1151342],[102.2830894,16.085872],[102.2806584,16.0772484],[102.279913,16.072024],[102.2828,16.0700702],[102.2864049,16.0700264],[102.2856895,16.067715],[102.2878963,16.0623038],[102.2869803,16.0608899],[102.2977378,16.0489139],[102.2995294,16.0436604],[102.3025089,16.0408805],[102.3023483,16.0383131],[102.3125696,16.0424068],[102.3127954,16.0401882],[102.3161363,16.0378165],[102.3216615,16.0371185],[102.3212654,16.0359175],[102.3267124,16.0300794],[102.332392,16.0348498],[102.3350621,16.0351737],[102.3366255,16.0387693],[102.3376461,16.0374641],[102.3384789,16.0386454],[102.3419922,16.0350599],[102.3441971,16.0353189],[102.3447669,16.0301068],[102.3483489,16.0298962],[102.3480894,16.0281595],[102.3503239,16.0283602],[102.34944,16.0267213],[102.3521802,16.0261636],[102.349558,16.0230132],[102.3519898,16.022375],[102.3527478,16.0200697],[102.3532404,16.0159206],[102.3514196,16.0096918],[102.3558146,16.009149],[102.3540798,16.0080468],[102.3565971,16.0069012],[102.3550931,16.0051445],[102.3595386,16.0052635],[102.3592995,16.0025565],[102.3641093,16.001271],[102.3648242,16.0026323],[102.3671764,16.0019258],[102.3683407,16.0069344],[102.3696378,16.0033571],[102.3717323,16.0026449],[102.3693425,15.9996195],[102.3710379,15.9979931],[102.3725999,15.9988567],[102.3732049,15.9959962],[102.3751056,15.9962954],[102.373768,15.9987679],[102.3749068,15.9999793],[102.3755383,15.9977921],[102.378783,15.996383],[102.3768701,15.9952335],[102.3779388,15.9943265],[102.3797854,15.9953037],[102.3825284,15.9937421],[102.3820498,15.9959401],[102.3844431,15.9972661],[102.3854259,15.9958058],[102.3834404,15.9952279],[102.3833734,15.9923866],[102.3867604,15.9934072],[102.3829607,15.9901502],[102.3854209,15.9870344],[102.3834223,15.9826661],[102.3859047,15.980879],[102.3835143,15.9787016],[102.3810813,15.9804179],[102.3800848,15.9777321],[102.3717329,15.9750792],[102.3723091,15.967779],[102.3695791,15.9653931],[102.3655429,15.9654354],[102.3683032,15.9644604],[102.3662862,15.9618886],[102.3670436,15.9551557],[102.3707569,15.9585377],[102.3716034,15.9574458],[102.3691739,15.9531726],[102.3742709,15.9543341],[102.373875,15.9505844],[102.3706799,15.9491329],[102.3746579,15.946327],[102.3703645,15.9459162],[102.3688743,15.9483381],[102.3656706,15.944702],[102.3675286,15.9438065],[102.3653187,15.9404024],[102.3658796,15.9388261],[102.3624842,15.9361013],[102.3645516,15.9342936],[102.3637196,15.9325217],[102.3577053,15.93267],[102.3549837,15.9307503],[102.3558685,15.928267],[102.3570919,15.9305548],[102.3621749,15.9286108],[102.3608947,15.9264866],[102.3582543,15.9267097],[102.3606868,15.9242937],[102.3584874,15.9226128],[102.3615022,15.9202968],[102.3588965,15.9192988],[102.358949,15.9148409],[102.3559034,15.9113582],[102.3559476,15.9087932],[102.3530031,15.9082007],[102.353235,15.9005122],[102.3495764,15.8998415],[102.3492975,15.8956522],[102.3458535,15.8888418],[102.3406822,15.8874178],[102.3434181,15.881928],[102.3381078,15.879957],[102.3367024,15.8761594],[102.3382151,15.8738066],[102.3355544,15.8714124],[102.325652,15.8704007],[102.325931,15.8665513],[102.3204163,15.8655606],[102.3211985,15.8611869],[102.3197511,15.8593994],[102.3221329,15.8568502],[102.3185388,15.8553125],[102.3192413,15.8531141],[102.3171591,15.8511811],[102.3207916,15.8479124],[102.3194129,15.8469938],[102.3183038,15.8493068],[102.3156087,15.8469391],[102.3190688,15.8448336],[102.3191396,15.8416474],[102.3217135,15.8424546],[102.3219817,15.8370668],[102.3240534,15.834185],[102.3246321,15.8289827],[102.319493,15.8257828],[102.3213239,15.825181],[102.3226795,15.8269905],[102.3260698,15.8213339],[102.326971,15.8170914],[102.3249752,15.8184127],[102.3243958,15.8160075],[102.3280115,15.8125184],[102.3289245,15.8090489],[102.3267025,15.8094319],[102.325973,15.8081518],[102.3279793,15.8044561],[102.3272845,15.7988673],[102.3286138,15.7989347],[102.3290797,15.7968244],[102.3476523,15.7778454],[102.3499982,15.7769795],[102.3499126,15.7748104],[102.3559126,15.7715947],[102.3569866,15.7681159],[102.3632132,15.7673846],[102.3637099,15.7608393],[102.3597299,15.7594782],[102.3616068,15.752467],[102.3583696,15.7470324],[102.3569858,15.7402845],[102.3608308,15.7304427],[102.3632733,15.7292105],[102.3657673,15.7316817],[102.3704307,15.7315608],[102.3717957,15.7337701],[102.3745952,15.7338876],[102.3820552,15.7267467],[102.3868394,15.7257835],[102.3907303,15.7182706],[102.3932595,15.7175145],[102.3985633,15.7103927],[102.4008315,15.7102099],[102.404417,15.7002853],[102.4090027,15.6977663],[102.4212985,15.694914],[102.4318603,15.7048341],[102.4410639,15.7052352],[102.4442044,15.7113346],[102.4491222,15.7159823],[102.4792156,15.7175678],[102.4932609,15.7245934],[102.5013242,15.7248989],[102.5115549,15.7281949],[102.5355831,15.7085457],[102.5412823,15.7091144],[102.5558528,15.7035153],[102.5653259,15.7080988],[102.5723465,15.7078554],[102.5765114,15.7097203],[102.5810365,15.7065407],[102.5870598,15.709958],[102.5978937,15.7124744],[102.5976543,15.7148634],[102.6020804,15.7230377],[102.6092234,15.727922],[102.6134477,15.7276313],[102.6224642,15.7233761],[102.6227834,15.7209454],[102.6268537,15.7218779],[102.6313657,15.7186631],[102.6358725,15.7181429],[102.6384932,15.7148681],[102.6416825,15.7164765],[102.6501041,15.7145032],[102.6564057,15.7175662],[102.6681058,15.7156476],[102.6725585,15.7185653],[102.6727081,15.7227325],[102.6822726,15.7285436],[102.6838639,15.7250526],[102.6913367,15.7240895],[102.6916313,15.721041],[102.6940625,15.7198637],[102.6925704,15.7177685],[102.6949861,15.7159342],[102.6944182,15.7142442],[102.6902964,15.7133877],[102.6930029,15.7074995],[102.6921202,15.7063335],[102.6892694,15.7075318],[102.6895588,15.7026036],[102.7006414,15.6930343],[102.7004896,15.6890581],[102.7025874,15.6898923],[102.7035519,15.688186],[102.704743,15.689689],[102.7050669,15.6872641],[102.708458,15.6860603],[102.709266,15.681805],[102.712478,15.6815098],[102.7149649,15.6745821],[102.7146285,15.6701431],[102.7154157,15.6685879],[102.7170485,15.6691519],[102.7165309,15.6660735],[102.7207804,15.6670295],[102.7268353,15.6654806],[102.7271932,15.6681439],[102.7283911,15.6655855],[102.7305129,15.6679498],[102.7335018,15.6679049],[102.7339838,15.6661609],[102.7362538,15.6684018],[102.740549,15.6684666],[102.7402455,15.6696635],[102.7414165,15.6682225],[102.7476316,15.6701979],[102.7466707,15.6676382],[102.749635,15.6641142],[102.7480066,15.6619946],[102.7528764,15.6617488],[102.7539913,15.6585691],[102.7601515,15.6556456],[102.7614194,15.6529433],[102.7658691,15.6537691],[102.770648,15.6520185],[102.7708555,15.6542985],[102.77247,15.6531465],[102.7722167,15.650938],[102.7740669,15.6515793],[102.7742033,15.6497763],[102.7751528,15.6509743],[102.776031,15.649194],[102.7784062,15.6491015],[102.779928,15.6445463],[102.7763344,15.6430912],[102.7773458,15.641457],[102.7794005,15.6422491],[102.7805716,15.6390496],[102.7797318,15.6365839],[102.7776385,15.637174],[102.7756889,15.634997],[102.7765952,15.633587],[102.7858647,15.6327292],[102.7870013,15.6368295],[102.7920456,15.6372564],[102.8060454,15.632746],[102.8370686,15.63667],[102.8552874,15.6361269],[102.8635115,15.6511359],[102.8675917,15.6528587],[102.8678907,15.65767],[102.8703688,15.6585686],[102.8721579,15.6630539],[102.8767565,15.6660727],[102.8824969,15.6645583],[102.8837166,15.6677971],[102.8835341,15.6724871],[102.8749684,15.6753545],[102.8737975,15.6810975],[102.8697883,15.6828765],[102.8688585,15.6866836],[102.8708392,15.689965],[102.8693402,15.6958038],[102.8763841,15.706311],[102.8768982,15.7170747],[102.8746049,15.7192814],[102.8765895,15.7216938],[102.8764705,15.7265061],[102.8737933,15.7266663],[102.8767296,15.7280023],[102.8738641,15.738498],[102.8808749,15.7466587],[102.878842,15.751976],[102.8810762,15.7558808],[102.877259,15.7642592],[102.8773987,15.7716172],[102.883444,15.7717176],[102.884573,15.773834],[102.8832262,15.7754434],[102.8855063,15.7780498],[102.8915711,15.7778399],[102.8917819,15.7815402],[102.8957505,15.7829681],[102.8973693,15.7857315],[102.9053775,15.7838453],[102.9058885,15.7871474],[102.9153326,15.7895793],[102.9171784,15.7918355],[102.9251747,15.7952915],[102.9304627,15.7958261],[102.9284854,15.8000917],[102.9324861,15.8012637],[102.9308277,15.8043255],[102.9311277,15.8156155],[102.9270561,15.815969],[102.9264397,15.8196761],[102.9193281,15.8237307],[102.9231187,15.8318861],[102.9207192,15.832714],[102.9230703,15.8381052],[102.9199059,15.8397417],[102.9193428,15.8449427],[102.9229647,15.8487659],[102.9218902,15.8554676],[102.9247093,15.856934],[102.9256153,15.8608954],[102.92353,15.863318],[102.9225866,15.869346],[102.9253004,15.8748018],[102.9238058,15.8791296],[102.9252672,15.8802332],[102.9156146,15.8815241],[102.9139485,15.889396],[102.9058565,15.8969074],[102.9058959,15.901325],[102.9030584,15.9026175],[102.9033905,15.9049716],[102.9016066,15.9054965],[102.9023339,15.9089469],[102.8995989,15.9119104],[102.9000897,15.9156529],[102.896123,15.9195185],[102.8971678,15.9262412],[102.8933084,15.9273915],[102.8915111,15.9327079],[102.8897676,15.9330245],[102.891235,15.9352627],[102.8898766,15.9406079],[102.8963368,15.9455898],[102.8978972,15.9506408],[102.8950503,15.9584608],[102.9020069,15.9647621],[102.9030504,15.96837],[102.9012841,15.9699815],[102.9037204,15.975337],[102.9032473,15.9793645],[102.9092886,15.9852918],[102.9032861,15.9906016],[102.902949,15.9936569],[102.9007585,15.9947607],[102.8973483,16.0021633],[102.8896487,16.0045818],[102.8871212,16.0103653],[102.8853939,16.0111583],[102.8860763,16.0127549],[102.8843977,16.0137352],[102.8841493,16.016785],[102.8867288,16.0189721],[102.8913357,16.0181943],[102.8949641,16.0214464],[102.8938659,16.0253854],[102.8915398,16.0258187],[102.8913527,16.0293991],[102.8858313,16.0306439],[102.8842349,16.033076],[102.8782501,16.0330379],[102.876193,16.0379721],[102.8742985,16.0386192],[102.870472,16.0382762],[102.8702775,16.0365714],[102.8675002,16.0393623],[102.8655322,16.0374721],[102.8590408,16.038957],[102.8600708,16.0419631],[102.8571416,16.0429149],[102.8572199,16.0444658],[102.8579646,16.0463317],[102.8623728,16.0481927],[102.8632806,16.0526303],[102.8611012,16.0557143],[102.8614179,16.059003],[102.8558552,16.0645412],[102.8513889,16.0654319],[102.8480749,16.0723231],[102.8478628,16.0753374],[102.8558968,16.0816839],[102.8556122,16.0922196],[102.8591972,16.0919277],[102.8608299,16.0946564],[102.8604425,16.1007637],[102.8648314,16.1113489],[102.8641567,16.1139995],[102.8688426,16.1186594],[102.8676332,16.1253758],[102.8585426,16.1274197],[102.8544742,16.1260435],[102.8532839,16.1324724],[102.851597,16.1348842],[102.8500839,16.1343903],[102.8498254,16.1371661],[102.8431879,16.1456557],[102.8438578,16.1508814],[102.8538452,16.1544993],[102.8571979,16.1585709],[102.8561226,16.1650973],[102.8475326,16.1698716],[102.8448662,16.1735186],[102.8462091,16.1850722],[102.8452905,16.1913593],[102.8481656,16.1989504],[102.846468,16.201009],[102.8476244,16.2036536],[102.8433084,16.2113319],[102.8470165,16.219945],[102.8514593,16.2225461],[102.8501044,16.2280328],[102.8445564,16.2332153],[102.8448143,16.2453442],[102.8472152,16.248281],[102.8482539,16.2555469],[102.8505709,16.2565597],[102.8448365,16.2640607],[102.8454034,16.2723708],[102.8480626,16.2742679],[102.8490324,16.2779912],[102.8535344,16.283402],[102.8644801,16.2912242],[102.8674458,16.299361],[102.8750862,16.3022615],[102.8772714,16.3054218],[102.8814978,16.3065767],[102.8826066,16.3086307],[102.8944585,16.3157398],[102.8964363,16.3335946],[102.8999583,16.3390005],[102.8978285,16.3430235],[102.8985298,16.3489493],[102.9087985,16.3496979],[102.9090485,16.3517517],[102.9050575,16.357915],[102.9077111,16.3616384],[102.9145293,16.3616768],[102.9175027,16.369387],[102.9188152,16.3691237],[102.9186963,16.365036],[102.9275033,16.3669813],[102.9274995,16.3689266],[102.9250207,16.3685799],[102.9230698,16.3715372],[102.9191525,16.3727565],[102.9210132,16.3737238],[102.9206714,16.3775455],[102.925144,16.3801239],[102.9307249,16.3774197],[102.9378588,16.3770145],[102.9341697,16.3830399],[102.9356582,16.3887294],[102.9395388,16.3855007],[102.9398355,16.3925409],[102.9410279,16.3932345],[102.9427858,16.3924289],[102.9431441,16.3895476],[102.9459988,16.3908139],[102.9493518,16.3892292],[102.9502877,16.3951317],[102.9526574,16.3984974],[102.9565168,16.3986741],[102.9569897,16.4007116],[102.9554651,16.4022974],[102.9457916,16.4029489],[102.9476017,16.4048134],[102.9467782,16.4097112],[102.9512573,16.4089345],[102.9565402,16.4128741],[102.9533823,16.4149651],[102.9573549,16.4187298],[102.9572853,16.4233201],[102.9592163,16.4265683],[102.9573113,16.4280447],[102.9528562,16.4254842],[102.9511958,16.4214375],[102.9482562,16.4222548],[102.9474812,16.4295916],[102.9498074,16.4379869],[102.947368,16.4416114],[102.9494149,16.4453425],[102.9526356,16.4417649],[102.9549078,16.442203],[102.9550353,16.4471744],[102.9517294,16.4481572],[102.9532601,16.4512128],[102.9611907,16.448993],[102.9669676,16.4571271],[102.97602,16.4564195],[102.9827369,16.4633952],[102.9896238,16.4627941],[102.9918775,16.465875],[102.9944859,16.4662435],[102.9995172,16.4651783],[103.0035807,16.4688491],[103.006632,16.4669683],[103.0109114,16.4713834],[103.0133622,16.4708297],[103.0160667,16.4736021],[103.0191332,16.4734337],[103.0222484,16.4781967],[103.0204193,16.482389],[103.022698,16.4834387],[103.0222662,16.4855493],[103.0242716,16.486918],[103.0234007,16.4879345],[103.0256385,16.4880477],[103.0246063,16.4915536],[103.0316498,16.4958842],[103.0305736,16.4976044],[103.0327046,16.5013799],[103.0346017,16.4994906],[103.0359903,16.5000558],[103.0361325,16.4976138],[103.0384058,16.4956589],[103.0379563,16.4907392],[103.042546,16.4906467],[103.046839,16.4969702],[103.0537551,16.4962393],[103.0565912,16.4992522],[103.0626417,16.4993942],[103.0645703,16.5034638],[103.0665124,16.5021786],[103.070325,16.503623],[103.0747242,16.5079465],[103.0741422,16.5103557],[103.075518,16.5096555],[103.0758892,16.511527],[103.0809247,16.5109091],[103.0864019,16.516341],[103.0856675,16.5176245],[103.0873062,16.5178388],[103.0859536,16.521044],[103.0881834,16.5246417],[103.0871909,16.5283182],[103.0938199,16.5355872],[103.0962793,16.5362124],[103.0986451,16.5420505],[103.101324,16.5417634],[103.1011488,16.5443323],[103.1043942,16.5485619],[103.1043307,16.554104],[103.1155416,16.5615697],[103.1155637,16.5642758],[103.1188135,16.5666807],[103.1171564,16.5679658],[103.1193778,16.5702104],[103.1181877,16.5714089],[103.1194304,16.5739762],[103.1184388,16.5777794],[103.1206589,16.5798923],[103.1209977,16.58412],[103.1196619,16.5854027],[103.1214164,16.586741],[103.1193252,16.5890979],[103.120015,16.5921924],[103.1239307,16.5958515],[103.1313918,16.5973814],[103.1346566,16.5999888],[103.1404794,16.5995842],[103.1405993,16.6014036],[103.1468489,16.6043912],[103.1495237,16.6087673],[103.1527136,16.6105756],[103.1542137,16.61709],[103.1513175,16.619789],[103.1520263,16.6246508],[103.150487,16.6264832],[103.151327,16.6323016],[103.149933,16.6424113],[103.152132,16.6424745],[103.1535644,16.64665],[103.1515885,16.6521987],[103.1529729,16.6544728],[103.1506588,16.6586171],[103.1546999,16.6675571],[103.1587638,16.6703541],[103.1596306,16.6744982],[103.1591322,16.6768086],[103.156141,16.678136],[103.1544619,16.6854948],[103.1491198,16.6885381],[103.1489457,16.6931307],[103.1448419,16.7018618],[103.1491705,16.7084885],[103.1481575,16.7153871],[103.1495032,16.7173417],[103.1537359,16.7178498],[103.156389,16.7216754],[103.1589098,16.7327284],[103.1559634,16.7383885],[103.1475464,16.744569],[103.1480521,16.7489494],[103.1457928,16.7537138],[103.1499126,16.757007],[103.1510251,16.7624673],[103.1531582,16.760364],[103.1533308,16.7616625],[103.1609995,16.7626133],[103.1667359,16.7678548],[103.1684296,16.7674136],[103.1712015,16.7703139],[103.1746426,16.7835319],[103.1786359,16.7852944],[103.1811108,16.7893371],[103.1797467,16.794283],[103.1823336,16.7976828],[103.1790506,16.8020885],[103.1830857,16.8057135],[103.1822564,16.8129166],[103.1844694,16.8211634],[103.1816027,16.8259517],[103.1788563,16.8268649],[103.1777541,16.8327215],[103.1797345,16.8395398],[103.1748479,16.8448498],[103.171769,16.8453423],[103.1698177,16.8524682],[103.1750723,16.863453],[103.1692289,16.8639346],[103.1610914,16.8670988],[103.1478066,16.866857],[103.1340517,16.8722309],[103.1356256,16.8646631],[103.14122,16.8554415],[103.14023,16.8379223],[103.137,16.8296265],[103.1350367,16.8300731],[103.1337033,16.8268266],[103.1288785,16.8243541],[103.1273037,16.8205945],[103.1250616,16.8194105],[103.124659,16.8204541],[103.1233529,16.8180478],[103.1201268,16.8195561],[103.119231,16.8186766],[103.1188386,16.8199297],[103.1138059,16.8182303],[103.10976,16.8245407],[103.1079305,16.824533],[103.1072526,16.8265839],[103.1052721,16.8260273],[103.1042439,16.8294447],[103.1073312,16.8332412],[103.1030362,16.8362498],[103.1040798,16.8388176],[103.1018126,16.8396677],[103.1048114,16.844568],[103.1069112,16.8438432],[103.1061346,16.8495035],[103.1092225,16.8504945],[103.1088135,16.8517836],[103.111423,16.8509111],[103.1144631,16.8530791],[103.1149977,16.8562792],[103.112229,16.8583801],[103.1116169,16.8610838],[103.1129125,16.8619791],[103.1130021,16.8661267],[103.1161379,16.8687453],[103.1182791,16.8685905],[103.1204529,16.8717732],[103.1187235,16.8755232],[103.1199014,16.8771621],[103.119066,16.8791693],[103.1219953,16.8794732],[103.1212376,16.8820439],[103.1225822,16.882826],[103.1202636,16.8844257],[103.1199634,16.8884171],[103.1205391,16.8910714],[103.1241672,16.8919321],[103.1240644,16.8939626],[103.1226009,16.8962316],[103.123264,16.8990784],[103.1210682,16.9018408],[103.1148656,16.9065696],[103.1085634,16.9064382],[103.1053221,16.911025],[103.0995892,16.9130937],[103.0963918,16.9103042],[103.0921628,16.9103054],[103.0867068,16.9051466],[103.08369,16.8991402],[103.078953,16.897967],[103.0742107,16.9019403],[103.0720412,16.901689],[103.063564,16.8950396],[103.0619196,16.8913346],[103.0575781,16.8884001],[103.0545065,16.8888312],[103.0526694,16.8856649],[103.0424879,16.8881701],[103.028198,16.8782207],[103.026029,16.8723582],[103.021903,16.8727452],[103.0163631,16.8700241],[103.0094519,16.8701717],[103.0072723,16.8646161],[103.0018214,16.8649276],[103.0012272,16.8629838],[102.9956477,16.8596828],[102.9816835,16.8566044],[102.9745201,16.8500102],[102.9670872,16.8464993],[102.9633575,16.8465518],[102.9546193,16.8404478],[102.950136,16.8417296],[102.941587,16.8362796],[102.9262563,16.8383452],[102.9214219,16.8374455],[102.9187002,16.835242],[102.916377,16.8364381],[102.9163591,16.8380772],[102.9125324,16.8385862],[102.8955223,16.8603267],[102.89017,16.8648345],[102.8886248,16.8645368],[102.8885208,16.8673669],[102.8865625,16.8675477],[102.8870492,16.8695078],[102.8847245,16.8710912],[102.883466,16.8749762],[102.8776338,16.8723602],[102.8756967,16.8729713],[102.873194,16.8811962],[102.870535,16.8801339],[102.8689885,16.8814727],[102.8663312,16.8789262],[102.8625019,16.8798115],[102.860088,16.8835608],[102.8579139,16.8818008],[102.8545279,16.8830465],[102.8486658,16.8774917],[102.8484112,16.8733056],[102.8414645,16.8727313],[102.8422892,16.8693356],[102.8403949,16.8683074],[102.8378446,16.8704208],[102.8352776,16.8701682],[102.8285656,16.8665314],[102.8284557,16.8639233],[102.8240119,16.8626232],[102.819512,16.86997],[102.8218826,16.8713431],[102.822488,16.8751043],[102.8196881,16.8762091],[102.8182229,16.8790293],[102.8194141,16.8811008],[102.8185603,16.8800422],[102.815642,16.8824601],[102.8134208,16.8891692],[102.812389,16.8886056],[102.8102312,16.8915624],[102.8123687,16.8971148],[102.8113055,16.9025575],[102.8124527,16.9042074],[102.8090917,16.9087672],[102.810638,16.9121849],[102.8092508,16.9164789],[102.8107302,16.9159791],[102.8131605,16.9202386],[102.8119039,16.9233137],[102.816931,16.926223],[102.81777,16.9341751],[102.8208159,16.9376717],[102.8163811,16.940825],[102.8138625,16.9455274],[102.8088354,16.9466264],[102.8043725,16.9519683],[102.8042641,16.9552327],[102.8061429,16.9598807],[102.8095344,16.9611356],[102.8097285,16.9631],[102.8148999,16.9648468],[102.8162477,16.9677922],[102.8189356,16.9686044],[102.8227779,16.9728501],[102.817444,16.9754864],[102.816401,16.9806393],[102.8122974,16.9810415],[102.8119783,16.9826308],[102.8047902,16.9871961],[102.8011763,16.9877051],[102.8011935,16.990737],[102.7977017,16.9940007],[102.797949,16.9985366],[102.7957274,16.9991116],[102.7949624,17.0081695],[102.7926094,17.0086479],[102.7871754,17.015919],[102.7810922,17.0164908],[102.7777345,17.019411],[102.7765022,17.0229193],[102.7643877,17.0255198],[102.7616015,17.0281046],[102.7594978,17.0341175],[102.7505664,17.0418103],[102.7446824,17.0413989],[102.7377309,17.0471403],[102.7328094,17.0469063],[102.7234603,17.0494323],[102.7179373,17.0538348],[102.7156484,17.0583144],[102.717259,17.0655952],[102.7149527,17.0730579],[102.7089758,17.080368],[102.7102457,17.0863597],[102.7037193,17.0882043],[102.700047,17.0868958],[102.6984373,17.0720394],[102.6952719,17.0653022],[102.6907527,17.0647487],[102.6827534,17.0526257],[102.6793215,17.0511254],[102.679719,17.0378209],[102.6775883,17.032369],[102.6819362,17.0279696],[102.6791696,17.0249908],[102.6819538,17.017186],[102.6765774,17.0029981],[102.6692452,16.9942493],[102.6791526,16.9690047],[102.6768185,16.953971],[102.6653578,16.9265617],[102.6400288,16.8815762],[102.6219449,16.8365037],[102.6166773,16.8197185],[102.6127644,16.7946244],[102.6121722,16.7868417],[102.6151728,16.7796132],[102.6080196,16.7721541],[102.5430947,16.782861],[102.4964714,16.8038751],[102.4784776,16.7998661],[102.4719859,16.8000709],[102.4593655,16.8085417],[102.4550869,16.8068625],[102.4532797,16.7952659],[102.450004,16.790148],[102.4454568,16.789335],[102.4428829,16.7937729],[102.438776,16.7949009],[102.4375185,16.7928447],[102.4385389,16.787707],[102.433579,16.7833766],[102.4283933,16.7913365],[102.4249216,16.7913018],[102.423987,16.7938033],[102.4220045,16.7932454],[102.4198963,16.7949212],[102.4149919,16.794523],[102.415605,16.8050784],[102.4049913,16.8022787],[102.4051445,16.8154742],[102.4014285,16.8177531],[102.3989954,16.8153168],[102.3939549,16.8158796],[102.3919927,16.8103901],[102.3855357,16.8164755],[102.3774379,16.817915],[102.3755844,16.8159604],[102.3794343,16.8143858],[102.3796546,16.8124927],[102.3755619,16.8108276],[102.3742826,16.8131195],[102.3703321,16.8136392],[102.3658214,16.8177898],[102.3614976,16.8168022],[102.3581902,16.8222567],[102.3550617,16.8230461],[102.3559598,16.8253856],[102.350081,16.8309651],[102.3489079,16.8264124],[102.349999,16.8242248],[102.3470588,16.8184869],[102.3432292,16.8180866],[102.3413872,16.8234127],[102.3382816,16.8244297],[102.3391065,16.8293197],[102.3359406,16.8316533],[102.340422,16.834957],[102.3399558,16.8366922],[102.3316722,16.8403463],[102.3295459,16.8448746],[102.3235577,16.8462768],[102.3321025,16.8486171],[102.3306432,16.854937],[102.3286485,16.8558744],[102.3226321,16.8532067],[102.3191139,16.8551851],[102.3167499,16.8547706],[102.3177912,16.8583329],[102.3211332,16.8597923],[102.3192945,16.8618038],[102.3244564,16.8650495],[102.3247473,16.8669999],[102.314945,16.8693353],[102.3116457,16.8675247],[102.3072102,16.8749839],[102.3024487,16.8769768],[102.3021726,16.8804716],[102.3072284,16.8821454],[102.3069157,16.8843504],[102.3019833,16.885601],[102.2980933,16.8826128],[102.2962501,16.8845304],[102.2915995,16.884125],[102.2919365,16.8877095],[102.2959222,16.8892658],[102.2954419,16.8918536],[102.2881363,16.8897923],[102.28758,16.8918365],[102.2848483,16.8909057],[102.2776393,16.8940136],[102.2635692,16.8917384],[102.2590451,16.8944008],[102.2573472,16.8935263],[102.254488,16.894803],[102.2545889,16.8913463],[102.2495533,16.891542],[102.250558,16.8895755],[102.248793,16.8880328],[102.2491784,16.8784284],[102.2446723,16.8817252],[102.2462482,16.8771397],[102.2434784,16.8774359],[102.2426002,16.8751827],[102.2409027,16.8764828],[102.2413982,16.878632],[102.235221,16.880599],[102.2336599,16.8793386],[102.2350363,16.8773763],[102.2339669,16.8751721],[102.2328645,16.8747005],[102.2314928,16.8769743],[102.2277429,16.8759151],[102.2288606,16.8733717],[102.2245032,16.8709183],[102.2266515,16.8690101],[102.2222645,16.8687192],[102.2209437,16.865299],[102.214379,16.8630709],[102.2138457,16.8603703],[102.2041658,16.8627269],[102.1994068,16.859987],[102.1909345,16.8592676],[102.188168,16.8575357],[102.1852048,16.8617141],[102.1848623,16.8671235],[102.1801873,16.8720755],[102.1758797,16.86686],[102.1717821,16.8649079],[102.1675658,16.8668052],[102.1681202,16.8706145],[102.1578646,16.8719945],[102.1583775,16.8752207],[102.1561688,16.8812762],[102.1446969,16.8806918],[102.1442096,16.8762906],[102.1410708,16.8775375],[102.1408411,16.8801966],[102.134912,16.8785092],[102.1320709,16.88237],[102.1293863,16.8833397],[102.1244418,16.8805465],[102.1188395,16.8887797],[102.1136653,16.8872349],[102.1131962,16.8916379],[102.110759,16.8929226],[102.1108139,16.8944086],[102.1046807,16.8974113],[102.1002575,16.8962376],[102.0995977,16.8924084],[102.0964429,16.8909693],[102.0973426,16.8856183],[102.0991553,16.8837619],[102.0969968,16.8826267],[102.0858144,16.8853896],[102.0813523,16.8897234],[102.0739476,16.885371],[102.0703706,16.885423],[102.0690085,16.8894626],[102.0665444,16.8867051],[102.0631651,16.887276],[102.0631691,16.8814506],[102.0550683,16.8756821],[102.0596875,16.8708819],[102.0560392,16.8677309],[102.0517947,16.8694505],[102.0478863,16.8671896],[102.0443191,16.8678799],[102.0430754,16.8652744],[102.0448429,16.8609096],[102.0397668,16.8583484],[102.0317183,16.8636708],[102.0278238,16.861658],[102.0258331,16.86224],[102.0227603,16.8667157],[102.0193088,16.8687304],[102.0178426,16.8647122],[102.0159313,16.8643015],[102.0119536,16.8684553],[102.0119356,16.8703887],[102.0101378,16.8704338],[102.0047467,16.8640668],[102.0049334,16.8622797],[101.9994405,16.8602265],[101.9998302,16.85867],[102.0026461,16.8591762],[102.0026107,16.8552049],[102.0044686,16.8563613],[102.0061164,16.8552298],[102.0001201,16.8487237],[101.9987072,16.8488539],[101.9980925,16.8512437],[101.9963919,16.850395],[101.9991687,16.8446666],[101.9977468,16.8435817],[101.9953484,16.845188],[101.9958767,16.8413505],[101.9937819,16.8399625],[101.9909976,16.8398582],[101.9902159,16.8413135],[101.9863907,16.8406378],[101.9873806,16.8436787],[101.9821618,16.8439728],[101.9800801,16.8400725],[101.9786027,16.8399933],[101.9795535,16.8441273],[101.9782684,16.8452169],[101.9739086,16.8403516],[101.9691568,16.8425791],[101.969224,16.8470964],[101.9657964,16.8448582],[101.9657345,16.8472511],[101.9623369,16.8473679],[101.9623829,16.85234],[101.9564074,16.8469828],[101.954425,16.84947],[101.9523899,16.8484276],[101.946756,16.8495857],[101.9437786,16.8525793],[101.9446514,16.845862],[101.9513229,16.8405232],[101.945538,16.8390054],[101.9376448,16.8341728],[101.9269988,16.8311837],[101.9173193,16.8228079],[101.9058973,16.8172099],[101.9014886,16.8132263],[101.8808434,16.8109957],[101.8713316,16.8035613],[101.8673137,16.7934198],[101.8647421,16.7932021],[101.8626444,16.790706],[101.8492195,16.7886855],[101.8437499,16.7857934],[101.8346847,16.7840016],[101.8297169,16.7793833],[101.8213877,16.7779485],[101.8013136,16.7689233],[101.7972481,16.7690117],[101.7938464,16.7660991],[101.7933414,16.7501283],[101.7899901,16.7467299],[101.7897614,16.7429211],[101.7860962,16.7425094],[101.7898701,16.7381671],[101.787602,16.7377728],[101.7901175,16.7349601],[101.7895553,16.732509],[101.7916453,16.7271932],[101.7871863,16.7264765],[101.7872925,16.7218809],[101.7831213,16.7215408],[101.778868,16.7157071],[101.7793661,16.712771],[101.7761137,16.7121795],[101.7753025,16.7029769],[101.7714814,16.7023929],[101.7742828,16.6972832],[101.7732553,16.6922394],[101.771464,16.6907887],[101.7726943,16.688414],[101.7719304,16.685865],[101.7658525,16.6795664],[101.7519213,16.6775584],[101.749626,16.6742116],[101.7512242,16.6732982],[101.7504311,16.6720796],[101.7523435,16.6721539],[101.7508564,16.6678236],[101.7517643,16.6656552],[101.749996,16.6640791],[101.7521748,16.6615971],[101.7500623,16.656837],[101.7510949,16.6545454],[101.7537221,16.65401],[101.7537411,16.6522325],[101.757793,16.6536978],[101.7601983,16.6520375],[101.7648422,16.6554545],[101.7676541,16.6530646],[101.7700041,16.6536126],[101.7699276,16.6518613],[101.7728312,16.6523481],[101.7722463,16.6479721],[101.7791007,16.646903],[101.7769073,16.6442057],[101.777659,16.642229],[101.7743088,16.6398397],[101.7763267,16.6383931],[101.7743876,16.6365667],[101.7741816,16.6287375],[101.7764887,16.6326719],[101.7853629,16.635972],[101.7863627,16.6402378],[101.7912132,16.6396536],[101.7946684,16.6422694],[101.7951929,16.6451903],[101.7997907,16.6451667],[101.8003291,16.6495533],[101.8042512,16.6472481],[101.8060172,16.6490533],[101.8056052,16.6529768],[101.8091538,16.6505217],[101.8134357,16.6533083],[101.8183988,16.6530294],[101.8198902,16.6548056],[101.8226093,16.6500638],[101.8223484,16.6522031],[101.8273774,16.6553529],[101.825691,16.6573922],[101.8322581,16.6584394],[101.843184,16.6542398],[101.8528554,16.6578373],[101.8539006,16.6560635],[101.8524288,16.6549045],[101.8549041,16.6511109],[101.8537638,16.6503696],[101.8597698,16.6491351],[101.8602375,16.6503186],[101.8617722,16.6479203],[101.8638189,16.6491809],[101.8643236,16.6465867],[101.8689095,16.6496479],[101.8703507,16.6451902],[101.8737775,16.6424707],[101.8755418,16.6454402],[101.8751362,16.6439725],[101.8801918,16.6461555],[101.8831621,16.643768],[101.8850126,16.6451772],[101.8897211,16.6449515],[101.8932499,16.6391878],[101.8945343,16.64039],[101.899102,16.6396003],[101.8988731,16.6366459],[101.8996515,16.6384675],[101.9016588,16.6386758],[101.9031137,16.6367659],[101.9013316,16.6352085],[101.9039667,16.6341962],[101.9040408,16.6364526],[101.9057326,16.6349182],[101.9041767,16.6294984],[101.9053793,16.628034],[101.9069315,16.630997],[101.9085452,16.6284771],[101.9100911,16.6286223],[101.9113229,16.6305971],[101.9092661,16.6332115],[101.912592,16.6341503],[101.9184989,16.6301671],[101.9183777,16.6279183],[101.9198019,16.6272451],[101.9197429,16.6311943],[101.9226939,16.6312239],[101.9263431,16.6342387],[101.9300911,16.6338958],[101.9308776,16.6310236],[101.9340919,16.6341377],[101.9357461,16.6335499],[101.9350323,16.6320473],[101.9366561,16.6322071],[101.9387144,16.6336728],[101.9383971,16.6362161],[101.9408074,16.6350031],[101.9436597,16.6360717],[101.9458147,16.6331622],[101.9482431,16.6347322],[101.952329,16.6308812],[101.954784,16.6304854],[101.9563834,16.6276065],[101.9505499,16.6228031],[101.952545,16.620408],[101.9523793,16.6228932],[101.9550225,16.6224534],[101.9541163,16.6208284],[101.9556018,16.6192747],[101.9545336,16.620198],[101.9533393,16.6190292],[101.9550509,16.6170905],[101.9568611,16.616616],[101.9571375,16.619875],[101.9591278,16.6198545],[101.9608016,16.6158565],[101.9632752,16.6175541],[101.963965,16.6147832],[101.9656175,16.6162927],[101.9643184,16.6191043],[101.9680599,16.6167076],[101.9690049,16.6179538],[101.970589,16.6151734],[101.9678123,16.6139906],[101.9689564,16.6115018],[101.9720135,16.6151084],[101.977371,16.609972],[101.9767984,16.6076703],[101.9786017,16.6073218],[101.9750899,16.6037493],[101.9797571,16.6029052],[101.9788466,16.6000523],[101.9808825,16.5995039],[101.9799674,16.5975403],[101.9817129,16.5987937],[101.9831301,16.5952883],[101.97916,16.59198],[101.9832893,16.5898866],[101.9806353,16.590453],[101.9793346,16.5894996],[101.9801442,16.5886174],[101.9771371,16.5872103],[101.9816886,16.587457],[101.981216,16.5847413],[101.9840301,16.5856129],[101.9833671,16.5831021],[101.9872288,16.583438],[101.9869472,16.5858854],[101.9884531,16.5838891],[101.9920511,16.584632],[101.9911872,16.5811793],[101.9878496,16.5820565],[101.988569,16.5791504],[101.9904912,16.5807764],[101.9921106,16.578398],[101.9866128,16.5776006],[101.98918,16.5756874],[101.9864843,16.5735265],[101.9887489,16.573311],[101.9888446,16.571064],[101.9909789,16.5698894],[101.9880935,16.5675859],[101.9882471,16.5660206],[101.990493,16.5673895],[101.990443,16.5642089],[101.992127,16.5655198],[101.9949666,16.5642295],[101.9943879,16.5614785],[101.9973047,16.5630203],[101.9978726,16.5655456],[101.9980937,16.5624432],[102.000058,16.5635147],[102.0029343,16.5624578],[102.0009378,16.5618354],[102.0013356,16.5606014],[102.0049917,16.5598986],[102.0061875,16.5575026],[102.0106138,16.5599],[102.0110787,16.5580379],[102.0152661,16.558478],[102.0145418,16.5571447],[102.0190266,16.5597535],[102.0189046,16.557807],[102.0220282,16.5558629],[102.0212632,16.5574391],[102.0234846,16.5584965],[102.0229635,16.5571663],[102.024946,16.5569178],[102.0220257,16.5537945],[102.0237337,16.55196],[102.0239498,16.5482559],[102.0261927,16.5464263],[102.0256356,16.545024],[102.0272063,16.546068],[102.0290898,16.5422537],[102.0304161,16.5436664],[102.0323535,16.5411649],[102.0324496,16.5329071],[102.0339952,16.5317631],[102.0300845,16.5270286],[102.0314586,16.5210744],[102.0377872,16.5143953],[102.0380617,16.5121364],[102.0427917,16.5083593],[102.0446852,16.5080962],[102.0442048,16.5100749],[102.0461517,16.5099969],[102.0457628,16.5085177],[102.0479384,16.5087419],[102.0491355,16.5063733],[102.0529505,16.5085494],[102.0524676,16.5061442],[102.0559166,16.5042167],[102.0561021,16.5059469],[102.0580185,16.5052402],[102.059912,16.5077038],[102.0604755,16.5032238],[102.0624057,16.5038855],[102.0633906,16.5066046],[102.0634373,16.5049849],[102.0650655,16.5057879],[102.0659857,16.504175],[102.0695293,16.5036905],[102.0691023,16.5013145],[102.0727648,16.503247],[102.0739873,16.5013292],[102.0716033,16.5018385],[102.0688431,16.4992017],[102.0716541,16.4978833],[102.0676104,16.4952514],[102.0676434,16.4938135],[102.0726563,16.4954943],[102.0756478,16.4926576],[102.0756503,16.494461],[102.0788578,16.496703],[102.0823907,16.4924334],[102.0852246,16.4922116],[102.0870799,16.4948265],[102.0911796,16.4938005],[102.0945396,16.4985965],[102.099577,16.494188],[102.1008631,16.4962351],[102.1034632,16.4958476],[102.1055778,16.4978849],[102.1115252,16.4946096],[102.1142676,16.4970125],[102.1227041,16.4942806],[102.1268341,16.4962487],[102.1313836,16.4958369],[102.132235,16.4972528],[102.1340879,16.4957297],[102.1349851,16.4992048],[102.1376854,16.4992718],[102.1376868,16.4977426],[102.1384391,16.5000041],[102.1404419,16.4998384],[102.141606,16.5031624],[102.144328,16.5015394],[102.1448364,16.4987808],[102.1467959,16.4991585],[102.1461529,16.5005524],[102.1485395,16.4986906],[102.1500139,16.4990356],[102.1500327,16.5008911],[102.153714,16.5011303],[102.1535718,16.5025691],[102.1583126,16.5032879],[102.1573551,16.4982923],[102.1607265,16.5013562],[102.164939,16.5016497],[102.1659248,16.4998212],[102.1634275,16.4975423],[102.1655169,16.4979461],[102.1657154,16.4965882],[102.1672979,16.4984707],[102.1670726,16.4965367],[102.1693391,16.4957806],[102.1707124,16.4972697],[102.1700123,16.4955672],[102.1726021,16.4916454],[102.1743543,16.4937216],[102.1729837,16.4960568],[102.1767153,16.4945902],[102.17764,16.4997525],[102.1820086,16.5011123],[102.1805187,16.5019506],[102.1805227,16.5054147],[102.183219,16.5062101],[102.1834825,16.5041597]]]}}]}