{"type":"FeatureCollection","features":[{"type":"Feature","properties":{"id":"TH-LAO-3400102","nameTh":"ขอนแก่น","type":"city_municipality"},"geometry":{"type":"Polygon","coordinates":[[[102.8374506,16.3991648],[102.8173435,16.3980301],[102.8170109,16.4099767],[102.8142536,16.4106662],[102.814511,16.4119938],[102.8096268,16.4426761],[102.8107184,16.4514636],[102.8070492,16.4517749],[102.8075105,16.4552347],[102.8023151,16.4559691],[102.8044984,16.473158],[102.805928,16.4808433],[102.8147833,16.4798081],[102.8188469,16.4797271],[102.8189233,16.4802826],[102.8285873,16.4821319],[102.8286356,16.4813217],[102.8325865,16.4821396],[102.8354001,16.4821087],[102.8343406,16.4550315],[102.8440851,16.4575369],[102.8451298,16.45698],[102.8447583,16.4562971],[102.8458178,16.4535318],[102.8509381,16.4550032],[102.8536928,16.4627098],[102.8553504,16.4646801],[102.8570992,16.4652872],[102.8682679,16.4440086],[102.8781009,16.432041],[102.8766632,16.4203197],[102.8374506,16.3991648]]]}}]}