{"type":"FeatureCollection","features":[{"type":"Feature","properties":{"provinceCode":"46","nameTh":"กาฬสินธุ์","nameEn":"Kalasin"},"geometry":{"type":"Polygon","coordinates":[[[103.6621202,17.0196152],[103.6742237,17.0208523],[103.6764065,17.0249212],[103.6747864,17.0294962],[103.6772976,17.0317729],[103.6839917,17.0296148],[103.6866764,17.0324401],[103.6942756,17.0340339],[103.7041908,17.0245002],[103.7055212,17.0206554],[103.7106915,17.0199089],[103.7197013,17.0155058],[103.7259432,17.0106364],[103.7302237,17.0031863],[103.7202963,16.9898803],[103.7185265,16.9845736],[103.7203252,16.9813971],[103.7227281,16.9805246],[103.7273018,16.9824211],[103.7330711,16.9884701],[103.7386149,16.9902896],[103.7405504,16.9872587],[103.736671,16.98463],[103.7361905,16.9824714],[103.7418299,16.9777547],[103.742122,16.9746603],[103.7399994,16.9712708],[103.7499897,16.9733087],[103.7631558,16.9643078],[103.7686355,16.9671319],[103.7835282,16.9583529],[103.7759551,16.9424174],[103.7788778,16.9338696],[103.7813241,16.9090458],[103.789112,16.9037182],[103.7922764,16.8956793],[103.7890863,16.888257],[103.7996614,16.8839949],[103.8060418,16.8846008],[103.8060168,16.8790145],[103.8076228,16.8775059],[103.8216332,16.8744796],[103.8241145,16.8706932],[103.8243035,16.8658584],[103.8356791,16.8650704],[103.8366882,16.8591136],[103.8354624,16.8492476],[103.8398644,16.846107],[103.8437011,16.8392019],[103.8523623,16.8382075],[103.861598,16.8332519],[103.8694865,16.8324275],[103.8737061,16.8292942],[103.8749678,16.8184891],[103.8794603,16.8192825],[103.8835681,16.8157361],[103.8880153,16.8164473],[103.8922023,16.8112869],[103.8964506,16.810651],[103.9015994,16.8054529],[103.9203385,16.7943324],[103.9232473,16.7890721],[103.931542,16.7893006],[103.9351319,16.7879151],[103.9364433,16.7853745],[103.9359513,16.7749534],[103.937633,16.7727002],[103.9427188,16.7724469],[103.9505727,16.7762119],[103.9526875,16.7791189],[103.9490439,16.7885722],[103.955066,16.8001866],[103.9537844,16.8061863],[103.9561895,16.8190075],[103.9611673,16.819602],[103.9677651,16.8116235],[103.9694921,16.8115786],[103.9776922,16.8199353],[103.9817444,16.8350871],[103.9895618,16.8333201],[104.0001855,16.8370351],[104.0049575,16.84162],[104.0113747,16.8438367],[104.0142865,16.8493734],[104.022814,16.8559391],[104.0298863,16.8520579],[104.0357343,16.8461121],[104.0445151,16.8426386],[104.0520447,16.8424025],[104.0689314,16.8378562],[104.0674447,16.8283613],[104.0724423,16.8173356],[104.078688,16.8108673],[104.0839833,16.8092344],[104.0918483,16.8105532],[104.0912552,16.7985024],[104.0942761,16.7903297],[104.1087313,16.7747247],[104.1139491,16.7667687],[104.1188676,16.7658029],[104.1318293,16.7714221],[104.1355306,16.7712154],[104.1361192,16.7677439],[104.1389645,16.7665872],[104.1431453,16.759969],[104.1362887,16.7561195],[104.1310155,16.7485325],[104.131105,16.738954],[104.1361415,16.729472],[104.1455341,16.7222924],[104.1507931,16.7159084],[104.1498598,16.7045528],[104.153963,16.6985788],[104.1703121,16.6971984],[104.1686093,16.6923365],[104.1616926,16.6852033],[104.1619646,16.6793184],[104.1666713,16.6741918],[104.1837749,16.6698959],[104.1888116,16.6648911],[104.1990908,16.6600233],[104.1948824,16.6571136],[104.1946902,16.6498981],[104.1886547,16.6491409],[104.1814642,16.637109],[104.1766726,16.6377134],[104.1749727,16.6363789],[104.1802344,16.6245763],[104.1778854,16.6164424],[104.1731596,16.6089426],[104.1764227,16.6042222],[104.1775964,16.5969944],[104.1857257,16.5974587],[104.190384,16.5917288],[104.2051343,16.5841385],[104.206337,16.580905],[104.2046087,16.5777777],[104.2060701,16.5765751],[104.2041583,16.5726854],[104.2065906,16.5681311],[104.2054606,16.5651555],[104.2169436,16.5619348],[104.216636,16.5578879],[104.2230498,16.5548642],[104.2260226,16.5513701],[104.2210651,16.5421857],[104.222535,16.5289004],[104.2321482,16.5259527],[104.2346457,16.5217842],[104.2387084,16.5222117],[104.2405054,16.5181219],[104.2382391,16.5068951],[104.2389273,16.4920658],[104.2337203,16.4871836],[104.231736,16.482896],[104.2264092,16.4793119],[104.2246272,16.468465],[104.2342463,16.4604027],[104.2385251,16.454517],[104.2385086,16.4426674],[104.2367475,16.4342503],[104.2378579,16.4285722],[104.2340372,16.4283863],[104.2272798,16.4333172],[104.2269058,16.4353547],[104.217878,16.4377692],[104.2127174,16.4337935],[104.2081826,16.4331031],[104.2030236,16.4298902],[104.1997778,16.431414],[104.1938729,16.4301574],[104.1911838,16.4317099],[104.1896908,16.4300082],[104.1893317,16.4316001],[104.1879398,16.430576],[104.1831606,16.434927],[104.1820708,16.4388782],[104.1806371,16.4387951],[104.1789746,16.4422885],[104.1767538,16.4433986],[104.1742129,16.4421976],[104.1727334,16.4456511],[104.1707356,16.446111],[104.1648667,16.4425376],[104.1586316,16.4426711],[104.1559406,16.4398312],[104.1536805,16.4406336],[104.1532544,16.4381669],[104.1508165,16.4388609],[104.1488601,16.4371761],[104.1465961,16.4384337],[104.1446329,16.4364572],[104.1453959,16.4290266],[104.1375775,16.427056],[104.1365554,16.424096],[104.1287587,16.4287416],[104.1255215,16.4262824],[104.1213369,16.4264568],[104.1188445,16.4248079],[104.1170202,16.4257407],[104.1111019,16.4225244],[104.108923,16.4236434],[104.1055261,16.4211875],[104.0982499,16.4215881],[104.095286,16.4157442],[104.0902835,16.4142846],[104.0868737,16.4153633],[104.087551,16.4115619],[104.0857499,16.4113971],[104.0848053,16.4092072],[104.0811142,16.4109831],[104.0773864,16.4106756],[104.0750478,16.4083672],[104.071068,16.4100507],[104.0698426,16.408051],[104.0678253,16.4080482],[104.0682015,16.4042299],[104.0670172,16.4032736],[104.0682698,16.4006942],[104.0653647,16.3975628],[104.060667,16.3962344],[104.0559166,16.3971187],[104.0535003,16.3947647],[104.0501646,16.3956808],[104.0501496,16.3937136],[104.0454713,16.3908804],[104.0392257,16.3961431],[104.0413061,16.4012901],[104.0391233,16.4040308],[104.040414,16.4059096],[104.0390509,16.4091099],[104.0407138,16.4110264],[104.0402168,16.4143933],[104.0354941,16.4158056],[104.0386893,16.4235171],[104.0379971,16.4260863],[104.0396858,16.4274067],[104.0378472,16.4365963],[104.0364401,16.438217],[104.035185,16.4361673],[104.0340475,16.4405661],[104.0300314,16.44345],[104.0179701,16.4407687],[104.0005154,16.4454912],[103.9983839,16.4436184],[103.9928873,16.4434698],[103.985356,16.4336451],[103.9759726,16.4308891],[103.9704202,16.4315618],[103.9677581,16.4343867],[103.9646071,16.43474],[103.9627114,16.4376443],[103.9614567,16.4359492],[103.9579658,16.4383309],[103.9560848,16.4378359],[103.9550283,16.4405185],[103.9495914,16.4414018],[103.9479365,16.4440243],[103.9457847,16.4424513],[103.9426363,16.4429214],[103.9358675,16.4375281],[103.9285118,16.4343212],[103.9210375,16.4398086],[103.9187411,16.4384632],[103.9144561,16.4391787],[103.9145395,16.4456018],[103.9101643,16.4533253],[103.907707,16.4523841],[103.9043153,16.4473651],[103.8994747,16.4481925],[103.8968274,16.4517916],[103.8851811,16.4537931],[103.8832359,16.4594916],[103.872204,16.4656239],[103.8704951,16.46897],[103.8664053,16.4711418],[103.8607822,16.4702945],[103.8519907,16.4643615],[103.8441779,16.4621003],[103.8314451,16.4655623],[103.8269361,16.4707052],[103.816548,16.4689122],[103.810404,16.4637763],[103.810358,16.4603239],[103.8063331,16.4542536],[103.7990752,16.449098],[103.7942505,16.4481755],[103.7905955,16.4439597],[103.7861696,16.4436891],[103.7823794,16.4369501],[103.7738527,16.4355162],[103.7698487,16.4317968],[103.7685308,16.424958],[103.7588564,16.4217919],[103.7584204,16.4199189],[103.7415477,16.4106696],[103.726949,16.4060035],[103.7144862,16.3867344],[103.7059653,16.3863152],[103.7001529,16.3740587],[103.7077414,16.3670314],[103.7150132,16.3565145],[103.7268702,16.3452406],[103.7279675,16.345637],[103.7289454,16.3406252],[103.7229387,16.3303341],[103.7478827,16.3094182],[103.7560766,16.3001143],[103.7552976,16.292884],[103.7524185,16.2911565],[103.750434,16.2871519],[103.7544741,16.2779257],[103.7519987,16.2739641],[103.7550473,16.2711026],[103.7548412,16.2693779],[103.7512405,16.2602469],[103.7454231,16.2553226],[103.7425771,16.2551265],[103.7416255,16.2528883],[103.7378421,16.2517222],[103.7339161,16.2474902],[103.7347343,16.2395488],[103.7310897,16.2343188],[103.7326139,16.2329651],[103.7314348,16.2315053],[103.733908,16.2230139],[103.7236635,16.2226608],[103.7230322,16.2208412],[103.713362,16.218456],[103.6910043,16.2255405],[103.6903241,16.2226734],[103.6966039,16.2197256],[103.6970347,16.2162928],[103.6944382,16.214458],[103.689651,16.2172273],[103.6880434,16.212028],[103.6859486,16.2107813],[103.6838986,16.2123186],[103.6854721,16.2176531],[103.6770464,16.2161173],[103.6746104,16.2117938],[103.6691378,16.2149152],[103.6707402,16.2201245],[103.6648561,16.2215023],[103.6607031,16.2155628],[103.6630704,16.2092091],[103.6667139,16.2114675],[103.667447,16.2063706],[103.6756982,16.204375],[103.6758069,16.2016149],[103.6693075,16.1973286],[103.6657243,16.1998161],[103.6645097,16.1949804],[103.6613613,16.1926417],[103.6560754,16.1937883],[103.6553453,16.2027667],[103.6530609,16.2040246],[103.651207,16.1885429],[103.6438848,16.193487],[103.6417112,16.1923944],[103.6395242,16.1879179],[103.6369122,16.1868473],[103.6314296,16.1895732],[103.6288735,16.2031348],[103.6173624,16.2175788],[103.6097832,16.2186278],[103.6002906,16.2152921],[103.6015189,16.2123906],[103.6127728,16.2151312],[103.6126326,16.2087176],[103.6184837,16.2065325],[103.6194347,16.2045272],[103.6179765,16.2018116],[103.6127684,16.1989048],[103.607195,16.2006204],[103.6064711,16.1946647],[103.599004,16.1925457],[103.5973001,16.1943834],[103.598681,16.2009834],[103.5957974,16.2024082],[103.5940151,16.1963074],[103.5892397,16.194389],[103.5680417,16.2019126],[103.5507748,16.2035933],[103.5490228,16.2082371],[103.5543647,16.2090321],[103.5603076,16.2179499],[103.5563838,16.219259],[103.5531889,16.2137308],[103.544073,16.2137111],[103.5371775,16.211432],[103.5351337,16.2140436],[103.5413675,16.2187771],[103.539901,16.2224608],[103.5323118,16.2192016],[103.5295317,16.2099911],[103.525268,16.2069601],[103.525727,16.2018371],[103.52145,16.201431],[103.5220375,16.1968105],[103.5209221,16.1955981],[103.5166112,16.1952114],[103.5136165,16.2002698],[103.5095804,16.1977427],[103.5016538,16.1999523],[103.5006004,16.2024216],[103.503638,16.20865],[103.4999318,16.2072577],[103.4958433,16.2080404],[103.4953999,16.2036127],[103.4927075,16.202663],[103.4881834,16.2071305],[103.4831688,16.2054198],[103.4799605,16.208347],[103.4718932,16.1975693],[103.4717483,16.1922678],[103.4666165,16.1938846],[103.464571,16.1897959],[103.4585698,16.1871761],[103.4530861,16.1816892],[103.4481114,16.1915739],[103.4543923,16.1895442],[103.4558742,16.1917317],[103.4515081,16.1958203],[103.4457278,16.1965273],[103.4441959,16.1980471],[103.4505698,16.20478],[103.4402267,16.2058013],[103.4420921,16.2098642],[103.4484729,16.2127011],[103.4430178,16.2163892],[103.4435171,16.2177411],[103.4481649,16.2176251],[103.4461599,16.2221258],[103.4470411,16.227649],[103.4442285,16.2293085],[103.4424896,16.2220476],[103.4388359,16.2200833],[103.4385174,16.224064],[103.4322667,16.2332586],[103.4270202,16.237033],[103.4139588,16.2397053],[103.4102768,16.249808],[103.4044555,16.2565813],[103.4094114,16.2623859],[103.4074074,16.2726121],[103.4130774,16.2806635],[103.4112971,16.2858495],[103.4091547,16.2866661],[103.410397,16.2894281],[103.4077767,16.2947629],[103.4016143,16.2934167],[103.3989648,16.2943207],[103.3984644,16.2920871],[103.3956592,16.292717],[103.3533698,16.3088878],[103.3538636,16.3105217],[103.3496487,16.3176242],[103.3478724,16.3294862],[103.3494323,16.3359593],[103.3429352,16.3610441],[103.3396209,16.361555],[103.3389845,16.3632673],[103.3326409,16.3634276],[103.3254375,16.367483],[103.3119668,16.3677743],[103.3073266,16.3651679],[103.3060522,16.3674879],[103.3003746,16.3695072],[103.2964642,16.377022],[103.2948857,16.3907714],[103.2925313,16.3906912],[103.2903519,16.3953649],[103.2886864,16.3941812],[103.2838004,16.3956492],[103.2751504,16.3862985],[103.2694668,16.3843516],[103.2669241,16.3800445],[103.2604435,16.3779123],[103.259996,16.3762267],[103.2478774,16.3796304],[103.24777,16.3783549],[103.2389524,16.3761002],[103.234872,16.3767559],[103.2290107,16.3724806],[103.1754224,16.3634304],[103.1743454,16.3705875],[103.1683707,16.3744614],[103.1685934,16.3823213],[103.1635336,16.3890702],[103.1650735,16.3968986],[103.1685616,16.4060309],[103.1709253,16.4066874],[103.170737,16.4089358],[103.1752968,16.4082039],[103.1749259,16.4196371],[103.1790526,16.4230159],[103.179002,16.425926],[103.1817303,16.4262566],[103.1834729,16.4341444],[103.1856932,16.4355665],[103.1831465,16.4416188],[103.1849682,16.4429889],[103.1838384,16.4506151],[103.1822655,16.450374],[103.1782551,16.4563993],[103.1754424,16.4575793],[103.1672346,16.4668902],[103.1678152,16.4755958],[103.163703,16.4867554],[103.1628803,16.4995625],[103.1765266,16.5318367],[103.184503,16.5424575],[103.1870608,16.5515987],[103.1811803,16.5770268],[103.1674914,16.6028637],[103.1695881,16.6059019],[103.1723982,16.6067947],[103.1750584,16.6135101],[103.1781828,16.6127814],[103.180195,16.6172453],[103.1939956,16.6277918],[103.1957173,16.6276634],[103.1960786,16.6308939],[103.1902514,16.6403269],[103.1613132,16.6411753],[103.1524124,16.6436224],[103.1535644,16.64665],[103.1515885,16.6521987],[103.1529729,16.6544728],[103.1506275,16.6572839],[103.1513091,16.6616745],[103.1547105,16.6675709],[103.1587638,16.6703541],[103.1596306,16.6744982],[103.1591322,16.6768086],[103.156141,16.678136],[103.1544619,16.6854948],[103.1491198,16.6885381],[103.1489457,16.6931307],[103.1448419,16.7018618],[103.1491705,16.7084885],[103.1481575,16.7153871],[103.1495032,16.7173417],[103.1537359,16.7178498],[103.156389,16.7216754],[103.1589063,16.7327983],[103.1559634,16.7383885],[103.1475464,16.744569],[103.1480521,16.7489494],[103.1457908,16.7536701],[103.1499126,16.757007],[103.1510251,16.7624673],[103.1530548,16.7603592],[103.1533308,16.7616625],[103.1609491,16.7625924],[103.1712015,16.7703139],[103.1746426,16.7835319],[103.1786359,16.7852944],[103.1811108,16.7893371],[103.1797467,16.794283],[103.1823336,16.7976828],[103.1790506,16.8020885],[103.1830857,16.8057135],[103.1822564,16.8129166],[103.1844694,16.8211634],[103.1816027,16.8259517],[103.1788563,16.8268649],[103.1777541,16.8327215],[103.1797345,16.8395398],[103.1748479,16.8448498],[103.171769,16.8453423],[103.1703759,16.8484362],[103.1699357,16.8530332],[103.1750723,16.863453],[103.1692289,16.8639346],[103.1610914,16.8670988],[103.1478066,16.866857],[103.1345889,16.8723193],[103.1356256,16.8646631],[103.1411051,16.8559249],[103.1418039,16.8490704],[103.14023,16.8379223],[103.137,16.8296265],[103.1350367,16.8300731],[103.1337033,16.8268266],[103.1288785,16.8243541],[103.1273037,16.8205945],[103.1250616,16.8194105],[103.124659,16.8204541],[103.1233529,16.8180478],[103.1201268,16.8195561],[103.119231,16.8186766],[103.1188386,16.8199297],[103.113904,16.818184],[103.10976,16.8245407],[103.1079305,16.824533],[103.1072526,16.8265839],[103.1052817,16.8260122],[103.1042439,16.8294447],[103.107335,16.8332237],[103.1030362,16.8362498],[103.1040839,16.8388041],[103.1020471,16.8391051],[103.1021874,16.8411275],[103.1048686,16.8446072],[103.1069041,16.8438275],[103.1061788,16.8495478],[103.1092225,16.8504945],[103.1088135,16.8517836],[103.111423,16.8509111],[103.1144631,16.8530791],[103.1149977,16.8562792],[103.112229,16.8583801],[103.1116169,16.8610838],[103.1129125,16.8619791],[103.1130021,16.8661267],[103.1161379,16.8687453],[103.1182791,16.8685905],[103.1204529,16.8717732],[103.1187235,16.8755232],[103.1199014,16.8771621],[103.119066,16.8791693],[103.1219953,16.8794732],[103.1212376,16.8820439],[103.1225822,16.882826],[103.1202636,16.8844257],[103.1199634,16.8884171],[103.1205391,16.8910714],[103.1241672,16.8919321],[103.1240644,16.8939626],[103.1226009,16.8962316],[103.12325,16.8991077],[103.114946,16.9065258],[103.1100991,16.9057238],[103.1052352,16.9110851],[103.0977339,16.9129128],[103.0967932,16.9152344],[103.0985895,16.9163592],[103.097235,16.9161864],[103.0968796,16.9187621],[103.0989895,16.9217852],[103.0970331,16.9250729],[103.1001726,16.9282716],[103.0981762,16.930046],[103.1011496,16.9322361],[103.0996501,16.9323056],[103.1002231,16.9346307],[103.1024125,16.9345428],[103.1022393,16.9391781],[103.1068853,16.9383186],[103.1088806,16.9423974],[103.1108816,16.9415425],[103.1090321,16.9437249],[103.1099151,16.9482215],[103.1121779,16.9497945],[103.1131146,16.9558099],[103.1151556,16.955536],[103.1135077,16.9583263],[103.1159991,16.9593032],[103.1153885,16.9606252],[103.1167027,16.9603093],[103.1176526,16.9624935],[103.1194795,16.9609805],[103.1215992,16.9622045],[103.1228381,16.9594023],[103.127587,16.9573253],[103.1283089,16.954969],[103.1323826,16.9571835],[103.1352173,16.9541948],[103.1384661,16.9548899],[103.1465289,16.9507789],[103.1480671,16.9512841],[103.1518048,16.9481869],[103.1554005,16.9483511],[103.1563017,16.9498912],[103.1602583,16.9466516],[103.1642727,16.9484532],[103.163972,16.9512161],[103.1675343,16.951745],[103.1698081,16.9501666],[103.1725236,16.9525071],[103.1763278,16.9528446],[103.1756786,16.9562905],[103.1773962,16.9540409],[103.1826439,16.9520468],[103.1821903,16.9475577],[103.1852381,16.947041],[103.1892681,16.9499603],[103.19408,16.9490386],[103.197359,16.9508605],[103.1983965,16.9481961],[103.2022212,16.95161],[103.2016904,16.9540598],[103.2036831,16.9581754],[103.2065093,16.9602429],[103.211231,16.958273],[103.2136164,16.9598181],[103.2132773,16.9638279],[103.2210905,16.9678636],[103.2213309,16.9657235],[103.2234962,16.966334],[103.2274207,16.9629832],[103.2302104,16.9577988],[103.2327707,16.9586873],[103.2319756,16.9599255],[103.2331808,16.9603672],[103.2365341,16.9582128],[103.2375605,16.960002],[103.2394903,16.9593854],[103.2398032,16.9613912],[103.2575996,16.9490014],[103.2771631,16.9418967],[103.2792829,16.9392148],[103.2796703,16.9340431],[103.2849869,16.9309846],[103.2855674,16.9268371],[103.2892559,16.9244048],[103.3045233,16.9221233],[103.3301198,16.9240712],[103.3502628,16.9211989],[103.3545798,16.9165587],[103.3673243,16.9081357],[103.3709685,16.9030155],[103.3739467,16.902891],[103.380198,16.9062948],[103.385598,16.9022996],[103.389573,16.8963658],[103.395223,16.8941292],[103.3970249,16.8886887],[103.4044431,16.8828127],[103.4106921,16.8714909],[103.4128641,16.8630364],[103.4104685,16.8599441],[103.4007614,16.8548065],[103.4093443,16.8496068],[103.410364,16.8426053],[103.415958,16.8308837],[103.4178954,16.817906],[103.4127407,16.8083808],[103.4216253,16.803074],[103.4366869,16.8174153],[103.4417922,16.8258681],[103.4497287,16.834482],[103.4494929,16.8375808],[103.4433585,16.8439932],[103.4432202,16.8473513],[103.4504682,16.8522878],[103.454847,16.8655529],[103.4596176,16.868191],[103.4644057,16.874465],[103.4700459,16.8750868],[103.4715008,16.8864636],[103.4744351,16.8837224],[103.4796544,16.8872137],[103.4781913,16.8915067],[103.4826199,16.897397],[103.4842342,16.9037843],[103.4890376,16.9019829],[103.4909925,16.9027594],[103.4916615,16.9070266],[103.4880804,16.9110865],[103.4905798,16.9130665],[103.4904496,16.9209743],[103.492775,16.9227444],[103.4938038,16.9274088],[103.4874016,16.9320565],[103.4867442,16.9401809],[103.4877187,16.9430078],[103.4924254,16.9472901],[103.4940486,16.9523901],[103.4915851,16.9571278],[103.4945006,16.9633568],[103.4970295,16.9641423],[103.4948277,16.966118],[103.4959626,16.9677434],[103.4943791,16.9699125],[103.4962138,16.9705558],[103.5003519,16.9682692],[103.4981124,16.972087],[103.5016185,16.9723518],[103.5028799,16.9748849],[103.5033432,16.9805741],[103.5019795,16.9826129],[103.5055735,16.9831196],[103.5067653,16.9866407],[103.5136562,16.9893865],[103.5153556,16.9958888],[103.5200463,16.9987678],[103.5179924,17.0031506],[103.5195474,17.0068645],[103.5163163,17.019807],[103.5168694,17.0251718],[103.5152512,17.0269774],[103.5186709,17.0341672],[103.5112428,17.0362953],[103.5154674,17.0414895],[103.514268,17.0435089],[103.5074159,17.0441003],[103.511939,17.0498866],[103.5141135,17.0505991],[103.5171314,17.0483726],[103.5188327,17.0496756],[103.5195268,17.0516083],[103.5166069,17.0527756],[103.5197941,17.0566698],[103.5198009,17.0592418],[103.5253566,17.0585754],[103.5270289,17.0632926],[103.5297532,17.0624349],[103.5371461,17.0658457],[103.5350328,17.0709309],[103.5406962,17.0745505],[103.5382886,17.076307],[103.5397553,17.0788106],[103.5477193,17.0795862],[103.5491584,17.0837813],[103.5480272,17.0887854],[103.5582082,17.0863416],[103.5602965,17.0878331],[103.5619415,17.0933929],[103.5641134,17.0936768],[103.5662747,17.0921459],[103.5696558,17.0936271],[103.5696578,17.0916808],[103.572956,17.0909931],[103.5747148,17.092703],[103.5752701,17.0908906],[103.5750425,17.094094],[103.5772744,17.0962295],[103.5765699,17.099279],[103.5789579,17.1019254],[103.5859689,17.0991499],[103.5877355,17.1003792],[103.5878382,17.0950502],[103.5917125,17.0937809],[103.5938031,17.0957713],[103.5997566,17.0967399],[103.601248,17.1000587],[103.601996,17.0951258],[103.6048363,17.0954432],[103.6042812,17.0972244],[103.6071991,17.0996487],[103.6092385,17.0962294],[103.6114994,17.0960621],[103.6111687,17.0945199],[103.6159849,17.095055],[103.6178334,17.0923969],[103.620709,17.0928875],[103.6213954,17.0877063],[103.6247468,17.0859326],[103.6244766,17.0843974],[103.6269744,17.0824367],[103.6265067,17.0805944],[103.6287261,17.0791809],[103.6278168,17.0764858],[103.6318888,17.0759909],[103.6390104,17.0705493],[103.6399697,17.0582339],[103.6432892,17.0542272],[103.645137,17.0549349],[103.6487027,17.0529711],[103.6529498,17.0474491],[103.6526039,17.0396092],[103.6466948,17.0239662],[103.6504395,17.0212491],[103.6621202,17.0196152]]]}}]}