{"type":"FeatureCollection","features":[{"type":"Feature","properties":{"id":"TH-LAO-4460102","nameTh":"กาฬสินธุ์","type":"town_municipality"},"geometry":{"type":"Polygon","coordinates":[[[103.5359988,16.456771],[103.5404255,16.458095],[103.5453537,16.4623225],[103.5484183,16.458943],[103.5449921,16.4559381],[103.5468721,16.4501208],[103.5467863,16.4469104],[103.5460567,16.4450171],[103.5379028,16.4382256],[103.5272705,16.4219868],[103.5164854,16.4135504],[103.482837,16.4240039],[103.4820753,16.4256453],[103.4854603,16.4277704],[103.4910446,16.4291287],[103.4914054,16.4353456],[103.4925896,16.4377779],[103.495414,16.4388584],[103.4962615,16.4397279],[103.496739,16.4447315],[103.5085493,16.4469738],[103.508656,16.4474892],[103.5102598,16.4494751],[103.5095101,16.4506194],[103.5087446,16.4549888],[103.5089716,16.455328],[103.510921,16.4557331],[103.5359988,16.456771]]]}}]}