{"type":"FeatureCollection","features":[{"type":"Feature","properties":{"provinceCode":"60","nameTh":"นครสวรรค์","nameEn":"Nakhon Sawan"},"geometry":{"type":"Polygon","coordinates":[[[99.7367595,15.6863883],[99.743975,15.6774449],[99.7480452,15.6771438],[99.749443,15.6750736],[99.7521402,15.6754112],[99.7531455,15.672704],[99.7584219,15.669945],[99.7599965,15.6662955],[99.764066,15.663928],[99.7629417,15.6602836],[99.7654822,15.6569639],[99.7718964,15.6567905],[99.7745407,15.6538301],[99.7838794,15.6527919],[99.7849394,15.6509781],[99.7863749,15.652774],[99.7879432,15.6523189],[99.7920925,15.6488977],[99.794589,15.6425581],[99.7999229,15.6407893],[99.8029969,15.6402837],[99.8031044,15.6436997],[99.8208981,15.6428736],[99.8357579,15.6292755],[99.8412014,15.6295703],[99.8425324,15.6274805],[99.846971,15.6269287],[99.8488167,15.6231184],[99.8532317,15.6201968],[99.8597123,15.6195322],[99.861867,15.6173056],[99.8658516,15.6186901],[99.8642158,15.6205778],[99.8623215,15.620197],[99.8633568,15.6226209],[99.8646629,15.6223575],[99.8634818,15.6269165],[99.865388,15.6291805],[99.8627229,15.6301034],[99.8641967,15.6322654],[99.862531,15.633535],[99.8640626,15.6350577],[99.8641218,15.6394478],[99.8612388,15.6427053],[99.8643163,15.6452222],[99.8638469,15.6537434],[99.8713208,15.6559975],[99.8731748,15.6584552],[99.8780276,15.6578573],[99.8804653,15.6553869],[99.8884163,15.6531036],[99.8922934,15.6539786],[99.898091,15.649945],[99.9169285,15.6536805],[99.934259,15.6533882],[99.9344846,15.6478633],[99.9419596,15.6199223],[99.9399409,15.6089405],[99.940812,15.6044229],[99.9372883,15.5980646],[99.9381921,15.5851694],[99.9408982,15.5810032],[99.9424692,15.572362],[99.9402904,15.5587773],[99.9402988,15.5332646],[99.9438838,15.5269078],[99.9438316,15.5202352],[99.9465737,15.515161],[99.9452748,15.5052527],[99.9469954,15.5010978],[99.9595704,15.5069757],[99.9620878,15.5037336],[99.9667766,15.5031929],[99.9677343,15.4994008],[99.9710704,15.5013744],[99.9737838,15.4987972],[99.9772517,15.4993897],[99.9795908,15.4961409],[99.984867,15.4963035],[99.9838868,15.4918005],[99.9869692,15.4921552],[99.9888995,15.4901253],[99.9932329,15.4918497],[99.9957324,15.4860516],[99.9980861,15.4855186],[100.0027524,15.4966651],[100.0135018,15.5025985],[100.0161182,15.508787],[100.0189976,15.5098895],[100.0286917,15.505197],[100.0307798,15.5067274],[100.0287605,15.49178],[100.0244567,15.4857391],[100.027276,15.4838628],[100.0260812,15.4812674],[100.0298256,15.4773745],[100.0268119,15.4686359],[100.0277016,15.4656809],[100.0350281,15.4608546],[100.0411656,15.4608406],[100.044792,15.4568931],[100.0468822,15.4569834],[100.0493942,15.4529177],[100.0514553,15.4541278],[100.0528404,15.4524226],[100.0565244,15.4531304],[100.0573102,15.4514901],[100.0611068,15.4512865],[100.0600899,15.4529265],[100.0661126,15.4528252],[100.0641198,15.44124],[100.0601665,15.4333053],[100.0571099,15.431414],[100.057534,15.4294027],[100.0549252,15.4251997],[100.0629967,15.4221802],[100.0618947,15.4254126],[100.064513,15.4264785],[100.0670587,15.424608],[100.0690824,15.4329102],[100.0742057,15.4357396],[100.0774522,15.4343501],[100.0801907,15.439348],[100.0880506,15.4350796],[100.0912929,15.4302229],[100.0965928,15.4270351],[100.1038441,15.4165786],[100.1175451,15.4127529],[100.1252295,15.4127781],[100.1294761,15.4054363],[100.1335061,15.4040673],[100.1351652,15.400393],[100.1402267,15.3957122],[100.1461436,15.3937585],[100.146767,15.3909456],[100.1501484,15.3886398],[100.1581203,15.386552],[100.1619172,15.3809279],[100.1734961,15.3794348],[100.1753001,15.3783929],[100.1759131,15.374168],[100.1923511,15.3713923],[100.2154623,15.3590377],[100.2280018,15.3583301],[100.2333359,15.3556697],[100.2330207,15.3531997],[100.2366575,15.3523532],[100.2363349,15.3510074],[100.2512707,15.3467792],[100.2510832,15.3440529],[100.2564169,15.3434958],[100.2607802,15.3402198],[100.26291,15.3376794],[100.2637716,15.3309983],[100.2623776,15.3295696],[100.2650482,15.3232774],[100.2649949,15.3186424],[100.2628004,15.3132376],[100.2546778,15.3089384],[100.2515037,15.3057887],[100.2507937,15.3025633],[100.2526453,15.2995956],[100.2586714,15.2999901],[100.2590811,15.2980626],[100.2648788,15.2963886],[100.2640252,15.2926528],[100.2693806,15.2921135],[100.268663,15.2535615],[100.2807984,15.2486361],[100.2809909,15.2422284],[100.2830509,15.241402],[100.2806929,15.2415353],[100.2773728,15.2338311],[100.2818093,15.2325506],[100.2810758,15.2309277],[100.2844704,15.228172],[100.2832013,15.2253492],[100.2905186,15.2243019],[100.2891954,15.2212543],[100.2964431,15.2183548],[100.2975488,15.2079729],[100.2955966,15.2077725],[100.2959343,15.2052753],[100.3000454,15.20391],[100.3007238,15.1987044],[100.2988307,15.1984923],[100.2992872,15.1949988],[100.3018474,15.1939073],[100.3000331,15.1933989],[100.3010376,15.1903554],[100.297324,15.1892792],[100.2978141,15.1876976],[100.29596,15.1871441],[100.2965446,15.1853229],[100.300864,15.1844212],[100.3016745,15.1819096],[100.299833,15.1813526],[100.3008554,15.1780988],[100.302716,15.17864],[100.3053588,15.1703287],[100.3146653,15.1731909],[100.3130425,15.1718486],[100.3127139,15.1666234],[100.3245819,15.1704585],[100.3251455,15.1687877],[100.327185,15.1694507],[100.3253588,15.1681842],[100.3259799,15.1663465],[100.3323533,15.1663526],[100.3331454,15.1641055],[100.3350221,15.1647131],[100.3347277,15.1597064],[100.3392146,15.1600752],[100.3399378,15.1580463],[100.3379726,15.157387],[100.3401555,15.1573341],[100.3386035,15.1556137],[100.3404571,15.1547382],[100.3401199,15.1512212],[100.3420887,15.1518837],[100.3431857,15.1487443],[100.3416072,15.1482297],[100.3420688,15.1453943],[100.3446318,15.1445578],[100.3428481,15.1433459],[100.3473145,15.1434164],[100.3495121,15.1357981],[100.3527444,15.1352686],[100.3533349,15.1261566],[100.3502723,15.1249644],[100.3512502,15.1215611],[100.3537978,15.1226562],[100.3547993,15.1201397],[100.3530398,15.1192811],[100.3544281,15.1162871],[100.3661746,15.1041284],[100.3635953,15.1019325],[100.364837,15.1003476],[100.3673274,15.1022377],[100.3682067,15.1006452],[100.3670898,15.1002319],[100.3678553,15.0980124],[100.3663674,15.0975476],[100.3682956,15.0836327],[100.3704413,15.0841274],[100.373811,15.0771874],[100.3758135,15.0780893],[100.3772665,15.0751555],[100.3800105,15.0767941],[100.3814307,15.0723371],[100.3837948,15.0731049],[100.3857667,15.0695107],[100.3890811,15.0703578],[100.3898594,15.0678394],[100.3925467,15.0687244],[100.393906,15.0664511],[100.3977781,15.0690889],[100.3966721,15.070239],[100.3996688,15.0714038],[100.4009205,15.0695774],[100.4070171,15.0707434],[100.4086137,15.0665107],[100.4144463,15.0671726],[100.4137958,15.0694524],[100.4200244,15.0712846],[100.4216526,15.0666723],[100.4278929,15.0684042],[100.4302345,15.0879287],[100.4347863,15.0884197],[100.4375538,15.096585],[100.4408035,15.09382],[100.4413918,15.0956154],[100.4454248,15.0952973],[100.4460426,15.0978234],[100.4490111,15.0977748],[100.4471569,15.0942155],[100.4552048,15.096044],[100.4523952,15.0977612],[100.4526283,15.0996232],[100.4572101,15.1016301],[100.458632,15.1041393],[100.4593108,15.1163626],[100.4666792,15.1152609],[100.4732658,15.1084615],[100.4767535,15.1106429],[100.4780754,15.1092829],[100.4820036,15.1097244],[100.4813028,15.1138235],[100.4859947,15.1156339],[100.4854281,15.1180261],[100.4945178,15.1224695],[100.4935777,15.1245085],[100.4989827,15.1281539],[100.499461,15.1352428],[100.504106,15.1356379],[100.5052662,15.145446],[100.5103576,15.1445743],[100.5103328,15.1486822],[100.5179628,15.1515592],[100.5274393,15.1785249],[100.5276207,15.1833353],[100.5303484,15.1826594],[100.5307671,15.1787342],[100.5367197,15.179264],[100.5368106,15.1814453],[100.5405306,15.1808133],[100.541897,15.1790371],[100.5442365,15.1818265],[100.5472553,15.1810401],[100.5482808,15.1856992],[100.5552612,15.184668],[100.555603,15.1865051],[100.5533706,15.1878097],[100.56293,15.1888172],[100.5644481,15.1936236],[100.5608029,15.194177],[100.5617111,15.204271],[100.5755859,15.2358151],[100.5806754,15.2347576],[100.5839839,15.2426347],[100.595456,15.2492805],[100.5980138,15.2541704],[100.6018196,15.2548235],[100.6012504,15.2615424],[100.5954846,15.2670715],[100.589959,15.2684387],[100.5991738,15.2821041],[100.5953692,15.2882594],[100.5981402,15.2901382],[100.600509,15.2889026],[100.6049409,15.2932685],[100.6112113,15.2947372],[100.6110505,15.2962953],[100.6124889,15.2959864],[100.6132179,15.297712],[100.6146258,15.3085635],[100.6230557,15.3136337],[100.6220003,15.3190264],[100.633654,15.324015],[100.6344302,15.3285556],[100.631146,15.3310442],[100.6298798,15.3350254],[100.6298823,15.3403941],[100.6315681,15.3416976],[100.6334851,15.3405407],[100.6352891,15.3462666],[100.6342484,15.3563819],[100.6320187,15.3612428],[100.6408236,15.3728259],[100.6422068,15.3726314],[100.6426226,15.3813221],[100.6453214,15.3895709],[100.6429677,15.3963037],[100.6444864,15.3964563],[100.6436579,15.3991339],[100.645729,15.4005692],[100.6461866,15.4033522],[100.643632,15.4076688],[100.6459664,15.4121367],[100.6434502,15.416725],[100.6489151,15.4193832],[100.6530108,15.4252318],[100.6563908,15.4252991],[100.6586342,15.4274577],[100.6601555,15.4307575],[100.6585946,15.432082],[100.6588879,15.4353752],[100.6667747,15.4330798],[100.6738012,15.4478616],[100.6759602,15.451239],[100.6788721,15.4525553],[100.6861896,15.450661],[100.6879505,15.4468273],[100.6925434,15.4457693],[100.6935039,15.4441443],[100.6968558,15.4447306],[100.701415,15.4403496],[100.7052445,15.439416],[100.7068112,15.4410957],[100.7095788,15.4400613],[100.7119322,15.4413091],[100.7172081,15.4475796],[100.7214776,15.4483674],[100.7214694,15.4464733],[100.7237016,15.4463455],[100.7241633,15.4495266],[100.7280519,15.4487798],[100.7285658,15.4473313],[100.7337245,15.4471007],[100.7351245,15.4499971],[100.7426301,15.4517009],[100.7489212,15.4585793],[100.757899,15.4578873],[100.7616064,15.4618884],[100.7622393,15.4607485],[100.767478,15.4625153],[100.7708794,15.4601674],[100.777444,15.461487],[100.7848781,15.4671558],[100.7856497,15.4697792],[100.7875969,15.4701118],[100.7897846,15.4730328],[100.7884869,15.4781514],[100.7915618,15.4789175],[100.792893,15.4823086],[100.7989541,15.4877123],[100.8048549,15.4901523],[100.8142319,15.4881465],[100.8196772,15.4905837],[100.8202137,15.4926975],[100.8232502,15.4909471],[100.8261499,15.4922467],[100.8280135,15.491142],[100.8325495,15.494114],[100.8334897,15.5029422],[100.8287905,15.5086697],[100.8255718,15.5201861],[100.8277605,15.524135],[100.8188556,15.5332731],[100.8089961,15.5464005],[100.8074473,15.5507837],[100.8169364,15.5561877],[100.8211655,15.5562653],[100.8287904,15.5554814],[100.8311536,15.552653],[100.8434438,15.549947],[100.8481938,15.551096],[100.843933,15.5570245],[100.8388282,15.5594663],[100.8392885,15.5627399],[100.8370833,15.566867],[100.8377544,15.5767499],[100.8327097,15.5829071],[100.8181607,15.5860494],[100.807835,15.5928019],[100.8111215,15.6018269],[100.8168943,15.6014189],[100.8173199,15.604069],[100.8256249,15.6150559],[100.8229644,15.6171987],[100.8227417,15.6219297],[100.819456,15.6275985],[100.827409,15.6446648],[100.8230967,15.6619796],[100.8272688,15.6640415],[100.8281497,15.6666025],[100.8258055,15.675682],[100.832148,15.6777761],[100.833475,15.6807248],[100.8255443,15.6848105],[100.8231156,15.6986847],[100.8174393,15.7075161],[100.8208697,15.7228011],[100.8191863,15.7354904],[100.8248424,15.7501834],[100.8083761,15.7917941],[100.7984263,15.8257381],[100.7987306,15.8301117],[100.803747,15.8312711],[100.8034036,15.8347767],[100.8080454,15.8347996],[100.8073782,15.8367531],[100.8091879,15.8386646],[100.8066478,15.8407107],[100.8066099,15.843213],[100.8090018,15.8458608],[100.8085721,15.8533727],[100.8111809,15.8556405],[100.8115481,15.8581395],[100.8081012,15.8664755],[100.8045078,15.8684409],[100.8097911,15.8853611],[100.7960987,15.8926968],[100.7838031,15.8952951],[100.7818287,15.897596],[100.7751776,15.8979852],[100.7696343,15.9024302],[100.764106,15.9108805],[100.7624479,15.9224434],[100.7677865,15.9349241],[100.7657843,15.9376373],[100.7631002,15.9372136],[100.7549255,15.9430588],[100.7540782,15.9508478],[100.7500384,15.9567978],[100.7503832,15.9691102],[100.7455563,15.9741462],[100.7462369,15.9800905],[100.7437296,15.9811619],[100.7424908,15.9857747],[100.7389341,15.9863376],[100.7379763,15.9898424],[100.7302307,15.990889],[100.7186897,15.9888093],[100.7026965,15.9897332],[100.6900102,15.9934134],[100.6637512,16.0129781],[100.6541303,16.0268565],[100.6392914,16.0138854],[100.6370763,16.0101464],[100.637298,16.0059535],[100.6254988,16.002511],[100.624156,15.9981687],[100.625146,15.9949558],[100.6212611,15.9923805],[100.616862,15.9833393],[100.6113715,15.9821501],[100.611604,15.9791707],[100.6089472,15.9791488],[100.6014654,15.9700144],[100.5939116,15.9682356],[100.5913031,15.9643741],[100.5883722,15.9633547],[100.5884081,15.960386],[100.5856726,15.9590818],[100.5854022,15.9539853],[100.5832901,15.9534406],[100.583942,15.9523977],[100.5815367,15.9492061],[100.5799678,15.949506],[100.5804772,15.9451618],[100.5758152,15.9444049],[100.5713015,15.9462794],[100.5698735,15.943336],[100.5688064,15.9445117],[100.5665154,15.943185],[100.56317,15.9442625],[100.5573901,15.9338712],[100.5546244,15.9318317],[100.5504272,15.9337858],[100.5501558,15.9297817],[100.5452584,15.9252771],[100.5432832,15.9253573],[100.5430898,15.9274075],[100.5401402,15.927557],[100.5368812,15.9239436],[100.5344192,15.925668],[100.5307314,15.9218988],[100.52535,15.9220691],[100.5227492,15.9189571],[100.5195963,15.9232223],[100.5195682,15.9254583],[100.5221358,15.9266081],[100.5209957,15.9279286],[100.5216599,15.9317241],[100.5276793,15.9326803],[100.5300521,15.937316],[100.5199553,15.9407008],[100.5150048,15.9377933],[100.4946238,15.9378051],[100.4878904,15.9350104],[100.4788553,15.9344923],[100.4624432,15.938508],[100.4513735,15.9372861],[100.4484951,15.9360978],[100.4488365,15.9308687],[100.4453973,15.9301601],[100.4433639,15.9306344],[100.4448019,15.9336],[100.4371805,15.9368864],[100.4266382,15.9385197],[100.4268546,15.9346238],[100.4210953,15.9317617],[100.411344,15.9298525],[100.3915215,15.9346711],[100.3876759,15.9387059],[100.3784008,15.9408804],[100.3591147,15.9402593],[100.3505069,15.9348802],[100.3381561,15.937778],[100.3311716,15.9406283],[100.3463329,15.973988],[100.3309931,15.9846107],[100.3263013,15.985018],[100.322253,15.9878299],[100.3210211,15.9862753],[100.3245105,15.9814107],[100.3234418,15.9743942],[100.3126346,15.9771103],[100.3092927,15.9735025],[100.3064806,15.9734389],[100.3065958,15.9700894],[100.3106555,15.9670042],[100.3098676,15.9611106],[100.3038587,15.9580954],[100.2992885,15.9580827],[100.2971639,15.9557858],[100.2954759,15.9566319],[100.2912572,15.9518186],[100.2840922,15.9502701],[100.2812103,15.9461647],[100.2760165,15.9434267],[100.2717374,15.9432581],[100.2686241,15.9396194],[100.2625041,15.941965],[100.2647202,15.9505685],[100.2622203,15.9574521],[100.2589977,15.9604468],[100.2543507,15.961231],[100.2477335,15.9582705],[100.2414757,15.9466952],[100.2474458,15.9383558],[100.2429582,15.9347159],[100.2362471,15.9336491],[100.2289531,15.9269621],[100.2153609,15.9281031],[100.210795,15.9306197],[100.204152,15.9314083],[100.2030467,15.9344864],[100.2008383,15.9349059],[100.198878,15.932677],[100.1844374,15.9337569],[100.1826084,15.9290719],[100.1801595,15.9292639],[100.1751058,15.9332994],[100.1730494,15.9371349],[100.1745013,15.9414385],[100.1715347,15.9461623],[100.1708245,15.9512217],[100.1684702,15.9531583],[100.168102,15.9574786],[100.163226,15.9601303],[100.1615875,15.9588011],[100.1602529,15.959835],[100.1594507,15.9680611],[100.1633741,15.9723776],[100.1615207,15.9754415],[100.1619355,15.9780521],[100.1582194,15.9818677],[100.1556132,15.9819626],[100.1506183,15.9882303],[100.1475856,15.989129],[100.1373523,16.0086558],[100.137729,16.0118057],[100.1310534,16.0181101],[100.1272664,16.0284039],[100.1313234,16.0310285],[100.1303451,16.0354411],[100.1277138,16.0356409],[100.1266665,16.0387714],[100.1217842,16.0388924],[100.1200062,16.0427156],[100.1152928,16.0468063],[100.1187679,16.0539745],[100.1182391,16.0588778],[100.1126201,16.0666896],[100.1124122,16.0733651],[100.1085618,16.0760551],[100.1132728,16.0803389],[100.1009916,16.0891814],[100.0996543,16.0945493],[100.0959828,16.0944204],[100.0927598,16.1020571],[100.0951216,16.1058281],[100.0946485,16.1107467],[100.0905092,16.1142416],[100.0857129,16.1147148],[100.0768845,16.1244255],[100.0766329,16.1263826],[100.0802511,16.1288704],[100.0804668,16.1329285],[100.0862901,16.1414876],[100.0853158,16.146095],[100.0783511,16.1456999],[100.0767217,16.1472567],[100.0773935,16.1504984],[100.074869,16.1529221],[100.0774898,16.1574495],[100.0765217,16.1615245],[100.0752668,16.1628034],[100.07341,16.1614671],[100.0652487,16.1612268],[100.0631037,16.1592922],[100.0611094,16.1643802],[100.0569589,16.1665115],[100.0440453,16.1682546],[100.0411207,16.1721979],[100.0381892,16.1729621],[100.038984,16.1765909],[100.0373326,16.1783804],[100.0374779,16.1827029],[100.029918,16.185111],[100.0296898,16.187386],[100.0254661,16.1912265],[100.0219105,16.18814],[100.0241843,16.1754178],[100.0216224,16.1624712],[100.0162711,16.1545254],[100.0167169,16.1488781],[100.0147765,16.1491201],[100.0098379,16.1436312],[100.006206,16.1427776],[100.0047678,16.1392364],[100.0033823,16.1396456],[99.996803,16.1332714],[99.9977306,16.1276902],[99.9964713,16.1230061],[99.9894204,16.1222508],[99.9889589,16.1202885],[99.9874398,16.1205442],[99.9879528,16.1172898],[99.981727,16.117129],[99.9777802,16.1136467],[99.9784448,16.1127945],[99.9728856,16.1102787],[99.9733979,16.1086947],[99.9633215,16.09853],[99.9644713,16.0968457],[99.9581699,16.0900179],[99.9583327,16.0863317],[99.9480905,16.0759108],[99.9408667,16.0719225],[99.9414489,16.0690302],[99.9334938,16.0603608],[99.935063,16.0560349],[99.9314548,16.0547734],[99.9313592,16.0529014],[99.9269733,16.0515337],[99.9227232,16.0528163],[99.9162103,16.0487897],[99.9112387,16.0490057],[99.9102012,16.051673],[99.9025883,16.0477745],[99.9044414,16.0464649],[99.9038194,16.0449261],[99.8951188,16.043085],[99.8950394,16.039451],[99.8886416,16.038132],[99.8878045,16.039506],[99.8855336,16.0385356],[99.8839175,16.0396382],[99.8736726,16.0369442],[99.8755425,16.0341432],[99.8720267,16.0322768],[99.8580854,16.0302826],[99.8451765,16.0234802],[99.8450784,16.0058914],[99.8473432,15.9987392],[99.846253,15.997497],[99.8474541,15.9818286],[99.8338134,15.9650734],[99.8282603,15.9628709],[99.8282116,15.9581018],[99.8251853,15.9505538],[99.8187542,15.94718],[99.8071963,15.9441039],[99.8046961,15.9301082],[99.8069547,15.9238627],[99.8049823,15.9206014],[99.795359,15.9216327],[99.7858722,15.9274088],[99.7825366,15.9248083],[99.7691754,15.921852],[99.7679941,15.9159794],[99.7735273,15.9031134],[99.7695373,15.8970311],[99.7635401,15.8948508],[99.7510088,15.8812985],[99.7474977,15.8754935],[99.7469214,15.8670498],[99.743306,15.8616445],[99.743795,15.8583266],[99.7397376,15.8574351],[99.736739,15.8585686],[99.7327085,15.8653876],[99.7234517,15.8730562],[99.7019455,15.8752392],[99.6978241,15.8773637],[99.6855567,15.8689966],[99.6829084,15.8631741],[99.6752083,15.8613353],[99.663613,15.8553068],[99.6624313,15.859835],[99.6578797,15.8621496],[99.6617571,15.8703731],[99.6617187,15.8751541],[99.6581715,15.8789261],[99.6454161,15.8862778],[99.6377763,15.8833812],[99.635913,15.885419],[99.6337913,15.8849557],[99.6303978,15.881075],[99.6290511,15.876105],[99.625234,15.8818687],[99.6241166,15.887303],[99.6203934,15.8879328],[99.616586,15.8924579],[99.6119631,15.8926199],[99.6098907,15.8939789],[99.6102052,15.8959354],[99.6061802,15.8986357],[99.598816,15.897575],[99.5974501,15.9035793],[99.5926537,15.9063838],[99.5854023,15.9067146],[99.5812023,15.9033307],[99.5779951,15.9055225],[99.5763231,15.9046207],[99.5758849,15.9059669],[99.5734537,15.9058645],[99.5726662,15.9042675],[99.5710214,15.9057566],[99.5705823,15.9044083],[99.569116,15.9059331],[99.5646153,15.9053962],[99.5621126,15.9071629],[99.5577334,15.9061844],[99.5550886,15.9071424],[99.5559685,15.908624],[99.5534347,15.9118448],[99.554126,15.9158388],[99.5490453,15.9165043],[99.5497971,15.9187752],[99.5467404,15.9189546],[99.5463034,15.9209418],[99.5385549,15.9248246],[99.5325732,15.9245071],[99.5312045,15.9203421],[99.5262983,15.9217794],[99.5237669,15.9255362],[99.5127662,15.9233757],[99.5022418,15.9283552],[99.4931103,15.9242837],[99.4785245,15.9219379],[99.4783601,15.9175495],[99.4815578,15.9107971],[99.4757644,15.9062347],[99.4769589,15.9023843],[99.4663145,15.9006768],[99.4605448,15.9053788],[99.4556316,15.9041694],[99.4492714,15.9050975],[99.4474208,15.9024237],[99.4394466,15.9064488],[99.4365142,15.9111032],[99.4311004,15.9094466],[99.4299922,15.9149202],[99.4256105,15.9203226],[99.4215769,15.9173619],[99.4205573,15.9146686],[99.417779,15.9150062],[99.4150967,15.9105089],[99.4043404,15.9105656],[99.4017231,15.9139589],[99.3945872,15.9146145],[99.3917487,15.9172223],[99.3735544,15.9154243],[99.3580516,15.9259791],[99.3517651,15.9246278],[99.3433319,15.9200512],[99.3338047,15.9115908],[99.3291282,15.9117292],[99.3257262,15.916116],[99.3276197,15.9206398],[99.3196552,15.9274475],[99.3187705,15.9249922],[99.3201604,15.9178093],[99.3187693,15.9167426],[99.3127541,15.9190457],[99.3103899,15.9173709],[99.3117921,15.907178],[99.3102195,15.9045715],[99.3044643,15.9036383],[99.301924,15.9078611],[99.297347,15.9089286],[99.295121,15.9072041],[99.2944199,15.9029189],[99.2899322,15.9050307],[99.288906,15.9017411],[99.2921036,15.9002159],[99.2923054,15.8936454],[99.2895932,15.8916028],[99.2870714,15.8964973],[99.2813911,15.8979464],[99.2784186,15.9032241],[99.2738612,15.903794],[99.2734914,15.908374],[99.2712862,15.9119514],[99.2681944,15.9121442],[99.2679752,15.9073007],[99.2661851,15.9075366],[99.2589186,15.9147822],[99.2518919,15.9170453],[99.2342522,15.9282558],[99.2312579,15.9332918],[99.2254466,15.9368462],[99.2226153,15.9446607],[99.2206565,15.9443896],[99.2195555,15.9367069],[99.2136234,15.9390144],[99.2176138,15.9434476],[99.2125106,15.9441267],[99.2099623,15.9483763],[99.2069803,15.9469066],[99.2046616,15.9430955],[99.2042238,15.936253],[99.1942476,15.9454156],[99.1925515,15.9428685],[99.1947993,15.9420796],[99.1954862,15.9395096],[99.1945075,15.9377267],[99.1919166,15.937518],[99.1913969,15.9317468],[99.1861522,15.9282951],[99.1724608,15.9372812],[99.1737215,15.9282515],[99.1641673,15.9261498],[99.163736,15.9239367],[99.1616593,15.9245885],[99.1565461,15.9198467],[99.1533664,15.919942],[99.1544088,15.9166101],[99.1531054,15.9138691],[99.1458442,15.9077762],[99.137592,15.9055882],[99.1304273,15.9090521],[99.1302834,15.9117125],[99.1284951,15.9120625],[99.1151814,15.8999223],[99.1071227,15.8953376],[99.1048755,15.8909163],[99.0999176,15.8891983],[99.0954932,15.8826275],[99.092485,15.8829045],[99.0894449,15.8855439],[99.0861438,15.8845425],[99.0881832,15.879567],[99.0949405,15.8755452],[99.097459,15.8713783],[99.0939637,15.861194],[99.0947883,15.8580925],[99.0988931,15.8536462],[99.0964034,15.8475807],[99.0974748,15.8438133],[99.0956239,15.8362548],[99.0971782,15.8349242],[99.0968119,15.8314427],[99.1038269,15.8270365],[99.1032835,15.8211943],[99.1237209,15.8144299],[99.1307992,15.8070683],[99.1336991,15.7982614],[99.1391755,15.7965224],[99.1472746,15.7969781],[99.1496013,15.7930326],[99.1589462,15.7930738],[99.1639318,15.7889678],[99.163803,15.780917],[99.1656682,15.778212],[99.1741062,15.7825561],[99.1781934,15.7812499],[99.186993,15.7835643],[99.1901867,15.7794695],[99.2034473,15.7812946],[99.2134922,15.7797694],[99.2151754,15.7695799],[99.2256613,15.7569553],[99.2280436,15.7524869],[99.2271366,15.7487863],[99.2308664,15.7470337],[99.2350314,15.7474941],[99.2394315,15.7407813],[99.2392711,15.7321979],[99.2434859,15.7278311],[99.2451504,15.7226014],[99.2617672,15.7180015],[99.2671629,15.7194085],[99.2704548,15.7168065],[99.2768265,15.7165413],[99.2833565,15.7073115],[99.2885539,15.7037992],[99.2903407,15.697842],[99.2955856,15.6935736],[99.3053945,15.6941139],[99.3087623,15.6928267],[99.3133371,15.6939278],[99.3210843,15.6889205],[99.3330914,15.6915201],[99.3399195,15.6849709],[99.3449444,15.685958],[99.3494145,15.6822664],[99.3546933,15.682016],[99.3565038,15.6784219],[99.3604018,15.6764622],[99.3640273,15.6688039],[99.3678203,15.6646459],[99.3720148,15.6635677],[99.3719183,15.6601359],[99.3697422,15.659919],[99.370013,15.6568999],[99.3672389,15.6549413],[99.3679969,15.6498906],[99.376244,15.6361974],[99.3741695,15.6328773],[99.3787366,15.626002],[99.3844906,15.6243354],[99.3923349,15.6160921],[99.3990376,15.6131064],[99.422806,15.6142773],[99.4288583,15.6083175],[99.4288397,15.6061212],[99.4262372,15.6061671],[99.426254,15.6050059],[99.4296539,15.6054258],[99.4354603,15.5988866],[99.4406116,15.5981056],[99.4413363,15.5947691],[99.4444514,15.5919786],[99.450064,15.5912553],[99.4547785,15.5815021],[99.4569828,15.5829875],[99.4616412,15.5822816],[99.4686836,15.5692918],[99.4684854,15.5655628],[99.4714488,15.5639592],[99.4743572,15.5653615],[99.4813492,15.5639995],[99.4909012,15.570366],[99.4965777,15.5695811],[99.5043508,15.5617831],[99.5184432,15.5634046],[99.5206079,15.5666578],[99.5247349,15.5680776],[99.5266202,15.5739809],[99.5376508,15.5771479],[99.5403687,15.5852],[99.5438432,15.5866304],[99.5464304,15.590238],[99.5484101,15.5891477],[99.5625552,15.5948181],[99.5671186,15.5948841],[99.5704962,15.6035633],[99.5811861,15.6103734],[99.5855635,15.6191325],[99.5892442,15.6195924],[99.5931584,15.622911],[99.5935374,15.6258127],[99.5963979,15.6284767],[99.6063945,15.6316012],[99.6080372,15.6337868],[99.616573,15.633672],[99.6178844,15.6344386],[99.6170873,15.6373678],[99.6233042,15.6386593],[99.6268688,15.6425656],[99.6304614,15.6416081],[99.6323362,15.6434364],[99.6408232,15.6421026],[99.6497063,15.6471825],[99.6601718,15.6490127],[99.6655017,15.6601819],[99.6691688,15.6618448],[99.667194,15.6679735],[99.6695959,15.6700668],[99.6706604,15.6689891],[99.6728598,15.6725569],[99.6778217,15.6727439],[99.6872232,15.679624],[99.6914738,15.6789407],[99.6913653,15.6805301],[99.6986897,15.6817572],[99.7060047,15.6859097],[99.7070857,15.6840478],[99.7135724,15.6841758],[99.7160077,15.6815323],[99.7210668,15.6817046],[99.7219578,15.6840541],[99.7242766,15.6835987],[99.7260598,15.6845592],[99.7258357,15.6864099],[99.7316948,15.6883401],[99.7367595,15.6863883]]]}}]}