{"type":"FeatureCollection","features":[{"type":"Feature","properties":{"id":"TH-LAO-3600102","nameTh":"นครสวรรค์","type":"city_municipality"},"geometry":{"type":"Polygon","coordinates":[[[100.0855025,15.7073338],[100.0855842,15.710496],[100.0989023,15.7102761],[100.0995024,15.711323],[100.1007704,15.7118357],[100.1054519,15.715001],[100.1090611,15.7169299],[100.1112884,15.7176032],[100.1158434,15.7196853],[100.116281,15.7200317],[100.113216,15.7283393],[100.1178539,15.7287645],[100.1206277,15.7295244],[100.1267025,15.7290117],[100.132396,15.7274686],[100.135764,15.7251968],[100.1377484,15.7234532],[100.1418489,15.7168913],[100.1438574,15.7146938],[100.1459499,15.7155843],[100.1548678,15.70926],[100.1597989,15.7063145],[100.1572666,15.7044735],[100.1520799,15.6986396],[100.154069,15.6899501],[100.124741,15.6796171],[100.1246015,15.6805178],[100.1232822,15.6804103],[100.1207411,15.6810425],[100.1189973,15.6811328],[100.1174698,15.6821974],[100.1162181,15.6809246],[100.1105001,15.685738],[100.1095523,15.6844958],[100.1087818,15.6826894],[100.1087619,15.6809136],[100.1094557,15.6769355],[100.1071118,15.6714536],[100.1048381,15.6683997],[100.1017372,15.6703572],[100.0999266,15.6708018],[100.1007955,15.6748061],[100.1006975,15.6815458],[100.1009496,15.6841354],[100.0855025,15.7073338]]]}}]}