{"type":"FeatureCollection","features":[{"type":"Feature","properties":{"provinceCode":"39","nameTh":"หนองบัวลำภู","nameEn":"Nong Bua Lam Phu"},"geometry":{"type":"Polygon","coordinates":[[[102.0832264,17.6343232],[102.0860942,17.6340951],[102.0873156,17.6369702],[102.0909571,17.6380397],[102.0913927,17.6406837],[102.0990838,17.6456605],[102.1046166,17.6472589],[102.1061206,17.6463127],[102.1045599,17.642585],[102.1067094,17.6428404],[102.109993,17.6384],[102.1120684,17.6388784],[102.114882,17.6360842],[102.1180747,17.6359248],[102.1196374,17.6327686],[102.1279778,17.6350187],[102.1303051,17.6363432],[102.1306045,17.6392252],[102.1332965,17.6405745],[102.132284,17.6419494],[102.1337582,17.644408],[102.1322196,17.6471431],[102.1391696,17.6491796],[102.1383943,17.6521315],[102.1420185,17.655143],[102.1427271,17.6588861],[102.1497547,17.6632134],[102.1494081,17.6659112],[102.1578826,17.6683988],[102.1609881,17.6654196],[102.1638967,17.6660693],[102.1650928,17.6637936],[102.1701215,17.6637446],[102.1741641,17.6603006],[102.186717,17.6572085],[102.1936962,17.6578302],[102.2008745,17.655175],[102.2076494,17.6570967],[102.2238962,17.651162],[102.2292936,17.6523987],[102.2450821,17.6506722],[102.2694073,17.6626682],[102.262073,17.6817195],[102.2625725,17.6895242],[102.2665273,17.6905604],[102.2721286,17.6902352],[102.2720979,17.6889966],[102.2757161,17.6886671],[102.2806261,17.685357],[102.2821196,17.6859923],[102.283451,17.6908012],[102.2864919,17.6922062],[102.2883683,17.691433],[102.2894394,17.688152],[102.2960098,17.6861433],[102.2979562,17.6831478],[102.2992649,17.6835145],[102.2996702,17.6812796],[102.3017647,17.6818664],[102.3013474,17.6797729],[102.2999403,17.6796841],[102.3028671,17.6743668],[102.3179423,17.6791827],[102.3190502,17.6478209],[102.3235827,17.62746],[102.3258344,17.5981688],[102.3333714,17.5790135],[102.3344961,17.5681214],[102.3324807,17.5509363],[102.3444019,17.536638],[102.3490251,17.5267562],[102.3618754,17.5137853],[102.3646922,17.5062081],[102.3666549,17.5062544],[102.3658022,17.5034584],[102.3708144,17.4952763],[102.3986086,17.4146332],[102.4275874,17.3664911],[102.4312041,17.3538843],[102.4364198,17.3432059],[102.4410378,17.325645],[102.4378482,17.282143],[102.4622104,17.2870661],[102.4869863,17.2831186],[102.5015753,17.2718933],[102.5105896,17.2752597],[102.5168024,17.2727063],[102.5201501,17.2739097],[102.5261736,17.2712566],[102.5386479,17.2761979],[102.5435621,17.2753987],[102.5483857,17.2769048],[102.5610427,17.2688878],[102.5736503,17.2702973],[102.5782715,17.2691691],[102.5766614,17.2647638],[102.5925245,17.2658363],[102.594617,17.263851],[102.5911226,17.2592982],[102.5906248,17.2516868],[102.5844058,17.2455073],[102.5850104,17.2414911],[102.5781895,17.2401607],[102.5744206,17.2336386],[102.5697808,17.2365137],[102.5672895,17.2326884],[102.5383048,17.2255014],[102.5353851,17.2286083],[102.5273757,17.2251751],[102.5228717,17.2250388],[102.502174,17.2300923],[102.4908185,17.2194701],[102.4898325,17.2111344],[102.4911524,17.2075318],[102.4803817,17.20364],[102.4754588,17.2045148],[102.4710407,17.2021371],[102.4691931,17.2027045],[102.4828004,17.177004],[102.5042046,17.1462681],[102.5192517,17.1001843],[102.5432937,17.0669321],[102.5719683,17.0446974],[102.609084,17.0274289],[102.6483696,17.0001182],[102.6625986,16.9972067],[102.6697064,16.9934618],[102.6789648,16.9698553],[102.6771083,16.9550157],[102.670458,16.9384238],[102.6653578,16.9265617],[102.6400288,16.8815762],[102.6187178,16.8275446],[102.6147124,16.8104472],[102.6121522,16.788441],[102.6151728,16.7796132],[102.6089534,16.772506],[102.5967833,16.7732515],[102.5430947,16.782861],[102.5141762,16.7953578],[102.502789,16.8019467],[102.4929631,16.8039679],[102.4747452,16.7995358],[102.4693151,16.8013613],[102.4593655,16.8085417],[102.4550869,16.8068625],[102.4532797,16.7952659],[102.450004,16.790148],[102.4454568,16.789335],[102.4428829,16.7937729],[102.438776,16.7949009],[102.4375185,16.7928447],[102.4385389,16.787707],[102.433579,16.7833766],[102.4283933,16.7913365],[102.4249216,16.7913018],[102.423987,16.7938033],[102.4220045,16.7932454],[102.4198963,16.7949212],[102.4149919,16.794523],[102.415605,16.8050784],[102.4049913,16.8022787],[102.4051445,16.8154742],[102.4014285,16.8177531],[102.3989954,16.8153168],[102.3939549,16.8158796],[102.3919927,16.8103901],[102.3855357,16.8164755],[102.3774379,16.817915],[102.3755844,16.8159604],[102.3794343,16.8143858],[102.3796546,16.8124927],[102.3755619,16.8108276],[102.3742826,16.8131195],[102.3703321,16.8136392],[102.3658214,16.8177898],[102.3614976,16.8168022],[102.3581902,16.8222567],[102.3550617,16.8230461],[102.3559598,16.8253856],[102.350081,16.8309651],[102.3489079,16.8264124],[102.349999,16.8242248],[102.3470588,16.8184869],[102.3432292,16.8180866],[102.3413872,16.8234127],[102.3382816,16.8244297],[102.3391065,16.8293197],[102.3359406,16.8316533],[102.340422,16.834957],[102.3399558,16.8366922],[102.3316722,16.8403463],[102.3295459,16.8448746],[102.3235577,16.8462768],[102.3321025,16.8486171],[102.3306432,16.854937],[102.3286485,16.8558744],[102.3226321,16.8532067],[102.3191139,16.8551851],[102.3167499,16.8547706],[102.3177912,16.8583329],[102.3211332,16.8597923],[102.3192945,16.8618038],[102.3244564,16.8650495],[102.3247473,16.8669999],[102.314945,16.8693353],[102.3116457,16.8675247],[102.3072102,16.8749839],[102.3024487,16.8769768],[102.3021726,16.8804716],[102.3072284,16.8821454],[102.3069157,16.8843504],[102.3019833,16.885601],[102.2980933,16.8826128],[102.2962501,16.8845304],[102.2915995,16.884125],[102.2919365,16.8877095],[102.2959222,16.8892658],[102.2954419,16.8918536],[102.2881363,16.8897923],[102.28758,16.8918365],[102.2848483,16.8909057],[102.2776393,16.8940136],[102.2635692,16.8917384],[102.2590451,16.8944008],[102.2573472,16.8935263],[102.254488,16.894803],[102.2545889,16.8913463],[102.2495533,16.891542],[102.250558,16.8895755],[102.248793,16.8880328],[102.2491784,16.8784284],[102.2446723,16.8817252],[102.2462482,16.8771397],[102.2434784,16.8774359],[102.2426002,16.8751827],[102.2409027,16.8764828],[102.2413982,16.878632],[102.235221,16.880599],[102.2336599,16.8793386],[102.2350363,16.8773763],[102.2339669,16.8751721],[102.2328645,16.8747005],[102.2314928,16.8769743],[102.2277429,16.8759151],[102.2288606,16.8733717],[102.2245032,16.8709183],[102.2266515,16.8690101],[102.2222645,16.8687192],[102.2209437,16.865299],[102.214379,16.8630709],[102.2138457,16.8603703],[102.2041658,16.8627269],[102.1994068,16.859987],[102.1909345,16.8592676],[102.188168,16.8575357],[102.1852048,16.8617141],[102.1848623,16.8671235],[102.1804085,16.8719346],[102.1744054,16.8656423],[102.1715083,16.8649792],[102.1675658,16.8668052],[102.168147,16.8706007],[102.1578274,16.8720335],[102.1583775,16.8752207],[102.1561688,16.8812762],[102.1446969,16.8806918],[102.1442096,16.8762906],[102.1410708,16.8775375],[102.1408411,16.8801966],[102.134912,16.8785092],[102.1320709,16.88237],[102.1293863,16.8833397],[102.1244418,16.8805465],[102.1188395,16.8887797],[102.1136653,16.8872349],[102.1131962,16.8916379],[102.110759,16.8929226],[102.1108139,16.8944086],[102.1046807,16.8974113],[102.1002575,16.8962376],[102.0995977,16.8924084],[102.0964114,16.8909003],[102.0987838,16.8831693],[102.0858144,16.8853896],[102.0813523,16.8897234],[102.0746643,16.8855363],[102.070768,16.8851852],[102.0680482,16.8928817],[102.048186,16.9050499],[102.0458397,16.9158519],[102.0339269,16.9375635],[102.0292112,16.9506746],[102.0357094,16.9558479],[102.045639,16.9601288],[102.0508881,16.9650092],[102.0589004,16.9661912],[102.0631903,16.9620468],[102.0672052,16.9609956],[102.0706514,16.963702],[102.0724931,16.9631777],[102.0759358,16.9660553],[102.0770034,16.9713657],[102.0875555,16.9742822],[102.0913313,16.9804844],[102.1133093,16.991103],[102.1238816,16.9939872],[102.144022,17.0140413],[102.1449252,17.0173264],[102.1470478,17.0174869],[102.1512491,17.0245613],[102.1536434,17.0245048],[102.1542924,17.0229052],[102.1554425,17.0241331],[102.1495208,17.0337452],[102.147979,17.0343911],[102.1482755,17.0325826],[102.1452552,17.0313638],[102.1404024,17.0353854],[102.1351676,17.035252],[102.1334216,17.0372722],[102.1324894,17.0359612],[102.132049,17.037579],[102.1301884,17.0373836],[102.1290053,17.0409343],[102.1250259,17.0421379],[102.1257739,17.0455256],[102.1233532,17.0472047],[102.1221483,17.052932],[102.1203633,17.0524396],[102.1203144,17.0574667],[102.1140762,17.0581118],[102.1120075,17.0604021],[102.1093924,17.0605404],[102.1097888,17.0617631],[102.10606,17.0616002],[102.1063601,17.0647893],[102.1018219,17.0670601],[102.1027286,17.0710517],[102.1014475,17.0721671],[102.1030488,17.0747445],[102.1008887,17.0753169],[102.1015358,17.0765259],[102.1024507,17.075603],[102.1057032,17.0810898],[102.0998846,17.0874884],[102.1012735,17.0878069],[102.1014364,17.0907109],[102.0993319,17.0922862],[102.1004857,17.1011607],[102.0993066,17.099882],[102.0970879,17.1025623],[102.0924614,17.10255],[102.0911297,17.1092387],[102.0867163,17.1144633],[102.0865225,17.1130713],[102.0854646,17.1137896],[102.0831615,17.1119674],[102.079906,17.1119037],[102.0793683,17.1139392],[102.075289,17.1105734],[102.0750936,17.1121827],[102.0725172,17.1119118],[102.0707185,17.1153415],[102.068275,17.1156351],[102.0679334,17.1180912],[102.0656168,17.1197762],[102.0661448,17.121223],[102.0616623,17.1200664],[102.0594912,17.1235833],[102.057809,17.1237991],[102.0580392,17.1264942],[102.0519814,17.127388],[102.0508325,17.133368],[102.0461114,17.1355152],[102.0438675,17.13463],[102.0437222,17.1328886],[102.0414114,17.1339854],[102.0405888,17.1362437],[102.0382114,17.1369523],[102.0385792,17.1385814],[102.0373496,17.1383754],[102.0377865,17.1407323],[102.035244,17.145304],[102.0362855,17.1460876],[102.0342558,17.1470221],[102.0369866,17.1508103],[102.0408047,17.1510899],[102.0423891,17.159036],[102.0443761,17.1601656],[102.0442214,17.1642762],[102.0344586,17.1746233],[102.0294431,17.1857675],[102.0319623,17.1963073],[102.0252731,17.2009407],[102.0235816,17.2042536],[102.0283255,17.2135893],[102.0305318,17.2159531],[102.0340186,17.2155861],[102.0354211,17.2194145],[102.0380009,17.2202878],[102.0373444,17.2178039],[102.0399593,17.215874],[102.0399911,17.2137323],[102.0552876,17.2032137],[102.0663918,17.1920223],[102.0681872,17.1870257],[102.0733236,17.1862795],[102.0776876,17.1828356],[102.0823111,17.1760629],[102.0841511,17.1679411],[102.0877369,17.1720011],[102.0967799,17.1770717],[102.0936074,17.2054793],[102.0908706,17.2096622],[102.0866133,17.2122098],[102.0770692,17.2482039],[102.0698526,17.2473189],[102.0680636,17.2486927],[102.0687163,17.2500534],[102.0674143,17.2499604],[102.0679433,17.2522054],[102.0668038,17.2504381],[102.0648985,17.2508916],[102.0646066,17.2492667],[102.0602689,17.2546245],[102.0563903,17.2535665],[102.0566732,17.2516967],[102.0536904,17.2501339],[102.0474742,17.2553242],[102.0482178,17.2572086],[102.0455549,17.2592976],[102.0466893,17.260603],[102.0453317,17.2627865],[102.0438638,17.2615251],[102.0392316,17.2633212],[102.0343833,17.2629543],[102.0350751,17.2653268],[102.02729,17.276799],[102.0264422,17.281245],[102.0134251,17.2783744],[102.0124562,17.2822519],[102.0146926,17.2878003],[102.0124559,17.2870039],[102.007241,17.2892312],[102.0078477,17.2920539],[102.003129,17.2944404],[102.0036376,17.2964318],[101.992411,17.3058676],[101.9836421,17.3162769],[101.9858218,17.3228871],[101.9879742,17.3227203],[101.9869719,17.3288315],[101.9903367,17.3340615],[102.0114163,17.3342313],[102.0202614,17.3412047],[102.0206908,17.3450578],[102.0142733,17.3577664],[102.0139222,17.3640733],[102.0184821,17.3668097],[102.0180254,17.3739133],[102.0110474,17.3831542],[102.0082392,17.3840501],[102.0071133,17.3868017],[102.004309,17.3872599],[101.9984354,17.3956166],[101.9817885,17.4114714],[101.9822667,17.4148758],[101.9928519,17.4205616],[101.9915191,17.423713],[101.992871,17.4276134],[101.9901662,17.4291027],[101.9903514,17.4322338],[101.9887624,17.4328227],[101.9872755,17.4391023],[101.9908344,17.4432077],[101.9889671,17.4461399],[101.9894012,17.4527316],[101.9874986,17.4540914],[101.9892986,17.4566142],[101.9955936,17.4605363],[101.9992723,17.456474],[102.0008753,17.4588537],[102.0034182,17.4592367],[102.0089006,17.4571977],[102.0186542,17.4594599],[102.0248769,17.4582119],[102.0281789,17.4592435],[102.0411818,17.4551351],[102.0464716,17.4557628],[102.0489764,17.450448],[102.0523775,17.4490808],[102.0778256,17.4590164],[102.0805171,17.4624605],[102.0833426,17.4612628],[102.086726,17.4654165],[102.0916507,17.4621592],[102.0958825,17.456581],[102.1027973,17.4534862],[102.1050546,17.4468078],[102.1100305,17.4516938],[102.1131694,17.4515974],[102.1119418,17.4532802],[102.1158714,17.4560892],[102.1210971,17.4516495],[102.1209098,17.4541943],[102.12355,17.4545485],[102.125512,17.4574764],[102.1270716,17.4569063],[102.1267684,17.4594851],[102.1292296,17.4607791],[102.1262813,17.4617869],[102.1259176,17.4638558],[102.1243255,17.4631953],[102.1245694,17.4657778],[102.1208163,17.473138],[102.1174376,17.4730691],[102.1177811,17.4697115],[102.1134376,17.4673934],[102.113926,17.4687383],[102.1109321,17.4706968],[102.1088898,17.4760044],[102.1044572,17.4761026],[102.1083029,17.4809775],[102.1212739,17.4846273],[102.1285165,17.4919825],[102.1291785,17.4979159],[102.127993,17.4975956],[102.1244625,17.5031207],[102.1255283,17.5091786],[102.1354417,17.5087942],[102.135781,17.5154078],[102.1384807,17.5191227],[102.140076,17.5300508],[102.1398098,17.5324087],[102.136685,17.533288],[102.1327907,17.5411377],[102.1355612,17.546987],[102.1351601,17.5534045],[102.1315458,17.5599352],[102.1188817,17.5687979],[102.1196046,17.5723751],[102.1153584,17.5772005],[102.1139694,17.5877161],[102.1063793,17.6076611],[102.100295,17.6140547],[102.0973885,17.6131502],[102.0896918,17.6269802],[102.0865356,17.6283911],[102.0832264,17.6343232]]]}}]}