{"type":"FeatureCollection","name":"p39-subset","crs":{"type":"name","properties":{"name":"urn:ogc:def:crs:EPSG::32648"}},"features":[{"type":"Feature","properties":{"building":"roof","height":6,"heightSource":"default"},"geometry":{"type":"MultiPolygon","coordinates":[[[[211506.74,1879269.93],[211513.9,1879277.07],[211527.09,1879263.98],[211519.92,1879256.85],[211506.74,1879269.93]]]]}},{"type":"Feature","properties":{"building":"roof","height":6,"heightSource":"default"},"geometry":{"type":"MultiPolygon","coordinates":[[[[208617.87,1876691.02],[208631.74,1876689.3],[208646.22,1876687.49],[208644.18,1876674.11],[208630.5,1876675.42],[208616.11,1876676.79],[208617.87,1876691.02]]]]}},{"type":"Feature","properties":{"building":"yes","height":6,"heightSource":"default"},"geometry":{"type":"MultiPolygon","coordinates":[[[[208266.41,1875993.94],[208299.06,1875979.49],[208305.7,1875994.3],[208331.59,1875982.85],[208313.31,1875942.02],[208254.76,1875967.94],[208266.41,1875993.94]]]]}},{"type":"Feature","properties":{"building":"roof","height":6,"heightSource":"default"},"geometry":{"type":"MultiPolygon","coordinates":[[[[211856.75,1879661.07],[211872.84,1879645.35],[211877.93,1879640.38],[211867.19,1879629.51],[211862,1879634.57],[211846,1879650.2],[211856.75,1879661.07]]]]}},{"type":"Feature","properties":{"building":"yes","height":6,"heightSource":"default"},"geometry":{"type":"MultiPolygon","coordinates":[[[[211878.46,1879679.86],[211899.8,1879660.04],[211890.6,1879650.28],[211869.27,1879670.1],[211878.46,1879679.86]]]]}},{"type":"Feature","properties":{"building":"yes","height":6,"heightSource":"default"},"geometry":{"type":"MultiPolygon","coordinates":[[[[211817.23,1879687.85],[211826.63,1879696.08],[211834.67,1879687.01],[211825.27,1879678.78],[211817.23,1879687.85]]]]}},{"type":"Feature","properties":{"building":"yes","height":6,"heightSource":"default"},"geometry":{"type":"MultiPolygon","coordinates":[[[[211855.56,1879698.63],[211875.49,1879679.63],[211866.61,1879670.43],[211846.68,1879689.42],[211855.56,1879698.63]]]]}},{"type":"Feature","properties":{"building":"yes","height":6,"heightSource":"default"},"geometry":{"type":"MultiPolygon","coordinates":[[[[211944.96,1879632.13],[211968.61,1879609.91],[211944.56,1879584.63],[211920.91,1879606.85],[211944.96,1879632.13]]]]}},{"type":"Feature","properties":{"building":"yes","height":6,"heightSource":"default"},"geometry":{"type":"MultiPolygon","coordinates":[[[[209662.72,1878075.78],[209690.39,1878065.48],[209685.31,1878052],[209657.65,1878062.3],[209662.72,1878075.78]]]]}},{"type":"Feature","properties":{"building":"yes","height":6,"heightSource":"default"},"geometry":{"type":"MultiPolygon","coordinates":[[[[214957.92,1884981.85],[214980.91,1884981.33],[214980.69,1884971.81],[214957.71,1884972.34],[214957.92,1884981.85]]]]}},{"type":"Feature","properties":{"building":"yes","height":6,"heightSource":"default"},"geometry":{"type":"MultiPolygon","coordinates":[[[[212953.87,1880163.35],[212926.68,1880174.22],[212934.1,1880192.48],[212961.48,1880182.18],[212960.88,1880179.37],[212953.87,1880163.35]]]]}},{"type":"Feature","properties":{"building":"yes","height":6,"heightSource":"default"},"geometry":{"type":"MultiPolygon","coordinates":[[[[212913.01,1880194.84],[212927.84,1880189.58],[212919.37,1880163.63],[212905.66,1880168.32],[212913.01,1880194.84]]]]}},{"type":"Feature","properties":{"building":"yes","height":6,"heightSource":"default"},"geometry":{"type":"MultiPolygon","coordinates":[[[[212912.16,1880205.01],[212910.65,1880198.92],[212929.59,1880192.1],[212931.41,1880198.2],[212912.16,1880205.01]]]]}},{"type":"Feature","properties":{"building":"yes","height":6,"heightSource":"default"},"geometry":{"type":"MultiPolygon","coordinates":[[[[212970.29,1880139.15],[212960.74,1880114.1],[213001.18,1880101.27],[213008.78,1880126.68],[212970.29,1880139.15]]]]}},{"type":"Feature","properties":{"building":"residential","height":6,"heightSource":"default"},"geometry":{"type":"MultiPolygon","coordinates":[[[[213063.49,1880136.18],[213060.04,1880124.29],[213070.55,1880119.6],[213075.44,1880132.17],[213063.49,1880136.18]]]]}},{"type":"Feature","properties":{"building":"residential","height":6,"heightSource":"default"},"geometry":{"type":"MultiPolygon","coordinates":[[[[212811.86,1880026.79],[212822.56,1880024.69],[212827.59,1880047.08],[212826.28,1880047.47],[212817.12,1880049.68],[212811.86,1880026.79]]]]}},{"type":"Feature","properties":{"building":"yes","height":6,"heightSource":"default"},"geometry":{"type":"MultiPolygon","coordinates":[[[[212828.81,1880046.78],[212828.14,1880041.89],[212833.53,1880041.25],[212833.89,1880046.18],[212828.81,1880046.78]]]]}},{"type":"Feature","properties":{"building":"yes","height":6,"heightSource":"default"},"geometry":{"type":"MultiPolygon","coordinates":[[[[212827.08,1880058.88],[212826.55,1880050.23],[212834.72,1880048.95],[212835.47,1880058.37],[212827.08,1880058.88]]]]}},{"type":"Feature","properties":{"building":"residential","height":6,"heightSource":"default"},"geometry":{"type":"MultiPolygon","coordinates":[[[[212749.13,1880076.09],[212746.79,1880060.87],[212758.42,1880059.08],[212759.75,1880065.83],[212764.41,1880065.12],[212765.65,1880070.97],[212765.91,1880072.27],[212749.13,1880076.09]]]]}},{"type":"Feature","properties":{"building":"residential","height":6,"heightSource":"default"},"geometry":{"type":"MultiPolygon","coordinates":[[[[212750.16,1880055.19],[212746.94,1880042.1],[212753.4,1880040.14],[212752.69,1880036.47],[212759.9,1880035.16],[212760.85,1880038.56],[212765.59,1880037.77],[212768.16,1880050.87],[212750.16,1880055.19]]]]}},{"type":"Feature","properties":{"building":"residential","height":6,"heightSource":"default"},"geometry":{"type":"MultiPolygon","coordinates":[[[[212842.37,1880065.73],[212838.94,1880049.3],[212853.27,1880046.65],[212856.29,1880062.93],[212842.37,1880065.73]]]]}},{"type":"Feature","properties":{"building":"yes","height":6,"heightSource":"default"},"geometry":{"type":"MultiPolygon","coordinates":[[[[212847.89,1880046.47],[212853.32,1880045.82],[212853.05,1880039.72],[212847.45,1880040.22],[212847.89,1880046.47]]]]}},{"type":"Feature","properties":{"building":"house","height":6.4,"heightSource":"inferred"},"geometry":{"type":"MultiPolygon","coordinates":[[[[212799.66,1880051.03],[212814.19,1880048.13],[212811.74,1880036.09],[212805.88,1880036.74],[212804.61,1880026.82],[212795.36,1880029.93],[212797.5,1880039.84],[212799.66,1880051.03]]]]}},{"type":"Feature","properties":{"building":"house","height":6,"heightSource":"default"},"geometry":{"type":"MultiPolygon","coordinates":[[[[212800.09,1880072.33],[212799.84,1880054.3],[212814.11,1880052.25],[212816.51,1880071.11],[212808.83,1880074.48],[212800.09,1880072.33]]]]}},{"type":"Feature","properties":{"building":"house","height":6,"heightSource":"default"},"geometry":{"type":"MultiPolygon","coordinates":[[[[212790.42,1880055.42],[212787.09,1880041.97],[212796.35,1880039.43],[212799.1,1880052.6],[212794.55,1880054.37],[212790.42,1880055.42]]]]}},{"type":"Feature","properties":{"building":"house","height":6,"heightSource":"default"},"geometry":{"type":"MultiPolygon","coordinates":[[[[212777.32,1880059.01],[212788.71,1880055.87],[212783.34,1880028.53],[212771.67,1880032.1],[212777.32,1880059.01]]]]}},{"type":"Feature","properties":{"building":"house","height":6,"heightSource":"default"},"geometry":{"type":"MultiPolygon","coordinates":[[[[212783.06,1880081.37],[212797.16,1880077.2],[212792.74,1880057.1],[212778.64,1880060.98],[212783.06,1880081.37]]]]}},{"type":"Feature","properties":{"building":"house","height":6,"heightSource":"default"},"geometry":{"type":"MultiPolygon","coordinates":[[[[212838.13,1880042.97],[212852.79,1880038.23],[212851.41,1880021.48],[212842.85,1880022.74],[212842.57,1880033.4],[212836.14,1880032.78],[212838.13,1880042.97]]]]}},{"type":"Feature","properties":{"building":"house","height":6,"heightSource":"default"},"geometry":{"type":"MultiPolygon","coordinates":[[[[212792.09,1880092.76],[212790.53,1880084.26],[212801.23,1880082.26],[212802.19,1880089.91],[212792.09,1880092.76]]]]}},{"type":"Feature","properties":{"building":"house","height":6,"heightSource":"default"},"geometry":{"type":"MultiPolygon","coordinates":[[[[212864.63,1880030.65],[212876.73,1880027.78],[212872.2,1880009.94],[212860.37,1880012.38],[212864.63,1880030.65]]]]}},{"type":"Feature","properties":{"building":"house","height":6,"heightSource":"default"},"geometry":{"type":"MultiPolygon","coordinates":[[[[212858.41,1880046.92],[212856.3,1880038.57],[212876.51,1880032.04],[212878.06,1880041.26],[212858.41,1880046.92]]]]}},{"type":"Feature","properties":{"building":"house","height":6,"heightSource":"default"},"geometry":{"type":"MultiPolygon","coordinates":[[[[212861.31,1880060.1],[212859.47,1880051.03],[212867.88,1880049.35],[212868.58,1880058.43],[212861.31,1880060.1]]]]}},{"type":"Feature","properties":{"building":"house","height":6,"heightSource":"default"},"geometry":{"type":"MultiPolygon","coordinates":[[[[212872.7,1880056.96],[212870.72,1880048.46],[212880.55,1880045.2],[212881.96,1880054.84],[212872.7,1880056.96]]]]}},{"type":"Feature","properties":{"building":"house","height":6,"heightSource":"default"},"geometry":{"type":"MultiPolygon","coordinates":[[[[212866.96,1880076.5],[212864.63,1880062.46],[212879.88,1880059.55],[212882.07,1880073.17],[212866.96,1880076.5]]]]}},{"type":"Feature","properties":{"building":"house","height":6,"heightSource":"default"},"geometry":{"type":"MultiPolygon","coordinates":[[[[212867.31,1880078.18],[212881.56,1880074.2],[212883.53,1880081.3],[212869.2,1880084.71],[212867.31,1880078.18]]]]}},{"type":"Feature","properties":{"building":"house","height":6,"heightSource":"default"},"geometry":{"type":"MultiPolygon","coordinates":[[[[212871.95,1880094.19],[212890.66,1880089.42],[212892.98,1880099.27],[212874.08,1880105.04],[212871.95,1880094.19]]]]}},{"type":"Feature","properties":{"building":"house","height":6,"heightSource":"default"},"geometry":{"type":"MultiPolygon","coordinates":[[[[212881.78,1880116.68],[212880.18,1880109.29],[212891.52,1880106.35],[212893.74,1880114.35],[212881.78,1880116.68]]]]}},{"type":"Feature","properties":{"building":"house","height":6,"heightSource":"default"},"geometry":{"type":"MultiPolygon","coordinates":[[[[212839.37,1880127.16],[212836.46,1880115.27],[212842.36,1880114.19],[212843.71,1880117.83],[212856.24,1880115.36],[212857.8,1880123.62],[212839.37,1880127.16]]]]}},{"type":"Feature","properties":{"building":"house","height":6,"heightSource":"default"},"geometry":{"type":"MultiPolygon","coordinates":[[[[212827.81,1880128.49],[212825.61,1880117.64],[212827.06,1880114.04],[212832.58,1880113.41],[212837.58,1880128.36],[212827.81,1880128.49]]]]}},{"type":"Feature","properties":{"building":"house","height":6,"heightSource":"default"},"geometry":{"type":"MultiPolygon","coordinates":[[[[212821.18,1880130.93],[212827.21,1880129.43],[212823.42,1880112.17],[212817.04,1880113.93],[212821.18,1880130.93]]]]}},{"type":"Feature","properties":{"building":"house","height":6,"heightSource":"default"},"geometry":{"type":"MultiPolygon","coordinates":[[[[212807.07,1880122.04],[212805.66,1880115.01],[212813.29,1880113.61],[212814.84,1880121.37],[212807.07,1880122.04]]]]}},{"type":"Feature","properties":{"building":"house","height":6,"heightSource":"default"},"geometry":{"type":"MultiPolygon","coordinates":[[[[212793.19,1880117.17],[212791.49,1880103.55],[212822.36,1880093.69],[212824.45,1880109.56],[212793.19,1880117.17]]]]}},{"type":"Feature","properties":{"building":"house","height":6,"heightSource":"default"},"geometry":{"type":"MultiPolygon","coordinates":[[[[212798.45,1880137.49],[212807.38,1880135.39],[212804.46,1880122.25],[212795.46,1880124.43],[212798.45,1880137.49]]]]}},{"type":"Feature","properties":{"building":"yes","height":6,"heightSource":"default"},"geometry":{"type":"MultiPolygon","coordinates":[[[[213106.99,1880091.06],[213102.39,1880082.22],[213118.46,1880074.59],[213122.55,1880082.68],[213106.99,1880091.06]]]]}},{"type":"Feature","properties":{"building":"yes","height":6,"heightSource":"default"},"geometry":{"type":"MultiPolygon","coordinates":[[[[213359.38,1880032.25],[213359.5,1880024.42],[213358.24,1880004.37],[213378.16,1880002.22],[213377.8,1880030.2],[213359.38,1880032.25]]]]}},{"type":"Feature","properties":{"building":"house","height":6,"heightSource":"default"},"geometry":{"type":"MultiPolygon","coordinates":[[[[212873.7,1880231.74],[212872.48,1880220.89],[212884.26,1880218.79],[212884.94,1880229.97],[212873.7,1880231.74]]]]}},{"type":"Feature","properties":{"building":"house","height":6,"heightSource":"default"},"geometry":{"type":"MultiPolygon","coordinates":[[[[211848.22,1880079.91],[211856.06,1880081.78],[211859.54,1880071.27],[211851.17,1880069.4],[211849.97,1880074.11],[211848.22,1880079.91]]]]}},{"type":"Feature","properties":{"building":"house","height":6,"heightSource":"default"},"geometry":{"type":"MultiPolygon","coordinates":[[[[211826.79,1880169.52],[211831.89,1880170.44],[211832.53,1880167.57],[211833.78,1880161.94],[211828.41,1880161.38],[211827.72,1880163.92],[211826.79,1880169.52]]]]}},{"type":"Feature","properties":{"building":"house","height":6,"heightSource":"default"},"geometry":{"type":"MultiPolygon","coordinates":[[[[211836.55,1880166.23],[211842.92,1880167.13],[211843.99,1880158.82],[211837.8,1880157.82],[211836.55,1880166.23]]]]}},{"type":"Feature","properties":{"building":"house","height":6,"heightSource":"default"},"geometry":{"type":"MultiPolygon","coordinates":[[[[211837.23,1880155.49],[211844.5,1880156.74],[211845.85,1880149.6],[211838.04,1880148.89],[211837.23,1880155.49]]]]}},{"type":"Feature","properties":{"building":"house","height":6,"heightSource":"default"},"geometry":{"type":"MultiPolygon","coordinates":[[[[211838.27,1880146.27],[211845.83,1880147.8],[211846.65,1880142],[211838.57,1880140.85],[211838.27,1880146.27]]]]}},{"type":"Feature","properties":{"building":"house","height":6,"heightSource":"default"},"geometry":{"type":"MultiPolygon","coordinates":[[[[211763.56,1880133.89],[211760.7,1880124.62],[211782.08,1880117.89],[211784.52,1880127.73],[211763.56,1880133.89]]]]}},{"type":"Feature","properties":{"building":"yes","height":6,"heightSource":"default"},"geometry":{"type":"MultiPolygon","coordinates":[[[[212385.48,1880225.36],[212368.25,1880208.42],[212375.78,1880201.44],[212392.31,1880219.11],[212385.48,1880225.36]]]]}},{"type":"Feature","properties":{"building":"yes","height":6,"heightSource":"default"},"geometry":{"type":"MultiPolygon","coordinates":[[[[212354.87,1880199.58],[212363.54,1880191.3],[212335.95,1880164.48],[212327.27,1880173.05],[212354.87,1880199.58]]]]}},{"type":"Feature","properties":{"building":"yes","height":6,"heightSource":"default"},"geometry":{"type":"MultiPolygon","coordinates":[[[[212266.72,1880162.59],[212263.43,1880155.14],[212276.59,1880148.37],[212280.79,1880154.66],[212266.72,1880162.59]]]]}},{"type":"Feature","properties":{"building":"yes","height":6,"heightSource":"default"},"geometry":{"type":"MultiPolygon","coordinates":[[[[212298.74,1880179.19],[212293.62,1880172.44],[212307.2,1880162.26],[212312.1,1880169.24],[212298.74,1880179.19]]]]}},{"type":"Feature","properties":{"building":"yes","height":6,"heightSource":"default"},"geometry":{"type":"MultiPolygon","coordinates":[[[[212322.93,1880158.86],[212313.88,1880149.43],[212322.24,1880142.28],[212314.82,1880134.65],[212325.68,1880126.09],[212327.3,1880128.12],[212336.36,1880121.63],[212350.08,1880138.26],[212322.93,1880158.86]]]]}},{"type":"Feature","properties":{"building":"yes","height":6,"heightSource":"default"},"geometry":{"type":"MultiPolygon","coordinates":[[[[212318.49,1880126.3],[212299.94,1880104.46],[212310.87,1880094.21],[212329.34,1880117.4],[212318.49,1880126.3]]]]}},{"type":"Feature","properties":{"building":"yes","height":6,"heightSource":"default"},"geometry":{"type":"MultiPolygon","coordinates":[[[[212295.76,1880097.12],[212276.4,1880075.38],[212287.61,1880065.85],[212306.35,1880088.86],[212295.76,1880097.12]]]]}},{"type":"Feature","properties":{"building":"house","height":6,"heightSource":"default"},"geometry":{"type":"MultiPolygon","coordinates":[[[[210413.78,1879732.03],[210408.65,1879715.32],[210428.51,1879708.19],[210435.11,1879725.78],[210413.78,1879732.03]]]]}},{"type":"Feature","properties":{"building":"house","height":6,"heightSource":"default"},"geometry":{"type":"MultiPolygon","coordinates":[[[[210523.72,1879757.08],[210537.3,1879754.74],[210532.04,1879729.8],[210518.35,1879732.5],[210523.72,1879757.08]]]]}}]}