{"type":"FeatureCollection","features":[{"type":"Feature","properties":{"provinceCode":"48","nameTh":"นครพนม","nameEn":"Nakhon Phanom"},"geometry":{"type":"Polygon","coordinates":[[[104.7332326,16.9366126],[104.7387785,16.9058102],[104.744617,16.891462],[104.746237,16.876809],[104.756082,16.862156],[104.75809,16.856474],[104.758868,16.841462],[104.741249,16.821365],[104.737039,16.809882],[104.7372618,16.8047136],[104.7272213,16.8062314],[104.7268077,16.8078719],[104.7247245,16.8077771],[104.7254133,16.8089759],[104.7213396,16.8091219],[104.7191448,16.8207662],[104.7162969,16.824424],[104.716518,16.8293517],[104.700647,16.8273277],[104.6926694,16.82402],[104.6923562,16.7904238],[104.6864502,16.7949184],[104.678374,16.7933672],[104.6761015,16.7958069],[104.6687229,16.7924335],[104.6688015,16.7871189],[104.6664837,16.7874473],[104.6652853,16.789818],[104.6625981,16.7893823],[104.6626721,16.7918959],[104.6599619,16.7923198],[104.6592107,16.7977266],[104.6536972,16.8031148],[104.6551321,16.8052899],[104.6516783,16.8071045],[104.648008,16.8067462],[104.6481043,16.8097636],[104.6466689,16.8117545],[104.6458951,16.8107258],[104.6450123,16.811454],[104.6459548,16.8137288],[104.6428609,16.8151252],[104.6413123,16.8196783],[104.6359731,16.8224735],[104.6373977,16.8410788],[104.6336175,16.8498087],[104.6303804,16.8520823],[104.6283292,16.8631086],[104.6225114,16.8620501],[104.6121925,16.8629718],[104.6077177,16.8605914],[104.6056688,16.8633499],[104.5924297,16.8670434],[104.5776519,16.8644009],[104.5712193,16.8654032],[104.5667777,16.8632915],[104.5519959,16.8692545],[104.5473138,16.8648365],[104.5378791,16.8676219],[104.5324986,16.8652585],[104.5271882,16.8649825],[104.5241887,16.8592026],[104.5191854,16.859124],[104.5159932,16.8567612],[104.5115893,16.8573401],[104.5053097,16.8521018],[104.4980104,16.8546719],[104.4832789,16.8535921],[104.4673902,16.8659869],[104.4628105,16.8624746],[104.469721,16.8588787],[104.4775766,16.8470616],[104.4787947,16.8422067],[104.4761542,16.843386],[104.4747985,16.8415699],[104.4721009,16.8440513],[104.4724535,16.8408848],[104.4708062,16.8426833],[104.4674838,16.8413398],[104.4690149,16.8494384],[104.4675499,16.8536999],[104.4603167,16.8603973],[104.4556035,16.8603149],[104.4540179,16.8569196],[104.4582593,16.8520507],[104.4565068,16.8417647],[104.4526259,16.841474],[104.4532022,16.8399139],[104.4514865,16.8379535],[104.4533316,16.83064],[104.452296,16.8298453],[104.4489564,16.8304378],[104.4455539,16.8339546],[104.4496033,16.8426827],[104.4469121,16.8531757],[104.4492856,16.8561646],[104.445077,16.8578183],[104.440822,16.8529419],[104.4423288,16.8434045],[104.4408239,16.8423258],[104.4376632,16.8454665],[104.4367062,16.8491733],[104.4338792,16.8471612],[104.4324658,16.847654],[104.4342284,16.8497932],[104.4318319,16.8498404],[104.4365123,16.8536981],[104.4366272,16.8599569],[104.4345113,16.8598997],[104.4311613,16.8568166],[104.4288594,16.857047],[104.4288096,16.8629178],[104.4369791,16.86808],[104.4419826,16.8691931],[104.4415191,16.8725063],[104.4351198,16.8790632],[104.4286111,16.8825664],[104.4278918,16.8866989],[104.4184966,16.8921104],[104.4101725,16.8926163],[104.4076116,16.8961967],[104.4045278,16.8819425],[104.4018833,16.8803564],[104.4017799,16.8755674],[104.39827,16.8706894],[104.3986122,16.8634452],[104.4026242,16.8531167],[104.4095755,16.8450246],[104.4093774,16.8415718],[104.4056024,16.8378813],[104.3965115,16.8390454],[104.3899978,16.8500147],[104.3822308,16.8586333],[104.3817023,16.8643961],[104.3767597,16.8655964],[104.3680196,16.8640661],[104.3621616,16.8662609],[104.363604,16.8768016],[104.35698,16.8800765],[104.3194266,16.8746598],[104.3195839,16.8689457],[104.3139698,16.8665983],[104.306113,16.8539853],[104.3041355,16.8476298],[104.3051984,16.8447164],[104.2960201,16.8377679],[104.2894711,16.8487683],[104.2875643,16.8567458],[104.2777437,16.8565128],[104.277802,16.8624676],[104.2649154,16.8645647],[104.2624859,16.8661455],[104.2588971,16.8728145],[104.2484014,16.8719346],[104.2492535,16.8807989],[104.2526763,16.8866813],[104.2511328,16.8971096],[104.2517884,16.9067798],[104.2588252,16.9105253],[104.2667773,16.9204232],[104.2856039,16.9288808],[104.3011789,16.9270705],[104.3030647,16.9287359],[104.3029534,16.9313763],[104.3143767,16.9547667],[104.3157148,16.9614051],[104.3210525,16.9675237],[104.3175353,16.976298],[104.3246487,16.9777592],[104.3306942,16.9752719],[104.334102,16.9767414],[104.3338534,16.979058],[104.3360407,16.9799628],[104.336607,16.9823149],[104.3418184,16.9834218],[104.3422833,16.9820424],[104.3436672,16.9853637],[104.351252,16.9846455],[104.3524877,16.9860701],[104.3514356,16.987243],[104.3548211,16.9890798],[104.3524611,16.9933966],[104.355838,16.9989116],[104.3547464,17.0024286],[104.3583877,17.0045522],[104.356534,17.0059297],[104.3605026,17.0064379],[104.3618487,17.0088516],[104.3672943,17.0071073],[104.3697854,17.0099999],[104.3717434,17.0093296],[104.3749202,17.0120784],[104.3749458,17.0155161],[104.3782746,17.0171314],[104.3846768,17.0151311],[104.3856103,17.01586],[104.3842785,17.0172643],[104.3869217,17.0168519],[104.3887457,17.0190052],[104.3889812,17.0165567],[104.3910072,17.0173869],[104.3919376,17.0161664],[104.3922495,17.0216199],[104.3956396,17.0226243],[104.3975621,17.0215429],[104.3984451,17.0230463],[104.3973789,17.0237962],[104.3990494,17.0280503],[104.3964457,17.027329],[104.3947993,17.0286607],[104.3968314,17.0327611],[104.3950048,17.0332175],[104.3966869,17.0344225],[104.3946226,17.0374825],[104.3902227,17.0370733],[104.3913005,17.0347946],[104.3883503,17.0359786],[104.3861573,17.0345053],[104.3855468,17.0361255],[104.3832071,17.0363993],[104.3854933,17.0406129],[104.3837751,17.0424714],[104.3852508,17.0445679],[104.3844865,17.046091],[104.3827882,17.0453017],[104.3791669,17.0478233],[104.3778656,17.0462567],[104.3764437,17.0490596],[104.3746617,17.049001],[104.3755273,17.050014],[104.3731035,17.0508914],[104.3741813,17.0526422],[104.3711267,17.0522192],[104.3713758,17.0543456],[104.3666193,17.0544411],[104.3626423,17.057295],[104.3646849,17.059981],[104.363386,17.060319],[104.3631754,17.0634768],[104.3612341,17.0630186],[104.3617621,17.06538],[104.3579019,17.0629175],[104.3594781,17.0611409],[104.3577391,17.0612733],[104.3571798,17.0586231],[104.3556451,17.0580037],[104.3543127,17.0604116],[104.3528862,17.0595275],[104.3513284,17.0685328],[104.3526441,17.0708224],[104.3542922,17.0700175],[104.3560779,17.0714372],[104.3586499,17.069879],[104.3621757,17.0728676],[104.3606591,17.0790276],[104.3640241,17.0804438],[104.3606796,17.0823244],[104.3598429,17.0855651],[104.3615846,17.0850921],[104.3615306,17.0876718],[104.3599021,17.0897222],[104.3622741,17.0898958],[104.3600835,17.091169],[104.3606738,17.093001],[104.358979,17.0953205],[104.3618712,17.0963399],[104.365231,17.1048835],[104.3662713,17.1058709],[104.3721312,17.1031627],[104.3771212,17.1043747],[104.3803096,17.1092485],[104.3897429,17.1126923],[104.3918962,17.1121433],[104.3932721,17.1223595],[104.3908627,17.1228459],[104.403187,17.1359622],[104.4088194,17.1386542],[104.4011643,17.1401094],[104.3972875,17.143131],[104.3906756,17.1451743],[104.3886872,17.1481835],[104.3910767,17.1571782],[104.3913848,17.1778555],[104.3945527,17.1838306],[104.402242,17.1883483],[104.4065655,17.1929026],[104.4075525,17.1989867],[104.4168549,17.2169238],[104.429058,17.2347573],[104.435278,17.2400159],[104.4329726,17.2424302],[104.4299913,17.2426953],[104.4266629,17.2472977],[104.4245019,17.2475716],[104.4259522,17.2553333],[104.4215626,17.2583716],[104.4208985,17.2623363],[104.4160446,17.2623924],[104.413221,17.2697641],[104.4057035,17.2798699],[104.4062562,17.2901473],[104.4028949,17.2995869],[104.4030681,17.3083317],[104.4080772,17.3116749],[104.4148042,17.3127117],[104.4178082,17.3148936],[104.4160401,17.3212965],[104.4228806,17.3292419],[104.4220511,17.332317],[104.4234878,17.339941],[104.4198548,17.3445958],[104.4200833,17.3482008],[104.4130036,17.3545857],[104.4137077,17.3644895],[104.4112076,17.36703],[104.4123452,17.3701201],[104.4087691,17.3724527],[104.4095742,17.37555],[104.4069452,17.3791378],[104.4101357,17.3861585],[104.4091847,17.3897755],[104.4115494,17.3897765],[104.4123832,17.3928084],[104.4152993,17.3951455],[104.4138621,17.4003111],[104.4099054,17.4043991],[104.4115331,17.4054119],[104.4102531,17.408517],[104.4143176,17.413125],[104.4165501,17.4135793],[104.4154413,17.4160323],[104.4175895,17.4176407],[104.415956,17.4196464],[104.4173782,17.4209848],[104.413541,17.4229811],[104.4137766,17.4269738],[104.4098508,17.42665],[104.4087909,17.4287895],[104.4021176,17.4264709],[104.4011595,17.4297169],[104.3974202,17.4282491],[104.3963935,17.4248965],[104.3946268,17.4263142],[104.3936267,17.4232185],[104.3911925,17.422095],[104.3950847,17.4208129],[104.3935398,17.4179132],[104.3956486,17.4151106],[104.3922764,17.414368],[104.3879736,17.4163176],[104.3861469,17.412492],[104.3739729,17.4206635],[104.3394902,17.4223562],[104.3339974,17.4267698],[104.3250186,17.42727],[104.3181586,17.4319126],[104.3079281,17.4323299],[104.3032728,17.4300358],[104.2879598,17.432101],[104.2740328,17.4257956],[104.2604639,17.4171508],[104.2513407,17.415516],[104.2437508,17.4171268],[104.2286384,17.4136195],[104.2163949,17.4173534],[104.2122978,17.4156511],[104.2120801,17.4142236],[104.2097272,17.4162656],[104.2078389,17.4154452],[104.2077034,17.4170969],[104.2045157,17.4179525],[104.2044081,17.4246032],[104.2025947,17.4239938],[104.2021733,17.4265264],[104.199758,17.4267554],[104.2006016,17.4277612],[104.1987453,17.4291281],[104.1949028,17.4270748],[104.1954572,17.4259128],[104.1931104,17.4264093],[104.1940264,17.4232163],[104.1903644,17.4241256],[104.1890872,17.4228902],[104.1876027,17.4270566],[104.1844607,17.4222667],[104.1815257,17.4232759],[104.1824026,17.4249486],[104.1798302,17.4265231],[104.1810656,17.4266447],[104.1806997,17.4292266],[104.1766377,17.4273727],[104.172106,17.4293941],[104.1700198,17.4265428],[104.1717819,17.4250837],[104.1697447,17.4238535],[104.1723621,17.4202914],[104.1700287,17.4179651],[104.1726953,17.4154181],[104.1764514,17.4155114],[104.1757252,17.4134883],[104.1574057,17.417086],[104.1532176,17.4139823],[104.1521633,17.4114144],[104.1536751,17.4106749],[104.1511647,17.409009],[104.1544725,17.4072597],[104.1482762,17.4052769],[104.1475817,17.4088074],[104.1448052,17.409762],[104.1425989,17.4061724],[104.1442091,17.4023068],[104.1469133,17.4005632],[104.1505764,17.4022418],[104.1534538,17.3973536],[104.1531181,17.3944436],[104.1494948,17.3927779],[104.1464277,17.3936603],[104.1449142,17.3973787],[104.1410938,17.3963225],[104.1391323,17.3941115],[104.1425573,17.3909339],[104.1421827,17.3875431],[104.1402192,17.3844316],[104.1354226,17.3832505],[104.1312033,17.3798173],[104.1268242,17.382446],[104.1272763,17.3885626],[104.1242443,17.3916119],[104.1264446,17.3959755],[104.1257509,17.3989796],[104.1210091,17.3963366],[104.1176765,17.3983528],[104.1144578,17.3919112],[104.1097001,17.3915964],[104.1078571,17.3928262],[104.111184,17.3976329],[104.1096807,17.4020481],[104.1048609,17.4026953],[104.1008937,17.3992482],[104.0963549,17.4035525],[104.0911813,17.4021875],[104.0962185,17.3975993],[104.0919444,17.3893782],[104.0947785,17.3881816],[104.0987494,17.3924143],[104.1019322,17.389204],[104.0996443,17.3866449],[104.0999915,17.3821647],[104.0982639,17.3781006],[104.0959089,17.3757598],[104.091213,17.3750056],[104.0874372,17.3782039],[104.0910764,17.3842429],[104.0866213,17.386388],[104.0805117,17.392576],[104.0768986,17.3933406],[104.0776284,17.3871234],[104.0743105,17.3845214],[104.0733004,17.3805313],[104.0771342,17.3786053],[104.0734358,17.3764202],[104.0720003,17.379494],[104.0680263,17.3815181],[104.0660084,17.389004],[104.0605477,17.3881974],[104.0570002,17.389626],[104.0588726,17.3956672],[104.052465,17.4013845],[104.0510984,17.4068258],[104.0480047,17.4077293],[104.0447142,17.4137903],[104.0430929,17.4135573],[104.0409974,17.4156563],[104.041332,17.417596],[104.0376419,17.4202958],[104.0371534,17.4228026],[104.038748,17.4235375],[104.0359951,17.4273531],[104.0370036,17.4300629],[104.0344437,17.4310391],[104.0350547,17.4320795],[104.0316919,17.4352603],[104.0280678,17.4365074],[104.0292699,17.4408498],[104.0283144,17.4434658],[104.0298927,17.4440136],[104.0278594,17.4476989],[104.0242969,17.4497745],[104.0249036,17.4513391],[104.017776,17.4567927],[104.0094654,17.4859579],[104.0200478,17.4874881],[104.023696,17.4968551],[104.0241393,17.502687],[104.0300555,17.5074136],[104.0343699,17.5218867],[104.0393242,17.5238259],[104.0407548,17.5269788],[104.0351697,17.5635184],[104.0388635,17.5682486],[104.0469353,17.5702174],[104.0514249,17.5737138],[104.0538001,17.5850486],[104.0535338,17.5912463],[104.0549358,17.5928021],[104.0521709,17.5947466],[104.0439916,17.6072506],[104.0391781,17.6078904],[104.0380553,17.6138641],[104.0321682,17.6183405],[104.0324793,17.62814],[104.0339017,17.630774],[104.035155,17.6304126],[104.0346862,17.6335153],[104.0365368,17.6352754],[104.0332599,17.6370247],[104.0348338,17.6376738],[104.0330921,17.6396603],[104.0282198,17.6390316],[104.0311513,17.6402593],[104.0314752,17.6434667],[104.0368462,17.639258],[104.0405812,17.6408065],[104.0381121,17.641727],[104.0404772,17.642086],[104.0431312,17.6463316],[104.046099,17.6444268],[104.0453854,17.6414669],[104.0490185,17.6380166],[104.0502096,17.6402587],[104.0533917,17.6402205],[104.0549792,17.6429161],[104.0562978,17.6413443],[104.0591659,17.6438077],[104.0631992,17.6438924],[104.0623249,17.6458121],[104.0647156,17.6436803],[104.0660357,17.6453043],[104.0672992,17.6440864],[104.0661463,17.6492939],[104.0678618,17.6482913],[104.0673573,17.6509027],[104.0687055,17.6512914],[104.068808,17.6495773],[104.0706945,17.6490564],[104.0710777,17.6518281],[104.0689499,17.6530228],[104.0717084,17.6541868],[104.0729536,17.6582152],[104.0698787,17.6604377],[104.0714845,17.6672572],[104.0748591,17.6669424],[104.0736408,17.6707623],[104.0769261,17.6726588],[104.0782645,17.6725381],[104.0773363,17.6708316],[104.0785137,17.6690392],[104.0811222,17.6701649],[104.0799728,17.671977],[104.0834623,17.6706978],[104.0838841,17.6720364],[104.0782204,17.6742391],[104.0839724,17.6795915],[104.0827643,17.6820622],[104.0842555,17.6835106],[104.0809931,17.682112],[104.0803724,17.6791472],[104.0787488,17.6803774],[104.0756157,17.6786377],[104.0708319,17.678985],[104.0699559,17.6816743],[104.0712318,17.6824592],[104.0688322,17.6835312],[104.0663787,17.6905641],[104.0685064,17.693668],[104.0757744,17.6931393],[104.0783312,17.6966234],[104.0747049,17.7001947],[104.0718973,17.6987318],[104.0692892,17.700033],[104.0707383,17.7019752],[104.0774672,17.702672],[104.0773481,17.706578],[104.0717811,17.7069012],[104.0712596,17.7124771],[104.066805,17.7154],[104.0592777,17.7260709],[104.0621232,17.7289851],[104.0639072,17.7232827],[104.0665089,17.7224204],[104.0684147,17.7236724],[104.0676597,17.7367923],[104.0647908,17.7470674],[104.0618294,17.7477383],[104.0612093,17.7425984],[104.0586595,17.7398626],[104.0504822,17.7375891],[104.0498448,17.7483568],[104.0578321,17.7499566],[104.0587976,17.7550644],[104.0495069,17.7651481],[104.0397652,17.769429],[104.0292157,17.7683482],[104.0291479,17.7575398],[104.0268112,17.7565362],[104.0239781,17.7582856],[104.0205344,17.7710617],[104.0144389,17.7784167],[104.0143902,17.7850097],[104.0099179,17.7919341],[104.0117329,17.7959683],[104.0190188,17.7958917],[104.0210856,17.7976085],[104.0170719,17.8100566],[104.0115979,17.8115727],[104.0117665,17.8138492],[104.0132528,17.8132144],[104.0148533,17.8158876],[104.0135796,17.8161648],[104.0142067,17.8179581],[104.0093097,17.8175145],[104.0145249,17.822117],[104.0105493,17.8261123],[104.0132167,17.8277853],[104.0117348,17.8288075],[104.0131165,17.83028],[104.007564,17.8311905],[104.009361,17.8328562],[104.0047237,17.8332669],[104.0031001,17.8391295],[103.9977097,17.8414067],[104.0005312,17.8438564],[103.9989662,17.844566],[104.0006291,17.8456034],[103.9988904,17.8468866],[104.0026065,17.8475774],[104.0016421,17.8492738],[103.9993951,17.8484138],[103.9968488,17.8511702],[103.9944993,17.8513535],[103.9932842,17.85401],[103.9900579,17.8532151],[103.9849226,17.8586544],[103.9842625,17.8567888],[103.9815534,17.8585365],[103.9868296,17.8612406],[103.9839297,17.8658947],[103.9860173,17.8665166],[103.9886124,17.8649852],[103.9849034,17.8683927],[103.9853243,17.8705237],[103.9866064,17.869398],[103.9885134,17.8715539],[103.9848468,17.8709873],[103.9845099,17.8730576],[103.9863012,17.8745946],[103.9897517,17.8740372],[103.9891682,17.8755343],[103.9925109,17.8794947],[103.9920816,17.8815329],[103.9944391,17.8823849],[103.9930018,17.886622],[103.9986026,17.8896278],[103.9966302,17.892498],[103.9980524,17.893291],[104.0044073,17.8912666],[104.0128007,17.8929554],[104.0153061,17.895387],[104.0138523,17.8974456],[104.01582,17.899072],[104.0151058,17.9004528],[104.0180279,17.9003412],[104.0199043,17.9012978],[104.0197217,17.9036109],[104.0224252,17.9031059],[104.0243898,17.9054436],[104.0266577,17.905207],[104.0300468,17.9098525],[104.0447994,17.9070913],[104.047284,17.9076489],[104.0479231,17.9096978],[104.0523763,17.9046828],[104.057458,17.9057726],[104.059497,17.9026402],[104.0621458,17.9034451],[104.0626281,17.9016032],[104.0599582,17.9007659],[104.060631,17.8965789],[104.0661559,17.8954507],[104.0681009,17.8971433],[104.0693599,17.8956106],[104.0696483,17.8939241],[104.0664555,17.8920908],[104.0671417,17.8862594],[104.0648242,17.8860672],[104.0701717,17.8822439],[104.0699592,17.8799842],[104.0683507,17.8798904],[104.0694591,17.8781597],[104.0747356,17.8814155],[104.1007452,17.9089183],[104.1140553,17.9150521],[104.1231886,17.9211977],[104.1277851,17.9354744],[104.1307885,17.9400093],[104.1308787,17.9457205],[104.1345002,17.9547411],[104.1269768,17.958159],[104.1263497,17.9607946],[104.1174815,17.9667935],[104.1165895,17.9725582],[104.1128607,17.9793529],[104.1159226,17.9873132],[104.1144985,17.9964492],[104.1117135,17.9994535],[104.1127356,18.005724],[104.1440063,18.0034425],[104.1681555,18.0051111],[104.1726424,18.0026449],[104.1724821,18.0101737],[104.1741609,18.0157811],[104.1760434,18.015683],[104.1773687,18.0130629],[104.1806513,18.0144134],[104.1824277,18.0134835],[104.1801323,18.0185967],[104.1899816,18.0237398],[104.195325,18.016429],[104.213048,17.999698],[104.224833,17.98004],[104.240081,17.940818],[104.245526,17.932955],[104.273448,17.865939],[104.279191,17.858442],[104.289488,17.851585],[104.3083,17.842808],[104.335034,17.837048],[104.355134,17.822603],[104.393452,17.761347],[104.402659,17.742239],[104.415927,17.723496],[104.438799,17.696617],[104.453948,17.6712],[104.46177,17.661052],[104.471869,17.651817],[104.482463,17.647338],[104.496424,17.634995],[104.503355,17.633623],[104.51692,17.627223],[104.60821,17.576937],[104.61623,17.578583],[104.672964,17.541188],[104.697717,17.528114],[104.707817,17.520799],[104.723461,17.504159],[104.7290629,17.4914845],[104.730787,17.483042],[104.74653,17.456803],[104.757817,17.443455],[104.776035,17.426907],[104.796036,17.401765],[104.800887,17.391616],[104.803264,17.378176],[104.805343,17.318658],[104.805244,17.29187],[104.802769,17.272944],[104.806346,17.244341],[104.806281,17.226936],[104.801488,17.164734],[104.79663,17.153669],[104.793391,17.140212],[104.790153,17.137461],[104.78795,17.126695],[104.783351,17.115989],[104.776032,17.105402],[104.766381,17.081],[104.751548,17.055999],[104.749281,17.048703],[104.7469943,17.0479264],[104.736326,17.030401],[104.730562,17.014133],[104.729396,17.000078],[104.731663,16.97729],[104.733995,16.968677],[104.7332326,16.9366126]]]}}]}