{"type":"FeatureCollection","name":"p48-subset","crs":{"type":"name","properties":{"name":"urn:ogc:def:crs:EPSG::32648"}},"features":[{"type":"Feature","properties":{"building":"yes","height":6,"heightSource":"default"},"geometry":{"type":"MultiPolygon","coordinates":[[[[462207.43,1922640.47],[462219.6,1922648.61],[462217.99,1922650.99],[462226.67,1922656.8],[462228.36,1922654.3],[462242.27,1922663.61],[462257.32,1922641.41],[462268.99,1922649.22],[462285.91,1922624.26],[462275.77,1922617.47],[462287.24,1922600.57],[462250.94,1922576.27],[462244.49,1922585.78],[462226.74,1922611.97],[462217.69,1922625.33],[462207.43,1922640.47]]]]}},{"type":"Feature","properties":{"building":"yes","height":6,"heightSource":"default"},"geometry":{"type":"MultiPolygon","coordinates":[[[[462338.78,1922563.57],[462348.15,1922548.55],[462358.56,1922554.62],[462349.33,1922569.65],[462338.78,1922563.57]]]]}},{"type":"Feature","properties":{"building":"yes","height":6,"heightSource":"default"},"geometry":{"type":"MultiPolygon","coordinates":[[[[462296.33,1922565.63],[462301.44,1922556.85],[462309.43,1922561.08],[462304.18,1922570.15],[462296.33,1922565.63]]]]}},{"type":"Feature","properties":{"building":"yes","height":6,"heightSource":"default"},"geometry":{"type":"MultiPolygon","coordinates":[[[[462308.11,1922544.8],[462316.96,1922550.3],[462327.47,1922534.43],[462318.48,1922528.78],[462308.11,1922544.8]]]]}},{"type":"Feature","properties":{"building":"yes","height":6,"heightSource":"default"},"geometry":{"type":"MultiPolygon","coordinates":[[[[462386.56,1922403.99],[462407.09,1922374.73],[462393.75,1922365.49],[462373.22,1922394.75],[462386.56,1922403.99]]]]}},{"type":"Feature","properties":{"building":"yes","height":6,"heightSource":"default"},"geometry":{"type":"MultiPolygon","coordinates":[[[[462407.34,1922548.41],[462412.42,1922541.24],[462396.23,1922529.92],[462391.15,1922537.09],[462407.34,1922548.41]]]]}},{"type":"Feature","properties":{"building":"yes","height":6,"heightSource":"default"},"geometry":{"type":"MultiPolygon","coordinates":[[[[462909.23,1921578.04],[462918.04,1921564.71],[462912.62,1921560.62],[462909.35,1921566.01],[462896.95,1921557.96],[462892.12,1921566.46],[462902.67,1921572.96],[462901.67,1921574.09],[462909.23,1921578.04]]]]}},{"type":"Feature","properties":{"building":"yes","height":6,"heightSource":"default"},"geometry":{"type":"MultiPolygon","coordinates":[[[[462864.74,1921635.89],[462859.89,1921632.5],[462862.46,1921627.97],[462850.62,1921620.21],[462864.54,1921598.51],[462866.68,1921599.64],[462872.79,1921593.26],[462888.48,1921605.12],[462879.96,1921619.01],[462882.53,1921620.57],[462872.72,1921636.31],[462867.02,1921632.78],[462864.74,1921635.89]]]]}},{"type":"Feature","properties":{"building":"yes","height":6,"heightSource":"default"},"geometry":{"type":"MultiPolygon","coordinates":[[[[462809.26,1921677.06],[462835.79,1921695.69],[462837.36,1921693.66],[462863.82,1921656.84],[462837.54,1921637.64],[462812.71,1921672.26],[462809.26,1921677.06]]]]}},{"type":"Feature","properties":{"building":"yes","height":6,"heightSource":"default"},"geometry":{"type":"MultiPolygon","coordinates":[[[[462863.82,1921656.84],[462871.62,1921662.38],[462845.16,1921699.19],[462837.36,1921693.66],[462863.82,1921656.84]]]]}},{"type":"Feature","properties":{"building":"yes","height":6,"heightSource":"default"},"geometry":{"type":"MultiPolygon","coordinates":[[[[462765.26,1921695.47],[462773.78,1921683.04],[462766.39,1921678.03],[462757.86,1921690.46],[462765.26,1921695.47]]]]}},{"type":"Feature","properties":{"building":"yes","height":6,"heightSource":"default"},"geometry":{"type":"MultiPolygon","coordinates":[[[[462768.48,1921675.29],[462776.6,1921662.91],[462784.75,1921668.18],[462776.63,1921680.57],[462768.48,1921675.29]]]]}},{"type":"Feature","properties":{"building":"yes","height":6,"heightSource":"default"},"geometry":{"type":"MultiPolygon","coordinates":[[[[462779.05,1921660.54],[462787.87,1921647.07],[462795.72,1921652.15],[462786.91,1921665.61],[462779.05,1921660.54]]]]}},{"type":"Feature","properties":{"building":"yes","height":6,"heightSource":"default"},"geometry":{"type":"MultiPolygon","coordinates":[[[[464164.03,1920099.19],[464171.02,1920096.04],[464167.86,1920089.1],[464160.87,1920092.23],[464164.03,1920099.19]]]]}},{"type":"Feature","properties":{"building":"residential","height":6,"heightSource":"default"},"geometry":{"type":"MultiPolygon","coordinates":[[[[460523.57,1920504.01],[460520.08,1920489.93],[460539.52,1920485.17],[460543,1920499.21],[460536.44,1920500.82],[460537.43,1920504.8],[460532.41,1920506.02],[460531.44,1920502.08],[460523.57,1920504.01]]]]}},{"type":"Feature","properties":{"building":"yes","height":6,"heightSource":"default"},"geometry":{"type":"MultiPolygon","coordinates":[[[[461804.6,1921272.07],[461822.16,1921272.14],[461822.21,1921260.88],[461804.65,1921260.81],[461804.6,1921272.07]]]]}},{"type":"Feature","properties":{"building":"yes","height":6,"heightSource":"default"},"geometry":{"type":"MultiPolygon","coordinates":[[[[461802.49,1921281.66],[461820.37,1921281.73],[461820.4,1921273.05],[461802.52,1921272.97],[461802.49,1921281.66]]]]}},{"type":"Feature","properties":{"building":"yes","height":6,"heightSource":"default"},"geometry":{"type":"MultiPolygon","coordinates":[[[[461780.17,1921269.17],[461779.96,1921273.43],[461791.21,1921273.96],[461791.42,1921269.7],[461780.17,1921269.17]]]]}},{"type":"Feature","properties":{"building":"yes","height":6,"heightSource":"default"},"geometry":{"type":"MultiPolygon","coordinates":[[[[461798.56,1921262.34],[461780.76,1921261.49],[461780.45,1921268.04],[461798.26,1921268.88],[461798.56,1921262.34]]]]}},{"type":"Feature","properties":{"building":"yes","height":6,"heightSource":"default"},"geometry":{"type":"MultiPolygon","coordinates":[[[[461777.99,1921268.29],[461778.03,1921253.78],[461769.98,1921253.76],[461769.95,1921265.26],[461771.8,1921265.27],[461771.78,1921268.27],[461777.99,1921268.29]]]]}},{"type":"Feature","properties":{"building":"yes","height":6,"heightSource":"default"},"geometry":{"type":"MultiPolygon","coordinates":[[[[461784.71,1921247.25],[461784.14,1921259.23],[461799.96,1921259.99],[461800.53,1921248],[461784.71,1921247.25]]]]}},{"type":"Feature","properties":{"building":"yes","height":6,"heightSource":"default"},"geometry":{"type":"MultiPolygon","coordinates":[[[[461786.94,1921231.18],[461786.86,1921240.13],[461800.32,1921240.24],[461800.4,1921231.3],[461786.94,1921231.18]]]]}},{"type":"Feature","properties":{"building":"yes","height":6,"heightSource":"default"},"geometry":{"type":"MultiPolygon","coordinates":[[[[461743.27,1921251.19],[461760.15,1921251.41],[461760.36,1921235.78],[461743.47,1921235.56],[461743.27,1921251.19]]]]}},{"type":"Feature","properties":{"building":"yes","height":6,"heightSource":"default"},"geometry":{"type":"MultiPolygon","coordinates":[[[[461731.97,1921264.16],[461740.19,1921263.9],[461739.93,1921255.87],[461731.7,1921256.14],[461731.97,1921264.16]]]]}},{"type":"Feature","properties":{"building":"yes","height":6,"heightSource":"default"},"geometry":{"type":"MultiPolygon","coordinates":[[[[461702.31,1921266.84],[461708.11,1921266.88],[461708.1,1921268.19],[461715.35,1921268.23],[461715.41,1921259.82],[461713.34,1921259.82],[461713.39,1921252.74],[461702.41,1921252.66],[461702.31,1921266.84]]]]}},{"type":"Feature","properties":{"building":"yes","height":6,"heightSource":"default"},"geometry":{"type":"MultiPolygon","coordinates":[[[[461705.11,1921245.63],[461712.6,1921245.68],[461712.65,1921238.32],[461705.16,1921238.27],[461705.11,1921245.63]]]]}},{"type":"Feature","properties":{"building":"yes","height":6,"heightSource":"default"},"geometry":{"type":"MultiPolygon","coordinates":[[[[461715.83,1921246.67],[461703.72,1921246.59],[461703.69,1921252.1],[461715.79,1921252.19],[461715.83,1921246.67]]]]}},{"type":"Feature","properties":{"building":"yes","height":6,"heightSource":"default"},"geometry":{"type":"MultiPolygon","coordinates":[[[[461703.65,1921225.53],[461703.76,1921236.86],[461722.14,1921236.68],[461722.03,1921225.35],[461703.65,1921225.53]]]]}},{"type":"Feature","properties":{"building":"yes","height":6,"heightSource":"default"},"geometry":{"type":"MultiPolygon","coordinates":[[[[461740.92,1921235.02],[461740.87,1921226.45],[461729.01,1921226.52],[461729.06,1921235.08],[461740.92,1921235.02]]]]}},{"type":"Feature","properties":{"building":"yes","height":6,"heightSource":"default"},"geometry":{"type":"MultiPolygon","coordinates":[[[[461730.43,1921222.5],[461738.29,1921220.64],[461735.5,1921208.96],[461727.63,1921210.82],[461730.43,1921222.5]]]]}},{"type":"Feature","properties":{"building":"yes","height":6,"heightSource":"default"},"geometry":{"type":"MultiPolygon","coordinates":[[[[461751.03,1921213.79],[461751.8,1921218.36],[461754.11,1921217.98],[461754.7,1921221.48],[461764.04,1921219.93],[461762.68,1921211.85],[461751.03,1921213.79]]]]}},{"type":"Feature","properties":{"building":"yes","height":6,"heightSource":"default"},"geometry":{"type":"MultiPolygon","coordinates":[[[[461743.48,1921233.95],[461751.46,1921232.68],[461750.16,1921224.59],[461742.19,1921225.85],[461743.48,1921233.95]]]]}},{"type":"Feature","properties":{"building":"yes","height":6,"heightSource":"default"},"geometry":{"type":"MultiPolygon","coordinates":[[[[461753.13,1921229.77],[461766.71,1921227.51],[461765.53,1921220.5],[461754.8,1921222.29],[461751.95,1921222.76],[461753.13,1921229.77]]]]}},{"type":"Feature","properties":{"building":"yes","height":6,"heightSource":"default"},"geometry":{"type":"MultiPolygon","coordinates":[[[[461750.18,1921213.23],[461759.59,1921210.8],[461758.89,1921208.15],[461749.48,1921210.57],[461750.18,1921213.23]]]]}},{"type":"Feature","properties":{"building":"yes","height":6,"heightSource":"default"},"geometry":{"type":"MultiPolygon","coordinates":[[[[461752.38,1921209.12],[461765.23,1921205.8],[461762.62,1921195.79],[461749.76,1921199.1],[461752.38,1921209.12]]]]}},{"type":"Feature","properties":{"building":"yes","height":6,"heightSource":"default"},"geometry":{"type":"MultiPolygon","coordinates":[[[[461749.29,1921196.49],[461756.12,1921194.49],[461754.25,1921188.17],[461747.43,1921190.16],[461749.29,1921196.49]]]]}},{"type":"Feature","properties":{"building":"yes","height":6,"heightSource":"default"},"geometry":{"type":"MultiPolygon","coordinates":[[[[461735.27,1921199.91],[461732.28,1921183.42],[461724.22,1921184.86],[461727.21,1921201.35],[461735.27,1921199.91]]]]}},{"type":"Feature","properties":{"building":"yes","height":6,"heightSource":"default"},"geometry":{"type":"MultiPolygon","coordinates":[[[[461739.49,1921193.74],[461746.54,1921192.03],[461744.9,1921185.35],[461737.85,1921187.06],[461739.49,1921193.74]]]]}},{"type":"Feature","properties":{"building":"yes","height":6,"heightSource":"default"},"geometry":{"type":"MultiPolygon","coordinates":[[[[461737.2,1921185.32],[461744.44,1921184.07],[461742.52,1921173.06],[461735.28,1921174.31],[461737.2,1921185.32]]]]}},{"type":"Feature","properties":{"building":"yes","height":6,"heightSource":"default"},"geometry":{"type":"MultiPolygon","coordinates":[[[[461753.13,1921171.77],[461743.92,1921173.36],[461746.08,1921185.74],[461755.29,1921184.15],[461753.13,1921171.77]]]]}},{"type":"Feature","properties":{"building":"yes","height":6,"heightSource":"default"},"geometry":{"type":"MultiPolygon","coordinates":[[[[461760.64,1921188.96],[461768.32,1921187.18],[461766.75,1921180.45],[461759.07,1921182.22],[461760.64,1921188.96]]]]}},{"type":"Feature","properties":{"building":"yes","height":6,"heightSource":"default"},"geometry":{"type":"MultiPolygon","coordinates":[[[[461755.4,1921168.86],[461764.72,1921166.71],[461763.58,1921161.83],[461754.26,1921163.99],[461755.4,1921168.86]]]]}},{"type":"Feature","properties":{"building":"yes","height":6,"heightSource":"default"},"geometry":{"type":"MultiPolygon","coordinates":[[[[461758.55,1921181.46],[461767.36,1921179.43],[461764.81,1921168.49],[461756,1921170.52],[461758.55,1921181.46]]]]}},{"type":"Feature","properties":{"building":"yes","height":6,"heightSource":"default"},"geometry":{"type":"MultiPolygon","coordinates":[[[[461785.19,1921175.75],[461770.6,1921179.11],[461773.47,1921191.41],[461788.06,1921188.05],[461785.19,1921175.75]]]]}},{"type":"Feature","properties":{"building":"yes","height":6,"heightSource":"default"},"geometry":{"type":"MultiPolygon","coordinates":[[[[461765.36,1921163.89],[461768.62,1921177.84],[461784.47,1921174.19],[461781.22,1921160.23],[461765.36,1921163.89]]]]}},{"type":"Feature","properties":{"building":"yes","height":6,"heightSource":"default"},"geometry":{"type":"MultiPolygon","coordinates":[[[[461782.58,1921154.09],[461787.32,1921174.39],[461798.9,1921171.73],[461794.16,1921151.41],[461782.58,1921154.09]]]]}},{"type":"Feature","properties":{"building":"yes","height":6,"heightSource":"default"},"geometry":{"type":"MultiPolygon","coordinates":[[[[461814.96,1921175.48],[461814.64,1921164.64],[461801.68,1921165.02],[461802,1921175.86],[461814.96,1921175.48]]]]}},{"type":"Feature","properties":{"building":"yes","height":6,"heightSource":"default"},"geometry":{"type":"MultiPolygon","coordinates":[[[[461802.83,1921162.33],[461816.43,1921159.05],[461814.2,1921149.94],[461800.6,1921153.22],[461802.83,1921162.33]]]]}},{"type":"Feature","properties":{"building":"yes","height":6,"heightSource":"default"},"geometry":{"type":"MultiPolygon","coordinates":[[[[461800.25,1921150.97],[461809.99,1921146.64],[461805.7,1921137.12],[461795.96,1921141.46],[461800.25,1921150.97]]]]}},{"type":"Feature","properties":{"building":"yes","height":6,"heightSource":"default"},"geometry":{"type":"MultiPolygon","coordinates":[[[[461813.38,1921146.6],[461820.31,1921143.51],[461816.49,1921135.02],[461809.55,1921138.11],[461813.38,1921146.6]]]]}},{"type":"Feature","properties":{"building":"yes","height":6,"heightSource":"default"},"geometry":{"type":"MultiPolygon","coordinates":[[[[461782.1,1921110.07],[461787.73,1921120.96],[461795.6,1921116.94],[461797.74,1921121.08],[461807.51,1921116.08],[461801.65,1921104.73],[461794.9,1921108.18],[461793,1921104.51],[461782.1,1921110.07]]]]}},{"type":"Feature","properties":{"building":"yes","height":6,"heightSource":"default"},"geometry":{"type":"MultiPolygon","coordinates":[[[[461776.48,1921129.17],[461781.96,1921127.54],[461779.17,1921118.27],[461773.68,1921119.9],[461776.48,1921129.17]]]]}},{"type":"Feature","properties":{"building":"yes","height":6,"heightSource":"default"},"geometry":{"type":"MultiPolygon","coordinates":[[[[461760.3,1921120.92],[461768.6,1921118.45],[461765.12,1921106.89],[461756.81,1921109.36],[461760.3,1921120.92]]]]}},{"type":"Feature","properties":{"building":"yes","height":6,"heightSource":"default"},"geometry":{"type":"MultiPolygon","coordinates":[[[[461761.66,1921126.3],[461764.25,1921134.86],[461771.44,1921132.71],[461768.87,1921124.16],[461761.66,1921126.3]]]]}},{"type":"Feature","properties":{"building":"yes","height":6,"heightSource":"default"},"geometry":{"type":"MultiPolygon","coordinates":[[[[461758.46,1921150.95],[461751.93,1921135.58],[461748.74,1921136.93],[461746.86,1921132.52],[461739.79,1921135.48],[461745.35,1921148.55],[461747.72,1921147.55],[461750.58,1921154.26],[461758.46,1921150.95]]]]}},{"type":"Feature","properties":{"building":"yes","height":6,"heightSource":"default"},"geometry":{"type":"MultiPolygon","coordinates":[[[[461732.83,1921154.89],[461726.67,1921156.14],[461728.18,1921163.49],[461734.35,1921162.24],[461732.83,1921154.89]]]]}},{"type":"Feature","properties":{"building":"yes","height":6,"heightSource":"default"},"geometry":{"type":"MultiPolygon","coordinates":[[[[461720.79,1921168.37],[461725.11,1921167.48],[461724.51,1921164.54],[461727.85,1921163.86],[461726.45,1921157.03],[461718.77,1921158.59],[461720.79,1921168.37]]]]}},{"type":"Feature","properties":{"building":"yes","height":6,"heightSource":"default"},"geometry":{"type":"MultiPolygon","coordinates":[[[[461708.21,1921171.93],[461712.3,1921171.88],[461712.27,1921169.16],[461708.18,1921169.21],[461708.21,1921171.93]]]]}},{"type":"Feature","properties":{"building":"yes","height":6,"heightSource":"default"},"geometry":{"type":"MultiPolygon","coordinates":[[[[461714.79,1921168.23],[461714.67,1921157.61],[461707.51,1921157.69],[461707.63,1921168.31],[461714.79,1921168.23]]]]}},{"type":"Feature","properties":{"building":"yes","height":6,"heightSource":"default"},"geometry":{"type":"MultiPolygon","coordinates":[[[[461707.93,1921151.89],[461713.2,1921151.73],[461713.01,1921145.55],[461707.74,1921145.7],[461707.93,1921151.89]]]]}},{"type":"Feature","properties":{"building":"yes","height":6,"heightSource":"default"},"geometry":{"type":"MultiPolygon","coordinates":[[[[461714.51,1921153.82],[461725.19,1921153.5],[461724.93,1921145.07],[461714.25,1921145.39],[461714.51,1921153.82]]]]}},{"type":"Feature","properties":{"building":"yes","height":6,"heightSource":"default"},"geometry":{"type":"MultiPolygon","coordinates":[[[[461716.53,1921142.85],[461723.04,1921141.99],[461722.03,1921134.37],[461715.51,1921135.23],[461716.53,1921142.85]]]]}},{"type":"Feature","properties":{"building":"yes","height":6,"heightSource":"default"},"geometry":{"type":"MultiPolygon","coordinates":[[[[461713.8,1921131.88],[461723.24,1921131.72],[461723.1,1921123.41],[461713.66,1921123.57],[461713.8,1921131.88]]]]}},{"type":"Feature","properties":{"building":"yes","height":6,"heightSource":"default"},"geometry":{"type":"MultiPolygon","coordinates":[[[[461734.06,1921089.12],[461738.79,1921086.28],[461737.2,1921083.65],[461732.47,1921086.49],[461734.06,1921089.12]]]]}},{"type":"Feature","properties":{"building":"yes","height":6,"heightSource":"default"},"geometry":{"type":"MultiPolygon","coordinates":[[[[461724.59,1921090.97],[461727.05,1921090.94],[461727.02,1921087.89],[461724.55,1921087.92],[461724.59,1921090.97]]]]}},{"type":"Feature","properties":{"building":"yes","height":6,"heightSource":"default"},"geometry":{"type":"MultiPolygon","coordinates":[[[[461728.49,1921090.73],[461730.63,1921090.71],[461730.59,1921086.75],[461728.44,1921086.77],[461728.49,1921090.73]]]]}},{"type":"Feature","properties":{"building":"yes","height":6,"heightSource":"default"},"geometry":{"type":"MultiPolygon","coordinates":[[[[461720.75,1921092.11],[461724.29,1921092.07],[461724.22,1921087.04],[461720.69,1921087.08],[461720.75,1921092.11]]]]}},{"type":"Feature","properties":{"building":"yes","height":6,"heightSource":"default"},"geometry":{"type":"MultiPolygon","coordinates":[[[[461720.72,1921100.89],[461726.49,1921100.83],[461726.45,1921097.62],[461720.68,1921097.68],[461720.72,1921100.89]]]]}},{"type":"Feature","properties":{"building":"yes","height":6,"heightSource":"default"},"geometry":{"type":"MultiPolygon","coordinates":[[[[461718.69,1921097.24],[461726.48,1921097.16],[461726.44,1921092.98],[461718.65,1921093.06],[461718.69,1921097.24]]]]}},{"type":"Feature","properties":{"building":"yes","height":6,"heightSource":"default"},"geometry":{"type":"MultiPolygon","coordinates":[[[[461711.86,1921120.59],[461719.55,1921119.51],[461718.62,1921112.94],[461710.93,1921114.02],[461711.86,1921120.59]]]]}},{"type":"Feature","properties":{"building":"yes","height":6,"heightSource":"default"},"geometry":{"type":"MultiPolygon","coordinates":[[[[461736.33,1921103.13],[461745.31,1921101.34],[461743.87,1921094.22],[461734.9,1921096.01],[461736.33,1921103.13]]]]}},{"type":"Feature","properties":{"building":"yes","height":6,"heightSource":"default"},"geometry":{"type":"MultiPolygon","coordinates":[[[[461729.42,1921066.39],[461725.88,1921068.61],[461728.88,1921073.35],[461732.43,1921071.13],[461729.42,1921066.39]]]]}},{"type":"Feature","properties":{"building":"yes","height":6,"heightSource":"default"},"geometry":{"type":"MultiPolygon","coordinates":[[[[461709.9,1921062.89],[461722.22,1921063.57],[461722.75,1921054.21],[461710.42,1921053.53],[461709.9,1921062.89]]]]}},{"type":"Feature","properties":{"building":"yes","height":6,"heightSource":"default"},"geometry":{"type":"MultiPolygon","coordinates":[[[[461727.66,1921037.54],[461731.33,1921037.53],[461731.32,1921035.02],[461727.65,1921035.04],[461727.66,1921037.54]]]]}},{"type":"Feature","properties":{"building":"yes","height":6,"heightSource":"default"},"geometry":{"type":"MultiPolygon","coordinates":[[[[461713.71,1921028.89],[461730.58,1921028.83],[461730.54,1921019.06],[461719.86,1921019.1],[461719.87,1921021.03],[461713.68,1921021.05],[461713.71,1921028.89]]]]}},{"type":"Feature","properties":{"building":"yes","height":6,"heightSource":"default"},"geometry":{"type":"MultiPolygon","coordinates":[[[[461714.02,1921029.79],[461714.06,1921036.33],[461717.61,1921036.31],[461717.59,1921033.26],[461721.86,1921033.24],[461721.84,1921029.75],[461714.02,1921029.79]]]]}},{"type":"Feature","properties":{"building":"yes","height":6,"heightSource":"default"},"geometry":{"type":"MultiPolygon","coordinates":[[[[461708.93,1921019.89],[461715.51,1921019.8],[461715.45,1921015.12],[461708.87,1921015.2],[461708.93,1921019.89]]]]}},{"type":"Feature","properties":{"building":"yes","height":6,"heightSource":"default"},"geometry":{"type":"MultiPolygon","coordinates":[[[[461687.33,1921016.21],[461693.72,1921016.18],[461693.7,1921011.81],[461687.32,1921011.83],[461687.33,1921016.21]]]]}},{"type":"Feature","properties":{"building":"yes","height":6,"heightSource":"default"},"geometry":{"type":"MultiPolygon","coordinates":[[[[461688.06,1921021.44],[461695.69,1921021.41],[461695.67,1921016.5],[461692.21,1921016.52],[461692.23,1921018.81],[461688.05,1921018.83],[461688.06,1921021.44]]]]}},{"type":"Feature","properties":{"building":"yes","height":6,"heightSource":"default"},"geometry":{"type":"MultiPolygon","coordinates":[[[[461677.05,1921037.64],[461684.36,1921037.61],[461684.28,1921021.45],[461676.98,1921021.48],[461677.05,1921037.64]]]]}},{"type":"Feature","properties":{"building":"yes","height":6,"heightSource":"default"},"geometry":{"type":"MultiPolygon","coordinates":[[[[461666.86,1921020.56],[461675.17,1921020.53],[461675.1,1921006.53],[461666.8,1921006.57],[461666.86,1921020.56]]]]}},{"type":"Feature","properties":{"building":"yes","height":6,"heightSource":"default"},"geometry":{"type":"MultiPolygon","coordinates":[[[[461673.59,1921034.68],[461673.52,1921021.23],[461666.83,1921021.25],[461666.89,1921034.7],[461673.59,1921034.68]]]]}},{"type":"Feature","properties":{"building":"yes","height":6,"heightSource":"default"},"geometry":{"type":"MultiPolygon","coordinates":[[[[461640.98,1921027.1],[461642.99,1921028.08],[461641.16,1921031.77],[461647.11,1921034.68],[461648.95,1921030.99],[461650.29,1921031.64],[461653.21,1921025.73],[461643.91,1921021.18],[461640.98,1921027.1]]]]}},{"type":"Feature","properties":{"building":"yes","height":6,"heightSource":"default"},"geometry":{"type":"MultiPolygon","coordinates":[[[[461660.76,1921030.1],[461661.95,1921019.83],[461654.89,1921019.02],[461653.69,1921029.28],[461660.76,1921030.1]]]]}},{"type":"Feature","properties":{"building":"yes","height":6,"heightSource":"default"},"geometry":{"type":"MultiPolygon","coordinates":[[[[461604.2,1920918.09],[461600.03,1920933.21],[461628.11,1920940.87],[461632.28,1920925.75],[461604.2,1920918.09]]]]}},{"type":"Feature","properties":{"building":"yes","height":6,"heightSource":"default"},"geometry":{"type":"MultiPolygon","coordinates":[[[[461561.66,1920945],[461581.04,1920951.06],[461585.56,1920936.74],[461566.17,1920930.69],[461561.66,1920945]]]]}},{"type":"Feature","properties":{"building":"yes","height":6,"heightSource":"default"},"geometry":{"type":"MultiPolygon","coordinates":[[[[461576.57,1920963.32],[461564.5,1920960.41],[461555.52,1920997.32],[461567.59,1921000.22],[461576.57,1920963.32]]]]}},{"type":"Feature","properties":{"building":"yes","height":6,"heightSource":"default"},"geometry":{"type":"MultiPolygon","coordinates":[[[[461629.51,1921419.79],[461629.56,1921415.23],[461622.08,1921415.14],[461622.03,1921419.7],[461629.51,1921419.79]]]]}},{"type":"Feature","properties":{"building":"yes","height":6,"heightSource":"default"},"geometry":{"type":"MultiPolygon","coordinates":[[[[461629.67,1921430.49],[461629.78,1921421.68],[461621.88,1921421.58],[461621.77,1921430.38],[461629.67,1921430.49]]]]}},{"type":"Feature","properties":{"building":"yes","height":6,"heightSource":"default"},"geometry":{"type":"MultiPolygon","coordinates":[[[[461638.7,1921423.1],[461646.09,1921423.2],[461646.17,1921416.65],[461638.79,1921416.55],[461638.7,1921423.1]]]]}},{"type":"Feature","properties":{"building":"yes","height":6,"heightSource":"default"},"geometry":{"type":"MultiPolygon","coordinates":[[[[461631.59,1921431.19],[461643.23,1921431.34],[461643.34,1921424.01],[461631.68,1921423.87],[461631.59,1921431.19]]]]}},{"type":"Feature","properties":{"building":"yes","height":6,"heightSource":"default"},"geometry":{"type":"MultiPolygon","coordinates":[[[[461669.82,1921417.53],[461664.08,1921417.45],[461663.99,1921424.2],[461669.73,1921424.26],[461669.82,1921417.53]]]]}},{"type":"Feature","properties":{"building":"yes","height":6,"heightSource":"default"},"geometry":{"type":"MultiPolygon","coordinates":[[[[461663.87,1921437.22],[461678.79,1921437.41],[461678.95,1921424.73],[461664.04,1921424.54],[461663.87,1921437.22]]]]}},{"type":"Feature","properties":{"building":"yes","height":6,"heightSource":"default"},"geometry":{"type":"MultiPolygon","coordinates":[[[[461663.2,1921416.97],[461647.66,1921416.77],[461647.48,1921430.52],[461658.23,1921430.66],[461658.27,1921427.37],[461663.06,1921427.43],[461663.2,1921416.97]]]]}},{"type":"Feature","properties":{"building":"yes","height":6,"heightSource":"default"},"geometry":{"type":"MultiPolygon","coordinates":[[[[461658.61,1921404.66],[461647.58,1921404.52],[461647.45,1921414.52],[461658.48,1921414.66],[461658.61,1921404.66]]]]}},{"type":"Feature","properties":{"building":"yes","height":6,"heightSource":"default"},"geometry":{"type":"MultiPolygon","coordinates":[[[[461646.27,1921399.72],[461653.13,1921399.81],[461653.18,1921395.61],[461646.33,1921395.52],[461646.27,1921399.72]]]]}},{"type":"Feature","properties":{"building":"yes","height":6,"heightSource":"default"},"geometry":{"type":"MultiPolygon","coordinates":[[[[461639.29,1921395.63],[461645.49,1921395.71],[461645.55,1921391.45],[461639.34,1921391.36],[461639.29,1921395.63]]]]}},{"type":"Feature","properties":{"building":"yes","height":6,"heightSource":"default"},"geometry":{"type":"MultiPolygon","coordinates":[[[[461661.67,1921401.4],[461681.05,1921401.65],[461681.14,1921393.87],[461670.98,1921393.75],[461671.05,1921388.47],[461661.84,1921388.36],[461661.67,1921401.4]]]]}},{"type":"Feature","properties":{"building":"yes","height":6,"heightSource":"default"},"geometry":{"type":"MultiPolygon","coordinates":[[[[461668.62,1921383.9],[461668.68,1921387.55],[461677.44,1921387.39],[461677.38,1921383.74],[461668.62,1921383.9]]]]}},{"type":"Feature","properties":{"building":"yes","height":6,"heightSource":"default"},"geometry":{"type":"MultiPolygon","coordinates":[[[[461654.94,1921387.4],[461654.86,1921376.43],[461645.88,1921376.5],[461645.98,1921387.47],[461654.94,1921387.4]]]]}},{"type":"Feature","properties":{"building":"yes","height":6,"heightSource":"default"},"geometry":{"type":"MultiPolygon","coordinates":[[[[461625.22,1921377.96],[461625.29,1921386.46],[461635.5,1921386.37],[461635.42,1921377.87],[461625.22,1921377.96]]]]}},{"type":"Feature","properties":{"building":"yes","height":6,"heightSource":"default"},"geometry":{"type":"MultiPolygon","coordinates":[[[[461616.94,1921368.49],[461616.98,1921372.71],[461623.65,1921372.65],[461623.61,1921368.44],[461616.94,1921368.49]]]]}},{"type":"Feature","properties":{"building":"yes","height":6,"heightSource":"default"},"geometry":{"type":"MultiPolygon","coordinates":[[[[461635.95,1921359.4],[461626.41,1921359.47],[461626.49,1921369.68],[461636.03,1921369.6],[461635.95,1921359.4]]]]}},{"type":"Feature","properties":{"building":"yes","height":6,"heightSource":"default"},"geometry":{"type":"MultiPolygon","coordinates":[[[[461650.51,1921369.84],[461650.55,1921373.74],[461655.7,1921373.7],[461655.65,1921366.94],[461651.62,1921366.97],[461651.54,1921358.37],[461640.72,1921358.46],[461640.81,1921369.92],[461650.51,1921369.84]]]]}},{"type":"Feature","properties":{"building":"yes","height":6,"heightSource":"default"},"geometry":{"type":"MultiPolygon","coordinates":[[[[461674.44,1921374.82],[461674.56,1921366.43],[461666.74,1921366.31],[461666.6,1921374.72],[461674.44,1921374.82]]]]}},{"type":"Feature","properties":{"building":"yes","height":6,"heightSource":"default"},"geometry":{"type":"MultiPolygon","coordinates":[[[[461675.99,1921365.16],[461676.08,1921358.8],[461666.25,1921358.67],[461666.16,1921365.02],[461675.99,1921365.16]]]]}},{"type":"Feature","properties":{"building":"yes","height":6,"heightSource":"default"},"geometry":{"type":"MultiPolygon","coordinates":[[[[461677.84,1921364.9],[461684.32,1921365],[461684.43,1921357.57],[461677.95,1921357.48],[461677.84,1921364.9]]]]}},{"type":"Feature","properties":{"building":"yes","height":6,"heightSource":"default"},"geometry":{"type":"MultiPolygon","coordinates":[[[[461644.84,1921353.57],[461657.74,1921353.82],[461657.94,1921343.39],[461645.05,1921343.13],[461644.84,1921353.57]]]]}},{"type":"Feature","properties":{"building":"yes","height":6,"heightSource":"default"},"geometry":{"type":"MultiPolygon","coordinates":[[[[461659.89,1921329.36],[461671.54,1921328.5],[461670.66,1921316.88],[461659.02,1921317.76],[461659.89,1921329.36]]]]}},{"type":"Feature","properties":{"building":"yes","height":6,"heightSource":"default"},"geometry":{"type":"MultiPolygon","coordinates":[[[[461657.09,1921330.96],[461657.07,1921322.07],[461643.54,1921322.1],[461643.55,1921330.98],[461657.09,1921330.96]]]]}},{"type":"Feature","properties":{"building":"yes","height":6,"heightSource":"default"},"geometry":{"type":"MultiPolygon","coordinates":[[[[461674.7,1921326.96],[461687.24,1921326.94],[461687.22,1921318.55],[461674.69,1921318.58],[461674.7,1921326.96]]]]}},{"type":"Feature","properties":{"building":"yes","height":6,"heightSource":"default"},"geometry":{"type":"MultiPolygon","coordinates":[[[[461647.76,1921314.3],[461653.53,1921314.29],[461653.52,1921307.32],[461647.75,1921307.33],[461647.76,1921314.3]]]]}},{"type":"Feature","properties":{"building":"yes","height":6,"heightSource":"default"},"geometry":{"type":"MultiPolygon","coordinates":[[[[461654.09,1921314.69],[461663.46,1921314.67],[461663.45,1921306.92],[461654.08,1921306.93],[461654.09,1921314.69]]]]}},{"type":"Feature","properties":{"building":"yes","height":6,"heightSource":"default"},"geometry":{"type":"MultiPolygon","coordinates":[[[[461667.13,1921314.49],[461676.96,1921314.47],[461676.95,1921308.63],[461667.12,1921308.65],[461667.13,1921314.49]]]]}},{"type":"Feature","properties":{"building":"yes","height":6,"heightSource":"default"},"geometry":{"type":"MultiPolygon","coordinates":[[[[461687.58,1921315.26],[461687.57,1921309.59],[461678.09,1921309.61],[461678.1,1921315.28],[461687.58,1921315.26]]]]}},{"type":"Feature","properties":{"building":"yes","height":6,"heightSource":"default"},"geometry":{"type":"MultiPolygon","coordinates":[[[[461676.09,1921307.7],[461689.35,1921307.68],[461689.33,1921298.62],[461676.07,1921298.64],[461676.09,1921307.7]]]]}},{"type":"Feature","properties":{"building":"yes","height":6,"heightSource":"default"},"geometry":{"type":"MultiPolygon","coordinates":[[[[461668.09,1921293.49],[461684.12,1921293.46],[461684.1,1921285.25],[461668.07,1921285.28],[461668.09,1921293.49]]]]}},{"type":"Feature","properties":{"building":"yes","height":6,"heightSource":"default"},"geometry":{"type":"MultiPolygon","coordinates":[[[[461657.37,1921276.16],[461669.05,1921276.14],[461669.04,1921267.72],[461657.35,1921267.74],[461657.37,1921276.16]]]]}},{"type":"Feature","properties":{"building":"yes","height":6,"heightSource":"default"},"geometry":{"type":"MultiPolygon","coordinates":[[[[461689.29,1921276.74],[461689.27,1921265.56],[461671.67,1921265.59],[461671.69,1921276.78],[461689.29,1921276.74]]]]}},{"type":"Feature","properties":{"building":"yes","height":6,"heightSource":"default"},"geometry":{"type":"MultiPolygon","coordinates":[[[[461677.52,1921232.87],[461685.14,1921232.85],[461685.13,1921225.77],[461677.51,1921225.79],[461677.52,1921232.87]]]]}},{"type":"Feature","properties":{"building":"yes","height":6,"heightSource":"default"},"geometry":{"type":"MultiPolygon","coordinates":[[[[461669.98,1921236.5],[461669.98,1921241.23],[461676.4,1921241.22],[461676.41,1921247.53],[461687.52,1921247.51],[461687.52,1921245.53],[461691.22,1921245.52],[461691.2,1921236.46],[461669.98,1921236.5]]]]}},{"type":"Feature","properties":{"building":"yes","height":6,"heightSource":"default"},"geometry":{"type":"MultiPolygon","coordinates":[[[[461662.88,1921250.45],[461664.07,1921238.35],[461652.27,1921237.21],[461651.09,1921249.31],[461662.88,1921250.45]]]]}},{"type":"Feature","properties":{"building":"yes","height":6,"heightSource":"default"},"geometry":{"type":"MultiPolygon","coordinates":[[[[461647.72,1921291.26],[461660.1,1921291.51],[461660.37,1921278.77],[461647.97,1921278.51],[461647.72,1921291.26]]]]}},{"type":"Feature","properties":{"building":"yes","height":6,"heightSource":"default"},"geometry":{"type":"MultiPolygon","coordinates":[[[[461632.83,1921293.91],[461632.79,1921303.76],[461646.4,1921303.81],[461646.44,1921293.96],[461632.83,1921293.91]]]]}},{"type":"Feature","properties":{"building":"yes","height":6,"heightSource":"default"},"geometry":{"type":"MultiPolygon","coordinates":[[[[461587.06,1921426.95],[461600.6,1921428.84],[461602.18,1921417.66],[461588.64,1921415.78],[461587.06,1921426.95]]]]}},{"type":"Feature","properties":{"building":"yes","height":6,"heightSource":"default"},"geometry":{"type":"MultiPolygon","coordinates":[[[[461610.53,1921406.81],[461610.8,1921395.22],[461603.82,1921395.07],[461603.59,1921404.95],[461606.01,1921405.01],[461605.97,1921406.7],[461610.53,1921406.81]]]]}},{"type":"Feature","properties":{"building":"yes","height":6,"heightSource":"default"},"geometry":{"type":"MultiPolygon","coordinates":[[[[461613.18,1921416.43],[461613.35,1921409.17],[461606.4,1921409],[461606.24,1921416.27],[461613.18,1921416.43]]]]}},{"type":"Feature","properties":{"building":"yes","height":6,"heightSource":"default"},"geometry":{"type":"MultiPolygon","coordinates":[[[[461589.4,1921415.41],[461603.71,1921415.74],[461603.89,1921407.76],[461589.57,1921407.43],[461589.4,1921415.41]]]]}},{"type":"Feature","properties":{"building":"yes","height":6,"heightSource":"default"},"geometry":{"type":"MultiPolygon","coordinates":[[[[461593.93,1921402.2],[461602.62,1921402.04],[461602.49,1921395.03],[461593.8,1921395.19],[461593.93,1921402.2]]]]}},{"type":"Feature","properties":{"building":"yes","height":6,"heightSource":"default"},"geometry":{"type":"MultiPolygon","coordinates":[[[[461592.4,1921387.16],[461605.58,1921387.28],[461605.65,1921380.13],[461592.46,1921380.01],[461592.4,1921387.16]]]]}},{"type":"Feature","properties":{"building":"yes","height":6,"heightSource":"default"},"geometry":{"type":"MultiPolygon","coordinates":[[[[461604.11,1921364.34],[461609.79,1921364.2],[461609.65,1921358.38],[461603.98,1921358.51],[461604.11,1921364.34]]]]}},{"type":"Feature","properties":{"building":"yes","height":6,"heightSource":"default"},"geometry":{"type":"MultiPolygon","coordinates":[[[[461592.7,1921358.13],[461592.92,1921367.61],[461603.11,1921367.38],[461602.89,1921357.9],[461592.7,1921358.13]]]]}},{"type":"Feature","properties":{"building":"yes","height":6,"heightSource":"default"},"geometry":{"type":"MultiPolygon","coordinates":[[[[461610.93,1921354.7],[461615.87,1921354.24],[461614.97,1921344.84],[461610.04,1921345.31],[461610.93,1921354.7]]]]}},{"type":"Feature","properties":{"building":"yes","height":6,"heightSource":"default"},"geometry":{"type":"MultiPolygon","coordinates":[[[[461609.3,1921355.27],[461608,1921341.64],[461587.2,1921343.59],[461588.5,1921357.22],[461609.3,1921355.27]]]]}},{"type":"Feature","properties":{"building":"yes","height":6,"heightSource":"default"},"geometry":{"type":"MultiPolygon","coordinates":[[[[461590.58,1921327.9],[461590.42,1921338.53],[461606.77,1921338.77],[461606.93,1921328.15],[461590.58,1921327.9]]]]}},{"type":"Feature","properties":{"building":"yes","height":6,"heightSource":"default"},"geometry":{"type":"MultiPolygon","coordinates":[[[[461602.17,1921318.68],[461591.24,1921318.51],[461591.15,1921325.06],[461602.07,1921325.23],[461602.17,1921318.68]]]]}},{"type":"Feature","properties":{"building":"yes","height":6,"heightSource":"default"},"geometry":{"type":"MultiPolygon","coordinates":[[[[461605.86,1921307.98],[461594.79,1921307.81],[461594.69,1921314.45],[461605.76,1921314.61],[461605.86,1921307.98]]]]}},{"type":"Feature","properties":{"building":"yes","height":6,"heightSource":"default"},"geometry":{"type":"MultiPolygon","coordinates":[[[[461629.84,1921295.97],[461613.59,1921295.73],[461613.47,1921303.5],[461629.72,1921303.75],[461629.84,1921295.97]]]]}},{"type":"Feature","properties":{"building":"yes","height":6,"heightSource":"default"},"geometry":{"type":"MultiPolygon","coordinates":[[[[461628.77,1921294.74],[461628.91,1921286.37],[461616.47,1921286.17],[461616.34,1921294.55],[461628.77,1921294.74]]]]}},{"type":"Feature","properties":{"building":"yes","height":6,"heightSource":"default"},"geometry":{"type":"MultiPolygon","coordinates":[[[[461616.43,1921284.06],[461628.43,1921284.26],[461628.58,1921275.45],[461616.57,1921275.27],[461616.43,1921284.06]]]]}},{"type":"Feature","properties":{"building":"yes","height":6,"heightSource":"default"},"geometry":{"type":"MultiPolygon","coordinates":[[[[461602,1921296.56],[461601.9,1921285.05],[461589.54,1921285.14],[461589.63,1921296.65],[461602,1921296.56]]]]}},{"type":"Feature","properties":{"building":"yes","height":6,"heightSource":"default"},"geometry":{"type":"MultiPolygon","coordinates":[[[[461587.9,1921282.75],[461597.21,1921282.56],[461597.19,1921281.41],[461602.59,1921281.3],[461602.41,1921272.3],[461587.69,1921272.62],[461587.9,1921282.75]]]]}},{"type":"Feature","properties":{"building":"yes","height":6,"heightSource":"default"},"geometry":{"type":"MultiPolygon","coordinates":[[[[461598.81,1921270.46],[461610.38,1921270.22],[461610.18,1921261.03],[461598.61,1921261.28],[461598.81,1921270.46]]]]}},{"type":"Feature","properties":{"building":"yes","height":6,"heightSource":"default"},"geometry":{"type":"MultiPolygon","coordinates":[[[[461587.09,1921270.21],[461596.28,1921270.02],[461596.16,1921264.55],[461586.97,1921264.74],[461587.09,1921270.21]]]]}},{"type":"Feature","properties":{"building":"yes","height":6,"heightSource":"default"},"geometry":{"type":"MultiPolygon","coordinates":[[[[461586.56,1921253.07],[461598.77,1921253.01],[461598.72,1921243.32],[461586.5,1921243.38],[461586.56,1921253.07]]]]}},{"type":"Feature","properties":{"building":"yes","height":6,"heightSource":"default"},"geometry":{"type":"MultiPolygon","coordinates":[[[[461598.15,1921222.36],[461585.86,1921222.43],[461585.97,1921242.92],[461598.26,1921242.85],[461598.15,1921222.36]]]]}},{"type":"Feature","properties":{"building":"yes","height":6,"heightSource":"default"},"geometry":{"type":"MultiPolygon","coordinates":[[[[461608.67,1921229.18],[461608.63,1921222.81],[461599.78,1921222.86],[461599.82,1921229.22],[461608.67,1921229.18]]]]}},{"type":"Feature","properties":{"building":"yes","height":6,"heightSource":"default"},"geometry":{"type":"MultiPolygon","coordinates":[[[[461615.42,1921239.29],[461615.37,1921229.96],[461602.04,1921230.03],[461602.09,1921239.36],[461615.42,1921239.29]]]]}},{"type":"Feature","properties":{"building":"yes","height":6,"heightSource":"default"},"geometry":{"type":"MultiPolygon","coordinates":[[[[461623.45,1921233.61],[461632.24,1921233.56],[461632.16,1921218.4],[461623.37,1921218.45],[461623.45,1921233.61]]]]}},{"type":"Feature","properties":{"building":"yes","height":6,"heightSource":"default"},"geometry":{"type":"MultiPolygon","coordinates":[[[[461640.65,1921230.25],[461647.86,1921230.21],[461647.84,1921226.37],[461640.63,1921226.41],[461640.65,1921230.25]]]]}},{"type":"Feature","properties":{"building":"yes","height":6,"heightSource":"default"},"geometry":{"type":"MultiPolygon","coordinates":[[[[461639.7,1921235.42],[461646.38,1921235.38],[461646.35,1921231.33],[461639.68,1921231.37],[461639.7,1921235.42]]]]}},{"type":"Feature","properties":{"building":"yes","height":6,"heightSource":"default"},"geometry":{"type":"MultiPolygon","coordinates":[[[[461635.75,1921221.44],[461645.98,1921221.39],[461645.93,1921211.83],[461635.7,1921211.88],[461635.75,1921221.44]]]]}},{"type":"Feature","properties":{"building":"yes","height":6,"heightSource":"default"},"geometry":{"type":"MultiPolygon","coordinates":[[[[461656.99,1921222.82],[461663.73,1921221.29],[461662.82,1921217.32],[461656.07,1921218.86],[461656.99,1921222.82]]]]}},{"type":"Feature","properties":{"building":"yes","height":6,"heightSource":"default"},"geometry":{"type":"MultiPolygon","coordinates":[[[[461651.71,1921224.28],[461656.25,1921223.25],[461655.27,1921219],[461650.74,1921220.03],[461651.71,1921224.28]]]]}},{"type":"Feature","properties":{"building":"yes","height":6,"heightSource":"default"},"geometry":{"type":"MultiPolygon","coordinates":[[[[461662.43,1921216.4],[461660.67,1921208.78],[461653.58,1921210.4],[461655.33,1921218.02],[461662.43,1921216.4]]]]}},{"type":"Feature","properties":{"building":"yes","height":6,"heightSource":"default"},"geometry":{"type":"MultiPolygon","coordinates":[[[[461672.86,1921215.61],[461670.74,1921206.41],[461661.36,1921208.54],[461663.48,1921217.74],[461672.86,1921215.61]]]]}},{"type":"Feature","properties":{"building":"yes","height":6,"heightSource":"default"},"geometry":{"type":"MultiPolygon","coordinates":[[[[461730.6,1921313.76],[461738.11,1921313.88],[461738.21,1921307.58],[461730.7,1921307.47],[461730.6,1921313.76]]]]}},{"type":"Feature","properties":{"building":"yes","height":6,"heightSource":"default"},"geometry":{"type":"MultiPolygon","coordinates":[[[[461749.22,1921290.5],[461738.47,1921290.34],[461738.21,1921306.46],[461748.95,1921306.63],[461749.22,1921290.5]]]]}},{"type":"Feature","properties":{"building":"yes","height":6,"heightSource":"default"},"geometry":{"type":"MultiPolygon","coordinates":[[[[461707.69,1921288.1],[461716.07,1921288.24],[461716.25,1921277.61],[461707.86,1921277.47],[461707.69,1921288.1]]]]}},{"type":"Feature","properties":{"building":"yes","height":6,"heightSource":"default"},"geometry":{"type":"MultiPolygon","coordinates":[[[[461711.68,1921289.87],[461701.91,1921289.71],[461701.76,1921299.51],[461711.51,1921299.67],[461711.68,1921289.87]]]]}},{"type":"Feature","properties":{"building":"yes","height":6,"heightSource":"default"},"geometry":{"type":"MultiPolygon","coordinates":[[[[461698.15,1921311.73],[461707.26,1921312.51],[461708.07,1921303.08],[461698.96,1921302.3],[461698.15,1921311.73]]]]}},{"type":"Feature","properties":{"building":"yes","height":6,"heightSource":"default"},"geometry":{"type":"MultiPolygon","coordinates":[[[[461719.35,1921314.1],[461718.41,1921324.91],[461726.46,1921325.59],[461727.38,1921314.78],[461719.35,1921314.1]]]]}},{"type":"Feature","properties":{"building":"yes","height":6,"heightSource":"default"},"geometry":{"type":"MultiPolygon","coordinates":[[[[461698.46,1921323.31],[461716.87,1921324.88],[461717.78,1921314.32],[461699.36,1921312.75],[461698.46,1921323.31]]]]}},{"type":"Feature","properties":{"building":"yes","height":6,"heightSource":"default"},"geometry":{"type":"MultiPolygon","coordinates":[[[[461694.69,1921330.75],[461710.15,1921332.06],[461710.77,1921324.82],[461695.32,1921323.51],[461694.69,1921330.75]]]]}},{"type":"Feature","properties":{"building":"yes","height":6,"heightSource":"default"},"geometry":{"type":"MultiPolygon","coordinates":[[[[461708.39,1921360.57],[461714.58,1921360.62],[461714.64,1921353.62],[461708.46,1921353.55],[461708.39,1921360.57]]]]}},{"type":"Feature","properties":{"building":"yes","height":6,"heightSource":"default"},"geometry":{"type":"MultiPolygon","coordinates":[[[[461692.97,1921364.49],[461707.38,1921364.63],[461707.48,1921353.02],[461693.09,1921352.88],[461692.97,1921364.49]]]]}},{"type":"Feature","properties":{"building":"yes","height":6,"heightSource":"default"},"geometry":{"type":"MultiPolygon","coordinates":[[[[461717.07,1921375.63],[461722.59,1921375.68],[461722.69,1921365.92],[461717.17,1921365.87],[461717.07,1921375.63]]]]}},{"type":"Feature","properties":{"building":"yes","height":6,"heightSource":"default"},"geometry":{"type":"MultiPolygon","coordinates":[[[[461705.44,1921377.92],[461705.52,1921368.78],[461696.25,1921368.7],[461696.16,1921377.83],[461705.44,1921377.92]]]]}},{"type":"Feature","properties":{"building":"yes","height":6,"heightSource":"default"},"geometry":{"type":"MultiPolygon","coordinates":[[[[461721.95,1921393.21],[461721.82,1921384.02],[461716.41,1921384.09],[461716.55,1921393.3],[461721.95,1921393.21]]]]}},{"type":"Feature","properties":{"building":"yes","height":6,"heightSource":"default"},"geometry":{"type":"MultiPolygon","coordinates":[[[[461715.88,1921401.15],[461715.6,1921383],[461702.16,1921383.2],[461702.43,1921401.36],[461715.88,1921401.15]]]]}},{"type":"Feature","properties":{"building":"yes","height":6,"heightSource":"default"},"geometry":{"type":"MultiPolygon","coordinates":[[[[461709.25,1921418.09],[461714.26,1921418.02],[461714.11,1921407.67],[461709.09,1921407.75],[461709.25,1921418.09]]]]}},{"type":"Feature","properties":{"building":"yes","height":6,"heightSource":"default"},"geometry":{"type":"MultiPolygon","coordinates":[[[[461697.06,1921415.35],[461708.46,1921415.18],[461708.34,1921407.12],[461696.94,1921407.29],[461697.06,1921415.35]]]]}},{"type":"Feature","properties":{"building":"yes","height":6,"heightSource":"default"},"geometry":{"type":"MultiPolygon","coordinates":[[[[461695.8,1921429.9],[461695.69,1921422.2],[461688.6,1921422.3],[461688.72,1921430],[461695.8,1921429.9]]]]}},{"type":"Feature","properties":{"building":"yes","height":6,"heightSource":"default"},"geometry":{"type":"MultiPolygon","coordinates":[[[[461701.47,1921432.4],[461701.31,1921421.76],[461696.29,1921421.83],[461696.44,1921432.48],[461701.47,1921432.4]]]]}},{"type":"Feature","properties":{"building":"yes","height":6,"heightSource":"default"},"geometry":{"type":"MultiPolygon","coordinates":[[[[461707.71,1921433.74],[461707.53,1921421.43],[461702.81,1921421.5],[461702.99,1921433.8],[461707.71,1921433.74]]]]}},{"type":"Feature","properties":{"building":"yes","height":6,"heightSource":"default"},"geometry":{"type":"MultiPolygon","coordinates":[[[[461710.71,1921436.42],[461722.26,1921436.26],[461722.05,1921422.59],[461710.5,1921422.76],[461710.71,1921436.42]]]]}},{"type":"Feature","properties":{"building":"yes","height":6,"heightSource":"default"},"geometry":{"type":"MultiPolygon","coordinates":[[[[461749.38,1921375.25],[461763.05,1921377.63],[461764.34,1921370.36],[461750.66,1921367.99],[461749.38,1921375.25]]]]}},{"type":"Feature","properties":{"building":"yes","height":6,"heightSource":"default"},"geometry":{"type":"MultiPolygon","coordinates":[[[[461750.18,1921351.18],[461768.42,1921355.61],[461770.2,1921348.38],[461751.96,1921343.94],[461750.18,1921351.18]]]]}},{"type":"Feature","properties":{"building":"yes","height":6,"heightSource":"default"},"geometry":{"type":"MultiPolygon","coordinates":[[[[461773.36,1921329.54],[461781.23,1921331.46],[461782.83,1921324.92],[461774.98,1921323.01],[461773.36,1921329.54]]]]}},{"type":"Feature","properties":{"building":"yes","height":6,"heightSource":"default"},"geometry":{"type":"MultiPolygon","coordinates":[[[[461765.63,1921325.59],[461773.69,1921327.55],[461774.85,1921322.85],[461766.79,1921320.88],[461765.63,1921325.59]]]]}},{"type":"Feature","properties":{"building":"yes","height":6,"heightSource":"default"},"geometry":{"type":"MultiPolygon","coordinates":[[[[461757.97,1921323.56],[461765.26,1921325.32],[461766.53,1921320.19],[461759.24,1921318.42],[461757.97,1921323.56]]]]}},{"type":"Feature","properties":{"building":"yes","height":6,"heightSource":"default"},"geometry":{"type":"MultiPolygon","coordinates":[[[[461765.37,1921318.94],[461774.17,1921321.08],[461775.76,1921314.59],[461766.97,1921312.46],[461765.37,1921318.94]]]]}},{"type":"Feature","properties":{"building":"yes","height":6,"heightSource":"default"},"geometry":{"type":"MultiPolygon","coordinates":[[[[461763.14,1921310.24],[461778.1,1921313.87],[461781.08,1921301.77],[461766.12,1921298.14],[461763.14,1921310.24]]]]}},{"type":"Feature","properties":{"building":"yes","height":6,"heightSource":"default"},"geometry":{"type":"MultiPolygon","coordinates":[[[[461772.66,1921293.86],[461783.35,1921296.46],[461785.89,1921286.12],[461775.2,1921283.52],[461772.66,1921293.86]]]]}},{"type":"Feature","properties":{"building":"yes","height":6,"heightSource":"default"},"geometry":{"type":"MultiPolygon","coordinates":[[[[461665.38,1921104.54],[461666.63,1921110.91],[461675.5,1921109.19],[461674.26,1921102.82],[461665.38,1921104.54]]]]}},{"type":"Feature","properties":{"building":"yes","height":6,"heightSource":"default"},"geometry":{"type":"MultiPolygon","coordinates":[[[[461676.29,1921110.1],[461689.96,1921107.47],[461688.18,1921098.33],[461674.5,1921100.98],[461676.29,1921110.1]]]]}},{"type":"Feature","properties":{"building":"yes","height":6,"heightSource":"default"},"geometry":{"type":"MultiPolygon","coordinates":[[[[461670.13,1921127.11],[461690.99,1921124.88],[461689.59,1921111.91],[461668.73,1921114.14],[461670.13,1921127.11]]]]}},{"type":"Feature","properties":{"building":"yes","height":6,"heightSource":"default"},"geometry":{"type":"MultiPolygon","coordinates":[[[[461669.17,1921137.26],[461692.22,1921137.12],[461692.18,1921129.12],[461669.12,1921129.27],[461669.17,1921137.26]]]]}},{"type":"Feature","properties":{"building":"yes","height":6,"heightSource":"default"},"geometry":{"type":"MultiPolygon","coordinates":[[[[461684.29,1921160.15],[461698.26,1921159.98],[461698.14,1921150.47],[461684.18,1921150.64],[461684.29,1921160.15]]]]}},{"type":"Feature","properties":{"building":"yes","height":6,"heightSource":"default"},"geometry":{"type":"MultiPolygon","coordinates":[[[[461691.81,1921182.08],[461701.91,1921180.11],[461699.55,1921168.18],[461689.45,1921170.16],[461691.81,1921182.08]]]]}},{"type":"Feature","properties":{"building":"yes","height":6,"heightSource":"default"},"geometry":{"type":"MultiPolygon","coordinates":[[[[461674.09,1921184.8],[461681.64,1921183.33],[461682.24,1921186.34],[461689.54,1921184.91],[461685.07,1921162.29],[461670.2,1921165.2],[461674.09,1921184.8]]]]}},{"type":"Feature","properties":{"building":"yes","height":6,"heightSource":"default"},"geometry":{"type":"MultiPolygon","coordinates":[[[[461666.11,1921185.74],[461671.95,1921185.21],[461670.64,1921170.93],[461664.79,1921171.46],[461666.11,1921185.74]]]]}},{"type":"Feature","properties":{"building":"yes","height":6,"heightSource":"default"},"geometry":{"type":"MultiPolygon","coordinates":[[[[461664.14,1921172.85],[461655.41,1921173.64],[461656.36,1921184.03],[461665.1,1921183.23],[461664.14,1921172.85]]]]}},{"type":"Feature","properties":{"building":"yes","height":6,"heightSource":"default"},"geometry":{"type":"MultiPolygon","coordinates":[[[[461656.47,1921194.89],[461666.76,1921191.12],[461664.75,1921185.71],[461654.46,1921189.47],[461656.47,1921194.89]]]]}},{"type":"Feature","properties":{"building":"yes","height":6,"heightSource":"default"},"geometry":{"type":"MultiPolygon","coordinates":[[[[461639.99,1921197.47],[461643.94,1921196.02],[461640.5,1921186.74],[461636.55,1921188.18],[461639.99,1921197.47]]]]}},{"type":"Feature","properties":{"building":"yes","height":6,"heightSource":"default"},"geometry":{"type":"MultiPolygon","coordinates":[[[[461644.04,1921192.12],[461651.93,1921189.23],[461649,1921181.31],[461641.1,1921184.2],[461644.04,1921192.12]]]]}},{"type":"Feature","properties":{"building":"yes","height":6,"heightSource":"default"},"geometry":{"type":"MultiPolygon","coordinates":[[[[461645.18,1921198.17],[461654.33,1921194.82],[461652.39,1921189.59],[461643.25,1921192.94],[461645.18,1921198.17]]]]}},{"type":"Feature","properties":{"building":"yes","height":6,"heightSource":"default"},"geometry":{"type":"MultiPolygon","coordinates":[[[[461589.85,1921211.79],[461607.48,1921210.24],[461606.84,1921203.1],[461589.22,1921204.66],[461589.85,1921211.79]]]]}},{"type":"Feature","properties":{"building":"yes","height":6,"heightSource":"default"},"geometry":{"type":"MultiPolygon","coordinates":[[[[461588.56,1921202.31],[461602.22,1921202.68],[461602.44,1921194.71],[461588.79,1921194.34],[461588.56,1921202.31]]]]}},{"type":"Feature","properties":{"building":"yes","height":6,"heightSource":"default"},"geometry":{"type":"MultiPolygon","coordinates":[[[[461609.79,1921184.72],[461609.55,1921193.7],[461615.73,1921193.86],[461615.97,1921184.88],[461609.79,1921184.72]]]]}},{"type":"Feature","properties":{"building":"yes","height":6,"heightSource":"default"},"geometry":{"type":"MultiPolygon","coordinates":[[[[461596.15,1921184.17],[461595.89,1921193.35],[461608.99,1921193.7],[461609.24,1921184.53],[461596.15,1921184.17]]]]}},{"type":"Feature","properties":{"building":"yes","height":6,"heightSource":"default"},"geometry":{"type":"MultiPolygon","coordinates":[[[[461624.39,1921202.03],[461624.71,1921190.76],[461627.96,1921190.85],[461628.18,1921182.79],[461616.51,1921182.47],[461615.98,1921201.8],[461624.39,1921202.03]]]]}},{"type":"Feature","properties":{"building":"yes","height":6,"heightSource":"default"},"geometry":{"type":"MultiPolygon","coordinates":[[[[461594.08,1921181.09],[461608.4,1921181.92],[461608.93,1921172.68],[461594.62,1921171.86],[461594.08,1921181.09]]]]}},{"type":"Feature","properties":{"building":"yes","height":6,"heightSource":"default"},"geometry":{"type":"MultiPolygon","coordinates":[[[[461624.27,1921172.89],[461629.29,1921172.85],[461629.25,1921168.06],[461624.22,1921168.12],[461624.27,1921172.89]]]]}},{"type":"Feature","properties":{"building":"yes","height":6,"heightSource":"default"},"geometry":{"type":"MultiPolygon","coordinates":[[[[461597.84,1921170.5],[461609.9,1921170.82],[461610.15,1921161.03],[461598.1,1921160.72],[461597.84,1921170.5]]]]}},{"type":"Feature","properties":{"building":"yes","height":6,"heightSource":"default"},"geometry":{"type":"MultiPolygon","coordinates":[[[[461640.22,1921165.82],[461649.9,1921165.88],[461649.94,1921157.31],[461640.26,1921157.25],[461640.22,1921165.82]]]]}},{"type":"Feature","properties":{"building":"yes","height":6,"heightSource":"default"},"geometry":{"type":"MultiPolygon","coordinates":[[[[461649.65,1921151.57],[461659.78,1921151.7],[461659.89,1921142.11],[461649.77,1921141.98],[461649.65,1921151.57]]]]}},{"type":"Feature","properties":{"building":"yes","height":6,"heightSource":"default"},"geometry":{"type":"MultiPolygon","coordinates":[[[[461621.41,1921129.89],[461619.4,1921137.67],[461623.43,1921138.69],[461622.73,1921141.42],[461631.62,1921143.67],[461634.32,1921133.17],[461621.41,1921129.89]]]]}},{"type":"Feature","properties":{"building":"yes","height":6,"heightSource":"default"},"geometry":{"type":"MultiPolygon","coordinates":[[[[461606.48,1921137.21],[461617.06,1921139.9],[461619.86,1921129.07],[461609.26,1921126.38],[461606.48,1921137.21]]]]}},{"type":"Feature","properties":{"building":"yes","height":6,"heightSource":"default"},"geometry":{"type":"MultiPolygon","coordinates":[[[[461641.02,1921143.8],[461647.53,1921144.42],[461648.37,1921135.63],[461641.87,1921135.03],[461641.02,1921143.8]]]]}},{"type":"Feature","properties":{"building":"yes","height":6,"heightSource":"default"},"geometry":{"type":"MultiPolygon","coordinates":[[[[461629.09,1921122.73],[461634.51,1921123.52],[461635.55,1921116.48],[461630.13,1921115.69],[461629.09,1921122.73]]]]}},{"type":"Feature","properties":{"building":"yes","height":6,"heightSource":"default"},"geometry":{"type":"MultiPolygon","coordinates":[[[[461618.04,1921120.48],[461627.52,1921121.88],[461628.54,1921115.06],[461619.06,1921113.66],[461618.04,1921120.48]]]]}},{"type":"Feature","properties":{"building":"yes","height":6,"heightSource":"default"},"geometry":{"type":"MultiPolygon","coordinates":[[[[461619.16,1921109.01],[461632.91,1921112.31],[461634.66,1921105.14],[461620.91,1921101.84],[461619.16,1921109.01]]]]}},{"type":"Feature","properties":{"building":"yes","height":6,"heightSource":"default"},"geometry":{"type":"MultiPolygon","coordinates":[[[[461621,1921098.39],[461633.54,1921103.25],[461636.74,1921095.1],[461624.19,1921090.23],[461621,1921098.39]]]]}},{"type":"Feature","properties":{"building":"yes","height":6,"heightSource":"default"},"geometry":{"type":"MultiPolygon","coordinates":[[[[461626.94,1921077.35],[461641.76,1921079.23],[461643.14,1921068.48],[461628.32,1921066.6],[461626.94,1921077.35]]]]}},{"type":"Feature","properties":{"building":"yes","height":6,"heightSource":"default"},"geometry":{"type":"MultiPolygon","coordinates":[[[[461643.4,1921065.75],[461651.54,1921066.09],[461651.94,1921056.98],[461643.8,1921056.63],[461643.4,1921065.75]]]]}},{"type":"Feature","properties":{"building":"yes","height":6,"heightSource":"default"},"geometry":{"type":"MultiPolygon","coordinates":[[[[461653.71,1921064.65],[461662.88,1921065.86],[461665.04,1921049.82],[461655.87,1921048.6],[461653.71,1921064.65]]]]}},{"type":"Feature","properties":{"building":"yes","height":6,"heightSource":"default"},"geometry":{"type":"MultiPolygon","coordinates":[[[[461666.16,1921061.73],[461676.67,1921062.19],[461677.21,1921049.89],[461666.69,1921049.44],[461666.16,1921061.73]]]]}},{"type":"Feature","properties":{"building":"yes","height":6,"heightSource":"default"},"geometry":{"type":"MultiPolygon","coordinates":[[[[461678.12,1921062.03],[461688.35,1921062.47],[461688.8,1921052.04],[461678.58,1921051.61],[461678.12,1921062.03]]]]}},{"type":"Feature","properties":{"building":"yes","height":6,"heightSource":"default"},"geometry":{"type":"MultiPolygon","coordinates":[[[[461581.53,1921138.39],[461595.57,1921139.64],[461596.4,1921130.36],[461582.37,1921129.12],[461581.53,1921138.39]]]]}},{"type":"Feature","properties":{"building":"yes","height":6,"heightSource":"default"},"geometry":{"type":"MultiPolygon","coordinates":[[[[461580.94,1921160.91],[461587.21,1921161.04],[461587.28,1921157.51],[461581.01,1921157.38],[461580.94,1921160.91]]]]}},{"type":"Feature","properties":{"building":"yes","height":6,"heightSource":"default"},"geometry":{"type":"MultiPolygon","coordinates":[[[[461580.43,1921155.31],[461589.89,1921155.23],[461589.81,1921145.52],[461580.34,1921145.61],[461580.43,1921155.31]]]]}},{"type":"Feature","properties":{"building":"yes","height":6,"heightSource":"default"},"geometry":{"type":"MultiPolygon","coordinates":[[[[461575.58,1921152.21],[461575.34,1921138.19],[461565.72,1921138.36],[461565.96,1921152.37],[461575.58,1921152.21]]]]}},{"type":"Feature","properties":{"building":"yes","height":6,"heightSource":"default"},"geometry":{"type":"MultiPolygon","coordinates":[[[[461550.51,1921156.01],[461563.48,1921156.4],[461563.79,1921146.55],[461550.82,1921146.14],[461550.51,1921156.01]]]]}},{"type":"Feature","properties":{"building":"yes","height":6,"heightSource":"default"},"geometry":{"type":"MultiPolygon","coordinates":[[[[461547.26,1921169.26],[461561.37,1921170.57],[461562.38,1921159.88],[461548.27,1921158.56],[461547.26,1921169.26]]]]}},{"type":"Feature","properties":{"building":"yes","height":6,"heightSource":"default"},"geometry":{"type":"MultiPolygon","coordinates":[[[[461565.78,1921172.47],[461580.44,1921174.29],[461581.3,1921167.49],[461566.64,1921165.67],[461565.78,1921172.47]]]]}},{"type":"Feature","properties":{"building":"yes","height":6,"heightSource":"default"},"geometry":{"type":"MultiPolygon","coordinates":[[[[461545.36,1921180.51],[461560.73,1921182.42],[461561.73,1921174.46],[461546.35,1921172.55],[461545.36,1921180.51]]]]}},{"type":"Feature","properties":{"building":"yes","height":6,"heightSource":"default"},"geometry":{"type":"MultiPolygon","coordinates":[[[[461561.89,1921182.33],[461576.49,1921184.14],[461577.46,1921176.39],[461562.86,1921174.58],[461561.89,1921182.33]]]]}},{"type":"Feature","properties":{"building":"yes","height":6,"heightSource":"default"},"geometry":{"type":"MultiPolygon","coordinates":[[[[461563.54,1921190.95],[461577.79,1921192.42],[461578.48,1921185.78],[461564.23,1921184.31],[461563.54,1921190.95]]]]}},{"type":"Feature","properties":{"building":"yes","height":6,"heightSource":"default"},"geometry":{"type":"MultiPolygon","coordinates":[[[[461554.43,1921199.26],[461571.75,1921202.2],[461573.09,1921194.42],[461555.78,1921191.48],[461554.43,1921199.26]]]]}},{"type":"Feature","properties":{"building":"yes","height":6,"heightSource":"default"},"geometry":{"type":"MultiPolygon","coordinates":[[[[461573.33,1921211.4],[461573.81,1921205.16],[461561.77,1921204.27],[461561.3,1921210.51],[461573.33,1921211.4]]]]}},{"type":"Feature","properties":{"building":"yes","height":6,"heightSource":"default"},"geometry":{"type":"MultiPolygon","coordinates":[[[[461561.02,1921218.72],[461572.36,1921218.76],[461572.38,1921212.82],[461561.06,1921212.77],[461561.02,1921218.72]]]]}},{"type":"Feature","properties":{"building":"yes","height":6,"heightSource":"default"},"geometry":{"type":"MultiPolygon","coordinates":[[[[461537.52,1921215.57],[461547.81,1921216.98],[461549.17,1921207.14],[461545.96,1921206.71],[461546.57,1921202.38],[461539.48,1921201.41],[461537.52,1921215.57]]]]}},{"type":"Feature","properties":{"building":"yes","height":6,"heightSource":"default"},"geometry":{"type":"MultiPolygon","coordinates":[[[[461535.87,1921212.89],[461537.92,1921200.35],[461531.22,1921199.28],[461529.17,1921211.81],[461535.87,1921212.89]]]]}},{"type":"Feature","properties":{"building":"yes","height":6,"heightSource":"default"},"geometry":{"type":"MultiPolygon","coordinates":[[[[461531.09,1921186.95],[461538.05,1921188.11],[461539.4,1921180.09],[461532.44,1921178.94],[461531.09,1921186.95]]]]}},{"type":"Feature","properties":{"building":"yes","height":6,"heightSource":"default"},"geometry":{"type":"MultiPolygon","coordinates":[[[[461523.9,1921207.67],[461526.22,1921194],[461514.82,1921192.09],[461512.49,1921205.75],[461523.9,1921207.67]]]]}},{"type":"Feature","properties":{"building":"yes","height":6,"heightSource":"default"},"geometry":{"type":"MultiPolygon","coordinates":[[[[461521.99,1921184.59],[461521.34,1921174.18],[461511.1,1921174.83],[461511.77,1921185.23],[461521.99,1921184.59]]]]}},{"type":"Feature","properties":{"building":"yes","height":6,"heightSource":"default"},"geometry":{"type":"MultiPolygon","coordinates":[[[[461510.93,1921169.6],[461521.61,1921167.46],[461520.01,1921159.63],[461509.34,1921161.77],[461510.93,1921169.6]]]]}},{"type":"Feature","properties":{"building":"yes","height":6,"heightSource":"default"},"geometry":{"type":"MultiPolygon","coordinates":[[[[461520.94,1921152.03],[461528.27,1921151.94],[461528.21,1921145.84],[461520.87,1921145.92],[461520.94,1921152.03]]]]}},{"type":"Feature","properties":{"building":"yes","height":6,"heightSource":"default"},"geometry":{"type":"MultiPolygon","coordinates":[[[[461497.17,1921161.48],[461506.85,1921158.63],[461504.73,1921151.52],[461495.05,1921154.38],[461497.17,1921161.48]]]]}},{"type":"Feature","properties":{"building":"yes","height":6,"heightSource":"default"},"geometry":{"type":"MultiPolygon","coordinates":[[[[461483.8,1921136.31],[461483.57,1921129.58],[461477.76,1921129.78],[461477.99,1921136.51],[461483.8,1921136.31]]]]}},{"type":"Feature","properties":{"building":"yes","height":6,"heightSource":"default"},"geometry":{"type":"MultiPolygon","coordinates":[[[[461491.76,1921129.42],[461491.11,1921122],[461483.97,1921122.61],[461484.64,1921130.04],[461491.76,1921129.42]]]]}},{"type":"Feature","properties":{"building":"yes","height":6,"heightSource":"default"},"geometry":{"type":"MultiPolygon","coordinates":[[[[461503.37,1921127.07],[461503.21,1921117.8],[461495.58,1921117.92],[461495.74,1921127.2],[461503.37,1921127.07]]]]}},{"type":"Feature","properties":{"building":"yes","height":6,"heightSource":"default"},"geometry":{"type":"MultiPolygon","coordinates":[[[[461504.19,1921143.7],[461512.3,1921142.63],[461511.33,1921135.38],[461503.21,1921136.46],[461504.19,1921143.7]]]]}},{"type":"Feature","properties":{"building":"yes","height":6,"heightSource":"default"},"geometry":{"type":"MultiPolygon","coordinates":[[[[461529.11,1921141.04],[461528.45,1921129.85],[461518.92,1921130.41],[461519.58,1921141.6],[461529.11,1921141.04]]]]}},{"type":"Feature","properties":{"building":"yes","height":6,"heightSource":"default"},"geometry":{"type":"MultiPolygon","coordinates":[[[[461556.3,1921132.71],[461556.85,1921116.07],[461547.37,1921115.77],[461546.83,1921132.41],[461556.3,1921132.71]]]]}},{"type":"Feature","properties":{"building":"yes","height":6,"heightSource":"default"},"geometry":{"type":"MultiPolygon","coordinates":[[[[461543.27,1921132.03],[461543.53,1921120.55],[461536.16,1921120.39],[461535.9,1921131.85],[461543.27,1921132.03]]]]}},{"type":"Feature","properties":{"building":"yes","height":6,"heightSource":"default"},"geometry":{"type":"MultiPolygon","coordinates":[[[[461574.88,1921127.36],[461574.48,1921117.09],[461564.87,1921117.46],[461565.27,1921127.74],[461574.88,1921127.36]]]]}},{"type":"Feature","properties":{"building":"yes","height":6,"heightSource":"default"},"geometry":{"type":"MultiPolygon","coordinates":[[[[461580.94,1921127.98],[461596.18,1921127.68],[461596.03,1921120.08],[461593.04,1921120.14],[461592.98,1921117.2],[461584.51,1921117.38],[461584.57,1921120.31],[461580.79,1921120.38],[461580.94,1921127.98]]]]}},{"type":"Feature","properties":{"building":"yes","height":6,"heightSource":"default"},"geometry":{"type":"MultiPolygon","coordinates":[[[[461590.31,1921111.33],[461603.28,1921110.86],[461602.83,1921098.35],[461589.86,1921098.81],[461590.31,1921111.33]]]]}},{"type":"Feature","properties":{"building":"yes","height":6,"heightSource":"default"},"geometry":{"type":"MultiPolygon","coordinates":[[[[461587.53,1921107.16],[461587.14,1921096.43],[461579.82,1921096.7],[461580.21,1921107.42],[461587.53,1921107.16]]]]}},{"type":"Feature","properties":{"building":"yes","height":6,"heightSource":"default"},"geometry":{"type":"MultiPolygon","coordinates":[[[[461569,1921105.57],[461568.6,1921094.41],[461558.94,1921094.75],[461559.35,1921105.92],[461569,1921105.57]]]]}},{"type":"Feature","properties":{"building":"yes","height":6,"heightSource":"default"},"geometry":{"type":"MultiPolygon","coordinates":[[[[461546.72,1921106.81],[461555.81,1921106.48],[461555.53,1921098.72],[461546.43,1921099.05],[461546.72,1921106.81]]]]}},{"type":"Feature","properties":{"building":"yes","height":6,"heightSource":"default"},"geometry":{"type":"MultiPolygon","coordinates":[[[[461536.65,1921097.97],[461547.9,1921097.58],[461547.69,1921091.51],[461536.43,1921091.92],[461536.65,1921097.97]]]]}},{"type":"Feature","properties":{"building":"yes","height":6,"heightSource":"default"},"geometry":{"type":"MultiPolygon","coordinates":[[[[461534.31,1921101.6],[461533.86,1921089.27],[461518.63,1921089.83],[461519.08,1921102.14],[461534.31,1921101.6]]]]}},{"type":"Feature","properties":{"building":"yes","height":6,"heightSource":"default"},"geometry":{"type":"MultiPolygon","coordinates":[[[[461499.63,1921109.31],[461499.19,1921099.81],[461491.92,1921100.16],[461492.36,1921109.64],[461499.63,1921109.31]]]]}},{"type":"Feature","properties":{"building":"yes","height":6,"heightSource":"default"},"geometry":{"type":"MultiPolygon","coordinates":[[[[461527.22,1921081.14],[461538.83,1921081.76],[461539.19,1921075.15],[461527.58,1921074.53],[461527.22,1921081.14]]]]}},{"type":"Feature","properties":{"building":"yes","height":6,"heightSource":"default"},"geometry":{"type":"MultiPolygon","coordinates":[[[[461582.3,1921091.45],[461582.07,1921082.04],[461574.65,1921082.21],[461574.88,1921091.63],[461582.3,1921091.45]]]]}},{"type":"Feature","properties":{"building":"yes","height":6,"heightSource":"default"},"geometry":{"type":"MultiPolygon","coordinates":[[[[461605.47,1921097.36],[461606.93,1921087.03],[461586.99,1921084.22],[461585.52,1921094.54],[461605.47,1921097.36]]]]}},{"type":"Feature","properties":{"building":"yes","height":6,"heightSource":"default"},"geometry":{"type":"MultiPolygon","coordinates":[[[[461589.67,1921070.84],[461576.92,1921069.03],[461575.37,1921079.92],[461588.12,1921081.71],[461589.67,1921070.84]]]]}},{"type":"Feature","properties":{"building":"yes","height":6,"heightSource":"default"},"geometry":{"type":"MultiPolygon","coordinates":[[[[461594.54,1921082.79],[461605.43,1921084.33],[461607.13,1921072.43],[461596.23,1921070.9],[461594.54,1921082.79]]]]}},{"type":"Feature","properties":{"building":"yes","height":6,"heightSource":"default"},"geometry":{"type":"MultiPolygon","coordinates":[[[[461574.13,1921066.62],[461588.52,1921068.64],[461589.61,1921061.03],[461575.21,1921059],[461574.13,1921066.62]]]]}},{"type":"Feature","properties":{"building":"yes","height":6,"heightSource":"default"},"geometry":{"type":"MultiPolygon","coordinates":[[[[461602.6,1921054.95],[461616.16,1921060.33],[461618.56,1921054.35],[461605,1921048.98],[461602.6,1921054.95]]]]}},{"type":"Feature","properties":{"building":"yes","height":6,"heightSource":"default"},"geometry":{"type":"MultiPolygon","coordinates":[[[[461609.07,1921048.85],[461618.84,1921052.73],[461623.11,1921042.1],[461613.34,1921038.22],[461609.07,1921048.85]]]]}},{"type":"Feature","properties":{"building":"yes","height":6,"heightSource":"default"},"geometry":{"type":"MultiPolygon","coordinates":[[[[461580.31,1921057.9],[461580.57,1921045.3],[461570.52,1921045.08],[461570.26,1921057.69],[461580.31,1921057.9]]]]}},{"type":"Feature","properties":{"building":"yes","height":6,"heightSource":"default"},"geometry":{"type":"MultiPolygon","coordinates":[[[[461595.25,1921044.56],[461599.22,1921034.2],[461585.31,1921028.93],[461581.35,1921039.29],[461595.25,1921044.56]]]]}},{"type":"Feature","properties":{"building":"yes","height":6,"heightSource":"default"},"geometry":{"type":"MultiPolygon","coordinates":[[[[461579.28,1921042.25],[461583.83,1921030.42],[461575.33,1921027.2],[461570.79,1921039.03],[461579.28,1921042.25]]]]}},{"type":"Feature","properties":{"building":"yes","height":6,"heightSource":"default"},"geometry":{"type":"MultiPolygon","coordinates":[[[[461520.92,1921027.78],[461524.85,1921038.24],[461530.09,1921036.3],[461526.16,1921025.83],[461520.92,1921027.78]]]]}},{"type":"Feature","properties":{"building":"yes","height":6,"heightSource":"default"},"geometry":{"type":"MultiPolygon","coordinates":[[[[461538.1,1921033.62],[461549.35,1921033.1],[461548.9,1921023.26],[461537.64,1921023.77],[461538.1,1921033.62]]]]}},{"type":"Feature","properties":{"building":"yes","height":6,"heightSource":"default"},"geometry":{"type":"MultiPolygon","coordinates":[[[[461526.38,1921014.74],[461526.29,1921008.15],[461518.39,1921008.25],[461518.48,1921014.84],[461526.38,1921014.74]]]]}},{"type":"Feature","properties":{"building":"yes","height":6,"heightSource":"default"},"geometry":{"type":"MultiPolygon","coordinates":[[[[461499.4,1921061.02],[461513.77,1921056.75],[461509.86,1921043.74],[461495.49,1921048.01],[461499.4,1921061.02]]]]}},{"type":"Feature","properties":{"building":"yes","height":6,"heightSource":"default"},"geometry":{"type":"MultiPolygon","coordinates":[[[[461497.84,1921028.59],[461502.46,1921026.4],[461498.75,1921018.69],[461494.13,1921020.88],[461497.84,1921028.59]]]]}},{"type":"Feature","properties":{"building":"yes","height":6,"heightSource":"default"},"geometry":{"type":"MultiPolygon","coordinates":[[[[461487.52,1921033.71],[461496.11,1921029.64],[461490.98,1921018.98],[461482.39,1921023.07],[461487.52,1921033.71]]]]}},{"type":"Feature","properties":{"building":"yes","height":6,"heightSource":"default"},"geometry":{"type":"MultiPolygon","coordinates":[[[[461471.91,1921027.72],[461488.21,1921019.98],[461480.98,1921004.96],[461464.68,1921012.7],[461471.91,1921027.72]]]]}},{"type":"Feature","properties":{"building":"yes","height":6,"heightSource":"default"},"geometry":{"type":"MultiPolygon","coordinates":[[[[461420.21,1920994.69],[461423.86,1920987.12],[461415.55,1920983.16],[461411.89,1920990.73],[461420.21,1920994.69]]]]}},{"type":"Feature","properties":{"building":"yes","height":6,"heightSource":"default"},"geometry":{"type":"MultiPolygon","coordinates":[[[[461425.25,1920987.24],[461421.45,1920995.11],[461435.64,1921001.87],[461439.43,1920994.02],[461425.25,1920987.24]]]]}},{"type":"Feature","properties":{"building":"yes","height":6,"heightSource":"default"},"geometry":{"type":"MultiPolygon","coordinates":[[[[461435.84,1920975.76],[461432.1,1920984.09],[461442.44,1920988.67],[461446.17,1920980.34],[461435.84,1920975.76]]]]}},{"type":"Feature","properties":{"building":"yes","height":6,"heightSource":"default"},"geometry":{"type":"MultiPolygon","coordinates":[[[[461406.65,1921093.84],[461413.04,1921086.39],[461405.1,1921079.65],[461398.71,1921087.09],[461406.65,1921093.84]]]]}},{"type":"Feature","properties":{"building":"yes","height":6,"heightSource":"default"},"geometry":{"type":"MultiPolygon","coordinates":[[[[461497.9,1921213.59],[461506.87,1921206.78],[461502.1,1921200.57],[461493.13,1921207.39],[461497.9,1921213.59]]]]}},{"type":"Feature","properties":{"building":"yes","height":6,"heightSource":"default"},"geometry":{"type":"MultiPolygon","coordinates":[[[[461497.92,1921221.52],[461497.94,1921230.73],[461501.78,1921230.72],[461501.79,1921233.7],[461513.76,1921233.67],[461513.75,1921230.63],[461516.81,1921230.63],[461516.79,1921221.49],[461497.92,1921221.52]]]]}},{"type":"Feature","properties":{"building":"yes","height":6,"heightSource":"default"},"geometry":{"type":"MultiPolygon","coordinates":[[[[461498.66,1921272.64],[461498.65,1921265.98],[461492.49,1921266],[461492.5,1921272.66],[461498.66,1921272.64]]]]}},{"type":"Feature","properties":{"building":"yes","height":6,"heightSource":"default"},"geometry":{"type":"MultiPolygon","coordinates":[[[[461510.41,1921272.75],[461510.4,1921265.61],[461500.21,1921265.63],[461500.22,1921272.77],[461510.41,1921272.75]]]]}},{"type":"Feature","properties":{"building":"yes","height":6,"heightSource":"default"},"geometry":{"type":"MultiPolygon","coordinates":[[[[461563.27,1921237.97],[461570.27,1921238.14],[461570.52,1921227.76],[461563.52,1921227.59],[461563.27,1921237.97]]]]}},{"type":"Feature","properties":{"building":"yes","height":6,"heightSource":"default"},"geometry":{"type":"MultiPolygon","coordinates":[[[[461548.74,1921272.68],[461564.54,1921273.06],[461564.74,1921264.23],[461548.95,1921263.86],[461548.74,1921272.68]]]]}},{"type":"Feature","properties":{"building":"yes","height":6,"heightSource":"default"},"geometry":{"type":"MultiPolygon","coordinates":[[[[461533.8,1921285.25],[461546.22,1921285.54],[461546.46,1921275.45],[461534.04,1921275.16],[461533.8,1921285.25]]]]}},{"type":"Feature","properties":{"building":"yes","height":6,"heightSource":"default"},"geometry":{"type":"MultiPolygon","coordinates":[[[[461553.34,1921293.99],[461574.64,1921294.49],[461574.83,1921286.16],[461553.53,1921285.66],[461553.34,1921293.99]]]]}},{"type":"Feature","properties":{"building":"yes","height":6,"heightSource":"default"},"geometry":{"type":"MultiPolygon","coordinates":[[[[461553.65,1921308.51],[461568.65,1921308.85],[461568.94,1921297.01],[461553.93,1921296.65],[461553.65,1921308.51]]]]}},{"type":"Feature","properties":{"building":"yes","height":6,"heightSource":"default"},"geometry":{"type":"MultiPolygon","coordinates":[[[[461552.11,1921323.51],[461573.51,1921324.02],[461573.81,1921311.43],[461552.41,1921310.93],[461552.11,1921323.51]]]]}},{"type":"Feature","properties":{"building":"yes","height":6,"heightSource":"default"},"geometry":{"type":"MultiPolygon","coordinates":[[[[461555.62,1921332.29],[461561.97,1921332.43],[461562.09,1921327.53],[461555.74,1921327.38],[461555.62,1921332.29]]]]}},{"type":"Feature","properties":{"building":"yes","height":6,"heightSource":"default"},"geometry":{"type":"MultiPolygon","coordinates":[[[[461543.14,1921330.9],[461551.48,1921331.09],[461551.63,1921324.91],[461543.29,1921324.71],[461543.14,1921330.9]]]]}},{"type":"Feature","properties":{"building":"yes","height":6,"heightSource":"default"},"geometry":{"type":"MultiPolygon","coordinates":[[[[461571.05,1921358.2],[461571.12,1921348.37],[461566.01,1921348.34],[461565.94,1921358.17],[461571.05,1921358.2]]]]}},{"type":"Feature","properties":{"building":"yes","height":6,"heightSource":"default"},"geometry":{"type":"MultiPolygon","coordinates":[[[[461548.46,1921357.44],[461564.6,1921357.54],[461564.68,1921345.16],[461548.55,1921345.05],[461548.46,1921357.44]]]]}},{"type":"Feature","properties":{"building":"yes","height":6,"heightSource":"default"},"geometry":{"type":"MultiPolygon","coordinates":[[[[461571.37,1921377.78],[461571.42,1921369.55],[461564.94,1921369.51],[461564.89,1921377.74],[461571.37,1921377.78]]]]}},{"type":"Feature","properties":{"building":"yes","height":6,"heightSource":"default"},"geometry":{"type":"MultiPolygon","coordinates":[[[[461572.58,1921375.87],[461576.55,1921375.89],[461576.62,1921366.09],[461572.65,1921366.07],[461572.58,1921375.87]]]]}},{"type":"Feature","properties":{"building":"yes","height":6,"heightSource":"default"},"geometry":{"type":"MultiPolygon","coordinates":[[[[461559.62,1921397.41],[461571.05,1921397.49],[461571.11,1921389.18],[461559.68,1921389.1],[461559.62,1921397.41]]]]}},{"type":"Feature","properties":{"building":"yes","height":6,"heightSource":"default"},"geometry":{"type":"MultiPolygon","coordinates":[[[[461561.96,1921409.44],[461570.07,1921409.49],[461570.13,1921400.51],[461562.01,1921400.46],[461561.96,1921409.44]]]]}},{"type":"Feature","properties":{"building":"yes","height":6,"heightSource":"default"},"geometry":{"type":"MultiPolygon","coordinates":[[[[461561.79,1921414.65],[461569.62,1921414.7],[461569.65,1921409.93],[461561.82,1921409.87],[461561.79,1921414.65]]]]}},{"type":"Feature","properties":{"building":"yes","height":6,"heightSource":"default"},"geometry":{"type":"MultiPolygon","coordinates":[[[[461561.45,1921423.96],[461574.1,1921424.04],[461574.15,1921415.51],[461561.51,1921415.44],[461561.45,1921423.96]]]]}},{"type":"Feature","properties":{"building":"yes","height":6,"heightSource":"default"},"geometry":{"type":"MultiPolygon","coordinates":[[[[461539.22,1921403.33],[461548.58,1921403.08],[461548.4,1921396.16],[461539.04,1921396.4],[461539.22,1921403.33]]]]}},{"type":"Feature","properties":{"building":"yes","height":6,"heightSource":"default"},"geometry":{"type":"MultiPolygon","coordinates":[[[[461540.25,1921415.58],[461552.21,1921415.27],[461552.02,1921407.89],[461540.05,1921408.19],[461540.25,1921415.58]]]]}},{"type":"Feature","properties":{"building":"yes","height":6,"heightSource":"default"},"geometry":{"type":"MultiPolygon","coordinates":[[[[461558.69,1921450.37],[461563.09,1921434.67],[461533.79,1921426.57],[461529.39,1921442.25],[461558.69,1921450.37]]]]}},{"type":"Feature","properties":{"building":"yes","height":6,"heightSource":"default"},"geometry":{"type":"MultiPolygon","coordinates":[[[[461542.66,1921449.2],[461540.79,1921455.86],[461557.04,1921460.36],[461558.91,1921453.7],[461542.66,1921449.2]]]]}},{"type":"Feature","properties":{"building":"yes","height":6,"heightSource":"default"},"geometry":{"type":"MultiPolygon","coordinates":[[[[461532.6,1921478.03],[461539.58,1921481],[461541.63,1921476.22],[461534.64,1921473.26],[461532.6,1921478.03]]]]}},{"type":"Feature","properties":{"building":"yes","height":6,"heightSource":"default"},"geometry":{"type":"MultiPolygon","coordinates":[[[[461533.4,1921486.53],[461533.41,1921490.92],[461537.39,1921490.91],[461537.38,1921486.52],[461533.4,1921486.53]]]]}},{"type":"Feature","properties":{"building":"yes","height":6,"heightSource":"default"},"geometry":{"type":"MultiPolygon","coordinates":[[[[461527.49,1921488.02],[461532.47,1921488.01],[461532.46,1921483.27],[461527.48,1921483.28],[461527.49,1921488.02]]]]}},{"type":"Feature","properties":{"building":"yes","height":6,"heightSource":"default"},"geometry":{"type":"MultiPolygon","coordinates":[[[[461523.4,1921510.19],[461533.07,1921500.97],[461526.4,1921494.06],[461516.73,1921503.29],[461523.4,1921510.19]]]]}},{"type":"Feature","properties":{"building":"yes","height":6,"heightSource":"default"},"geometry":{"type":"MultiPolygon","coordinates":[[[[461516.75,1921534.7],[461520.54,1921524.4],[461516.94,1921523.09],[461513.15,1921533.39],[461516.75,1921534.7]]]]}},{"type":"Feature","properties":{"building":"yes","height":6,"heightSource":"default"},"geometry":{"type":"MultiPolygon","coordinates":[[[[461501.2,1921527.37],[461504.98,1921517.13],[461498.68,1921514.84],[461494.91,1921525.08],[461501.2,1921527.37]]]]}},{"type":"Feature","properties":{"building":"yes","height":6,"heightSource":"default"},"geometry":{"type":"MultiPolygon","coordinates":[[[[461513.46,1921530.18],[461516.09,1921523.06],[461505.53,1921519.22],[461502.91,1921526.34],[461513.46,1921530.18]]]]}},{"type":"Feature","properties":{"building":"yes","height":6,"heightSource":"default"},"geometry":{"type":"MultiPolygon","coordinates":[[[[461502.34,1921527.43],[461499.85,1921534.21],[461510.69,1921538.15],[461513.18,1921531.38],[461502.34,1921527.43]]]]}},{"type":"Feature","properties":{"building":"yes","height":6,"heightSource":"default"},"geometry":{"type":"MultiPolygon","coordinates":[[[[461545.72,1921526.37],[461559.94,1921529.02],[461562.23,1921516.92],[461548.02,1921514.26],[461545.72,1921526.37]]]]}},{"type":"Feature","properties":{"building":"yes","height":6,"heightSource":"default"},"geometry":{"type":"MultiPolygon","coordinates":[[[[461544.65,1921528.41],[461540.68,1921549.48],[461559.06,1921552.9],[461563.04,1921531.85],[461544.65,1921528.41]]]]}},{"type":"Feature","properties":{"building":"yes","height":6,"heightSource":"default"},"geometry":{"type":"MultiPolygon","coordinates":[[[[461612.88,1921553.99],[461621.86,1921554.22],[461622.06,1921546.16],[461613.09,1921545.92],[461612.88,1921553.99]]]]}},{"type":"Feature","properties":{"building":"yes","height":6,"heightSource":"default"},"geometry":{"type":"MultiPolygon","coordinates":[[[[461577.02,1921505.49],[461581.21,1921496.21],[461569.46,1921490.97],[461566.47,1921497.61],[461572.82,1921500.43],[461571.62,1921503.08],[461577.02,1921505.49]]]]}},{"type":"Feature","properties":{"building":"yes","height":6,"heightSource":"default"},"geometry":{"type":"MultiPolygon","coordinates":[[[[461594.96,1921458.73],[461604.73,1921458.79],[461604.81,1921448.66],[461595.03,1921448.59],[461594.96,1921458.73]]]]}},{"type":"Feature","properties":{"building":"yes","height":6,"heightSource":"default"},"geometry":{"type":"MultiPolygon","coordinates":[[[[461594.1,1921459.12],[461594.16,1921450.87],[461590.1,1921450.84],[461590.04,1921459.1],[461594.1,1921459.12]]]]}},{"type":"Feature","properties":{"building":"yes","height":6,"heightSource":"default"},"geometry":{"type":"MultiPolygon","coordinates":[[[[461635.84,1921452.43],[461625.15,1921452.66],[461625.3,1921459.36],[461635.99,1921459.13],[461635.84,1921452.43]]]]}},{"type":"Feature","properties":{"building":"yes","height":6,"heightSource":"default"},"geometry":{"type":"MultiPolygon","coordinates":[[[[461670.2,1921450.06],[461670,1921454.72],[461676.38,1921454.99],[461676.57,1921450.33],[461670.2,1921450.06]]]]}},{"type":"Feature","properties":{"building":"yes","height":6,"heightSource":"default"},"geometry":{"type":"MultiPolygon","coordinates":[[[[461628.02,1921496.89],[461627.71,1921508.53],[461634.73,1921508.71],[461635.03,1921497.08],[461628.02,1921496.89]]]]}},{"type":"Feature","properties":{"building":"yes","height":6,"heightSource":"default"},"geometry":{"type":"MultiPolygon","coordinates":[[[[461636.78,1921501.98],[461658.77,1921502.53],[461659.36,1921479.24],[461637.38,1921478.69],[461636.78,1921501.98]]]]}},{"type":"Feature","properties":{"building":"temple","height":6,"heightSource":"default"},"geometry":{"type":"MultiPolygon","coordinates":[[[[461691.65,1921507.25],[461691.97,1921526.62],[461730.36,1921525.99],[461730.04,1921506.61],[461691.65,1921507.25]]]]}},{"type":"Feature","properties":{"building":"yes","height":6,"heightSource":"default"},"geometry":{"type":"MultiPolygon","coordinates":[[[[461757.67,1921583.66],[461756.37,1921596.45],[461771.47,1921597.98],[461772.78,1921585.19],[461757.67,1921583.66]]]]}},{"type":"Feature","properties":{"building":"yes","height":6,"heightSource":"default"},"geometry":{"type":"MultiPolygon","coordinates":[[[[461762.3,1921542.17],[461772.63,1921543.82],[461773.88,1921536.05],[461763.55,1921534.4],[461762.3,1921542.17]]]]}},{"type":"Feature","properties":{"building":"yes","height":6,"heightSource":"default"},"geometry":{"type":"MultiPolygon","coordinates":[[[[461783.91,1921536.75],[461791.96,1921536.94],[461792.17,1921528.58],[461784.12,1921528.38],[461783.91,1921536.75]]]]}},{"type":"Feature","properties":{"building":"yes","height":6,"heightSource":"default"},"geometry":{"type":"MultiPolygon","coordinates":[[[[461797.73,1921482.52],[461797.49,1921489.47],[461805.44,1921489.73],[461805.68,1921482.8],[461797.73,1921482.52]]]]}},{"type":"Feature","properties":{"building":"yes","height":6,"heightSource":"default"},"geometry":{"type":"MultiPolygon","coordinates":[[[[461779.72,1921487.4],[461776.12,1921486.35],[461774.95,1921490.29],[461778.55,1921491.34],[461779.72,1921487.4]]]]}},{"type":"Feature","properties":{"building":"yes","height":6,"heightSource":"default"},"geometry":{"type":"MultiPolygon","coordinates":[[[[461781.79,1921471.55],[461781.52,1921473.35],[461786.14,1921474.05],[461786.42,1921472.25],[461781.79,1921471.55]]]]}},{"type":"Feature","properties":{"building":"yes","height":6,"heightSource":"default"},"geometry":{"type":"MultiPolygon","coordinates":[[[[461782.72,1921474.91],[461778.56,1921474.27],[461777.92,1921478.49],[461782.08,1921479.12],[461782.72,1921474.91]]]]}},{"type":"Feature","properties":{"building":"yes","height":6,"heightSource":"default"},"geometry":{"type":"MultiPolygon","coordinates":[[[[461770.09,1921469.96],[461769.07,1921476.62],[461777.59,1921477.92],[461778.61,1921471.25],[461770.09,1921469.96]]]]}},{"type":"Feature","properties":{"building":"yes","height":6,"heightSource":"default"},"geometry":{"type":"MultiPolygon","coordinates":[[[[461776.22,1921448.4],[461773.9,1921457.16],[461786.23,1921460.39],[461788.56,1921451.64],[461776.22,1921448.4]]]]}},{"type":"Feature","properties":{"building":"yes","height":6,"heightSource":"default"},"geometry":{"type":"MultiPolygon","coordinates":[[[[461784.86,1921396.32],[461784.77,1921403.73],[461793,1921403.83],[461793.08,1921396.41],[461784.86,1921396.32]]]]}},{"type":"Feature","properties":{"building":"yes","height":6,"heightSource":"default"},"geometry":{"type":"MultiPolygon","coordinates":[[[[461792.15,1921393.22],[461794.88,1921387.52],[461787.07,1921383.83],[461784.33,1921389.53],[461792.15,1921393.22]]]]}},{"type":"Feature","properties":{"building":"yes","height":6,"heightSource":"default"},"geometry":{"type":"MultiPolygon","coordinates":[[[[461807.79,1921378.47],[461813.41,1921379.23],[461814.9,1921368.44],[461809.29,1921367.67],[461807.79,1921378.47]]]]}},{"type":"Feature","properties":{"building":"yes","height":6,"heightSource":"default"},"geometry":{"type":"MultiPolygon","coordinates":[[[[461795.78,1921371.55],[461794.97,1921377.49],[461806.75,1921379.09],[461807.57,1921373.16],[461795.78,1921371.55]]]]}},{"type":"Feature","properties":{"building":"yes","height":6,"heightSource":"default"},"geometry":{"type":"MultiPolygon","coordinates":[[[[461806.44,1921338.88],[461810.26,1921338.89],[461810.27,1921336.15],[461806.45,1921336.13],[461806.44,1921338.88]]]]}},{"type":"Feature","properties":{"building":"yes","height":6,"heightSource":"default"},"geometry":{"type":"MultiPolygon","coordinates":[[[[461795.72,1921337.32],[461805.12,1921337.37],[461805.15,1921330.71],[461795.75,1921330.66],[461795.72,1921337.32]]]]}},{"type":"Feature","properties":{"building":"yes","height":6,"heightSource":"default"},"geometry":{"type":"MultiPolygon","coordinates":[[[[461802.5,1921328.74],[461803.28,1921319.94],[461794.4,1921319.16],[461793.62,1921327.97],[461802.5,1921328.74]]]]}},{"type":"Feature","properties":{"building":"yes","height":6,"heightSource":"default"},"geometry":{"type":"MultiPolygon","coordinates":[[[[461803.11,1921329.13],[461815.01,1921330.17],[461815.84,1921320.7],[461803.94,1921319.66],[461803.11,1921329.13]]]]}},{"type":"Feature","properties":{"building":"yes","height":6,"heightSource":"default"},"geometry":{"type":"MultiPolygon","coordinates":[[[[461801.3,1921315.96],[461813.98,1921315.94],[461813.96,1921305.46],[461807.01,1921305.47],[461807.02,1921308.48],[461801.28,1921308.49],[461801.3,1921315.96]]]]}},{"type":"Feature","properties":{"building":"yes","height":6,"heightSource":"default"},"geometry":{"type":"MultiPolygon","coordinates":[[[[461799.38,1921296.61],[461802.46,1921296.57],[461802.35,1921288.92],[461799.27,1921288.96],[461799.38,1921296.61]]]]}},{"type":"Feature","properties":{"building":"yes","height":6,"heightSource":"default"},"geometry":{"type":"MultiPolygon","coordinates":[[[[461802.94,1921296.6],[461810.42,1921296.5],[461810.3,1921287.81],[461802.82,1921287.9],[461802.94,1921296.6]]]]}},{"type":"Feature","properties":{"building":"yes","height":6,"heightSource":"default"},"geometry":{"type":"MultiPolygon","coordinates":[[[[461810.74,1921296.9],[461818.88,1921296.79],[461818.75,1921287.7],[461810.61,1921287.81],[461810.74,1921296.9]]]]}}]}