{"type":"FeatureCollection","features":[{"type":"Feature","properties":{"id":"TH-LAO-4480102","nameTh":"นครพนม","type":"town_municipality"},"geometry":{"type":"Polygon","coordinates":[[[104.8039353,17.3677892],[104.7764534,17.3675808],[104.7760489,17.3685494],[104.7757442,17.3685596],[104.77583,17.3689221],[104.775359,17.3689416],[104.7755286,17.3705553],[104.7747293,17.3711308],[104.7748795,17.3716745],[104.7743795,17.3736589],[104.7735641,17.3744371],[104.7729944,17.3759627],[104.7725416,17.3762873],[104.7725245,17.3773522],[104.7712703,17.3778601],[104.7714226,17.3785901],[104.7704452,17.3787939],[104.7693648,17.3820677],[104.7686546,17.3825585],[104.7677179,17.3849201],[104.7645757,17.3886664],[104.7626368,17.392162],[104.7627693,17.3950308],[104.7617852,17.3961349],[104.7602415,17.3957222],[104.7599793,17.3961117],[104.7590379,17.3961558],[104.7578686,17.3982914],[104.7585309,17.401413],[104.7587328,17.4061912],[104.7509937,17.4389043],[104.7561739,17.4451343],[104.760787,17.440621],[104.769797,17.433398],[104.776035,17.426907],[104.788115,17.412279],[104.796036,17.401765],[104.799798,17.394542],[104.800887,17.391616],[104.802274,17.384851],[104.803264,17.378176],[104.8039353,17.3677892]]]}}]}