{"type":"FeatureCollection","features":[{"type":"Feature","properties":{"provinceCode":"73","nameTh":"นครปฐม","nameEn":"Nakhon Pathom"},"geometry":{"type":"Polygon","coordinates":[[[99.8758279,13.9611548],[99.8684666,13.9633546],[99.8642805,13.9663615],[99.8540121,13.9647041],[99.8490774,13.9718748],[99.8496757,13.973027],[99.8459237,13.9758654],[99.8436044,13.9832632],[99.8405921,13.9836252],[99.831311,13.9917384],[99.8319031,13.9974641],[99.8335579,13.9975267],[99.8346983,14.000358],[99.832834,14.0029927],[99.8341617,14.0107565],[99.8368607,14.0127666],[99.8346335,14.0146727],[99.8370114,14.0237559],[99.8335254,14.0276159],[99.8426835,14.0338917],[99.841835,14.0369683],[99.8480918,14.0380936],[99.8478693,14.0398534],[99.8493586,14.0402106],[99.8490743,14.0512075],[99.8330024,14.0609395],[99.8195684,14.0620331],[99.8169349,14.0639083],[99.8189504,14.0680328],[99.816712,14.0691558],[99.8175749,14.0718779],[99.8197394,14.0723566],[99.8217686,14.0698827],[99.831108,14.0698489],[99.8297793,14.0738218],[99.8320209,14.0715569],[99.8334172,14.0732012],[99.8378405,14.0723406],[99.8389716,14.0786607],[99.8445431,14.0763307],[99.8530168,14.0795056],[99.8664917,14.0749161],[99.8671519,14.0775536],[99.8711699,14.0763752],[99.8853058,14.0908507],[99.8922259,14.0901138],[99.9270423,14.1276542],[99.9314908,14.1234818],[99.9333075,14.1238577],[99.9343615,14.1255071],[99.9398996,14.1265837],[99.9395671,14.1311502],[99.9435202,14.1315275],[99.9435594,14.1342343],[99.9453361,14.1350267],[99.9565386,14.1317893],[99.9585026,14.1327171],[99.9669309,14.1313053],[99.971092,14.1338188],[99.9664113,14.1360354],[99.9656017,14.1386811],[99.9731937,14.1418794],[99.9754621,14.1418937],[99.9767893,14.1394163],[99.9863964,14.1399141],[99.9863496,14.1416394],[99.9899034,14.1439136],[99.9931968,14.1419741],[100.0013473,14.1440373],[100.0027238,14.1414011],[100.0045983,14.1414283],[100.0097661,14.1435026],[100.0082847,14.1460816],[100.0154002,14.1468852],[100.015141,14.145694],[100.0168589,14.1454321],[100.0169558,14.1468907],[100.024703,14.148042],[100.0247182,14.1497025],[100.0290742,14.1490893],[100.0297406,14.1515623],[100.0328516,14.1509934],[100.0329699,14.1521882],[100.0365976,14.152645],[100.0370359,14.1542692],[100.0454582,14.152806],[100.0525959,14.148852],[100.0516544,14.1473425],[100.0568827,14.1456517],[100.0591699,14.1467875],[100.0609748,14.1448431],[100.0687592,14.1440524],[100.0695348,14.1407341],[100.0773333,14.1415723],[100.0778541,14.1445269],[100.0863223,14.1451693],[100.0895226,14.1501997],[100.0985237,14.1516071],[100.0977909,14.1530004],[100.1021995,14.1563754],[100.1045242,14.1463669],[100.1115182,14.1472584],[100.116684,14.1501063],[100.1300411,14.1506454],[100.1308715,14.1389076],[100.1400326,14.1455109],[100.155014,14.1451124],[100.1577041,14.1462719],[100.1590184,14.1482797],[100.1576088,14.1514425],[100.167646,14.1565277],[100.1674939,14.1583904],[100.1790455,14.1631583],[100.1954881,14.1753321],[100.2053546,14.1786043],[100.2133583,14.1789372],[100.2841927,14.1698345],[100.2761021,14.0800931],[100.2739339,14.073857],[100.2719227,14.072364],[100.2720776,14.0679335],[100.2641202,14.06013],[100.2671141,14.0451521],[100.2644919,14.0407818],[100.2710503,14.0371924],[100.272684,14.0334775],[100.2776841,14.0314088],[100.2738797,14.0253045],[100.270152,14.0247108],[100.2691236,14.0189072],[100.2640663,14.0101681],[100.2665029,14.0079553],[100.2632891,14.0043555],[100.2655795,14.0012454],[100.2637823,13.9993397],[100.2652122,13.9978521],[100.2640671,13.996968],[100.2679255,13.9937585],[100.2727323,13.9843462],[100.2858654,13.9716517],[100.298274,13.963374],[100.2869469,13.9470234],[100.2732666,13.9331573],[100.2654043,13.920624],[100.2760257,13.9130113],[100.3308149,13.7973172],[100.3336124,13.7833375],[100.3307661,13.7757118],[100.3301068,13.7623738],[100.333022,13.7602341],[100.3328049,13.7554403],[100.335423,13.7533856],[100.3357223,13.7415622],[100.3374773,13.736086],[100.3375551,13.7327312],[100.3349737,13.7320788],[100.3363848,13.7229385],[100.3249272,13.7175061],[100.3227047,13.7180579],[100.3209319,13.7211519],[100.3154991,13.7206347],[100.3155805,13.7230005],[100.3101917,13.721569],[100.3101643,13.7245811],[100.306462,13.7235828],[100.3076087,13.7189287],[100.3045884,13.7204631],[100.3007372,13.7200395],[100.3037143,13.7150997],[100.2978916,13.7141364],[100.2968498,13.7179603],[100.2945776,13.7167548],[100.2927574,13.7187603],[100.2901387,13.7177825],[100.2888602,13.7147517],[100.2835667,13.7134081],[100.2865256,13.7082197],[100.2833,13.7057346],[100.2853556,13.70277],[100.2833408,13.7015434],[100.2837088,13.6967905],[100.2860343,13.6971501],[100.2868808,13.6942654],[100.278229,13.6928717],[100.2769343,13.6881757],[100.2704437,13.683313],[100.2602004,13.6847055],[100.2603786,13.6817976],[100.257638,13.6786398],[100.2517855,13.678798],[100.2529014,13.6766778],[100.2474401,13.6741475],[100.2464449,13.6760364],[100.2436435,13.6746401],[100.2407738,13.6799058],[100.2271188,13.6727266],[100.2279354,13.6768632],[100.2256477,13.6802237],[100.2216953,13.6851173],[100.2196898,13.6826189],[100.215787,13.6876177],[100.2111683,13.6858553],[100.2090917,13.6819399],[100.2057297,13.6820722],[100.2032108,13.6782841],[100.1989864,13.6789891],[100.1945179,13.6774845],[100.1926593,13.6787628],[100.191596,13.6774942],[100.1881178,13.6798317],[100.1863033,13.6851129],[100.1839495,13.6839999],[100.1819953,13.6887331],[100.1801329,13.6889354],[100.1769463,13.687957],[100.1750107,13.6821258],[100.1727409,13.6824971],[100.1720535,13.6808046],[100.1636843,13.6767484],[100.15655,13.6806657],[100.1562008,13.6842999],[100.1243876,13.6810037],[100.1162406,13.6784837],[100.1163717,13.6773998],[100.113485,13.6768874],[100.1210001,13.6559462],[100.1164561,13.6551898],[100.1170527,13.6525409],[100.1047734,13.6489085],[100.1041268,13.6501326],[100.1002465,13.648909],[100.0988363,13.6517223],[100.0948361,13.6503523],[100.0931717,13.6531648],[100.086493,13.6507151],[100.0840532,13.6573062],[100.0685562,13.6563398],[100.0628392,13.6645204],[100.0635951,13.6733852],[100.0656722,13.6762457],[100.0609772,13.6776801],[100.0624739,13.6800569],[100.0615593,13.6833771],[100.0577159,13.6875902],[100.0560093,13.6863006],[100.0338164,13.6917281],[100.0322342,13.6933572],[100.0334274,13.6946734],[100.0218758,13.7002187],[100.0237244,13.7026893],[100.0220771,13.7118234],[100.0237407,13.721443],[100.0229537,13.735334],[100.025179,13.7415046],[100.0231283,13.7510811],[100.0196911,13.7469909],[100.0109055,13.7451995],[100.0084699,13.742041],[100.0050052,13.7419535],[99.9999899,13.737242],[99.9975876,13.7378599],[99.9974856,13.7392221],[99.9931945,13.7377174],[99.9929516,13.7390861],[99.9892107,13.7374135],[99.98946,13.7345191],[99.9756305,13.7315215],[99.9761161,13.7296834],[99.9744841,13.7291862],[99.9739035,13.7313569],[99.9675921,13.7288734],[99.9632497,13.7294711],[99.962783,13.7240358],[99.9607606,13.7233583],[99.9563586,13.7286915],[99.9528369,13.7284461],[99.9504236,13.7393787],[99.9467287,13.7396881],[99.9441895,13.7451566],[99.940847,13.7439897],[99.9396084,13.7451179],[99.9400326,13.7517024],[99.937192,13.7536398],[99.9431278,13.7653148],[99.9452584,13.76543],[99.9457189,13.7720766],[99.9484311,13.773305],[99.9488114,13.7767765],[99.944337,13.7778694],[99.9449224,13.7792878],[99.9480008,13.7811963],[99.9491162,13.7801939],[99.9546923,13.7817201],[99.9538294,13.7876231],[99.9567924,13.7885595],[99.9548669,13.7902753],[99.9585638,13.7919051],[99.9601188,13.801081],[99.963145,13.8004853],[99.964912,13.7973707],[99.9697623,13.7984436],[99.9706592,13.8036325],[99.9686633,13.8056587],[99.9706723,13.808365],[99.966201,13.812897],[99.9627456,13.8127897],[99.9634837,13.8209216],[99.9608017,13.8239116],[99.9642012,13.8270521],[99.9625116,13.8322347],[99.9592514,13.8338398],[99.9585433,13.8362098],[99.9484207,13.830428],[99.941978,13.8299071],[99.9355943,13.8339857],[99.937893,13.8370617],[99.9379064,13.8399705],[99.9333896,13.8430801],[99.9265997,13.8427253],[99.9204424,13.8457276],[99.9136016,13.8433417],[99.9110748,13.8450966],[99.9111379,13.84713],[99.9094441,13.8473148],[99.9044835,13.8426936],[99.904943,13.8411055],[99.9001146,13.8416317],[99.8987904,13.8561388],[99.90255,13.8587522],[99.9051792,13.8758385],[99.9066921,13.8792488],[99.910128,13.8783429],[99.9122507,13.880856],[99.9109819,13.8919486],[99.9166247,13.8970544],[99.9152131,13.9009412],[99.9170727,13.9023579],[99.916189,13.9036776],[99.9208123,13.9081782],[99.9187738,13.9122942],[99.9225666,13.9106232],[99.9200192,13.9151122],[99.9232092,13.9175585],[99.9233956,13.922371],[99.9251253,13.9250647],[99.9281317,13.9254639],[99.9277787,13.9292501],[99.9296812,13.9316949],[99.9270408,13.9340591],[99.9249598,13.9311653],[99.9260496,13.9341041],[99.921765,13.9362756],[99.9016386,13.9401287],[99.888533,13.9485379],[99.8853059,13.9495997],[99.8825624,13.948487],[99.8773224,13.957609],[99.8744138,13.9574887],[99.8761768,13.9592085],[99.8758279,13.9611548]]]}}]}