{"type":"FeatureCollection","features":[{"type":"Feature","properties":{"id":"TH-LAO-3730102","nameTh":"นครปฐม","type":"city_municipality"},"geometry":{"type":"Polygon","coordinates":[[[100.0288409,13.800573],[100.0283099,13.8117409],[100.0302699,13.8220341],[100.0299916,13.8306618],[100.0296304,13.8320864],[100.0353181,13.832508],[100.0562387,13.832853],[100.0773781,13.8325489],[100.0779815,13.8312398],[100.0777482,13.830834],[100.0797664,13.8287602],[100.0804056,13.8274182],[100.080615,13.825154],[100.0929246,13.8255838],[100.0930672,13.8241336],[100.0945438,13.8243106],[100.0960545,13.8240327],[100.0947856,13.8160163],[100.1010156,13.8161265],[100.100275,13.8132696],[100.0997451,13.8131855],[100.0992041,13.8098125],[100.0903895,13.8114843],[100.0418315,13.801563],[100.0288409,13.800573]]]}},{"type":"Feature","properties":{"id":"TH-LAO-5730701","nameTh":"ศาลายา","type":"subdistrict_municipality"},"geometry":{"type":"Polygon","coordinates":[[[100.3301435,13.764649],[100.3299931,13.7660994],[100.3307661,13.7757118],[100.3326232,13.7800538],[100.3323861,13.781219],[100.3332555,13.7813188],[100.3331639,13.7832026],[100.3336124,13.7833375],[100.3335918,13.7839149],[100.3311388,13.7930153],[100.3308149,13.7973172],[100.3267411,13.8065973],[100.2984102,13.8082742],[100.2973445,13.7943073],[100.3036193,13.7958425],[100.3033753,13.7914077],[100.305717,13.7921749],[100.3060086,13.7917902],[100.3078599,13.7928092],[100.3113307,13.7939729],[100.3115151,13.7879152],[100.31242,13.7854931],[100.3095665,13.7852993],[100.309257,13.7850133],[100.3099758,13.7677377],[100.3236631,13.7680732],[100.3248144,13.7665018],[100.3252204,13.7632479],[100.3287249,13.7648209],[100.3301435,13.764649]]]}}]}