{"type":"FeatureCollection","features":[{"type":"Feature","properties":{"provinceCode":"64","nameTh":"สุโขทัย","nameEn":"Sukhothai"},"geometry":{"type":"Polygon","coordinates":[[[99.8974084,16.7988672],[99.8877128,16.7962617],[99.8887689,16.7921969],[99.8859472,16.789686],[99.8824631,16.7899858],[99.8796826,16.7867619],[99.8805524,16.7835465],[99.8783249,16.7821124],[99.8770503,16.7749121],[99.8797401,16.7706981],[99.876961,16.7653863],[99.8714983,16.7647252],[99.8699229,16.7598307],[99.8656402,16.7582708],[99.8625841,16.7490361],[99.8639429,16.7414778],[99.8557548,16.7381361],[99.847197,16.7270726],[99.8455333,16.7155033],[99.8432456,16.7149412],[99.8419301,16.7162633],[99.8354346,16.7138234],[99.8329793,16.7146052],[99.8290833,16.7174381],[99.82819,16.7242022],[99.8221564,16.720313],[99.814443,16.7205378],[99.8119434,16.7154275],[99.8057401,16.7134337],[99.8034773,16.7104468],[99.8092265,16.7036593],[99.8098528,16.6987523],[99.8037136,16.6984719],[99.8001671,16.6911465],[99.788051,16.6851998],[99.7782746,16.6877274],[99.7756933,16.6872251],[99.772583,16.6833133],[99.7691676,16.6827174],[99.7596033,16.684911],[99.7593371,16.7106177],[99.7556349,16.721589],[99.7501191,16.7208911],[99.7483241,16.7233286],[99.749159,16.7255387],[99.7416342,16.729597],[99.7425556,16.7350341],[99.7457006,16.7385777],[99.7449477,16.7440902],[99.740974,16.740459],[99.7365928,16.7400852],[99.7332323,16.7326718],[99.7299509,16.7295196],[99.7230842,16.7274391],[99.7197632,16.7225636],[99.7145866,16.7213381],[99.708779,16.7247892],[99.7050185,16.7222573],[99.7058449,16.719299],[99.7043417,16.717329],[99.7015676,16.7186167],[99.6970093,16.7165543],[99.6951871,16.7176087],[99.6954866,16.7210364],[99.6936419,16.7226674],[99.6953405,16.7286939],[99.6932512,16.7318073],[99.6753065,16.7275872],[99.674711,16.7295151],[99.6722069,16.7302905],[99.6704731,16.7356807],[99.6654782,16.737725],[99.6642741,16.7397784],[99.658763,16.7406032],[99.6583714,16.7430856],[99.6538286,16.7464643],[99.64707,16.7464582],[99.6457705,16.7429924],[99.642125,16.7440752],[99.6375659,16.7494696],[99.6358591,16.7488473],[99.6316316,16.7520283],[99.6307237,16.7556777],[99.6222096,16.7569673],[99.62141,16.7602982],[99.612233,16.7697964],[99.6103405,16.7735758],[99.6115758,16.7754808],[99.6105565,16.7763441],[99.6086827,16.7747201],[99.6073523,16.7783186],[99.6056536,16.7784349],[99.6057363,16.7808566],[99.6044151,16.7812306],[99.605397,16.7846054],[99.6024214,16.7867844],[99.6027573,16.7891745],[99.6015643,16.7885576],[99.5988804,16.7910749],[99.5983374,16.7898532],[99.593983,16.7906032],[99.5893765,16.7964556],[99.5892872,16.7989656],[99.5851939,16.7989564],[99.5855538,16.8014346],[99.5819608,16.8032937],[99.5822681,16.8049623],[99.5796078,16.8075012],[99.5783679,16.8072039],[99.5797681,16.8088888],[99.5781906,16.8114612],[99.5801083,16.8128092],[99.5788018,16.8165314],[99.5813007,16.8194162],[99.5766381,16.8256063],[99.5767399,16.8274773],[99.5749042,16.8281293],[99.5738853,16.8301063],[99.5750439,16.8317286],[99.5723396,16.8351241],[99.573748,16.8399337],[99.5726105,16.8411095],[99.5741708,16.8422156],[99.5725807,16.8426957],[99.5744506,16.8463545],[99.5721959,16.8480351],[99.5737415,16.8492078],[99.5707507,16.8595356],[99.5657844,16.8587601],[99.5658318,16.8543399],[99.5595258,16.853087],[99.5565136,16.8556238],[99.556779,16.8580926],[99.5500363,16.8614137],[99.5490614,16.8636942],[99.5448341,16.8624408],[99.5424404,16.8577363],[99.5442325,16.8499623],[99.5416655,16.8397991],[99.537619,16.8374115],[99.5348642,16.8270647],[99.5306518,16.8252743],[99.5297309,16.8351652],[99.5241392,16.8445222],[99.5228919,16.8524535],[99.5170212,16.8583191],[99.5132411,16.873181],[99.5128797,16.8795538],[99.5142164,16.8824934],[99.4974324,16.892472],[99.492056,16.9058853],[99.488323,16.9105826],[99.4840267,16.9094678],[99.482669,16.9071633],[99.4797035,16.9081188],[99.4738747,16.9053347],[99.4664629,16.8963031],[99.4655246,16.8934033],[99.4667542,16.8895774],[99.4630989,16.8867007],[99.4600469,16.8811917],[99.4496794,16.8751204],[99.4475631,16.8698925],[99.4342091,16.873936],[99.4326201,16.8758615],[99.4340869,16.8797101],[99.4367571,16.8807647],[99.4366236,16.8859778],[99.4346724,16.8896927],[99.4380548,16.9018059],[99.4413902,16.9057864],[99.4498973,16.9088137],[99.4513294,16.9115013],[99.4537234,16.9113736],[99.4567779,16.9157863],[99.4539675,16.9209789],[99.4539536,16.9273],[99.452058,16.9261276],[99.4418675,16.9334258],[99.4415825,16.9377356],[99.4446701,16.9432415],[99.4383801,16.9486092],[99.4374546,16.9542641],[99.4399994,16.9543662],[99.448961,16.9611598],[99.4523559,16.961833],[99.4554609,16.9658156],[99.4558194,16.9698403],[99.4652437,16.9776972],[99.4668291,16.9825167],[99.4643867,16.9824711],[99.4627024,16.9790786],[99.4578713,16.9767849],[99.4525621,16.9787856],[99.4486988,16.977178],[99.4443078,16.9780702],[99.4404949,16.9760748],[99.4327741,16.9794506],[99.429025,16.9833219],[99.4279092,16.9933237],[99.4218008,16.999219],[99.4212032,17.0107442],[99.4171199,17.0186858],[99.4156965,17.0174136],[99.4094419,17.0189343],[99.4102917,17.022527],[99.3952109,17.021159],[99.3964936,17.0232063],[99.3935796,17.0248185],[99.3944801,17.0281115],[99.392005,17.0302926],[99.3915661,17.0359827],[99.3931452,17.0377959],[99.3915929,17.0386568],[99.3924584,17.0408076],[99.3912799,17.0422851],[99.3931057,17.0430433],[99.3920586,17.0457652],[99.3933896,17.0466946],[99.3919079,17.0485748],[99.391035,17.047894],[99.3915971,17.0515241],[99.3895579,17.0553276],[99.3906918,17.0573996],[99.3868533,17.0623189],[99.3871506,17.0704859],[99.3909326,17.0759689],[99.392288,17.0752375],[99.393956,17.0822605],[99.3916203,17.0838705],[99.3872719,17.0817617],[99.3851791,17.0823416],[99.3844776,17.0856734],[99.3821595,17.0867034],[99.3818531,17.0899191],[99.3797747,17.0898325],[99.3738575,17.0949816],[99.3705247,17.09462],[99.3708817,17.0970228],[99.3673816,17.0966189],[99.3643993,17.0919482],[99.3604272,17.0913709],[99.3588712,17.0935461],[99.3566415,17.0929136],[99.3548326,17.0956484],[99.3538767,17.0939055],[99.3501993,17.0954081],[99.3481598,17.0937455],[99.3445776,17.0949493],[99.3391995,17.0930399],[99.3358718,17.0974921],[99.3311366,17.0997337],[99.3294595,17.1053405],[99.3205699,17.1178279],[99.3204625,17.1277923],[99.3235636,17.1321573],[99.328207,17.1331215],[99.3297683,17.1374391],[99.3284728,17.1396193],[99.3162884,17.1422923],[99.3143406,17.145685],[99.3177976,17.1500831],[99.3190993,17.1646103],[99.3177595,17.1710089],[99.3131503,17.1764611],[99.3144009,17.1796166],[99.3128192,17.183807],[99.314113,17.1845773],[99.3121665,17.1883728],[99.3148741,17.192694],[99.3194211,17.2123],[99.3181333,17.2155142],[99.3145891,17.2167579],[99.3138407,17.2194113],[99.3178328,17.2232477],[99.3193078,17.2275108],[99.3188127,17.23819],[99.3206283,17.2407948],[99.3215115,17.248327],[99.3190045,17.2557178],[99.3189369,17.2624999],[99.3152286,17.2698395],[99.320979,17.2699646],[99.3241095,17.2665469],[99.3268188,17.2677416],[99.3306298,17.266093],[99.3400156,17.2674121],[99.3399599,17.2639281],[99.3418571,17.2610423],[99.3586987,17.2489417],[99.3602957,17.2419232],[99.3641818,17.2355455],[99.3684374,17.2300923],[99.3717224,17.2291472],[99.3696767,17.2215163],[99.3740267,17.2104405],[99.3897194,17.205624],[99.3949286,17.2064198],[99.4007654,17.2204446],[99.419912,17.2182408],[99.4209871,17.2197976],[99.4186452,17.2263399],[99.4250588,17.227011],[99.4285045,17.2317194],[99.4320244,17.2318257],[99.4360934,17.2280118],[99.4393294,17.2283895],[99.4401553,17.2355318],[99.444038,17.2387267],[99.4453323,17.2421712],[99.4408206,17.2520515],[99.4433447,17.2531355],[99.4505253,17.2509182],[99.4535991,17.2518381],[99.4553699,17.2545416],[99.455108,17.2667622],[99.4529042,17.2687673],[99.4533507,17.2750372],[99.451333,17.2801759],[99.4516082,17.2966021],[99.4541077,17.2982717],[99.4552178,17.3048806],[99.4569768,17.305861],[99.4554286,17.3089885],[99.4567523,17.311879],[99.4606804,17.3090291],[99.4645374,17.314837],[99.4772318,17.3261008],[99.476763,17.3412624],[99.4745374,17.3448613],[99.4732654,17.3554074],[99.4706398,17.3575549],[99.4714666,17.3623001],[99.4701893,17.3678747],[99.4614103,17.3698197],[99.4565807,17.3690316],[99.4551014,17.3728262],[99.4492677,17.3763354],[99.4473472,17.3804374],[99.4449262,17.3807193],[99.4424819,17.388912],[99.4312053,17.3896306],[99.4269812,17.4088055],[99.4294943,17.4115319],[99.4309549,17.4180331],[99.4405399,17.4219147],[99.4410637,17.4331009],[99.4336135,17.4344614],[99.4263366,17.4424557],[99.4210508,17.4422718],[99.4174279,17.4482851],[99.4144047,17.4498524],[99.4180026,17.458047],[99.4145371,17.4593469],[99.4063744,17.4689183],[99.4074922,17.4763309],[99.4108522,17.478633],[99.4158679,17.4787527],[99.4193419,17.4863553],[99.4181746,17.4946182],[99.4215139,17.5010652],[99.4186227,17.5052842],[99.4204047,17.5126078],[99.4224919,17.5149673],[99.4213542,17.5186973],[99.4315734,17.5211124],[99.4394079,17.5279874],[99.4386054,17.5322612],[99.4327422,17.5410022],[99.4306813,17.5488747],[99.4357618,17.5634534],[99.4309766,17.5657115],[99.4295373,17.5694494],[99.4197589,17.568836],[99.4152782,17.570184],[99.413043,17.5741966],[99.4160123,17.577555],[99.4156868,17.5838564],[99.4201893,17.5884985],[99.4202203,17.590698],[99.4225997,17.5917506],[99.419192,17.5949787],[99.4191117,17.600457],[99.4256911,17.609064],[99.440677,17.6095242],[99.4422919,17.6074501],[99.442425,17.6027721],[99.4484314,17.5987967],[99.4543321,17.5981055],[99.4531128,17.6070983],[99.4552556,17.6085148],[99.449633,17.6130091],[99.450749,17.6170696],[99.447764,17.61855],[99.448696,17.6214057],[99.4469442,17.6236675],[99.449925,17.6305742],[99.4475783,17.6448402],[99.4490909,17.6462855],[99.4506696,17.6549092],[99.4557258,17.6548263],[99.4676674,17.662873],[99.4706414,17.6655716],[99.4713372,17.6717798],[99.4763539,17.6771015],[99.4702203,17.6912697],[99.472659,17.6961742],[99.4751565,17.6974269],[99.4740937,17.7165266],[99.4793322,17.7289918],[99.4710508,17.7378681],[99.4743369,17.7413565],[99.4817933,17.7450603],[99.4843541,17.7547555],[99.4874675,17.7581776],[99.4875104,17.7636926],[99.4917515,17.7659324],[99.4929122,17.7682229],[99.4961935,17.768964],[99.4985938,17.7743065],[99.5058554,17.7796308],[99.5104035,17.7824701],[99.5134871,17.781479],[99.5152556,17.7828045],[99.5144526,17.7886275],[99.517383,17.7915376],[99.5163251,17.7943259],[99.5190261,17.7974299],[99.539835,17.8048365],[99.5418943,17.809529],[99.5440537,17.8108535],[99.5604853,17.8123836],[99.566072,17.8113025],[99.5690366,17.8126244],[99.5712028,17.8161002],[99.5829125,17.8161071],[99.5916174,17.8201386],[99.5971862,17.8199727],[99.5991825,17.8216562],[99.6064768,17.8193882],[99.6079686,17.8162577],[99.6148534,17.8178017],[99.6213817,17.81303],[99.6252767,17.8122038],[99.6270905,17.8144857],[99.6296233,17.8144291],[99.6350493,17.8087628],[99.6359879,17.8053994],[99.64057,17.8050112],[99.6425713,17.8015732],[99.6448103,17.802349],[99.6507323,17.7960181],[99.670695,17.7992519],[99.6738018,17.7906092],[99.6795579,17.7869495],[99.6863351,17.7772746],[99.6850123,17.7733022],[99.6878993,17.7721629],[99.6920561,17.7648686],[99.6908062,17.7591113],[99.6942254,17.7599932],[99.6978727,17.7562276],[99.7066948,17.7575533],[99.7090047,17.7510423],[99.7080365,17.7479697],[99.7102461,17.7445873],[99.7096996,17.738077],[99.7138056,17.7365473],[99.715503,17.7321284],[99.7205747,17.7316012],[99.7202046,17.7301705],[99.722993,17.72946],[99.7251666,17.7252141],[99.7242322,17.7229962],[99.7260303,17.7211774],[99.7307285,17.721913],[99.7311265,17.7234257],[99.7357936,17.7228483],[99.7365971,17.7242481],[99.7347904,17.7262565],[99.7409745,17.728617],[99.7416665,17.7314272],[99.7444134,17.7326725],[99.7449829,17.736381],[99.7486406,17.7350127],[99.7526647,17.7391759],[99.7532065,17.7453093],[99.7567685,17.7489061],[99.7516508,17.749509],[99.7505879,17.7524301],[99.7551914,17.7523802],[99.7560443,17.7554303],[99.761119,17.758184],[99.7610592,17.7617844],[99.7627812,17.7593679],[99.7652926,17.7609223],[99.7687956,17.7712014],[99.7714295,17.7712931],[99.7722396,17.7748999],[99.7770783,17.7771118],[99.7751417,17.7801665],[99.7727706,17.7791142],[99.7727063,17.7813664],[99.7756459,17.7813152],[99.7766911,17.78704],[99.7821843,17.7884447],[99.7823774,17.7908046],[99.7862184,17.7909221],[99.7880101,17.7931338],[99.7902586,17.7909955],[99.7914335,17.7923644],[99.7964438,17.7921346],[99.7985735,17.7958633],[99.8021086,17.7955767],[99.8038092,17.8005879],[99.8075106,17.8027943],[99.8115178,17.8017468],[99.8111227,17.8040342],[99.8136775,17.8015906],[99.8171605,17.8031469],[99.819847,17.8012301],[99.8219849,17.8028465],[99.8248766,17.8007417],[99.8274551,17.8016736],[99.8295658,17.8004603],[99.8323847,17.8029333],[99.8343823,17.798215],[99.8370781,17.7968479],[99.8385178,17.8003009],[99.842217,17.7978885],[99.8454034,17.8012819],[99.8492317,17.8021261],[99.8516268,17.7978254],[99.8548643,17.8005094],[99.8562445,17.7998387],[99.8567104,17.8018932],[99.8573077,17.7983496],[99.8597277,17.7979672],[99.860776,17.8001807],[99.8679976,17.8022042],[99.868667,17.8051441],[99.8706218,17.802093],[99.8728089,17.803871],[99.8762864,17.8012465],[99.8762494,17.8033905],[99.8784658,17.8055303],[99.878868,17.8018883],[99.8826721,17.8026264],[99.8823883,17.806774],[99.8844089,17.8098829],[99.8856313,17.8065834],[99.890897,17.8041038],[99.8944913,17.8071924],[99.8988917,17.7972523],[99.9018878,17.7980347],[99.9036782,17.7941141],[99.9114914,17.7953221],[99.9132772,17.7937843],[99.9122636,17.7918874],[99.9139405,17.7909107],[99.9160733,17.7923003],[99.9221532,17.7864055],[99.9205038,17.7817652],[99.9247993,17.7751732],[99.9204559,17.7667738],[99.9172524,17.7670946],[99.9116789,17.7647239],[99.9143334,17.7572851],[99.9204537,17.7475398],[99.9231727,17.7466736],[99.9260976,17.7430671],[99.9299413,17.7445848],[99.9348622,17.7359566],[99.9389759,17.73503],[99.9430563,17.7241967],[99.9559038,17.7182516],[99.9630429,17.7116917],[99.9632684,17.7077988],[99.966442,17.7025088],[99.9654583,17.6962005],[99.9687372,17.6925437],[99.9679573,17.6867422],[99.9747856,17.6712634],[99.9730906,17.6665891],[99.9740558,17.6610643],[99.9772282,17.6569982],[99.9753316,17.6486359],[99.9696519,17.642536],[99.9663111,17.6297699],[99.9724463,17.6233764],[99.976907,17.6222101],[99.9606189,17.610387],[99.9560051,17.6036393],[99.9402048,17.5921508],[99.9240649,17.5869653],[99.923475,17.5796216],[99.9258776,17.5721444],[99.9247696,17.5687884],[99.9257065,17.5654293],[99.9340719,17.5592852],[99.9426949,17.5452724],[99.9400618,17.5397183],[99.9402979,17.5373575],[99.9423124,17.5363361],[99.9382614,17.5347736],[99.9335794,17.5253627],[99.9283501,17.5214153],[99.9316425,17.5200597],[99.930427,17.5174854],[99.9341247,17.5134634],[99.9579863,17.5019865],[99.9603331,17.4998859],[99.9602607,17.4969953],[99.9638858,17.496345],[99.9669656,17.4922951],[99.9710101,17.4958024],[99.9731499,17.4949087],[99.9752905,17.4923606],[99.9749487,17.4890577],[99.9790399,17.4884418],[99.9814288,17.4863249],[99.9811518,17.4729694],[99.9853737,17.4718057],[99.9908945,17.4666144],[99.994871,17.4678907],[99.9988958,17.4667034],[100.0019931,17.4624719],[100.002753,17.4579908],[100.0130712,17.4570882],[100.0200056,17.458566],[100.0289082,17.4496448],[100.0309156,17.4443592],[100.0290305,17.4385404],[100.030627,17.4356412],[100.02719,17.4313971],[100.0272856,17.4293853],[100.0181922,17.4225124],[100.018011,17.4191874],[99.9965907,17.416692],[99.9941753,17.4096508],[99.9904963,17.4078404],[99.993608,17.4041525],[99.9913492,17.4004923],[99.9967936,17.3940546],[100.004342,17.391535],[100.0095392,17.381344],[100.0096081,17.37836],[100.0066858,17.3740344],[99.999887,17.3694553],[100.0054639,17.3669699],[100.0049861,17.3629946],[100.0081459,17.3609053],[100.0008939,17.3545067],[100.0046018,17.3487061],[100.0040625,17.3452307],[100.0079455,17.3435652],[100.0116494,17.3362107],[100.0141449,17.3351291],[100.0169433,17.3367652],[100.0193668,17.3340759],[100.0157877,17.3298892],[100.0025148,17.3311759],[100.0021118,17.3284734],[99.9954323,17.326724],[99.9964999,17.3218729],[99.9932264,17.3136388],[99.994693,17.3061514],[99.9976941,17.300889],[100.0044379,17.2963339],[99.9993118,17.2952882],[99.9960733,17.2887104],[99.9778052,17.2874511],[99.9704339,17.2835474],[99.9691269,17.2798872],[99.974807,17.2779693],[99.9755896,17.2763462],[99.9708035,17.2710303],[99.9646088,17.2723533],[99.9655612,17.2630938],[99.961709,17.2565069],[99.9630917,17.250348],[99.9545531,17.2425163],[99.9564012,17.2408048],[99.9735677,17.2413638],[99.9720799,17.2385024],[99.9593948,17.2324773],[99.9578958,17.2304103],[99.9697575,17.224675],[99.981945,17.2162538],[99.9789558,17.2125072],[99.9743179,17.2133304],[99.9709837,17.2111029],[99.9719349,17.2091994],[99.9746991,17.2087346],[99.973837,17.1984593],[99.9757425,17.196518],[99.9777792,17.1967093],[99.9834819,17.1896571],[99.9828935,17.1808529],[99.9810546,17.1747251],[99.9728755,17.1651731],[99.968551,17.1688866],[99.961973,17.1690901],[99.9571271,17.1716732],[99.9523776,17.1694949],[99.9514739,17.1656779],[99.9556464,17.1627218],[99.9520251,17.1556981],[99.9550704,17.1538098],[99.9548044,17.1512946],[99.9590456,17.1472671],[99.9581226,17.1347245],[99.9605197,17.1304481],[99.9588785,17.1273882],[99.961744,17.1263732],[99.9594472,17.1242727],[99.9588825,17.121077],[99.9610507,17.1126118],[99.9688988,17.105602],[99.9726711,17.104733],[99.9730682,17.10217],[99.9779975,17.1024902],[99.9801483,17.1001702],[99.9827095,17.1010956],[99.9816672,17.0987503],[99.9846648,17.0922866],[99.9822989,17.0890739],[99.9849428,17.0785544],[99.9926537,17.0788297],[99.9939088,17.0800365],[99.9931862,17.0840157],[99.9964049,17.0820985],[99.9976639,17.0857788],[99.9989548,17.0829159],[100.0036643,17.0789628],[100.0052896,17.0792607],[100.0059104,17.0733091],[100.0138641,17.073065],[100.0124277,17.0682547],[100.0144766,17.0653307],[100.0141993,17.0614516],[100.0096795,17.0606057],[100.0055391,17.0575686],[100.0066641,17.0537629],[100.0047668,17.0489248],[100.0049126,17.0436593],[100.0113236,17.0406484],[100.0108624,17.0388976],[100.0154776,17.033035],[100.0200548,17.0315312],[100.0231895,17.0259201],[100.0283105,17.0265191],[100.0313701,17.0216807],[100.0339829,17.0209121],[100.034563,17.0227704],[100.0369992,17.0209173],[100.0405806,17.0217998],[100.0395311,17.0199215],[100.0408801,17.0139242],[100.0438613,17.0107553],[100.0440979,17.0125258],[100.0461541,17.01245],[100.0464147,17.0108522],[100.0538317,17.0085722],[100.0607517,17.0130626],[100.0635536,17.0094541],[100.0630743,17.0079833],[100.0675375,17.0078462],[100.0657871,17.005774],[100.0682755,17.0040079],[100.0695172,17.0052416],[100.0689929,17.0030194],[100.0708501,17.0013722],[100.0733911,17.0027278],[100.0759369,16.9984566],[100.0772905,17.0019884],[100.0795673,17.0016847],[100.0808655,16.999231],[100.0772596,16.9923198],[100.0834313,16.9924372],[100.0849221,16.9906217],[100.0866104,16.9916775],[100.0871202,16.9878327],[100.0911817,16.9918771],[100.0943205,16.9922057],[100.0940012,16.9872839],[100.0962826,16.9856659],[100.0960084,16.9827399],[100.1015583,16.9810469],[100.0993903,16.9766806],[100.1003959,16.9746344],[100.107684,16.9742145],[100.1084123,16.9718543],[100.107122,16.9706843],[100.1000475,16.9714069],[100.0983463,16.9698992],[100.1045669,16.9664421],[100.1099786,16.9449452],[100.1083146,16.9433997],[100.1094391,16.9403181],[100.1071421,16.9394723],[100.1114868,16.9347102],[100.1074584,16.9351791],[100.1088497,16.9316691],[100.106427,16.9299433],[100.1082548,16.928827],[100.1071833,16.9254645],[100.1117871,16.9190068],[100.1101544,16.917755],[100.1107946,16.9148593],[100.1050212,16.9164275],[100.1012416,16.9148176],[100.1009492,16.9111833],[100.0986443,16.909226],[100.1000239,16.8995299],[100.0947211,16.8947572],[100.0929268,16.8978315],[100.0905593,16.8976287],[100.0895425,16.8956089],[100.091566,16.8940625],[100.0882392,16.892995],[100.0853126,16.8889666],[100.080704,16.8889226],[100.0766396,16.89314],[100.0723876,16.8881668],[100.0646696,16.8842655],[100.0610801,16.8852548],[100.0592562,16.8878272],[100.0529948,16.8885553],[100.0435051,16.8947638],[100.0369459,16.8929506],[100.0364088,16.8904291],[100.010624,16.8888264],[100.00719,16.88507],[100.0076133,16.870178],[100.0007374,16.8627888],[99.9977097,16.8635462],[99.9934028,16.8680512],[99.988405,16.8659987],[99.9778805,16.8662755],[99.9759358,16.8622168],[99.9709377,16.8601744],[99.961051,16.8644872],[99.9577653,16.8643512],[99.9546471,16.8620304],[99.9414888,16.863672],[99.9395066,16.8551288],[99.9403415,16.8513396],[99.9441293,16.850757],[99.9434083,16.8413253],[99.9452028,16.8374635],[99.9424377,16.8262862],[99.9389086,16.8259614],[99.9376689,16.8213474],[99.9319492,16.8194739],[99.9299031,16.8110104],[99.9160928,16.8056376],[99.9104138,16.805629],[99.8974084,16.7988672]]]}}]}