{"type":"FeatureCollection","features":[{"type":"Feature","properties":{"id":"TH-LAO-4640102","nameTh":"สุโขทัยธานี","type":"town_municipality"},"geometry":{"type":"Polygon","coordinates":[[[99.8093946,17.0116317],[99.8090463,17.0057568],[99.8118989,17.0057704],[99.813275,17.0052314],[99.8151557,17.0050021],[99.815553,17.0046452],[99.8176542,17.0043371],[99.8177724,17.0045685],[99.8313076,16.9971734],[99.8323169,17.0033096],[99.831891,17.0053421],[99.8323877,17.0057665],[99.8337597,17.0058375],[99.8346845,17.0087641],[99.8338483,17.0097396],[99.832946,17.0132551],[99.8239346,17.0163115],[99.8269557,17.0268813],[99.8241805,17.029752],[99.822725,17.0281609],[99.8220883,17.0282526],[99.8213959,17.0292249],[99.8209123,17.0292591],[99.8207179,17.0279354],[99.8193716,17.0261685],[99.8190472,17.0241277],[99.8203239,17.0225553],[99.819808,17.0204823],[99.8202832,17.0180715],[99.820088,17.0175216],[99.8196376,17.0170301],[99.8191127,17.01777],[99.8118924,17.0116897],[99.8093946,17.0116317]]]}},{"type":"Feature","properties":{"id":"TH-LAO-5640103","nameTh":"บ้านสวน","type":"subdistrict_municipality"},"geometry":{"type":"Polygon","coordinates":[[[99.8798279,17.0425237],[99.8809337,17.042273],[99.8817853,17.0410581],[99.8839805,17.0403809],[99.8842644,17.0395408],[99.8882874,17.0385079],[99.8880881,17.028381],[99.8871014,17.0252488],[99.8805126,17.0252873],[99.8759266,17.0238116],[99.8798279,17.0425237]]]}},{"type":"Feature","properties":{"id":"TH-LAO-5640104","nameTh":"เมืองเก่า","type":"subdistrict_municipality"},"geometry":{"type":"Polygon","coordinates":[[[99.6833277,17.0401255],[99.6707801,17.0229443],[99.6842339,17.0139698],[99.6879587,17.0128747],[99.7049274,17.0102054],[99.7131116,17.0099002],[99.7219327,17.0089591],[99.7246213,17.0306613],[99.6833277,17.0401255]]]}},{"type":"Feature","properties":{"id":"TH-LAO-5640201","nameTh":"ลานหอย","type":"subdistrict_municipality"},"geometry":{"type":"Polygon","coordinates":[[[99.5629574,17.0134941],[99.5700204,17.0152131],[99.5796675,17.0086558],[99.5809618,17.006252],[99.5775352,17.0046816],[99.5757432,17.0042669],[99.5773549,17.0005345],[99.5783898,16.9968758],[99.577763,16.98934],[99.5772928,16.9877577],[99.5654192,16.9915411],[99.565477,16.9939294],[99.5645393,16.9984481],[99.5647625,17.0004262],[99.5641531,17.001167],[99.5640737,17.0017867],[99.5643011,17.0021478],[99.5648097,17.0021047],[99.5649043,17.0026539],[99.564717,17.0031131],[99.5640221,17.0033933],[99.5637054,17.0052418],[99.562549,17.0080095],[99.5628626,17.0089919],[99.5636898,17.0087032],[99.5638243,17.0090012],[99.563482,17.0120434],[99.5629574,17.0134941]]]}},{"type":"Feature","properties":{"id":"TH-LAO-5640302","nameTh":"บ้านโตนด","type":"subdistrict_municipality"},"geometry":{"type":"Polygon","coordinates":[[[99.8009059,16.8399625],[99.8121266,16.8329009],[99.8123035,16.8292742],[99.7947861,16.8269284],[99.7959264,16.8356945],[99.8009059,16.8399625]]]}},{"type":"Feature","properties":{"id":"TH-LAO-5640401","nameTh":"กงไกรลาศ","type":"subdistrict_municipality"},"geometry":{"type":"Polygon","coordinates":[[[99.968232,16.9547442],[99.9841268,16.9625252],[99.9887607,16.9546908],[99.9845977,16.9526015],[99.9805006,16.9434632],[99.96651,16.9288831],[99.965647,16.9276244],[99.9655719,16.9263085],[99.9643209,16.9254853],[99.964042,16.9241038],[99.9632266,16.9235208],[99.9631154,16.9245724],[99.962572,16.9252333],[99.9601335,16.9264178],[99.9594103,16.9279334],[99.9581423,16.9286899],[99.9584735,16.9305327],[99.9579544,16.9313099],[99.9551537,16.9315752],[99.954152,16.9302807],[99.9533991,16.9300415],[99.9509179,16.9307952],[99.9535018,16.9363835],[99.9545901,16.9378178],[99.9661238,16.9493197],[99.965154,16.949744],[99.968232,16.9547442]]]}},{"type":"Feature","properties":{"id":"TH-LAO-4640701","nameTh":"สวรรคโลก","type":"town_municipality"},"geometry":{"type":"Polygon","coordinates":[[[99.8437269,17.3346768],[99.8323469,17.3331195],[99.8317396,17.3321327],[99.8315446,17.3310888],[99.8318791,17.3273855],[99.8308731,17.3259995],[99.8273278,17.3224777],[99.824748,17.3172329],[99.8236844,17.3157994],[99.8230549,17.3138655],[99.8194746,17.3128687],[99.8154795,17.312301],[99.8156761,17.3090942],[99.8150294,17.3081731],[99.8229727,17.3026963],[99.8247473,17.3019582],[99.8326466,17.3015642],[99.8425176,17.3038714],[99.8415602,17.3069559],[99.8415501,17.3082837],[99.8427683,17.3251029],[99.844036,17.329112],[99.8441155,17.3317063],[99.8437269,17.3346768]]]}}]}