{"type":"FeatureCollection","features":[{"type":"Feature","properties":{"provinceCode":"86","nameTh":"ชุมพร","nameEn":"Chumphon"},"geometry":{"type":"Polygon","coordinates":[[[99.138083,11.029701],[99.146842,11.029516],[99.148811,11.033678],[99.153576,11.033784],[99.1517424,11.0312808],[99.1513398,11.019815],[99.1475444,11.0160199],[99.1501651,11.0141768],[99.1531146,11.0161541],[99.152044,11.0134978],[99.1542083,11.0120795],[99.159058,11.0124673],[99.1618185,11.010663],[99.1632704,11.0116357],[99.1634548,11.0099476],[99.1657689,11.0110011],[99.1653151,11.0082823],[99.1693777,11.0043165],[99.1672388,11.0034709],[99.1694884,11.000916],[99.1709697,11.0030956],[99.1747808,11.0000356],[99.1775157,11.0036522],[99.1779969,11.0005643],[99.180752,11.0024834],[99.179893,10.9993235],[99.1826295,10.9997264],[99.181942,10.9976665],[99.1862411,10.9957665],[99.1857215,10.9985925],[99.1911337,10.9962058],[99.1919121,10.9996424],[99.1967263,10.9964703],[99.2000912,10.99709],[99.198291,10.9918879],[99.2023731,10.9904274],[99.2007742,10.9892376],[99.2020438,10.9851131],[99.2033491,10.9858864],[99.2031659,10.989399],[99.2064892,10.9901014],[99.2152498,10.9826713],[99.2228658,10.9836051],[99.2293614,10.9807781],[99.2319602,10.9774458],[99.240471,10.9780152],[99.2410127,10.9719686],[99.2467026,10.9723129],[99.2497039,10.968663],[99.2563356,10.969061],[99.2584929,10.9653509],[99.2585839,10.9678717],[99.2654114,10.9695126],[99.2721042,10.9645624],[99.2758607,10.9637022],[99.2808691,10.9584457],[99.2907648,10.9697165],[99.2997484,10.9688097],[99.3056722,10.965337],[99.3110713,10.9685357],[99.3188596,10.9687378],[99.3214495,10.9708387],[99.3301312,10.9680798],[99.3321534,10.9650371],[99.3358785,10.9637955],[99.3390817,10.9713728],[99.3446293,10.9756158],[99.3505576,10.9718186],[99.3620736,10.9691283],[99.3698652,10.9685928],[99.3747707,10.9706302],[99.375574,10.9725406],[99.3778023,10.9662109],[99.3820291,10.9624869],[99.3899977,10.9594052],[99.4006618,10.9579413],[99.4073271,10.9547062],[99.4156467,10.9597404],[99.4208604,10.9660317],[99.4263922,10.9680985],[99.4275024,10.9712933],[99.4359777,10.9713946],[99.4482647,10.9774333],[99.4520412,10.9812688],[99.4567699,10.9826753],[99.4598678,10.988936],[99.4647629,10.989844],[99.4695385,10.9935614],[99.475464,10.9895026],[99.4794105,10.9889298],[99.4839503,10.990277],[99.4917427,10.9882428],[99.502717,10.9919099],[99.7471393,10.9725986],[99.7173377,10.9333791],[99.7196248,10.9194614],[99.7213659,10.8716046],[99.7319735,10.8449777],[99.7400867,10.8108652],[99.744168,10.7726343],[99.7380586,10.738846],[99.7313919,10.7171752],[99.7221304,10.6731579],[99.6694466,10.6139546],[99.6293662,10.5877403],[99.987524,10.2671019],[100.062095,10.1769302],[99.7582379,10.1765519],[99.758628,9.8124405],[99.1583946,9.7038873],[99.1561894,9.7022074],[99.1562,9.6992214],[99.1544101,9.6991312],[99.1565374,9.6961442],[99.1531969,9.696031],[99.1518168,9.6943189],[99.1506261,9.6969258],[99.1461902,9.6987549],[99.1416384,9.7043836],[99.1346016,9.707536],[99.1216564,9.7035285],[99.1136636,9.7036941],[99.1102678,9.7055258],[99.0890499,9.7062561],[99.0888532,9.7036996],[99.0849635,9.70152],[99.0843699,9.6978196],[99.0828567,9.6984561],[99.080526,9.6964107],[99.0752005,9.6993521],[99.0714381,9.6980707],[99.0668696,9.7021113],[99.0584459,9.6886621],[99.0462781,9.6882064],[99.0424718,9.6863269],[99.0408032,9.6831553],[99.0392151,9.6884772],[99.0356584,9.6903166],[99.0345557,9.693742],[99.0319218,9.6956327],[99.0276237,9.6950038],[99.025684,9.6981911],[99.0227107,9.6981943],[99.0199779,9.695616],[99.0200815,9.6933525],[99.0141919,9.6982237],[99.0102607,9.6990471],[99.0025465,9.6917895],[98.9978892,9.6905927],[98.9937439,9.6803925],[98.9886773,9.6778012],[98.9872581,9.6746757],[98.9824141,9.6715734],[98.9796833,9.6730987],[98.9818665,9.6755067],[98.9797499,9.6763949],[98.9802445,9.6792041],[98.9781881,9.681419],[98.9700833,9.6791788],[98.969711,9.6776994],[98.9655114,9.6771594],[98.9653996,9.6758288],[98.9619488,9.6824199],[98.9587923,9.6807412],[98.9554521,9.6825731],[98.9556784,9.6803239],[98.9512571,9.6783811],[98.9482278,9.6819896],[98.941196,9.6825816],[98.939303,9.6814408],[98.937414,9.6850368],[98.9354775,9.684656],[98.9352178,9.6881053],[98.931807,9.6904662],[98.9330877,9.6918223],[98.9328543,9.6961867],[98.9208152,9.7070426],[98.9185374,9.7126991],[98.9153957,9.7147274],[98.9138295,9.7199157],[98.910913,9.7229703],[98.9078645,9.7219276],[98.903974,9.7245232],[98.8992587,9.7197748],[98.8969414,9.7193143],[98.8948956,9.7226947],[98.8916196,9.7217515],[98.8874435,9.7233343],[98.8869126,9.7265945],[98.8824786,9.7260574],[98.8782433,9.7306494],[98.8724897,9.7311827],[98.8628601,9.726891],[98.8621935,9.7196617],[98.8580182,9.7128877],[98.8444378,9.7032553],[98.8408032,9.7036073],[98.8388929,9.7058544],[98.834076,9.7013213],[98.8333063,9.7048631],[98.8304703,9.7063043],[98.8250918,9.7035968],[98.81913,9.704315],[98.8160058,9.7008511],[98.8146393,9.6959516],[98.804999,9.6883005],[98.7955169,9.6871169],[98.7920939,9.6841656],[98.7879572,9.6858941],[98.7899698,9.6919117],[98.7880877,9.6935875],[98.7790026,9.6910222],[98.7778394,9.6879467],[98.7685768,9.6864522],[98.7671407,9.6796837],[98.767922,9.6748178],[98.766503,9.6724675],[98.7686708,9.6680053],[98.7671572,9.6608993],[98.7679545,9.6510272],[98.7656387,9.6493486],[98.7642265,9.6418552],[98.7685356,9.6383689],[98.76843,9.6333513],[98.7663601,9.6310057],[98.7675984,9.6271115],[98.7627302,9.6247279],[98.7556146,9.6145527],[98.7503838,9.6115196],[98.7472652,9.6026093],[98.7443937,9.6035088],[98.7396361,9.6008767],[98.7364435,9.604056],[98.7368632,9.6103771],[98.734242,9.6134089],[98.7313339,9.612694],[98.7290918,9.6144088],[98.7241826,9.6252904],[98.7209812,9.6289245],[98.7149281,9.6285459],[98.7116716,9.6322357],[98.7092459,9.631024],[98.7039585,9.6321355],[98.7000506,9.6354436],[98.6973013,9.6356272],[98.6959234,9.6393833],[98.6882954,9.6412428],[98.6861481,9.6473033],[98.6799504,9.6485414],[98.6790939,9.6514426],[98.672026,9.6549451],[98.6629151,9.6538915],[98.6602411,9.6552207],[98.6544527,9.6529609],[98.6529778,9.6591938],[98.6478204,9.6621784],[98.6485136,9.6647288],[98.6532379,9.6665396],[98.6537223,9.6714966],[98.6598958,9.6773141],[98.6595262,9.684715],[98.6570551,9.6876137],[98.6462478,9.6914301],[98.6501357,9.7007856],[98.6439338,9.7068922],[98.6434407,9.710352],[98.6393766,9.7135625],[98.6404084,9.7167249],[98.6377585,9.7209754],[98.6395407,9.7264087],[98.6382892,9.7301662],[98.6420397,9.7346145],[98.6423218,9.7382929],[98.6346225,9.7425362],[98.6318482,9.7504737],[98.6324148,9.7575998],[98.6276416,9.7637953],[98.6331838,9.7674128],[98.6303046,9.7781554],[98.6331369,9.7845538],[98.6330435,9.7884822],[98.6361131,9.7886765],[98.6416736,9.7933606],[98.643974,9.7909664],[98.646052,9.7920614],[98.6573453,9.8062478],[98.6633365,9.8086661],[98.6639134,9.8149532],[98.6692476,9.8183179],[98.6724365,9.8239163],[98.678918,9.8280921],[98.6823296,9.8347675],[98.68614,9.8344741],[98.6895492,9.8320941],[98.6927058,9.8332682],[98.6978585,9.8430667],[98.7045979,9.8499256],[98.7034745,9.8519655],[98.7071098,9.8532832],[98.7190503,9.8645584],[98.7213008,9.868375],[98.7196277,9.8719226],[98.7216733,9.8772198],[98.7193614,9.8822001],[98.7205761,9.8844206],[98.7190508,9.8874791],[98.7204153,9.8934429],[98.7274376,9.8983288],[98.7305177,9.9035962],[98.7384796,9.906816],[98.7437904,9.9127328],[98.744709,9.9159594],[98.7522584,9.918137],[98.7531181,9.9285856],[98.7558661,9.9336838],[98.7673791,9.9398304],[98.7720516,9.9459722],[98.7806284,9.9503731],[98.7900856,9.9450231],[98.7938141,9.9407258],[98.8025676,9.9433103],[98.8095305,9.9372743],[98.8139614,9.9361494],[98.8235186,9.9482067],[98.8217781,9.9589342],[98.8262581,9.9685785],[98.8294845,9.9709088],[98.8297482,9.9749356],[98.8282258,9.9775932],[98.8311886,9.9802502],[98.8334788,9.9798689],[98.8358743,9.9844633],[98.8402775,9.9859638],[98.8411828,9.9900704],[98.8439039,9.9921247],[98.8540537,9.9932955],[98.8573002,9.9974833],[98.8618254,9.9952245],[98.8671045,9.9954291],[98.8709528,9.9999698],[98.8752732,10.0001052],[98.879253,10.0042049],[98.8835767,10.0055316],[98.8881891,10.0154862],[98.9000871,10.0249876],[98.9042032,10.0264132],[98.9062942,10.033091],[98.9005835,10.0450252],[98.9029688,10.054639],[98.8929442,10.0646957],[98.8883189,10.0611434],[98.8813063,10.0646402],[98.8779012,10.0623088],[98.8742637,10.0638295],[98.8663212,10.0628212],[98.8617726,10.0643693],[98.8582894,10.0610912],[98.8547001,10.0632199],[98.8387943,10.0632075],[98.8354089,10.0661091],[98.8459436,10.0776228],[98.8478462,10.0832619],[98.8509148,10.0856234],[98.8532712,10.0828972],[98.8556789,10.083685],[98.8584998,10.0895795],[98.8628007,10.0934534],[98.866183,10.1083695],[98.8636953,10.1103847],[98.8641401,10.1194388],[98.8586217,10.1187696],[98.8605226,10.1251914],[98.8592129,10.1299924],[98.8609039,10.1327558],[98.8686723,10.133826],[98.8679898,10.1411126],[98.8699547,10.1453093],[98.8695617,10.1538644],[98.8734134,10.1560443],[98.883541,10.1561474],[98.8890071,10.1608881],[98.8886781,10.1700351],[98.8828386,10.17617],[98.8785784,10.1777291],[98.8774226,10.1824349],[98.8708853,10.1866287],[98.8734218,10.1927828],[98.8753602,10.1940377],[98.8750061,10.2036267],[98.8775853,10.2092727],[98.891547,10.2232449],[98.8892694,10.232049],[98.8904819,10.235956],[98.8989962,10.2400363],[98.9003599,10.2422037],[98.9001708,10.2450929],[98.8954417,10.247235],[98.8945467,10.2504968],[98.9036973,10.2540433],[98.909206,10.2669317],[98.9086244,10.2695579],[98.9017938,10.2737648],[98.8998311,10.2776976],[98.9014837,10.2854775],[98.9007128,10.2893808],[98.9042383,10.2926911],[98.9031459,10.2949818],[98.9045925,10.2973221],[98.9138795,10.3036736],[98.9188409,10.3167338],[98.9233205,10.318949],[98.9257814,10.3236578],[98.9307217,10.326441],[98.9320134,10.3321407],[98.9346939,10.3332813],[98.9352322,10.33592],[98.9402446,10.3413933],[98.9410015,10.3485483],[98.9434229,10.3518784],[98.9418519,10.359238],[98.9307231,10.3648476],[98.9324244,10.3709679],[98.9375775,10.3780756],[98.9376067,10.3832523],[98.9293955,10.3858623],[98.9287564,10.3949714],[98.9248546,10.3961747],[98.9219267,10.3949945],[98.919101,10.3969479],[98.9156786,10.3951064],[98.908174,10.398385],[98.901472,10.3979988],[98.9045762,10.4052614],[98.904712,10.4105671],[98.8988945,10.412449],[98.8937925,10.4163712],[98.8951359,10.4221518],[98.8935841,10.428946],[98.8964029,10.4319965],[98.8946394,10.4370812],[98.8956882,10.4406869],[98.8924237,10.4411963],[98.8923346,10.4455814],[98.8870179,10.4514065],[98.8891175,10.4558369],[98.8839996,10.457429],[98.8948157,10.475016],[98.8948329,10.4834844],[98.9001001,10.4867782],[98.9111739,10.4902264],[98.9118809,10.4955584],[98.9178,10.5040575],[98.9178679,10.5073461],[98.9243832,10.513368],[98.9366943,10.5133537],[98.9394675,10.5162859],[98.9447738,10.5172775],[98.9467407,10.5269792],[98.9522802,10.5349662],[98.9626011,10.5395895],[98.9622139,10.5423316],[98.9542686,10.5477338],[98.9523759,10.5512809],[98.947749,10.5534781],[98.9439023,10.5581133],[98.9447386,10.5619008],[98.9410924,10.5699116],[98.9493415,10.5740357],[98.9536455,10.5787016],[98.9566111,10.5793139],[98.9601017,10.584733],[98.9618368,10.5966813],[98.9649264,10.6049336],[98.9610905,10.6085425],[98.9591723,10.6164573],[98.9494376,10.6111448],[98.9451822,10.6118226],[98.9463225,10.6221216],[98.9508823,10.6373028],[98.9481218,10.6389611],[98.9483093,10.6437848],[98.9400671,10.6494189],[98.9276348,10.64904],[98.925006,10.657008],[98.9292667,10.6669044],[98.9282894,10.6689256],[98.9297029,10.6726969],[98.9255118,10.6752994],[98.9250112,10.678064],[98.9181425,10.6803454],[98.9083261,10.677475],[98.9082291,10.6815404],[98.9107289,10.6855129],[98.9095148,10.6914256],[98.90765,10.6924935],[98.9047996,10.6919105],[98.9014125,10.6854052],[98.8939612,10.6818068],[98.8942557,10.6859042],[98.8917711,10.6886183],[98.8898978,10.6959032],[98.8952523,10.7002539],[98.89921,10.7062004],[98.8998965,10.7086372],[98.8982296,10.7122191],[98.902243,10.7153499],[98.9036137,10.7244849],[98.9064908,10.7261271],[98.9054267,10.729574],[98.9100835,10.7345401],[98.9111509,10.7374187],[98.9098218,10.7404686],[98.9125271,10.7427361],[98.9143446,10.7477407],[98.9105694,10.7501542],[98.9091978,10.7532622],[98.8977492,10.7519415],[98.8975575,10.7548579],[98.8934986,10.7577912],[98.8938553,10.7644137],[98.8920482,10.7645212],[98.8918916,10.7688758],[98.8893836,10.7699385],[98.889202,10.774144],[98.89808,10.780078],[98.902322,10.779174],[98.904338,10.781376],[98.905799,10.784668],[98.905801,10.792339],[98.914273,10.806834],[98.912917,10.810719],[98.914663,10.814533],[98.916907,10.814921],[98.921521,10.820418],[98.922846,10.825714],[98.924935,10.826362],[98.929112,10.8238],[98.93145,10.820203],[98.936329,10.818922],[98.936469,10.812935],[98.943374,10.814403],[98.946367,10.811827],[98.953537,10.813497],[98.958806,10.811986],[98.965976,10.820505],[98.965134,10.823268],[98.970933,10.827815],[98.972413,10.831326],[98.974268,10.832521],[98.980238,10.830434],[98.983324,10.831758],[98.985616,10.833442],[98.990183,10.844148],[98.993596,10.843256],[98.997789,10.847127],[99.001889,10.847789],[99.01149,10.856696],[99.011927,10.872152],[99.008841,10.874483],[99.008061,10.878412],[99.00033,10.880628],[99.003447,10.884571],[99.005973,10.892169],[99.002949,10.898889],[99.004227,10.904271],[99.003198,10.907192],[98.997743,10.911178],[99.000299,10.913754],[98.999286,10.923554],[99.003946,10.929598],[99.002949,10.935066],[99.011892,10.9423],[99.012792,10.94718],[99.014929,10.948651],[99.01401,10.952078],[99.015979,10.958948],[99.017797,10.960367],[99.018547,10.964832],[99.023852,10.970734],[99.030337,10.969193],[99.033524,10.964175],[99.039898,10.961527],[99.049739,10.96215],[99.050395,10.954881],[99.052551,10.953497],[99.054013,10.948668],[99.056712,10.947284],[99.063254,10.952268],[99.079319,10.954951],[99.083451,10.95973],[99.08359,10.963576],[99.088096,10.965504],[99.093849,10.972949],[99.092102,10.975074],[99.092582,10.979628],[99.095597,10.982736],[99.095352,10.986916],[99.099997,10.99263],[99.104527,11.013948],[99.111803,11.015528],[99.114971,11.020454],[99.119165,11.021087],[99.129722,11.030333],[99.134887,11.029595],[99.1362,11.031281],[99.138083,11.029701]]]}}]}