{"type":"FeatureCollection","features":[{"type":"Feature","properties":{"provinceCode":"81","nameTh":"กระบี่","nameEn":"Krabi"},"geometry":{"type":"Polygon","coordinates":[[[98.680412,8.543751],[98.685566,8.5621456],[98.6919364,8.5717667],[98.6910639,8.5760066],[98.6964295,8.5803828],[98.7077086,8.5970921],[98.7069395,8.6030226],[98.7029854,8.6050631],[98.7039908,8.6097384],[98.7021396,8.612648],[98.7035994,8.6175716],[98.7014743,8.6226626],[98.7034381,8.6319787],[98.7057967,8.6282299],[98.7153013,8.6337312],[98.7227593,8.6303598],[98.7322755,8.6457804],[98.7368141,8.6589305],[98.7422563,8.6651618],[98.747643,8.6751097],[98.7707458,8.6732387],[98.7729085,8.6709171],[98.7736,8.6660397],[98.7760356,8.6653469],[98.777305,8.662354],[98.7824328,8.660556],[98.7834126,8.6551702],[98.786655,8.6509303],[98.7979514,8.6509498],[98.7993241,8.65681],[98.8014934,8.6590811],[98.8410968,8.6779609],[98.8546221,8.6787373],[98.8617348,8.6810505],[98.8879765,8.681337],[98.889744,8.6771563],[98.8930115,8.6744687],[98.8910741,8.6700759],[98.8926097,8.6622482],[98.8977565,8.6576914],[98.902636,8.647546],[98.899743,8.642721],[98.9036379,8.6348851],[98.9024351,8.6313819],[98.9080173,8.62515],[98.9093296,8.6205229],[98.9197326,8.6147903],[98.9198102,8.6120953],[98.9175474,8.610607],[98.9186911,8.6088298],[98.9166911,8.6016423],[98.9192013,8.5982062],[98.9189278,8.59597],[98.9292209,8.5931933],[98.9305636,8.5879079],[98.9343186,8.5866018],[98.9331252,8.5837567],[98.9377813,8.5780387],[98.9383652,8.5640255],[98.9319149,8.5508483],[98.9324393,8.5451603],[98.9349314,8.5394522],[98.9420646,8.532313],[98.9434857,8.506305],[98.9459225,8.496607],[98.950794,8.4920508],[98.9495513,8.4850176],[98.9470301,8.4809419],[98.9485227,8.4720625],[98.9455335,8.4671628],[98.9445587,8.4601089],[98.9411989,8.4586503],[98.942854,8.4513501],[98.9387659,8.4430682],[98.9393865,8.4378365],[98.9425254,8.4366348],[98.946397,8.4245394],[98.9499496,8.4219176],[98.953605,8.4225371],[98.9598492,8.4210915],[98.9598055,8.4200105],[98.9656286,8.4199419],[98.9657347,8.4181875],[98.9732393,8.4180133],[98.9745721,8.4099337],[98.981214,8.4086055],[98.9819646,8.4064895],[98.9887717,8.40367],[98.9902229,8.4011318],[98.9924233,8.4007679],[98.9935103,8.3945085],[99.0016332,8.3926537],[99.0007066,8.3902104],[99.0053977,8.3873423],[99.0047647,8.3850851],[99.008146,8.3853402],[99.0090407,8.3826408],[99.0148002,8.381878],[99.0181439,8.3797087],[99.0197764,8.37633],[99.023115,8.3749346],[99.0240938,8.3708998],[99.0272689,8.3710757],[99.0281587,8.3665539],[99.0351331,8.3664803],[99.0361164,8.3622809],[99.0420339,8.3631996],[99.0476416,8.3608466],[99.0618051,8.3595698],[99.0641863,8.3619723],[99.072522,8.3617026],[99.0746394,8.3641263],[99.0783124,8.3616732],[99.0800773,8.3634573],[99.0890099,8.3619398],[99.0907369,8.364442],[99.0955757,8.3639616],[99.1037411,8.3662961],[99.1066809,8.364891],[99.1110079,8.3655048],[99.1116794,8.3669807],[99.1230396,8.3664235],[99.1242207,8.368074],[99.1260874,8.3677915],[99.129159,8.3638218],[99.1350521,8.3630584],[99.1370628,8.3605368],[99.1443476,8.3598031],[99.1468933,8.3609327],[99.1507492,8.3594983],[99.1573395,8.3630243],[99.1604801,8.3678068],[99.1678684,8.3696792],[99.1722091,8.3674421],[99.1776005,8.3717204],[99.1803568,8.3721088],[99.185717,8.3688569],[99.1845234,8.363658],[99.1863874,8.3626582],[99.1914934,8.3643702],[99.1946292,8.3631527],[99.1955808,8.3654277],[99.2050262,8.3660492],[99.2013808,8.3615651],[99.2061619,8.354158],[99.209824,8.3425057],[99.2096472,8.3359854],[99.2300842,8.3189537],[99.2573198,8.3024329],[99.2639413,8.3008006],[99.2693304,8.3029315],[99.2768488,8.3029022],[99.2809784,8.3043343],[99.2824122,8.3109281],[99.2907276,8.308675],[99.2903295,8.3133595],[99.2938681,8.3117387],[99.2959747,8.3154638],[99.2996043,8.3151434],[99.2986362,8.3103927],[99.3007788,8.3107858],[99.2989372,8.3062541],[99.3034098,8.3062989],[99.3019468,8.3043488],[99.3031215,8.3036459],[99.3035658,8.304811],[99.3064304,8.3045744],[99.3056901,8.3031621],[99.3080576,8.3032115],[99.3086954,8.3006679],[99.3131038,8.3000967],[99.3157915,8.2956342],[99.317876,8.296243],[99.3176212,8.2938705],[99.3188703,8.2935233],[99.3194756,8.2953176],[99.3213769,8.2930717],[99.3250097,8.2961567],[99.3255347,8.2942966],[99.3276236,8.2940084],[99.3274563,8.2912511],[99.3301382,8.2915545],[99.3316827,8.2887939],[99.3311371,8.2815523],[99.3324025,8.2813965],[99.3314715,8.2799113],[99.3334858,8.2756802],[99.332274,8.2730564],[99.3362416,8.2683538],[99.3342701,8.2670207],[99.3342533,8.2620406],[99.3318015,8.2605456],[99.3337239,8.2568776],[99.3294428,8.2545571],[99.3284356,8.2555248],[99.3242226,8.2523723],[99.3246541,8.2506639],[99.3227636,8.2510885],[99.3233148,8.2485766],[99.3217882,8.2493585],[99.3215451,8.2463319],[99.3197084,8.2468207],[99.320815,8.2423569],[99.3167942,8.2422516],[99.3144315,8.2404576],[99.3152394,8.239638],[99.3130258,8.2377872],[99.3147875,8.2380598],[99.314472,8.2353424],[99.3120035,8.2352716],[99.311281,8.233637],[99.3134943,8.2333414],[99.3137275,8.229675],[99.3155878,8.2280865],[99.3143607,8.2273946],[99.3181713,8.2204785],[99.3173619,8.2196364],[99.3206141,8.2179968],[99.3197115,8.2135211],[99.3225454,8.2081741],[99.3190599,8.2046465],[99.3201447,8.2040313],[99.3187195,8.2028502],[99.320172,8.2015338],[99.3195399,8.1966798],[99.3163933,8.1964607],[99.3177259,8.1945428],[99.3163434,8.1942945],[99.3167708,8.1930458],[99.3118618,8.1949045],[99.311329,8.1924972],[99.3075669,8.1918911],[99.3090389,8.1902677],[99.3067748,8.1905434],[99.3061902,8.189239],[99.3077338,8.1886546],[99.3058831,8.1870785],[99.3081079,8.1840757],[99.306056,8.1828899],[99.3084961,8.1809533],[99.3083896,8.1758187],[99.3043028,8.1702767],[99.2984602,8.1710615],[99.2980891,8.1668335],[99.2964757,8.1680932],[99.2968677,8.166698],[99.2945082,8.1653886],[99.2898352,8.1650373],[99.2901104,8.1607652],[99.2885204,8.1599443],[99.2900561,8.158216],[99.2886463,8.1553306],[99.2908294,8.1529487],[99.2884095,8.150801],[99.2937389,8.1486769],[99.2929741,8.1455641],[99.2950164,8.1465815],[99.2980349,8.1425668],[99.2958503,8.1376452],[99.2964394,8.132072],[99.3023706,8.131224],[99.3045504,8.1343831],[99.3275709,8.1348861],[99.333238,8.1344036],[99.3334421,8.1332098],[99.3433505,8.1361557],[99.3481398,8.1361991],[99.3503219,8.1337404],[99.3560245,8.1344491],[99.357713,8.13261],[99.3634707,8.1331094],[99.3639258,8.135963],[99.3735421,8.138449],[99.3848522,8.1437167],[99.387747,8.141041],[99.3887765,8.1347058],[99.385403,8.1311234],[99.3877242,8.1169134],[99.3929816,8.1069323],[99.3932246,8.1043654],[99.3910043,8.1014561],[99.3941259,8.0959717],[99.3919008,8.0953299],[99.3937799,8.0866155],[99.3929941,8.0852332],[99.3890174,8.0854657],[99.3883746,8.0836364],[99.3850587,8.0834398],[99.3828339,8.0724669],[99.3865863,8.07198],[99.3874097,8.0630779],[99.3909569,8.0580296],[99.3908153,8.0548685],[99.3939062,8.0547179],[99.3955308,8.0434427],[99.4002142,8.0365092],[99.4022169,8.026898],[99.4060792,8.0209704],[99.4048924,8.0150142],[99.4120894,8.0067142],[99.412053,8.0043738],[99.41451,8.0040513],[99.4149683,7.9997625],[99.4107546,7.9971652],[99.4088649,7.9980426],[99.4064643,7.9928492],[99.3999487,7.9877459],[99.4015628,7.986394],[99.3956105,7.9816003],[99.3971183,7.976307],[99.3928992,7.9656995],[99.3938666,7.9591519],[99.3963674,7.9592449],[99.3990948,7.9570524],[99.398047,7.9545503],[99.3930152,7.9519238],[99.3879015,7.9438054],[99.3852227,7.9436392],[99.3843906,7.9410231],[99.3684882,7.946306],[99.3645957,7.9445853],[99.3650434,7.9377761],[99.3553089,7.9322096],[99.3337746,7.9287921],[99.3351695,7.919757],[99.3385366,7.911202],[99.3302225,7.8923515],[99.3320441,7.8830308],[99.3311462,7.8811626],[99.3200159,7.8687136],[99.3148246,7.8657741],[99.2966623,7.8637128],[99.2875168,7.8591157],[99.2847792,7.8533451],[99.2787398,7.8485933],[99.2789456,7.8436551],[99.2842473,7.8357093],[99.2880355,7.8334375],[99.2904894,7.8279704],[99.2942019,7.8250977],[99.2933699,7.8192407],[99.2873489,7.8181783],[99.2871473,7.8100549],[99.2967553,7.8102739],[99.3033091,7.8078686],[99.3026584,7.8012097],[99.2997286,7.7939877],[99.3016967,7.7907082],[99.2884854,7.7753874],[99.2880254,7.7715602],[99.2897188,7.7682545],[99.2890098,7.7624413],[99.3063464,7.7549687],[99.3085806,7.7419428],[99.3078253,7.7384636],[99.3111603,7.7376317],[99.3124954,7.7344327],[99.312817,7.7275881],[99.3072011,7.7189589],[99.3106985,7.7108308],[99.3087609,7.7088056],[99.3097408,7.7054079],[99.3079635,7.7036269],[99.3083964,7.7011024],[99.3041252,7.6996938],[99.3042877,7.6974748],[99.2991008,7.6912673],[99.3006216,7.689284],[99.2983511,7.6878838],[99.2949312,7.6904849],[99.2938658,7.6881982],[99.2916716,7.6901541],[99.2906052,7.686662],[99.2866162,7.6882253],[99.285319,7.6845679],[99.286329,7.6796495],[99.2788108,7.6809782],[99.2741374,7.678074],[99.2598105,7.6574354],[99.1801609,7.612902],[99.2472217,7.4284101],[99.0963351,7.2772426],[99.1205808,7.1859439],[99.0923933,7.1580274],[99.0052559,7.1861246],[98.8953064,7.0760849],[98.8845554,7.0898172],[98.8713651,7.1267682],[98.8643182,7.1708564],[98.8613368,7.215577],[98.8488693,7.2165708],[98.8211335,7.223708],[98.7807946,7.2429966],[98.7577567,7.2588069],[98.7322795,7.2795862],[98.7251423,7.2902468],[98.6937023,7.3515909],[98.6888237,7.3652329],[98.685752,7.3818563],[98.6871095,7.4661405],[98.6553736,7.4870852],[98.6547623,8.1235937],[98.6727768,8.1960742],[98.6453547,8.196136],[98.5996448,8.3045695],[98.6344901,8.3746649],[98.6579651,8.3805919],[98.6624047,8.3847865],[98.6618453,8.3893576],[98.6583555,8.395934],[98.6456238,8.4073331],[98.6440956,8.4112966],[98.6451463,8.4155966],[98.6491296,8.4206212],[98.6552058,8.424221],[98.6624761,8.4248982],[98.6646506,8.4268744],[98.6660404,8.4347727],[98.6635087,8.4407103],[98.6637978,8.4457656],[98.6658138,8.449051],[98.6649394,8.4545938],[98.6670522,8.45471],[98.6670097,8.4571529],[98.6687586,8.4563168],[98.6712872,8.4591949],[98.670184,8.4606931],[98.6654772,8.4591148],[98.6667351,8.460613],[98.6642882,8.4639002],[98.6657286,8.4638129],[98.6653358,8.4662097],[98.6632833,8.4655964],[98.6639067,8.4673656],[98.6613025,8.467617],[98.6598013,8.4716439],[98.6577451,8.4704766],[98.6552569,8.4758734],[98.6542088,8.4743031],[98.6535226,8.4771243],[98.6508403,8.4782916],[98.6514266,8.4796068],[98.6491872,8.4827293],[98.654076,8.4824352],[98.6571205,8.4875045],[98.6621312,8.4904022],[98.6624046,8.4982866],[98.6670399,8.5013135],[98.6732252,8.5196832],[98.6742577,8.5213572],[98.6775275,8.5205249],[98.6775047,8.5277909],[98.681185,8.5368909],[98.680412,8.543751]]]}}]}