{"type":"FeatureCollection","features":[{"type":"Feature","properties":{"id":"TH-LAO-4810102","nameTh":"กระบี่","type":"town_municipality"},"geometry":{"type":"Polygon","coordinates":[[[98.8832829,8.1051709],[98.8922556,8.1074011],[98.8969748,8.107953],[98.8995092,8.1079218],[98.905929,8.1069093],[98.909133,8.1100466],[98.910728,8.1109788],[98.9137029,8.1111624],[98.91907,8.11064],[98.9255913,8.1118425],[98.9220873,8.0888087],[98.9224835,8.0880781],[98.9222411,8.0862077],[98.9239021,8.084288],[98.9241018,8.0833704],[98.9236954,8.0823399],[98.9222055,8.0817047],[98.9214641,8.0808789],[98.9213046,8.0795871],[98.9200375,8.0760161],[98.9188327,8.068252],[98.9193389,8.065591],[98.9218069,8.0630544],[98.924442,8.0527767],[98.9198773,8.0527902],[98.9182156,8.0534562],[98.9173637,8.0530971],[98.916572,8.0533457],[98.9091657,8.0558371],[98.9064835,8.0586266],[98.9045883,8.0618005],[98.9025046,8.0677689],[98.9019583,8.0722876],[98.9011299,8.0737931],[98.9003484,8.0746087],[98.8954939,8.0769796],[98.8934099,8.0786247],[98.8913136,8.0816961],[98.8861496,8.0912138],[98.8805223,8.0985457],[98.8832829,8.1051709]]]}}]}