{"type":"FeatureCollection","features":[{"type":"Feature","properties":{"provinceCode":"43","nameTh":"หนองคาย","nameEn":"Nong Khai"},"geometry":{"type":"Polygon","coordinates":[[[103.2661956,17.8654529],[103.2585597,17.8711151],[103.2550662,17.8769469],[103.2398299,17.8857988],[103.2384118,17.8839243],[103.2391425,17.8795602],[103.2300047,17.8779469],[103.2272246,17.873239],[103.2208164,17.8704924],[103.2083344,17.8731998],[103.2079667,17.8707241],[103.2056602,17.8706794],[103.1999176,17.8658099],[103.1968757,17.8666501],[103.1960206,17.8692755],[103.1947808,17.8676697],[103.1934282,17.8698527],[103.1922037,17.8687514],[103.190905,17.8716766],[103.1886338,17.8679862],[103.1893631,17.8660462],[103.1863947,17.8626767],[103.1850188,17.8636495],[103.1845223,17.8610641],[103.1831191,17.861554],[103.1830706,17.8580821],[103.1804417,17.8588568],[103.1794887,17.8562917],[103.1777588,17.8562368],[103.1782681,17.8551152],[103.1749533,17.8536228],[103.1774313,17.8499651],[103.1725557,17.838464],[103.171514,17.8301831],[103.1681737,17.8245659],[103.166753,17.8142438],[103.1601828,17.806116],[103.1536114,17.8026872],[103.1398084,17.8119198],[103.1367473,17.8173345],[103.133998,17.8145307],[103.1320289,17.8156904],[103.1348334,17.818862],[103.1323693,17.8227563],[103.1352215,17.8225889],[103.1355984,17.8246939],[103.1324676,17.8253074],[103.1319207,17.8272502],[103.1302763,17.8256119],[103.1271094,17.8264577],[103.1278633,17.8297909],[103.1241819,17.830067],[103.1242919,17.8316458],[103.1228059,17.8320119],[103.1247138,17.8341912],[103.1265943,17.8337815],[103.1256071,17.8356389],[103.129392,17.8378489],[103.1270058,17.8398549],[103.1280418,17.843299],[103.1223875,17.8465765],[103.1170755,17.844359],[103.1163644,17.8464307],[103.1193015,17.8493591],[103.1162928,17.8511095],[103.114298,17.860878],[103.107365,17.8612976],[103.1070522,17.8577677],[103.109194,17.8565887],[103.1085215,17.8543967],[103.1038411,17.8583656],[103.1005898,17.8565954],[103.101481,17.8610928],[103.0998147,17.8702418],[103.0964492,17.8691591],[103.0953106,17.8658611],[103.0865602,17.8753997],[103.0823669,17.8738581],[103.0819087,17.8795669],[103.0785795,17.8828299],[103.0779955,17.8857432],[103.0728223,17.8858137],[103.0713372,17.8838323],[103.0587229,17.8796019],[103.0518467,17.8800535],[103.0475127,17.8824971],[103.0463505,17.8856537],[103.0457039,17.8843486],[103.044324,17.885326],[103.0430038,17.8894883],[103.0449847,17.8894531],[103.0436555,17.891569],[103.044519,17.8929808],[103.0380187,17.8915969],[103.0371174,17.890164],[103.0395579,17.8887627],[103.0388188,17.8870852],[103.0413582,17.8831646],[103.039327,17.8819574],[103.0382867,17.8776672],[103.0302257,17.8742366],[103.0264095,17.8770533],[103.0252653,17.875819],[103.0248944,17.8770877],[103.0170541,17.8754371],[103.0153067,17.8775747],[103.0124772,17.875808],[103.0132487,17.8722503],[103.0102269,17.869102],[103.0121053,17.8621706],[103.0044437,17.8623399],[103.0041807,17.8420708],[102.9932281,17.8443343],[102.9883919,17.8434566],[102.9825712,17.8366658],[102.9817977,17.8299849],[102.9688915,17.8236899],[102.9654201,17.8274502],[102.9610299,17.8273417],[102.9616372,17.8332503],[102.9556445,17.8364057],[102.9548455,17.8442266],[102.9516348,17.8502737],[102.9441879,17.8554563],[102.9416985,17.862244],[102.9423243,17.8708531],[102.9369865,17.8754851],[102.9358351,17.8778689],[102.9366926,17.8846274],[102.9341842,17.8854057],[102.9336877,17.8876786],[102.9274164,17.8930541],[102.9208732,17.8932587],[102.9182626,17.8903648],[102.8938485,17.8911765],[102.8913955,17.8921269],[102.889769,17.8956416],[102.8833788,17.8982925],[102.8821073,17.8939522],[102.8759915,17.8950074],[102.8769686,17.8925596],[102.8749341,17.8926092],[102.8716159,17.8901345],[102.8720786,17.8885049],[102.8696092,17.8879046],[102.8714745,17.8831581],[102.8708714,17.8815547],[102.8687983,17.8815055],[102.8691381,17.8780223],[102.8676809,17.8760626],[102.8684137,17.8740375],[102.8706948,17.8752148],[102.8737479,17.872811],[102.8717068,17.8710583],[102.8738172,17.8704078],[102.8722304,17.8680159],[102.8741832,17.8671827],[102.8727658,17.8665152],[102.8743045,17.8647033],[102.8705057,17.8634643],[102.8726537,17.8623784],[102.8734278,17.8573344],[102.8712765,17.8580645],[102.8698859,17.8550194],[102.8705627,17.8568904],[102.8688233,17.8578184],[102.8674159,17.8575536],[102.8676518,17.8557945],[102.8650463,17.8556251],[102.8672571,17.8518692],[102.8646224,17.8514447],[102.8677486,17.8496213],[102.8651266,17.8492342],[102.8649083,17.8478577],[102.8691414,17.8464954],[102.865646,17.8436908],[102.8646497,17.845157],[102.8631352,17.8449615],[102.8634558,17.8435564],[102.8613664,17.8443156],[102.8596175,17.8415463],[102.8569533,17.8429522],[102.8569174,17.8398056],[102.8560794,17.8416987],[102.8551827,17.8391749],[102.8530868,17.8400534],[102.8528656,17.8361934],[102.8511409,17.8362231],[102.8518032,17.8380663],[102.8494683,17.839728],[102.8439539,17.8365232],[102.8510426,17.8268179],[102.8463301,17.8243541],[102.8437414,17.8258949],[102.8394986,17.8247222],[102.8356095,17.8216537],[102.8361337,17.8198611],[102.8408981,17.8205562],[102.8367958,17.8171655],[102.8398175,17.8138455],[102.8389247,17.8111986],[102.8355144,17.8138397],[102.8336522,17.81098],[102.8260646,17.8136217],[102.8279567,17.8093515],[102.832371,17.809563],[102.8339134,17.8055586],[102.8362234,17.8050172],[102.8408527,17.8071073],[102.8427135,17.8057456],[102.8413968,17.7997069],[102.8426317,17.7973493],[102.8397111,17.7967328],[102.8409857,17.7954601],[102.8385711,17.7939989],[102.8421333,17.7930429],[102.8406707,17.7913311],[102.8435679,17.7914213],[102.8505666,17.7859998],[102.8490405,17.7831146],[102.8435899,17.7846993],[102.8449871,17.7800058],[102.8474065,17.7781289],[102.8514091,17.7779292],[102.8510444,17.7760675],[102.8541696,17.7760456],[102.8530083,17.7688743],[102.8493368,17.7710199],[102.8485186,17.769599],[102.8493983,17.7672139],[102.8509817,17.7682897],[102.8513403,17.7651567],[102.850271,17.7641221],[102.8489532,17.7652293],[102.8491142,17.763457],[102.847112,17.7635755],[102.8454603,17.7616269],[102.8481264,17.7593757],[102.8466623,17.7565406],[102.8491364,17.7560925],[102.8479124,17.7547406],[102.8498657,17.7530965],[102.850175,17.7493754],[102.846512,17.7491812],[102.8445122,17.7455242],[102.8427888,17.7458307],[102.84326,17.7442634],[102.8415773,17.7444229],[102.8424159,17.7419184],[102.8443924,17.7425949],[102.8445803,17.7400413],[102.8496078,17.7371047],[102.8479241,17.7365313],[102.8488359,17.7345067],[102.846851,17.7350448],[102.848201,17.7338808],[102.8477827,17.7302444],[102.850029,17.7282121],[102.8464,17.726878],[102.842025,17.7204037],[102.8371058,17.7166685],[102.834736,17.7175823],[102.8354224,17.7154817],[102.8328671,17.7156389],[102.8356644,17.7053076],[102.8331512,17.6980951],[102.8303272,17.6954408],[102.8307231,17.6934891],[102.8097082,17.6846786],[102.8011649,17.6842804],[102.7973642,17.6867228],[102.7886429,17.6822424],[102.7841262,17.6825045],[102.7834632,17.6781702],[102.781708,17.6773652],[102.7828268,17.6759551],[102.7801697,17.6738161],[102.7803702,17.6700279],[102.7780509,17.6700439],[102.7760514,17.6674526],[102.7768832,17.664802],[102.7730026,17.6639738],[102.7738608,17.6624637],[102.7747869,17.6633958],[102.7739234,17.661759],[102.7757266,17.6584063],[102.7746651,17.6581137],[102.7767766,17.6563328],[102.7744056,17.6472837],[102.7707437,17.6457686],[102.7710254,17.6446732],[102.7694842,17.6451947],[102.7688108,17.6435048],[102.764522,17.6456395],[102.7602803,17.641976],[102.7625178,17.6394559],[102.761016,17.638691],[102.7623384,17.6382122],[102.7615272,17.6371808],[102.7647222,17.633748],[102.7633956,17.6331027],[102.7649591,17.6305474],[102.7642677,17.6285973],[102.7683491,17.6226664],[102.7664708,17.6199264],[102.7561378,17.6203697],[102.7545237,17.6232307],[102.749111,17.6232205],[102.7503436,17.6198541],[102.7490082,17.6203031],[102.7482996,17.6182034],[102.7452817,17.616679],[102.7430978,17.6171924],[102.7434756,17.6189943],[102.7409145,17.6204422],[102.7378719,17.6172148],[102.7355439,17.6078154],[102.7315495,17.6035362],[102.7173165,17.6040433],[102.712605,17.60567],[102.7042607,17.6123209],[102.6989998,17.620128],[102.6945068,17.6210237],[102.6873467,17.6110774],[102.6729787,17.6050165],[102.6712951,17.5994997],[102.6680004,17.596269],[102.650129,17.5938875],[102.6477751,17.5949874],[102.6469362,17.5988829],[102.6495553,17.603703],[102.6466134,17.6095671],[102.6469664,17.6142753],[102.6136913,17.6247446],[102.6055181,17.6252812],[102.5958042,17.6229436],[102.5971487,17.6296557],[102.6020335,17.6348074],[102.6027143,17.639225],[102.6014746,17.6415294],[102.603168,17.6432442],[102.6015313,17.6503741],[102.6030093,17.653634],[102.5999164,17.6573626],[102.6001897,17.6615565],[102.5968756,17.6708279],[102.6004137,17.6808236],[102.6118737,17.6834749],[102.6056639,17.6923513],[102.5946979,17.6972401],[102.5844525,17.7040951],[102.5794503,17.7110445],[102.5757115,17.7128772],[102.5763589,17.7154732],[102.5699609,17.7185918],[102.5403888,17.7429482],[102.538044,17.7455276],[102.5385631,17.749602],[102.5369006,17.7546123],[102.5325937,17.7595494],[102.5253368,17.7630003],[102.5201208,17.7629855],[102.5123024,17.7619104],[102.5025361,17.7576413],[102.4954117,17.759733],[102.4920091,17.7556701],[102.4901841,17.7572832],[102.4767105,17.7571871],[102.4755163,17.7548975],[102.4689786,17.752978],[102.4604383,17.7595082],[102.4586605,17.7583514],[102.4521932,17.7613941],[102.4522932,17.7682878],[102.4492037,17.7712797],[102.445145,17.7692867],[102.4445586,17.7674067],[102.4396242,17.767798],[102.440514,17.7695618],[102.4387411,17.7702174],[102.4393276,17.7741035],[102.4370389,17.7756121],[102.4372246,17.77811],[102.4393771,17.7793372],[102.4392719,17.7823797],[102.44039,17.7811848],[102.4409375,17.7834137],[102.4428217,17.7838881],[102.4398037,17.7840668],[102.4403065,17.785704],[102.4380836,17.7844572],[102.4340484,17.7876447],[102.4328802,17.7900693],[102.4345292,17.7906635],[102.4337369,17.7938333],[102.4315401,17.7946152],[102.4314473,17.7922761],[102.4299343,17.7920134],[102.4288981,17.7956989],[102.4307584,17.7972038],[102.4319168,17.7962512],[102.4330618,17.7989902],[102.4302713,17.7991598],[102.4316319,17.8009166],[102.4307376,17.8024432],[102.4335096,17.802885],[102.4344644,17.8065971],[102.431594,17.808667],[102.4340541,17.8118119],[102.4376994,17.8102706],[102.4359269,17.8120883],[102.4383175,17.8133239],[102.4373363,17.8149379],[102.4394517,17.8148575],[102.4382183,17.8171536],[102.4406162,17.8164709],[102.4411301,17.8206976],[102.4385403,17.819987],[102.437579,17.8219866],[102.4337216,17.8205319],[102.4322214,17.8217701],[102.4279149,17.8196019],[102.4268376,17.8212932],[102.4249582,17.8217862],[102.4248123,17.8205457],[102.4219347,17.8235965],[102.4234012,17.8247791],[102.4181446,17.8258598],[102.4188601,17.8272034],[102.4171973,17.8268682],[102.415764,17.8305864],[102.412802,17.8300103],[102.412201,17.8326947],[102.4100694,17.8330594],[102.409013,17.8347063],[102.4106591,17.8370438],[102.4089572,17.8400155],[102.4098415,17.8411344],[102.4073588,17.8403393],[102.4061344,17.8427514],[102.4001279,17.843554],[102.3985252,17.8464625],[102.4001789,17.8466629],[102.3993142,17.8482057],[102.4018788,17.8483075],[102.4004591,17.8496402],[102.4022461,17.8497435],[102.4009796,17.8509839],[102.4032908,17.8522225],[102.4015171,17.8527499],[102.4031342,17.8552058],[102.4002903,17.8588244],[102.4005914,17.8619098],[102.3955112,17.8644374],[102.3983274,17.8665542],[102.3957436,17.8696454],[102.3981895,17.8708873],[102.400183,17.8766021],[102.3959126,17.8815032],[102.3954664,17.8840956],[102.39216,17.886469],[102.3895221,17.8917177],[102.3900345,17.8944117],[102.3868467,17.895696],[102.3872584,17.8984294],[102.3801878,17.8965099],[102.3780557,17.8978595],[102.3776024,17.9005773],[102.3733367,17.9015307],[102.3698752,17.9048075],[102.3676842,17.9040002],[102.3678441,17.9063284],[102.3640362,17.9079759],[102.3648211,17.9107741],[102.367054,17.9110396],[102.3662372,17.915282],[102.3642739,17.917489],[102.361307,17.9168141],[102.3608552,17.9191331],[102.359161,17.9181777],[102.3598497,17.9161],[102.3572109,17.9164747],[102.3557617,17.9243648],[102.3490708,17.9238513],[102.3457418,17.9270003],[102.3433176,17.9258121],[102.3420552,17.9298984],[102.3361964,17.9341116],[102.3232181,17.9349169],[102.3204195,17.9370249],[102.3192422,17.9407925],[102.309184,17.9470419],[102.3037505,17.9571664],[102.2985413,17.9605941],[102.2978109,17.9675703],[102.2910736,17.9713804],[102.2920924,17.9755826],[102.2957804,17.9805818],[102.2955353,17.9831214],[102.2895325,17.9831829],[102.2901145,17.9851763],[102.2814709,17.9932399],[102.2796655,17.9836852],[102.2759284,17.9806174],[102.2632869,17.9858098],[102.2599389,17.9857858],[102.2537254,17.9903204],[102.245511,17.992221],[102.2443351,17.997618],[102.241068,17.998117],[102.2411911,17.9999505],[102.2386486,18.0017861],[102.2357889,18.0009784],[102.2348658,18.0042768],[102.2313331,18.0057468],[102.2247899,18.0053988],[102.2220115,18.0080198],[102.2188661,18.0075978],[102.2174684,18.0056944],[102.2143914,18.0055106],[102.211974,18.0073859],[102.2085011,18.0067104],[102.2075724,18.0086305],[102.2065929,18.0075842],[102.2044292,18.0087096],[102.2004353,18.0150124],[102.2059898,18.0207522],[102.2032965,18.0221719],[102.1870267,18.0143155],[102.1826054,18.0138269],[102.1699159,18.0068694],[102.1637351,18.0012261],[102.1557108,17.9901136],[102.1543403,17.9927753],[102.1484435,17.9923017],[102.1482332,17.9960276],[102.1455192,17.9999108],[102.1457067,18.0040208],[102.1398822,18.0069722],[102.1422575,18.0126975],[102.1404313,18.0163999],[102.142071,18.0194095],[102.1411208,18.02097],[102.1446265,18.0258585],[102.1434891,18.029456],[102.1447133,18.0334348],[102.14233,18.0354439],[102.1387124,18.0358228],[102.1357224,18.034168],[102.1291168,18.0352268],[102.1065318,18.0262002],[102.1039842,18.032398],[102.1117872,18.0420371],[102.1131379,18.0543986],[102.1082645,18.0587498],[102.1083683,18.0673834],[102.0996513,18.0725653],[102.1020207,18.0782229],[102.1004729,18.0816491],[102.0963838,18.0830098],[102.094985,18.0803845],[102.0836677,18.0789592],[102.0802362,18.0823578],[102.0718962,18.0850849],[102.0677165,18.0833752],[102.0664401,18.0851829],[102.0602504,18.0843177],[102.0578537,18.0863392],[102.0551399,18.086169],[102.0554988,18.0972939],[102.0607166,18.1021779],[102.064013,18.1132078],[102.0693252,18.1376462],[102.0675786,18.1415692],[102.0683825,18.1438265],[102.0866112,18.159895],[102.1020493,18.1629653],[102.1015452,18.1677221],[102.1029798,18.1684883],[102.1030042,18.1719541],[102.1024579,18.1771807],[102.1004522,18.179534],[102.1028255,18.1817382],[102.1011914,18.187206],[102.1030006,18.1902175],[102.100364,18.1942056],[102.1021523,18.1960072],[102.1008599,18.2003347],[102.1034632,18.2040122],[102.1027977,18.2067746],[102.1056566,18.2135146],[102.113827,18.210848],[102.134098,18.216105],[102.141527,18.212515],[102.142915,18.206553],[102.163325,18.204438],[102.185541,18.147898],[102.193732,18.14309],[102.197273,18.138731],[102.198176,18.134948],[102.211158,18.129307],[102.220113,18.122512],[102.248854,18.097768],[102.27829,18.067767],[102.29502,18.055074],[102.308974,18.050522],[102.334591,18.048279],[102.346463,18.044625],[102.38763,18.016483],[102.3998211,18.0037531],[102.418246,17.990906],[102.46351,17.969881],[102.481629,17.966419],[102.496902,17.96783],[102.510073,17.971154],[102.525208,17.964039],[102.532289,17.963205],[102.541938,17.964167],[102.554504,17.969103],[102.582481,17.963398],[102.5938731,17.9600985],[102.6033888,17.9552983],[102.609139,17.948526],[102.61386,17.938141],[102.613374,17.910321],[102.608376,17.89609],[102.607335,17.887629],[102.593103,17.861155],[102.589007,17.849296],[102.589423,17.842565],[102.593103,17.83718],[102.598171,17.834424],[102.608931,17.832373],[102.6250735,17.831289],[102.63198,17.832565],[102.637811,17.831283],[102.6480599,17.8242474],[102.66676,17.80545],[102.671828,17.80327],[102.68245,17.80327],[102.691336,17.808206],[102.698139,17.818783],[102.69564,17.823783],[102.678423,17.839232],[102.676965,17.844296],[102.679187,17.856731],[102.688351,17.870001],[102.696334,17.875321],[102.7093451,17.8796112],[102.740279,17.883526],[102.747082,17.888783],[102.758259,17.893745],[102.765926,17.899442],[102.771078,17.906135],[102.779224,17.926711],[102.784735,17.933403],[102.797015,17.939045],[102.813668,17.939211],[102.8189926,17.9413608],[102.833615,17.951878],[102.85506,17.970849],[102.870694,17.976159],[102.898788,17.98064],[102.938442,18.001604],[102.948506,18.004259],[102.959049,18.004923],[102.968872,18.003927],[102.98259,17.997566],[102.997206,17.988385],[103.008827,17.976327],[103.018771,17.971293],[103.025899,17.972178],[103.035783,17.97699],[103.057706,17.999945],[103.072921,18.02229],[103.078551,18.03374],[103.081067,18.049559],[103.072082,18.074449],[103.0737123,18.0881717],[103.077593,18.094361],[103.078731,18.106751],[103.077294,18.113444],[103.080049,18.123234],[103.086339,18.131642],[103.136057,18.160459],[103.148936,18.173457],[103.154327,18.189387],[103.155705,18.198347],[103.150313,18.220804],[103.151152,18.229488],[103.166128,18.254492],[103.171818,18.259968],[103.182301,18.265776],[103.209316,18.271196],[103.241484,18.283973],[103.259035,18.286711],[103.280899,18.293625],[103.294796,18.300318],[103.2985891,18.3052476],[103.3005684,18.3032737],[103.2981144,18.298234],[103.299,18.2973774],[103.2946904,18.294511],[103.2963329,18.2945968],[103.2985203,18.2885446],[103.296658,18.2875363],[103.2967275,18.2893627],[103.293613,18.2886061],[103.296674,18.2864076],[103.2942929,18.2825836],[103.2960219,18.2827346],[103.2967384,18.2803761],[103.2943702,18.2776548],[103.2927805,18.2791684],[103.2896393,18.2779074],[103.2918459,18.2778731],[103.2915844,18.2755126],[103.2953616,18.2770867],[103.2947915,18.271984],[103.2914279,18.2739837],[103.2912284,18.2708289],[103.2894391,18.2695243],[103.2881714,18.2724716],[103.286207,18.2731211],[103.2849364,18.2706377],[103.2871382,18.2659587],[103.285947,18.264779],[103.283653,18.2693487],[103.2812756,18.2698057],[103.2807556,18.2668965],[103.2776554,18.2639826],[103.2769102,18.2685045],[103.27555,18.2691275],[103.2728234,18.2655254],[103.2749591,18.2629547],[103.273255,18.2619194],[103.2725606,18.2640375],[103.2694651,18.2635307],[103.2692396,18.260872],[103.2665601,18.2601337],[103.2626036,18.2613501],[103.2648887,18.2628774],[103.2610229,18.2655812],[103.2618248,18.2627224],[103.2590129,18.2635464],[103.2578673,18.2612488],[103.2612401,18.2594142],[103.2585823,18.2543763],[103.2592786,18.2491094],[103.2606502,18.248302],[103.262934,18.2511589],[103.2652771,18.2493058],[103.2612639,18.2444996],[103.2691455,18.2390533],[103.2705083,18.2354058],[103.2737229,18.2365379],[103.2810484,18.2354688],[103.2845936,18.2309578],[103.3134448,18.2195778],[103.329118,18.2107131],[103.3406131,18.1945091],[103.3424794,18.1755175],[103.3476321,18.1728077],[103.3606104,18.1723876],[103.3638262,18.1695508],[103.3641043,18.1645925],[103.3659478,18.1649217],[103.3667414,18.1630234],[103.3650383,18.1612341],[103.3495428,18.1590617],[103.344388,18.1531317],[103.3356251,18.1520963],[103.3369247,18.1444423],[103.3357148,18.1381828],[103.3368285,18.1369079],[103.3281076,18.1324832],[103.3233651,18.1337168],[103.3217747,18.1320811],[103.3226011,18.130589],[103.3206928,18.1299007],[103.3216885,18.1282933],[103.3171004,18.1230665],[103.3143599,18.1237947],[103.314232,18.1254792],[103.3117627,18.1239257],[103.3071774,18.1259502],[103.3046722,18.1226188],[103.2947427,18.1196706],[103.2920834,18.1087233],[103.2955779,18.1059068],[103.2954956,18.1040431],[103.2994043,18.1061835],[103.3003882,18.1030443],[103.3044676,18.1057479],[103.3030332,18.1068095],[103.3039048,18.1079998],[103.3091336,18.1056172],[103.3111858,18.1019376],[103.3128379,18.1021192],[103.3128934,18.1038044],[103.3139435,18.1028028],[103.3136811,18.0998028],[103.3084343,18.0977409],[103.3010636,18.0908372],[103.3000881,18.0805463],[103.3089311,18.0702978],[103.3136254,18.0569406],[103.3268788,18.0543311],[103.3316315,18.0510373],[103.3345752,18.0521269],[103.3402112,18.048962],[103.3423866,18.0500822],[103.3503102,18.0472321],[103.3497441,18.04527],[103.3513858,18.0447883],[103.3503154,18.0435874],[103.3527698,18.0429211],[103.354081,18.0369214],[103.3565622,18.034684],[103.3549988,18.0336846],[103.3562427,18.0318685],[103.3528153,18.029615],[103.3534738,18.0269609],[103.3543441,18.0285483],[103.3644622,18.0321819],[103.3756233,18.033325],[103.3843462,18.0259597],[103.3885308,18.0267992],[103.3915978,18.02493],[103.3929921,18.0223062],[103.3911384,18.0182772],[103.3931827,18.017493],[103.3960654,18.0096047],[103.4064893,18.0060647],[103.4072499,18.0031454],[103.4026155,17.9998182],[103.3991428,17.9920584],[103.401336,17.9931961],[103.4019472,17.991983],[103.4051454,17.9922642],[103.4008113,17.9879615],[103.3996831,17.9818066],[103.3950606,17.9829128],[103.3910664,17.9868887],[103.3866257,17.9800906],[103.3877903,17.979027],[103.3911171,17.9802541],[103.3919115,17.9790755],[103.3887494,17.9718694],[103.3890429,17.9574215],[103.3936633,17.9567459],[103.3977413,17.9581941],[103.408012,17.9501592],[103.4099287,17.9466772],[103.4043492,17.9430496],[103.4105827,17.9417099],[103.4127156,17.9317807],[103.398263,17.928453],[103.3982576,17.9311583],[103.3953523,17.9331957],[103.3939905,17.9303338],[103.3959457,17.9284321],[103.3942399,17.9255877],[103.3949083,17.9234287],[103.3986365,17.9243515],[103.4001316,17.9217882],[103.398976,17.9203661],[103.4002297,17.9151429],[103.3966404,17.9085233],[103.3997247,17.9045515],[103.3994377,17.9030607],[103.3959494,17.904942],[103.3952207,17.9035758],[103.397459,17.902254],[103.393985,17.9010747],[103.3979422,17.8976065],[103.3979508,17.8850241],[103.3940935,17.8758924],[103.3902969,17.87344],[103.3897036,17.8699164],[103.3827586,17.8741361],[103.3776101,17.8729591],[103.3734794,17.8751092],[103.3761818,17.8666118],[103.3687945,17.861588],[103.3667593,17.8577148],[103.3612484,17.8584633],[103.3567132,17.8540776],[103.352583,17.8549991],[103.3444244,17.8505113],[103.3422979,17.8510254],[103.3401963,17.8414357],[103.3293221,17.8242712],[103.3230747,17.8263899],[103.3119007,17.8251516],[103.3044111,17.828994],[103.3031506,17.827103],[103.3002504,17.827075],[103.2910201,17.8307118],[103.2890641,17.8339749],[103.2692277,17.8494834],[103.2659061,17.8569987],[103.2673704,17.8625029],[103.2661956,17.8654529]]]}}]}