{"type":"FeatureCollection","name":"p43-subset","crs":{"type":"name","properties":{"name":"urn:ogc:def:crs:EPSG::32648"}},"features":[{"type":"Feature","properties":{"building":"train_station","height":6,"heightSource":"default"},"geometry":{"type":"MultiPolygon","coordinates":[[[[259537.48,1976682.71],[259544.64,1976690.68],[259558.82,1976678.09],[259563.5,1976674.16],[259566.08,1976671.85],[259577.92,1976661.85],[259611.99,1976631.62],[259631.67,1976614.15],[259624.25,1976605.91],[259621.06,1976608.73],[259537.48,1976682.71]]]]}},{"type":"Feature","properties":{"building":"yes","height":6,"heightSource":"default"},"geometry":{"type":"MultiPolygon","coordinates":[[[[265238.55,1980579.85],[265218.84,1980553.63],[265232.71,1980541.65],[265252.69,1980568.43],[265238.55,1980579.85]]]]}},{"type":"Feature","properties":{"building":"yes","height":6,"heightSource":"default"},"geometry":{"type":"MultiPolygon","coordinates":[[[[265260.3,1980565.24],[265238.12,1980535.95],[265253.87,1980524.22],[265276.32,1980553.51],[265260.3,1980565.24]]]]}},{"type":"Feature","properties":{"building":"yes","height":6,"heightSource":"default"},"geometry":{"type":"MultiPolygon","coordinates":[[[[258795.69,1978138.48],[258895.16,1978162.31],[258890.45,1978181.68],[258790.99,1978157.85],[258795.69,1978138.48]]]]}},{"type":"Feature","properties":{"building":"yes","height":6,"heightSource":"default"},"geometry":{"type":"MultiPolygon","coordinates":[[[[258998.58,1977887.36],[259003.34,1977869.36],[259023.78,1977874.7],[259022.15,1977880.86],[259027.4,1977882.23],[259025.7,1977888.64],[259020.17,1977887.19],[259018.73,1977892.64],[258998.58,1977887.36]]]]}},{"type":"Feature","properties":{"building":"yes","height":6,"heightSource":"default"},"geometry":{"type":"MultiPolygon","coordinates":[[[[259718.3,1978538.1],[259722.25,1978525.95],[259709.95,1978521.99],[259705.99,1978534.14],[259718.3,1978538.1]]]]}},{"type":"Feature","properties":{"building":"roof","height":6,"heightSource":"default"},"geometry":{"type":"MultiPolygon","coordinates":[[[[262176.33,1978944.62],[262240.78,1978819.1],[262267.84,1978832.81],[262205.21,1978954.8],[262198.56,1978955.89],[262176.33,1978944.62]]]]}},{"type":"Feature","properties":{"building":"yes","height":6,"heightSource":"default"},"geometry":{"type":"MultiPolygon","coordinates":[[[[260545.19,1978340.27],[260556.25,1978316.45],[260566.96,1978321.36],[260563.67,1978328.45],[260580.96,1978336.37],[260584.28,1978329.21],[260596.75,1978334.92],[260593.22,1978342.52],[260609.3,1978349.89],[260612.59,1978342.78],[260624.46,1978348.22],[260613.35,1978372.2],[260601.6,1978366.82],[260603.36,1978363.01],[260586.34,1978355.23],[260584.31,1978359.58],[260573.99,1978354.86],[260576.38,1978349.71],[260557.09,1978340.88],[260555.23,1978344.87],[260545.19,1978340.27]]]]}},{"type":"Feature","properties":{"building":"government","height":6,"heightSource":"default"},"geometry":{"type":"MultiPolygon","coordinates":[[[[260835.32,1976948.43],[260871.71,1976964.86],[260873.44,1976961.07],[260885.02,1976966.3],[260885.63,1976964.98],[260893.77,1976968.64],[260894.76,1976966.49],[260903.8,1976970.58],[260908.46,1976960.36],[260899.42,1976956.28],[260900.75,1976953.38],[260892.61,1976949.7],[260894,1976946.65],[260882.41,1976941.42],[260884.48,1976936.91],[260848.08,1976920.49],[260846.69,1976923.54],[260837.78,1976919.51],[260828.57,1976939.66],[260837.48,1976943.68],[260835.32,1976948.43]]]]}},{"type":"Feature","properties":{"building":"yes","height":6,"heightSource":"default"},"geometry":{"type":"MultiPolygon","coordinates":[[[[262138.31,1973464.69],[262156.19,1973372.76],[262270.25,1973393.43],[262253.52,1973485.63],[262138.31,1973464.69]]]]}},{"type":"Feature","properties":{"building":"yes","height":6,"heightSource":"default"},"geometry":{"type":"MultiPolygon","coordinates":[[[[260838.77,1978792.21],[260835.54,1978800.74],[260857.64,1978809.03],[260855.2,1978815.47],[260868.13,1978820.32],[260870.58,1978813.86],[260880.08,1978817.42],[260883.32,1978808.91],[260838.77,1978792.21]]]]}},{"type":"Feature","properties":{"building":"yes","height":6,"heightSource":"default"},"geometry":{"type":"MultiPolygon","coordinates":[[[[261743.83,1978318.7],[261780,1978326.4],[261777.07,1978339.98],[261796.07,1978344.03],[261805.53,1978300.19],[261750.36,1978288.45],[261743.83,1978318.7]]]]}},{"type":"Feature","properties":{"building":"yes","height":6,"heightSource":"default"},"geometry":{"type":"MultiPolygon","coordinates":[[[[261749.23,1978201.81],[261771.68,1978208.15],[261776.95,1978189.74],[261754.5,1978183.4],[261749.23,1978201.81]]]]}},{"type":"Feature","properties":{"building":"yes","height":6,"heightSource":"default"},"geometry":{"type":"MultiPolygon","coordinates":[[[[261272.91,1978482.42],[261310.98,1978493.37],[261317.35,1978471.48],[261279.28,1978460.53],[261272.91,1978482.42]]]]}},{"type":"Feature","properties":{"building":"yes","height":6,"heightSource":"default"},"geometry":{"type":"MultiPolygon","coordinates":[[[[261362.91,1978382.4],[261349.49,1978414.59],[261367.12,1978421.85],[261380.54,1978389.65],[261362.91,1978382.4]]]]}},{"type":"Feature","properties":{"building":"yes","height":6,"heightSource":"default"},"geometry":{"type":"MultiPolygon","coordinates":[[[[260671.88,1978199.77],[260662.77,1978216.98],[260667,1978226.91],[260682.31,1978234.83],[260694.53,1978210.38],[260671.88,1978199.77]]]]}},{"type":"Feature","properties":{"building":"roof","height":6,"heightSource":"default"},"geometry":{"type":"MultiPolygon","coordinates":[[[[260841.8,1978274.75],[260834.87,1978288.41],[260827.79,1978302.37],[260835.03,1978305.99],[260842.11,1978292.03],[260849.03,1978278.37],[260841.8,1978274.75]]]]}},{"type":"Feature","properties":{"building":"roof","height":6,"heightSource":"default"},"geometry":{"type":"MultiPolygon","coordinates":[[[[265843.75,1981289.79],[265852.22,1981300.68],[265874.01,1981283.97],[265865.54,1981273.06],[265843.75,1981289.79]]]]}},{"type":"Feature","properties":{"building":"yes","height":6,"heightSource":"default"},"geometry":{"type":"MultiPolygon","coordinates":[[[[260743.35,1978525.27],[260722.28,1978566.85],[260673.08,1978542.22],[260694.15,1978500.65],[260743.35,1978525.27]]]]}},{"type":"Feature","properties":{"building":"office","height":6,"heightSource":"default"},"geometry":{"type":"MultiPolygon","coordinates":[[[[258439.18,1977024.34],[258447.94,1977017.18],[258452.96,1977023.25],[258456.2,1977020.6],[258463.11,1977028.95],[258472.46,1977040.25],[258486.4,1977028.85],[258476.58,1977016.98],[258471.66,1977011.03],[258490.34,1976995.76],[258473.83,1976975.8],[258467.71,1976980.81],[258462.99,1976975.12],[258454.24,1976964.58],[258448.53,1976957.6],[258438.93,1976946],[258434.28,1976940.38],[258446.62,1976930.3],[258445.89,1976929.41],[258432.65,1976912.31],[258430.84,1976913.74],[258427.61,1976909.65],[258416.7,1976918.72],[258412.83,1976913.84],[258401.35,1976922.84],[258405.62,1976927.94],[258394.09,1976937.79],[258374.44,1976954.87],[258390.83,1976974.68],[258391.68,1976975.71],[258396.02,1976972.17],[258400.43,1976977.5],[258413.33,1976993.1],[258425.66,1977007.99],[258428.27,1977011.15],[258439.18,1977024.34]]]]}},{"type":"Feature","properties":{"building":"yes","height":6,"heightSource":"default"},"geometry":{"type":"MultiPolygon","coordinates":[[[[258489.23,1976955.54],[258504.03,1976973.77],[258515.85,1976964.3],[258501.05,1976946.06],[258489.23,1976955.54]]]]}},{"type":"Feature","properties":{"building":"yes","height":6,"heightSource":"default"},"geometry":{"type":"MultiPolygon","coordinates":[[[[259280.24,1976185.18],[259293.15,1976165.56],[259279.9,1976156.95],[259266.99,1976176.57],[259280.24,1976185.18]]]]}},{"type":"Feature","properties":{"building":"yes","height":6,"heightSource":"default"},"geometry":{"type":"MultiPolygon","coordinates":[[[[261080.56,1976853.62],[261088.72,1976835.12],[261077.38,1976830.17],[261069.22,1976848.67],[261029.55,1976831.38],[261021.65,1976849.25],[261061.32,1976866.54],[261053.63,1976883.99],[261064.97,1976888.94],[261072.66,1976871.48],[261079.93,1976874.65],[261087.82,1976856.78],[261080.56,1976853.62]]]]}},{"type":"Feature","properties":{"building":"yes","height":6,"heightSource":"default"},"geometry":{"type":"MultiPolygon","coordinates":[[[[258250.29,1978055.5],[258296.03,1978065.43],[258299.25,1978050.82],[258253.49,1978040.89],[258250.29,1978055.5]]]]}},{"type":"Feature","properties":{"building":"hotel","height":6,"heightSource":"default"},"geometry":{"type":"MultiPolygon","coordinates":[[[[259999.73,1978448.37],[260011.72,1978451.13],[260014.99,1978437.06],[260013.28,1978436.67],[260021.93,1978399.42],[260011.65,1978397.06],[259999.73,1978448.37]]]]}},{"type":"Feature","properties":{"building":"yes","height":6,"heightSource":"default"},"geometry":{"type":"MultiPolygon","coordinates":[[[[260595.45,1976734.82],[260600.85,1976722.57],[260568.88,1976708.63],[260563.46,1976720.88],[260595.45,1976734.82]]]]}},{"type":"Feature","properties":{"building":"yes","height":6,"heightSource":"default"},"geometry":{"type":"MultiPolygon","coordinates":[[[[261336.13,1978824.16],[261342.88,1978804.86],[261324.85,1978798.63],[261318.11,1978817.93],[261336.13,1978824.16]]]]}},{"type":"Feature","properties":{"building":"government","height":6,"heightSource":"default"},"geometry":{"type":"MultiPolygon","coordinates":[[[[260934.35,1976819.5],[260941.3,1976803.77],[260919.42,1976794.22],[260912.47,1976809.95],[260934.35,1976819.5]]]]}},{"type":"Feature","properties":{"building":"yes","height":6,"heightSource":"default"},"geometry":{"type":"MultiPolygon","coordinates":[[[[258097.11,1978020.36],[258103.46,1978001.89],[258080.96,1977994.24],[258074.6,1978012.71],[258097.11,1978020.36]]]]}},{"type":"Feature","properties":{"building":"yes","height":6,"heightSource":"default"},"geometry":{"type":"MultiPolygon","coordinates":[[[[260669.45,1976209.33],[260675.8,1976194.94],[260615.66,1976168.71],[260609.3,1976183.1],[260669.45,1976209.33]]]]}},{"type":"Feature","properties":{"building":"yes","height":6,"heightSource":"default"},"geometry":{"type":"MultiPolygon","coordinates":[[[[260755.93,1977227.19],[260769.41,1977202.2],[260707.84,1977169.37],[260694.35,1977194.36],[260755.93,1977227.19]]]]}},{"type":"Feature","properties":{"building":"yes","height":6,"heightSource":"default"},"geometry":{"type":"MultiPolygon","coordinates":[[[[262438.66,1978889.68],[262471.75,1978898.81],[262475.43,1978885.62],[262442.34,1978876.5],[262438.66,1978889.68]]]]}},{"type":"Feature","properties":{"building":"yes","height":6,"heightSource":"default"},"geometry":{"type":"MultiPolygon","coordinates":[[[[258558.52,1976766.8],[258567.13,1976777.09],[258621.25,1976732.36],[258612.64,1976722.08],[258558.52,1976766.8]]]]}},{"type":"Feature","properties":{"building":"yes","height":6,"heightSource":"default"},"geometry":{"type":"MultiPolygon","coordinates":[[[[261076.17,1976509.9],[261083.11,1976494.21],[261048.42,1976479.08],[261041.48,1976494.78],[261076.17,1976509.9]]]]}},{"type":"Feature","properties":{"building":"yes","height":6,"heightSource":"default"},"geometry":{"type":"MultiPolygon","coordinates":[[[[258243.69,1978080.71],[258289.43,1978090.62],[258292.63,1978076.01],[258246.89,1978066.1],[258243.69,1978080.71]]]]}},{"type":"Feature","properties":{"building":"yes","height":6,"heightSource":"default"},"geometry":{"type":"MultiPolygon","coordinates":[[[[260654.89,1976248.34],[260661.24,1976233.94],[260601.1,1976207.72],[260594.75,1976222.11],[260654.89,1976248.34]]]]}},{"type":"Feature","properties":{"building":"yes","height":6,"heightSource":"default"},"geometry":{"type":"MultiPolygon","coordinates":[[[[260666.95,1976142.09],[260685.66,1976099.72],[260659.42,1976088.28],[260640.71,1976130.64],[260666.95,1976142.09]]]]}},{"type":"Feature","properties":{"building":"yes","height":6,"heightSource":"default"},"geometry":{"type":"MultiPolygon","coordinates":[[[[258200.74,1977982.62],[258244.39,1977997.47],[258248.96,1977984.17],[258205.31,1977969.34],[258200.74,1977982.62]]]]}},{"type":"Feature","properties":{"building":"yes","height":6,"heightSource":"default"},"geometry":{"type":"MultiPolygon","coordinates":[[[[260428.59,1976349.04],[260485.22,1976374.12],[260492.05,1976358.88],[260435.41,1976333.81],[260428.59,1976349.04]]]]}},{"type":"Feature","properties":{"building":"yes","height":6,"heightSource":"default"},"geometry":{"type":"MultiPolygon","coordinates":[[[[259018.01,1976925.68],[259058.09,1976866.9],[259035.64,1976851.78],[258995.57,1976910.57],[259018.01,1976925.68]]]]}},{"type":"Feature","properties":{"building":"yes","height":6,"heightSource":"default"},"geometry":{"type":"MultiPolygon","coordinates":[[[[260860.11,1977439.98],[260921.07,1977462.77],[260926.04,1977449.66],[260931.02,1977436.5],[260870.06,1977413.71],[260869.56,1977415.02],[260866.96,1977421.88],[260860.11,1977439.98]]]]}},{"type":"Feature","properties":{"building":"yes","height":6,"heightSource":"default"},"geometry":{"type":"MultiPolygon","coordinates":[[[[258194.26,1977998.96],[258237.91,1978013.8],[258242.48,1978000.51],[258198.83,1977985.67],[258194.26,1977998.96]]]]}},{"type":"Feature","properties":{"building":"yes","height":6,"heightSource":"default"},"geometry":{"type":"MultiPolygon","coordinates":[[[[260944.55,1978727.73],[260951.97,1978706.09],[260938.42,1978701.5],[260930.99,1978723.13],[260944.55,1978727.73]]]]}},{"type":"Feature","properties":{"building":"warehouse","height":6,"heightSource":"default"},"geometry":{"type":"MultiPolygon","coordinates":[[[[260816.97,1977757.03],[260841.27,1977703.26],[260817.47,1977692.63],[260793.17,1977746.4],[260816.97,1977757.03]]]]}},{"type":"Feature","properties":{"building":"yes","height":6,"heightSource":"default"},"geometry":{"type":"MultiPolygon","coordinates":[[[[260976.84,1978605.21],[260984.37,1978587.15],[260970.7,1978581.53],[260963.17,1978599.58],[260976.84,1978605.21]]]]}},{"type":"Feature","properties":{"building":"yes","height":6,"heightSource":"default"},"geometry":{"type":"MultiPolygon","coordinates":[[[[260462.13,1976276.64],[260517.94,1976299.92],[260523.12,1976287.65],[260467.31,1976264.37],[260462.13,1976276.64]]]]}},{"type":"Feature","properties":{"building":"yes","height":6,"heightSource":"default"},"geometry":{"type":"MultiPolygon","coordinates":[[[[260855.21,1978653.95],[260876.93,1978671.02],[260885.65,1978660.05],[260863.93,1978642.98],[260855.21,1978653.95]]]]}},{"type":"Feature","properties":{"building":"yes","height":6,"heightSource":"default"},"geometry":{"type":"MultiPolygon","coordinates":[[[[262394.63,1978898.01],[262399.09,1978882.16],[262380.04,1978876.87],[262382.43,1978868.39],[262368.65,1978864.56],[262365.9,1978874.32],[262355.71,1978871.49],[262351.51,1978886.43],[262360.9,1978889.03],[262358.66,1978897],[262372.78,1978900.92],[262375.12,1978892.6],[262394.63,1978898.01]]]]}},{"type":"Feature","properties":{"building":"yes","height":6,"heightSource":"default"},"geometry":{"type":"MultiPolygon","coordinates":[[[[260764.56,1976577.27],[260769.39,1976566.34],[260732.88,1976550.42],[260728.07,1976561.36],[260764.56,1976577.27]]]]}},{"type":"Feature","properties":{"building":"government","height":6,"heightSource":"default"},"geometry":{"type":"MultiPolygon","coordinates":[[[[260811.68,1976765.79],[260824.4,1976736.98],[260799.58,1976726.15],[260786.86,1976754.97],[260811.68,1976765.79]]]]}},{"type":"Feature","properties":{"building":"yes","height":6,"heightSource":"default"},"geometry":{"type":"MultiPolygon","coordinates":[[[[259568.23,1978447.33],[259584.8,1978450.54],[259590.66,1978420.52],[259574.11,1978417.32],[259568.23,1978447.33]]]]}},{"type":"Feature","properties":{"building":"yes","height":6,"heightSource":"default"},"geometry":{"type":"MultiPolygon","coordinates":[[[[260848.05,1976417.13],[260854.09,1976403.44],[260811.93,1976385.05],[260805.88,1976398.75],[260848.05,1976417.13]]]]}},{"type":"Feature","properties":{"building":"yes","height":6,"heightSource":"default"},"geometry":{"type":"MultiPolygon","coordinates":[[[[260532.8,1976787.13],[260537.96,1976775.47],[260509.92,1976763.24],[260504.77,1976774.9],[260532.8,1976787.13]]]]}},{"type":"Feature","properties":{"building":"yes","height":6,"heightSource":"default"},"geometry":{"type":"MultiPolygon","coordinates":[[[[258929.37,1976855.65],[258944.54,1976865.38],[258965.15,1976833.68],[258949.98,1976823.94],[258929.37,1976855.65]]]]}},{"type":"Feature","properties":{"building":"yes","height":6,"heightSource":"default"},"geometry":{"type":"MultiPolygon","coordinates":[[[[261136.03,1978808.19],[261183.87,1978813.17],[261186.23,1978790.82],[261138.39,1978785.84],[261136.03,1978808.19]]]]}},{"type":"Feature","properties":{"building":"yes","height":6,"heightSource":"default"},"geometry":{"type":"MultiPolygon","coordinates":[[[[260438.72,1976419.09],[260447.24,1976398.95],[260411.19,1976383.91],[260402.68,1976404.05],[260438.72,1976419.09]]]]}},{"type":"Feature","properties":{"building":"yes","height":6,"heightSource":"default"},"geometry":{"type":"MultiPolygon","coordinates":[[[[261010.4,1978711.11],[260983.12,1978696.89],[260976.69,1978709.08],[261003.98,1978723.3],[261010.4,1978711.11]]]]}},{"type":"Feature","properties":{"building":"retail","height":6,"heightSource":"default"},"geometry":{"type":"MultiPolygon","coordinates":[[[[260835.41,1977510.5],[260898.72,1977534.52],[260905.92,1977515.79],[260842.61,1977491.77],[260835.41,1977510.5]]]]}},{"type":"Feature","properties":{"building":"yes","height":6,"heightSource":"default"},"geometry":{"type":"MultiPolygon","coordinates":[[[[258970.76,1976880.4],[258991.81,1976848.02],[258977.56,1976838.86],[258956.51,1976871.24],[258970.76,1976880.4]]]]}},{"type":"Feature","properties":{"building":"retail","height":6,"heightSource":"default"},"geometry":{"type":"MultiPolygon","coordinates":[[[[260764.79,1977552.11],[260808.51,1977567.57],[260836.81,1977488.51],[260793.09,1977473.05],[260764.79,1977552.11]]]]}},{"type":"Feature","properties":{"building":"yes","height":6,"heightSource":"default"},"geometry":{"type":"MultiPolygon","coordinates":[[[[260805.85,1978753.79],[260824.32,1978758.18],[260831.49,1978728.37],[260813.02,1978723.97],[260805.85,1978753.79]]]]}},{"type":"Feature","properties":{"building":"yes","height":6,"heightSource":"default"},"geometry":{"type":"MultiPolygon","coordinates":[[[[260046.23,1978567.54],[260051.66,1978535.82],[260034.47,1978532.92],[260029.05,1978564.64],[260046.23,1978567.54]]]]}},{"type":"Feature","properties":{"building":"yes","height":6,"heightSource":"default"},"geometry":{"type":"MultiPolygon","coordinates":[[[[261290.25,1978819.8],[261312.31,1978827.42],[261315.82,1978817.34],[261293.76,1978809.73],[261290.25,1978819.8]]]]}},{"type":"Feature","properties":{"building":"yes","height":6,"heightSource":"default"},"geometry":{"type":"MultiPolygon","coordinates":[[[[260961.05,1976837.79],[260967.35,1976823.5],[260946.56,1976814.42],[260940.25,1976828.72],[260961.05,1976837.79]]]]}},{"type":"Feature","properties":{"building":"yes","height":6,"heightSource":"default"},"geometry":{"type":"MultiPolygon","coordinates":[[[[258133.18,1977984.53],[258183,1978001.46],[258190.88,1977978.58],[258141.06,1977961.64],[258133.18,1977984.53]]]]}},{"type":"Feature","properties":{"building":"yes","height":6,"heightSource":"default"},"geometry":{"type":"MultiPolygon","coordinates":[[[[260781.45,1977125.46],[260799.84,1977086.21],[260774.38,1977074.43],[260755.98,1977113.67],[260781.45,1977125.46]]]]}},{"type":"Feature","properties":{"building":"yes","height":6,"heightSource":"default"},"geometry":{"type":"MultiPolygon","coordinates":[[[[260833.88,1978704.9],[260836.6,1978693.57],[260827.03,1978691.3],[260824.31,1978702.63],[260833.88,1978704.9]]]]}},{"type":"Feature","properties":{"building":"yes","height":6,"heightSource":"default"},"geometry":{"type":"MultiPolygon","coordinates":[[[[262418.44,1978853.33],[262446.83,1978861.16],[262452.09,1978842.35],[262423.7,1978834.52],[262418.44,1978853.33]]]]}},{"type":"Feature","properties":{"building":"yes","height":6,"heightSource":"default"},"geometry":{"type":"MultiPolygon","coordinates":[[[[258642.95,1976871.22],[258678.66,1976845.76],[258667.53,1976830.34],[258631.82,1976855.8],[258642.95,1976871.22]]]]}},{"type":"Feature","properties":{"building":"yes","height":6,"heightSource":"default"},"geometry":{"type":"MultiPolygon","coordinates":[[[[260692.46,1976856.01],[260703.34,1976831.38],[260692.11,1976826.49],[260681.24,1976851.11],[260692.46,1976856.01]]]]}},{"type":"Feature","properties":{"building":"yes","height":6,"heightSource":"default"},"geometry":{"type":"MultiPolygon","coordinates":[[[[262341.34,1978768.66],[262391.02,1978799.52],[262402.37,1978781.47],[262352.69,1978750.61],[262341.34,1978768.66]]]]}},{"type":"Feature","properties":{"building":"yes","height":6,"heightSource":"default"},"geometry":{"type":"MultiPolygon","coordinates":[[[[260584.33,1976765.94],[260596.62,1976738.11],[260578.73,1976730.31],[260566.45,1976758.14],[260584.33,1976765.94]]]]}},{"type":"Feature","properties":{"building":"yes","height":6,"heightSource":"default"},"geometry":{"type":"MultiPolygon","coordinates":[[[[260975.49,1976489.34],[260986.43,1976464.57],[260957.69,1976452.04],[260946.75,1976476.81],[260975.49,1976489.34]]]]}},{"type":"Feature","properties":{"building":"yes","height":6,"heightSource":"default"},"geometry":{"type":"MultiPolygon","coordinates":[[[[260264.19,1978617.72],[260269.32,1978598.84],[260273.87,1978582.1],[260259.34,1978578.2],[260249.66,1978613.82],[260264.19,1978617.72]]]]}},{"type":"Feature","properties":{"building":"yes","height":6,"heightSource":"default"},"geometry":{"type":"MultiPolygon","coordinates":[[[[261360.39,1978872.63],[261385.63,1978877.67],[261388.26,1978864.69],[261363.02,1978859.64],[261360.39,1978872.63]]]]}},{"type":"Feature","properties":{"building":"government","height":6,"heightSource":"default"},"geometry":{"type":"MultiPolygon","coordinates":[[[[260950.5,1976784.44],[260955.53,1976773.05],[260934.98,1976764.09],[260929.95,1976775.47],[260950.5,1976784.44]]]]}},{"type":"Feature","properties":{"building":"industrial","height":6,"heightSource":"default"},"geometry":{"type":"MultiPolygon","coordinates":[[[[260853.44,1977688.63],[260871.92,1977648.18],[260850.82,1977638.66],[260853.21,1977633.44],[260854.78,1977630],[260858.3,1977622.3],[260827.86,1977608.57],[260824.35,1977616.27],[260822.76,1977619.76],[260816.31,1977633.87],[260797.04,1977625.18],[260772.1,1977613.91],[260757.7,1977645.42],[260782.65,1977656.68],[260801.92,1977665.37],[260821.42,1977674.18],[260832.34,1977679.11],[260853.44,1977688.63]]]]}},{"type":"Feature","properties":{"building":"yes","height":6,"heightSource":"default"},"geometry":{"type":"MultiPolygon","coordinates":[[[[260843.72,1978771.73],[260845.11,1978765.95],[260830.48,1978762.48],[260829.09,1978768.26],[260843.72,1978771.73]]]]}},{"type":"Feature","properties":{"building":"roof","height":6,"heightSource":"default"},"geometry":{"type":"MultiPolygon","coordinates":[[[[258802.05,1976761.2],[258806.79,1976761.52],[258830.98,1976763.15],[258832.73,1976737.47],[258803.8,1976735.52],[258802.12,1976760.06],[258802.05,1976761.2]]]]}},{"type":"Feature","properties":{"building":"yes","height":6,"heightSource":"default"},"geometry":{"type":"MultiPolygon","coordinates":[[[[258510.7,1978112.09],[258537.67,1978120.92],[258542.06,1978107.64],[258515.1,1978098.83],[258510.7,1978112.09]]]]}},{"type":"Feature","properties":{"building":"government","height":6,"heightSource":"default"},"geometry":{"type":"MultiPolygon","coordinates":[[[[260818.46,1976863.25],[260825.33,1976847.68],[260773.01,1976824.87],[260766.13,1976840.44],[260818.46,1976863.25]]]]}},{"type":"Feature","properties":{"building":"government","height":6,"heightSource":"default"},"geometry":{"type":"MultiPolygon","coordinates":[[[[260916.43,1976778.86],[260921.39,1976767.59],[260899.61,1976758.1],[260894.63,1976769.36],[260916.43,1976778.86]]]]}},{"type":"Feature","properties":{"building":"yes","height":6,"heightSource":"default"},"geometry":{"type":"MultiPolygon","coordinates":[[[[259764.18,1978421.85],[259772.23,1978393.95],[259762.31,1978391.11],[259754.25,1978419.02],[259764.18,1978421.85]]]]}},{"type":"Feature","properties":{"building":"yes","height":6,"heightSource":"default"},"geometry":{"type":"MultiPolygon","coordinates":[[[[258931.1,1976883.48],[258941.29,1976868.75],[258908.28,1976846.21],[258898.1,1976860.95],[258931.1,1976883.48]]]]}},{"type":"Feature","properties":{"building":"yes","height":6,"heightSource":"default"},"geometry":{"type":"MultiPolygon","coordinates":[[[[260575.77,1976780.2],[260581.38,1976767.47],[260548.54,1976753.15],[260542.92,1976765.87],[260575.77,1976780.2]]]]}},{"type":"Feature","properties":{"building":"yes","height":6,"heightSource":"default"},"geometry":{"type":"MultiPolygon","coordinates":[[[[258915.52,1976790.58],[258895.08,1976780.65],[258877.26,1976816.87],[258897.69,1976826.8],[258915.52,1976790.58]]]]}},{"type":"Feature","properties":{"building":"yes","height":6,"heightSource":"default"},"geometry":{"type":"MultiPolygon","coordinates":[[[[258104.14,1977997.89],[258115.84,1977963.89],[258096.02,1977957.15],[258084.32,1977991.16],[258104.14,1977997.89]]]]}},{"type":"Feature","properties":{"building":"yes","height":6,"heightSource":"default"},"geometry":{"type":"MultiPolygon","coordinates":[[[[260682,1976179.23],[260688.35,1976164.83],[260628.21,1976138.61],[260621.85,1976153.01],[260682,1976179.23]]]]}},{"type":"Feature","properties":{"building":"yes","height":6,"heightSource":"default"},"geometry":{"type":"MultiPolygon","coordinates":[[[[260440,1976316.05],[260498.9,1976343.95],[260504.86,1976331.51],[260445.96,1976303.62],[260440,1976316.05]]]]}},{"type":"Feature","properties":{"building":"yes","height":6,"heightSource":"default"},"geometry":{"type":"MultiPolygon","coordinates":[[[[262381.83,1978845.3],[262386.54,1978828.42],[262355.65,1978819.91],[262350.94,1978836.8],[262381.83,1978845.3]]]]}},{"type":"Feature","properties":{"building":"yes","height":6,"heightSource":"default"},"geometry":{"type":"MultiPolygon","coordinates":[[[[260752.68,1976601.01],[260757.32,1976590.5],[260721.92,1976575.06],[260717.28,1976585.58],[260752.68,1976601.01]]]]}},{"type":"Feature","properties":{"building":"yes","height":6,"heightSource":"default"},"geometry":{"type":"MultiPolygon","coordinates":[[[[262564.17,1978925.39],[262578.29,1978906.36],[262545.45,1978882.26],[262531.31,1978901.28],[262564.17,1978925.39]]]]}},{"type":"Feature","properties":{"building":"warehouse","height":6,"heightSource":"default"},"geometry":{"type":"MultiPolygon","coordinates":[[[[260777.64,1977744.24],[260803.22,1977688.32],[260777.05,1977676.5],[260751.48,1977732.42],[260777.64,1977744.24]]]]}},{"type":"Feature","properties":{"building":"yes","height":6,"heightSource":"default"},"geometry":{"type":"MultiPolygon","coordinates":[[[[260912.58,1978717.42],[260926.45,1978722.12],[260935.59,1978695.5],[260921.72,1978690.79],[260912.58,1978717.42]]]]}},{"type":"Feature","properties":{"building":"yes","height":6,"heightSource":"default"},"geometry":{"type":"MultiPolygon","coordinates":[[[[260737.94,1976246.05],[260748.5,1976222.13],[260718.56,1976209.06],[260707.99,1976232.99],[260737.94,1976246.05]]]]}},{"type":"Feature","properties":{"building":"yes","height":6,"heightSource":"default"},"geometry":{"type":"MultiPolygon","coordinates":[[[[260851.9,1978612.07],[260841.57,1978623.88],[260859.62,1978639.48],[260869.95,1978627.68],[260851.9,1978612.07]]]]}},{"type":"Feature","properties":{"building":"yes","height":6,"heightSource":"default"},"geometry":{"type":"MultiPolygon","coordinates":[[[[259028.67,1978305.12],[259052.85,1978311.24],[259057.29,1978293.9],[259033.12,1978287.78],[259028.67,1978305.12]]]]}},{"type":"Feature","properties":{"building":"yes","height":6,"heightSource":"default"},"geometry":{"type":"MultiPolygon","coordinates":[[[[261293.74,1978805.85],[261317.07,1978813.91],[261321.75,1978800.54],[261298.41,1978792.49],[261293.74,1978805.85]]]]}},{"type":"Feature","properties":{"building":"government","height":6,"heightSource":"default"},"geometry":{"type":"MultiPolygon","coordinates":[[[[260901,1976819.47],[260907.76,1976804.15],[260878.27,1976791.3],[260871.52,1976806.62],[260901,1976819.47]]]]}},{"type":"Feature","properties":{"building":"yes","height":6,"heightSource":"default"},"geometry":{"type":"MultiPolygon","coordinates":[[[[259684.19,1978444.85],[259694.08,1978447.58],[259700.68,1978423.97],[259690.8,1978421.25],[259684.19,1978444.85]]]]}},{"type":"Feature","properties":{"building":"yes","height":6,"heightSource":"default"},"geometry":{"type":"MultiPolygon","coordinates":[[[[260847.29,1978728.26],[260868.49,1978733.3],[260870.69,1978724.14],[260849.49,1978719.1],[260847.29,1978728.26]]]]}},{"type":"Feature","properties":{"building":"house","height":6,"heightSource":"default"},"geometry":{"type":"MultiPolygon","coordinates":[[[[260640.32,1978686.96],[260661.19,1978689.85],[260665.35,1978660.28],[260644.48,1978657.39],[260640.32,1978686.96]]]]}},{"type":"Feature","properties":{"building":"yes","height":6,"heightSource":"default"},"geometry":{"type":"MultiPolygon","coordinates":[[[[258493.67,1978162.13],[258509.43,1978167.3],[258522.09,1978129.07],[258506.33,1978123.91],[258493.67,1978162.13]]]]}},{"type":"Feature","properties":{"building":"yes","height":6,"heightSource":"default"},"geometry":{"type":"MultiPolygon","coordinates":[[[[260626.1,1976831.35],[260631.17,1976819.88],[260587.42,1976800.81],[260582.36,1976812.29],[260626.1,1976831.35]]]]}},{"type":"Feature","properties":{"building":"yes","height":6,"heightSource":"default"},"geometry":{"type":"MultiPolygon","coordinates":[[[[260931.16,1978671.21],[260924.78,1978684.3],[260953.78,1978698.28],[260960.17,1978685.19],[260931.16,1978671.21]]]]}},{"type":"Feature","properties":{"building":"yes","height":6,"heightSource":"default"},"geometry":{"type":"MultiPolygon","coordinates":[[[[260777.58,1976546.86],[260782.02,1976536.82],[260742.86,1976519.76],[260738.43,1976529.79],[260777.58,1976546.86]]]]}},{"type":"Feature","properties":{"building":"yes","height":6,"heightSource":"default"},"geometry":{"type":"MultiPolygon","coordinates":[[[[258371.49,1978091.22],[258366.95,1978104.23],[258387.26,1978111.26],[258391.81,1978098.25],[258371.49,1978091.22]]]]}},{"type":"Feature","properties":{"building":"yes","height":6,"heightSource":"default"},"geometry":{"type":"MultiPolygon","coordinates":[[[[258584.34,1976889.05],[258595.45,1976904.66],[258632.58,1976878.54],[258621.47,1976862.94],[258584.34,1976889.05]]]]}},{"type":"Feature","properties":{"building":"yes","height":6,"heightSource":"default"},"geometry":{"type":"MultiPolygon","coordinates":[[[[260990.9,1976429.26],[261000.54,1976407.43],[260974.06,1976395.89],[260964.42,1976417.72],[260990.9,1976429.26]]]]}},{"type":"Feature","properties":{"building":"yes","height":6,"heightSource":"default"},"geometry":{"type":"MultiPolygon","coordinates":[[[[261217.3,1978820.04],[261244.02,1978822.49],[261244.91,1978812.96],[261218.2,1978810.51],[261217.3,1978820.04]]]]}},{"type":"Feature","properties":{"building":"yes","height":6,"heightSource":"default"},"geometry":{"type":"MultiPolygon","coordinates":[[[[260835.6,1978688.2],[260839.02,1978674.03],[260828.74,1978671.6],[260825.33,1978685.76],[260835.6,1978688.2]]]]}},{"type":"Feature","properties":{"building":"yes","height":6,"heightSource":"default"},"geometry":{"type":"MultiPolygon","coordinates":[[[[260709.57,1976810.45],[260723.99,1976777.78],[260715.36,1976774.02],[260700.94,1976806.69],[260709.57,1976810.45]]]]}},{"type":"Feature","properties":{"building":"yes","height":6,"heightSource":"default"},"geometry":{"type":"MultiPolygon","coordinates":[[[[259792.24,1978429.21],[259797.4,1978411.39],[259779.54,1978406.28],[259774.37,1978424.09],[259792.24,1978429.21]]]]}},{"type":"Feature","properties":{"building":"yes","height":6,"heightSource":"default"},"geometry":{"type":"MultiPolygon","coordinates":[[[[258975.88,1976912.85],[258985.89,1976898.3],[258952.98,1976875.92],[258942.95,1976890.46],[258975.88,1976912.85]]]]}},{"type":"Feature","properties":{"building":"warehouse","height":6,"heightSource":"default"},"geometry":{"type":"MultiPolygon","coordinates":[[[[260685.16,1977535.31],[260742.41,1977554.22],[260778.2,1977447.15],[260829.17,1977463.97],[260846,1977413.64],[260848.45,1977406.28],[260863.32,1977361.79],[260813.32,1977345.29],[260805.69,1977368.12],[260747.46,1977348.9],[260685.16,1977535.31]]]]}},{"type":"Feature","properties":{"building":"yes","height":6,"heightSource":"default"},"geometry":{"type":"MultiPolygon","coordinates":[[[[262096.42,1978897.08],[262134.37,1978915.98],[262143.64,1978897.6],[262134.64,1978893.12],[262154.24,1978854.24],[262135.01,1978844.68],[262115.42,1978883.54],[262105.68,1978878.7],[262096.42,1978897.08]]]]}},{"type":"Feature","properties":{"building":"yes","height":6,"heightSource":"default"},"geometry":{"type":"MultiPolygon","coordinates":[[[[260264.32,1977656.34],[260276.3,1977596.15],[260257.51,1977592.46],[260245.52,1977652.64],[260264.32,1977656.34]]]]}},{"type":"Feature","properties":{"building":"yes","height":6,"heightSource":"default"},"geometry":{"type":"MultiPolygon","coordinates":[[[[260983.84,1977409.57],[260998.03,1977377.01],[260980.86,1977369.63],[260966.67,1977402.19],[260983.84,1977409.57]]]]}},{"type":"Feature","properties":{"building":"industrial","height":6,"heightSource":"default"},"geometry":{"type":"MultiPolygon","coordinates":[[[[260852.64,1977539.2],[260910.92,1977561.3],[260917.75,1977543.55],[260859.46,1977521.43],[260852.64,1977539.2]]]]}},{"type":"Feature","properties":{"building":"yes","height":6,"heightSource":"default"},"geometry":{"type":"MultiPolygon","coordinates":[[[[259787.16,1977466.35],[259813.69,1977491.35],[259826.09,1977478.37],[259799.56,1977453.36],[259787.16,1977466.35]]]]}},{"type":"Feature","properties":{"building":"yes","height":6,"heightSource":"default"},"geometry":{"type":"MultiPolygon","coordinates":[[[[260238.54,1977939.39],[260256.53,1977877.72],[260223.34,1977868.17],[260205.36,1977929.84],[260238.54,1977939.39]]]]}},{"type":"Feature","properties":{"building":"yes","height":6,"heightSource":"default"},"geometry":{"type":"MultiPolygon","coordinates":[[[[261097.85,1977414.77],[261104.95,1977398.44],[261069.63,1977383.26],[261062.53,1977399.59],[261097.85,1977414.77]]]]}},{"type":"Feature","properties":{"building":"apartments","height":6,"heightSource":"default"},"geometry":{"type":"MultiPolygon","coordinates":[[[[260938.67,1977412.19],[260942.11,1977390.28],[260928.86,1977388.23],[260925.41,1977410.13],[260938.67,1977412.19]]]]}},{"type":"Feature","properties":{"building":"office","height":6,"heightSource":"default"},"geometry":{"type":"MultiPolygon","coordinates":[[[[260880.42,1977566.91],[260905.14,1977576.29],[260910.53,1977562.27],[260885.81,1977552.89],[260880.42,1977566.91]]]]}},{"type":"Feature","properties":{"building":"warehouse","height":6,"heightSource":"default"},"geometry":{"type":"MultiPolygon","coordinates":[[[[259323.49,1977096.67],[259342.76,1977071.26],[259299.17,1977038.61],[259279.9,1977064.02],[259323.49,1977096.67]]]]}},{"type":"Feature","properties":{"building":"yes","height":6,"heightSource":"default"},"geometry":{"type":"MultiPolygon","coordinates":[[[[260663.94,1977342.59],[260697.01,1977360.1],[260701.41,1977351.88],[260668.34,1977334.38],[260663.94,1977342.59]]]]}},{"type":"Feature","properties":{"building":"retail","height":6,"heightSource":"default"},"geometry":{"type":"MultiPolygon","coordinates":[[[[260931.64,1977518.45],[260940.82,1977494.53],[260923.58,1977488],[260914.39,1977511.9],[260931.64,1977518.45]]]]}},{"type":"Feature","properties":{"building":"hotel","height":6,"heightSource":"default"},"geometry":{"type":"MultiPolygon","coordinates":[[[[259782.84,1977430.92],[259802.74,1977372.94],[259771.72,1977362.43],[259751.82,1977420.4],[259782.84,1977430.92]]]]}},{"type":"Feature","properties":{"building":"yes","height":6,"heightSource":"default"},"geometry":{"type":"MultiPolygon","coordinates":[[[[259824.78,1977501.37],[259851.31,1977526.37],[259863.71,1977513.37],[259837.17,1977488.37],[259824.78,1977501.37]]]]}},{"type":"Feature","properties":{"building":"yes","height":6,"heightSource":"default"},"geometry":{"type":"MultiPolygon","coordinates":[[[[260197.36,1977684.54],[260233.03,1977523.46],[260186.01,1977513.18],[260150.34,1977674.26],[260197.36,1977684.54]]]]}},{"type":"Feature","properties":{"building":"yes","height":6,"heightSource":"default"},"geometry":{"type":"MultiPolygon","coordinates":[[[[260481.47,1977529.13],[260497.44,1977486.53],[260419.53,1977457.68],[260403.56,1977500.28],[260481.47,1977529.13]]]]}},{"type":"Feature","properties":{"building":"yes","height":6,"heightSource":"default"},"geometry":{"type":"MultiPolygon","coordinates":[[[[260435.01,1977703.85],[260549.09,1977740.24],[260598.63,1977586.89],[260484.56,1977550.5],[260435.01,1977703.85]]]]}},{"type":"Feature","properties":{"building":"yes","height":6,"heightSource":"default"},"geometry":{"type":"MultiPolygon","coordinates":[[[[261080.92,1977439.74],[261088.79,1977421.65],[261055.62,1977407.39],[261047.75,1977425.48],[261080.92,1977439.74]]]]}},{"type":"Feature","properties":{"building":"yes","height":6,"heightSource":"default"},"geometry":{"type":"MultiPolygon","coordinates":[[[[258335.22,1977099.79],[258331.9,1977094.11],[258341.02,1977088.84],[258344.35,1977094.52],[258335.22,1977099.79]]]]}},{"type":"Feature","properties":{"building":"yes","height":6,"heightSource":"default"},"geometry":{"type":"MultiPolygon","coordinates":[[[[258429.09,1977033.97],[258419.88,1977022.39],[258428.68,1977015.47],[258437.9,1977027.04],[258429.09,1977033.97]]]]}},{"type":"Feature","properties":{"building":"yes","height":6,"heightSource":"default"},"geometry":{"type":"MultiPolygon","coordinates":[[[[258394.09,1976937.79],[258383.87,1976926.09],[258377.47,1976918.59],[258388.99,1976908.73],[258395.97,1976916.32],[258401.35,1976922.84],[258405.62,1976927.94],[258394.09,1976937.79]]]]}},{"type":"Feature","properties":{"building":"yes","height":6,"heightSource":"default"},"geometry":{"type":"MultiPolygon","coordinates":[[[[260152.66,1976743.45],[260132.11,1976736.93],[260148.84,1976686.41],[260159.11,1976689.67],[260145.67,1976730.26],[260156.52,1976733.79],[260152.66,1976743.45]]]]}},{"type":"Feature","properties":{"building":"yes","height":6,"heightSource":"default"},"geometry":{"type":"MultiPolygon","coordinates":[[[[261546.93,1976128.01],[261569.15,1976131.13],[261571.14,1976119.8],[261548.92,1976116.39],[261546.93,1976128.01]]]]}},{"type":"Feature","properties":{"building":"yes","height":6,"heightSource":"default"},"geometry":{"type":"MultiPolygon","coordinates":[[[[261601.62,1976128.05],[261612.06,1976129.9],[261613.21,1976123.55],[261602.76,1976121.7],[261601.62,1976128.05]]]]}},{"type":"Feature","properties":{"building":"yes","height":6,"heightSource":"default"},"geometry":{"type":"MultiPolygon","coordinates":[[[[259006.05,1978059.96],[259018.77,1978062.62],[259027.92,1978019.43],[259015.2,1978016.78],[259006.05,1978059.96]]]]}},{"type":"Feature","properties":{"building":"yes","height":6,"heightSource":"default"},"geometry":{"type":"MultiPolygon","coordinates":[[[[259072.77,1978042.88],[259094.49,1978047.1],[259096.69,1978035.91],[259093.03,1978035.19],[259095.15,1978024.46],[259087.56,1978022.98],[259087.8,1978021.74],[259075.94,1978019.42],[259075.07,1978023.83],[259071.06,1978023.06],[259069.14,1978032.79],[259074.54,1978033.85],[259072.77,1978042.88]]]]}},{"type":"Feature","properties":{"building":"retail","height":6,"heightSource":"default"},"geometry":{"type":"MultiPolygon","coordinates":[[[[258731.7,1976802.18],[258731.91,1976810.49],[258717.28,1976810.87],[258717.06,1976802.54],[258731.7,1976802.18]]]]}},{"type":"Feature","properties":{"building":"yes","height":6,"heightSource":"default"},"geometry":{"type":"MultiPolygon","coordinates":[[[[260149.45,1978025.23],[260133.13,1978070.27],[260102.93,1978059.46],[260119.25,1978014.42],[260149.45,1978025.23]]]]}},{"type":"Feature","properties":{"building":"yes","height":6,"heightSource":"default"},"geometry":{"type":"MultiPolygon","coordinates":[[[[257219.99,1977811.99],[257237.28,1977820.71],[257255.87,1977784.28],[257238.57,1977775.57],[257219.99,1977811.99]]]]}},{"type":"Feature","properties":{"building":"yes","height":6,"heightSource":"default"},"geometry":{"type":"MultiPolygon","coordinates":[[[[257186.33,1977768.63],[257224.44,1977787],[257239.21,1977756.76],[257201.09,1977738.38],[257186.33,1977768.63]]]]}},{"type":"Feature","properties":{"building":"yes","height":6,"heightSource":"default"},"geometry":{"type":"MultiPolygon","coordinates":[[[[257242.27,1977819.59],[257253.5,1977834.68],[257238.9,1977868.82],[257257.99,1977877.02],[257271.6,1977845.52],[257293.2,1977844.69],[257293.64,1977833.67],[257285.56,1977834.19],[257283.52,1977823.85],[257276.15,1977820.07],[257281.76,1977808.47],[257283.92,1977804.06],[257276.82,1977801.1],[257274.53,1977805.22],[257269.57,1977817.43],[257262.72,1977814.69],[257254.46,1977819.51],[257250.45,1977813.85],[257242.27,1977819.59]]]]}},{"type":"Feature","properties":{"building":"roof","height":6,"heightSource":"default"},"geometry":{"type":"MultiPolygon","coordinates":[[[[255025.07,1975847.35],[255032.26,1975859.49],[255050.77,1975848.67],[255046.7,1975841.8],[255035.67,1975848.25],[255032.55,1975842.97],[255025.07,1975847.35]]]]}},{"type":"Feature","properties":{"building":"roof","height":6,"heightSource":"default"},"geometry":{"type":"MultiPolygon","coordinates":[[[[262298.18,1979053.97],[262311.11,1979029.57],[262319.41,1979033.93],[262306.48,1979058.31],[262298.18,1979053.97]]]]}},{"type":"Feature","properties":{"building":"hospital","height":3.2,"heightSource":"inferred"},"geometry":{"type":"MultiPolygon","coordinates":[[[[260847.65,1977880.19],[260869.33,1977889.04],[260875.33,1977874.53],[260853.65,1977865.67],[260847.65,1977880.19]]]]}},{"type":"Feature","properties":{"building":"yes","height":6,"heightSource":"default"},"geometry":{"type":"MultiPolygon","coordinates":[[[[260879.84,1977920.1],[260894.81,1977926.06],[260908.15,1977892.95],[260893.17,1977886.99],[260879.84,1977920.1]]]]}},{"type":"Feature","properties":{"building":"hospital","height":3.2,"heightSource":"inferred"},"geometry":{"type":"MultiPolygon","coordinates":[[[[260826,1977929.77],[260841.76,1977936.87],[260857.32,1977902.79],[260841.57,1977895.69],[260826,1977929.77]]]]}},{"type":"Feature","properties":{"building":"office","height":6,"heightSource":"default"},"geometry":{"type":"MultiPolygon","coordinates":[[[[260696.67,1977904.92],[260736.98,1977922.8],[260747.47,1977920.98],[260766.03,1977880.34],[260748.6,1977872.63],[260734.74,1977902.2],[260703.87,1977889.28],[260696.67,1977904.92]]]]}},{"type":"Feature","properties":{"building":"industrial","height":6,"heightSource":"default"},"geometry":{"type":"MultiPolygon","coordinates":[[[[260806.82,1977795.32],[260817.04,1977772.66],[260782.26,1977757.16],[260772.04,1977779.82],[260790.04,1977787.84],[260806.82,1977795.32]]]]}},{"type":"Feature","properties":{"building":"office","height":6,"heightSource":"default"},"geometry":{"type":"MultiPolygon","coordinates":[[[[260797.76,1977815.27],[260806.82,1977795.32],[260790.04,1977787.84],[260780.85,1977807.45],[260797.76,1977815.27]]]]}},{"type":"Feature","properties":{"building":"yes","height":6,"heightSource":"default"},"geometry":{"type":"MultiPolygon","coordinates":[[[[260753.6,1977854.14],[260750.05,1977862.49],[260767.46,1977869.79],[260771.02,1977861.42],[260753.6,1977854.14]]]]}},{"type":"Feature","properties":{"building":"yes","height":6,"heightSource":"default"},"geometry":{"type":"MultiPolygon","coordinates":[[[[260626.21,1977837.66],[260623.65,1977848.12],[260658.95,1977856.63],[260661.51,1977846.17],[260626.21,1977837.66]]]]}},{"type":"Feature","properties":{"building":"yes","height":6,"heightSource":"default"},"geometry":{"type":"MultiPolygon","coordinates":[[[[260651.8,1977827.59],[260655.74,1977788.19],[260666.07,1977789.22],[260663.07,1977819.18],[260669.35,1977819.8],[260668.41,1977829.23],[260651.8,1977827.59]]]]}},{"type":"Feature","properties":{"building":"office","height":6,"heightSource":"default"},"geometry":{"type":"MultiPolygon","coordinates":[[[[260759.85,1977842.94],[260778.54,1977851.45],[260785.77,1977835.79],[260767.06,1977827.28],[260759.85,1977842.94]]]]}},{"type":"Feature","properties":{"building":"retail","height":6,"heightSource":"default"},"geometry":{"type":"MultiPolygon","coordinates":[[[[260875.83,1977797.85],[260870.05,1977810.32],[260883.72,1977816.58],[260889.5,1977804.11],[260875.83,1977797.85]]]]}},{"type":"Feature","properties":{"building":"yes","height":6,"heightSource":"default"},"geometry":{"type":"MultiPolygon","coordinates":[[[[260984.28,1977367.87],[260998.16,1977374.19],[261024.1,1977317.91],[261010.22,1977311.59],[260984.28,1977367.87]]]]}},{"type":"Feature","properties":{"building":"yes","height":6,"heightSource":"default"},"geometry":{"type":"MultiPolygon","coordinates":[[[[260963.66,1977450.28],[260967.95,1977440.7],[260952.72,1977433.94],[260948.43,1977443.52],[260963.66,1977450.28]]]]}},{"type":"Feature","properties":{"building":"yes","height":6,"heightSource":"default"},"geometry":{"type":"MultiPolygon","coordinates":[[[[260935.81,1977468.56],[260952.23,1977475.58],[260957.33,1977463.79],[260940.91,1977456.77],[260935.81,1977468.56]]]]}},{"type":"Feature","properties":{"building":"industrial","height":6,"heightSource":"default"},"geometry":{"type":"MultiPolygon","coordinates":[[[[261044.74,1977507.22],[261038.8,1977521.19],[261071.69,1977535.04],[261077.64,1977521.07],[261044.74,1977507.22]]]]}},{"type":"Feature","properties":{"building":"warehouse","height":6,"heightSource":"default"},"geometry":{"type":"MultiPolygon","coordinates":[[[[261175.99,1977599.11],[261198.87,1977610.14],[261218.29,1977569.77],[261225.33,1977540.85],[261204.75,1977531.49],[261175.99,1977599.11]]]]}},{"type":"Feature","properties":{"building":"warehouse","height":6,"heightSource":"default"},"geometry":{"type":"MultiPolygon","coordinates":[[[[261134.87,1977686.72],[261201.29,1977525.57],[261177.08,1977515.71],[261184.85,1977496.85],[261132.14,1977475.39],[261057.95,1977655.41],[261134.87,1977686.72]]]]}},{"type":"Feature","properties":{"building":"yes","height":6,"heightSource":"default"},"geometry":{"type":"MultiPolygon","coordinates":[[[[261009.63,1977555.65],[260999.52,1977578.65],[260976.79,1977569.72],[260987.59,1977545.82],[261009.63,1977555.65]]]]}},{"type":"Feature","properties":{"building":"yes","height":6,"heightSource":"default"},"geometry":{"type":"MultiPolygon","coordinates":[[[[261043.78,1977438.1],[261048.69,1977428.06],[261087.27,1977446.64],[261082.36,1977456.7],[261043.78,1977438.1]]]]}},{"type":"Feature","properties":{"building":"yes","height":6,"heightSource":"default"},"geometry":{"type":"MultiPolygon","coordinates":[[[[260909.96,1977359.71],[260907.12,1977372.58],[260904.87,1977382.77],[260889.68,1977379.47],[260894.76,1977356.41],[260909.96,1977359.71]]]]}},{"type":"Feature","properties":{"building":"yes","height":6,"heightSource":"default"},"geometry":{"type":"MultiPolygon","coordinates":[[[[262006.88,1973530.65],[262057.65,1973541.73],[262065.09,1973508.14],[262014.31,1973497.05],[262006.88,1973530.65]]]]}},{"type":"Feature","properties":{"building":"yes","height":6,"heightSource":"default"},"geometry":{"type":"MultiPolygon","coordinates":[[[[261964.4,1974449.28],[261965.98,1974481.16],[261898.18,1974484.5],[261899.08,1974502.66],[261818.7,1974506.61],[261816.21,1974456.58],[261964.4,1974449.28]]]]}},{"type":"Feature","properties":{"building":"yes","height":6,"heightSource":"default"},"geometry":{"type":"MultiPolygon","coordinates":[[[[261988.33,1973610.01],[262026.02,1973617.54],[262030.11,1973597.36],[261992.42,1973589.83],[261988.33,1973610.01]]]]}},{"type":"Feature","properties":{"building":"yes","height":6,"heightSource":"default"},"geometry":{"type":"MultiPolygon","coordinates":[[[[260671.76,1977892.82],[260679.42,1977861.48],[260691.5,1977864.39],[260683.84,1977895.73],[260671.76,1977892.82]]]]}},{"type":"Feature","properties":{"building":"yes","height":6,"heightSource":"default"},"geometry":{"type":"MultiPolygon","coordinates":[[[[260817.21,1977586.45],[260828.18,1977556.21],[260816.32,1977551.96],[260820.73,1977539.79],[260850.97,1977550.63],[260842.65,1977573.55],[260861.98,1977580.48],[260854.91,1977599.97],[260817.21,1977586.45]]]]}},{"type":"Feature","properties":{"building":"yes","height":6,"heightSource":"default"},"geometry":{"type":"MultiPolygon","coordinates":[[[[261986.49,1973646.8],[262032.13,1973652.69],[262035.43,1973627.44],[261989.8,1973621.54],[261986.49,1973646.8]]]]}},{"type":"Feature","properties":{"building":"office","height":6,"heightSource":"default"},"geometry":{"type":"MultiPolygon","coordinates":[[[[260909.02,1977518.41],[260902.74,1977533.77],[260921.28,1977541.26],[260927.56,1977525.9],[260909.02,1977518.41]]]]}},{"type":"Feature","properties":{"building":"yes","height":6,"heightSource":"default"},"geometry":{"type":"MultiPolygon","coordinates":[[[[261998.51,1973572.72],[262048.28,1973583.25],[262053.42,1973559.3],[262003.65,1973548.77],[261998.51,1973572.72]]]]}},{"type":"Feature","properties":{"building":"yes","height":6,"heightSource":"default"},"geometry":{"type":"MultiPolygon","coordinates":[[[[260465.76,1978294.64],[260525.01,1978323.98],[260530.95,1978312.14],[260506.4,1978299.98],[260511.49,1978289.83],[260501.81,1978285.03],[260495.37,1978297.89],[260470.35,1978285.5],[260465.76,1978294.64]]]]}},{"type":"Feature","properties":{"building":"yes","height":6,"heightSource":"default"},"geometry":{"type":"MultiPolygon","coordinates":[[[[260670.62,1977858.23],[260704.55,1977864.92],[260708.39,1977845.64],[260674.47,1977838.95],[260670.62,1977858.23]]]]}},{"type":"Feature","properties":{"building":"yes","height":6,"heightSource":"default"},"geometry":{"type":"MultiPolygon","coordinates":[[[[260483.22,1978273.45],[260499.64,1978281.32],[260502.7,1978275.01],[260514.33,1978280.59],[260510.84,1978287.76],[260529.15,1978296.55],[260535.81,1978282.83],[260489.46,1978260.6],[260483.22,1978273.45]]]]}},{"type":"Feature","properties":{"building":"yes","height":6,"heightSource":"default"},"geometry":{"type":"MultiPolygon","coordinates":[[[[260636.08,1978288.47],[260640.16,1978290.47],[260635.18,1978300.54],[260653.25,1978309.34],[260657.58,1978300.58],[260665.06,1978304.23],[260670.37,1978293.48],[260640.73,1978279.02],[260636.08,1978288.47]]]]}},{"type":"Feature","properties":{"building":"yes","height":6,"heightSource":"default"},"geometry":{"type":"MultiPolygon","coordinates":[[[[260768.91,1978609.39],[260787.3,1978618.58],[260805.39,1978582.82],[260787.01,1978573.63],[260768.91,1978609.39]]]]}},{"type":"Feature","properties":{"building":"yes","height":6,"heightSource":"default"},"geometry":{"type":"MultiPolygon","coordinates":[[[[260432.09,1978200.55],[260467.5,1978216.99],[260484.37,1978181.13],[260448.96,1978164.68],[260432.09,1978200.55]]]]}},{"type":"Feature","properties":{"building":"yes","height":6,"heightSource":"default"},"geometry":{"type":"MultiPolygon","coordinates":[[[[258686.48,1976897.57],[258723.96,1976898.9],[258725.27,1976862.31],[258687.78,1976861],[258686.92,1976885.09],[258686.48,1976897.57]]]]}},{"type":"Feature","properties":{"building":"yes","height":6,"heightSource":"default"},"geometry":{"type":"MultiPolygon","coordinates":[[[[258660.49,1976900.84],[258686.07,1976901.95],[258686.48,1976897.57],[258686.92,1976885.09],[258661.19,1976883.81],[258660.72,1976892.34],[258660.49,1976900.84]]]]}},{"type":"Feature","properties":{"building":"yes","height":6,"heightSource":"default"},"geometry":{"type":"MultiPolygon","coordinates":[[[[258622.19,1976899.82],[258660.49,1976900.84],[258660.72,1976892.34],[258646.88,1976891.97],[258647.03,1976886.47],[258622.56,1976885.83],[258622.19,1976899.82]]]]}},{"type":"Feature","properties":{"building":"yes","height":6,"heightSource":"default"},"geometry":{"type":"MultiPolygon","coordinates":[[[[258685.08,1976839.18],[258676.45,1976827.32],[258670.51,1976831.58],[258679.13,1976843.45],[258685.08,1976839.18]]]]}},{"type":"Feature","properties":{"building":"yes","height":6,"heightSource":"default"},"geometry":{"type":"MultiPolygon","coordinates":[[[[258608.65,1976925.62],[258641.56,1976924.68],[258641.11,1976908.87],[258608.2,1976909.79],[258608.65,1976925.62]]]]}},{"type":"Feature","properties":{"building":"yes","height":6,"heightSource":"default"},"geometry":{"type":"MultiPolygon","coordinates":[[[[258644.88,1976924.91],[258690.09,1976924.16],[258689.8,1976907.49],[258644.6,1976908.24],[258644.88,1976924.91]]]]}},{"type":"Feature","properties":{"building":"yes","height":6,"heightSource":"default"},"geometry":{"type":"MultiPolygon","coordinates":[[[[258694.03,1976924.21],[258739.24,1976923.66],[258739.05,1976907.97],[258693.84,1976908.52],[258694.03,1976924.21]]]]}},{"type":"Feature","properties":{"building":"yes","height":6,"heightSource":"default"},"geometry":{"type":"MultiPolygon","coordinates":[[[[258700.39,1976959.31],[258735.95,1976954.73],[258735.47,1976951.1],[258742.78,1976950.15],[258741.33,1976939.02],[258698.46,1976944.54],[258700.39,1976959.31]]]]}},{"type":"Feature","properties":{"building":"yes","height":6,"heightSource":"default"},"geometry":{"type":"MultiPolygon","coordinates":[[[[258660.12,1976962.53],[258695.78,1976958.99],[258694.34,1976944.61],[258658.67,1976948.16],[258660.12,1976962.53]]]]}},{"type":"Feature","properties":{"building":"yes","height":6,"heightSource":"default"},"geometry":{"type":"MultiPolygon","coordinates":[[[[258706.98,1976991.02],[258749.71,1976975.87],[258745.37,1976963.75],[258702.63,1976978.89],[258706.98,1976991.02]]]]}},{"type":"Feature","properties":{"building":"yes","height":6,"heightSource":"default"},"geometry":{"type":"MultiPolygon","coordinates":[[[[258628.03,1977020.56],[258703.94,1976992.3],[258699.3,1976979.97],[258623.39,1977008.22],[258628.03,1977020.56]]]]}},{"type":"Feature","properties":{"building":"yes","height":6,"heightSource":"default"},"geometry":{"type":"MultiPolygon","coordinates":[[[[259629.51,1974780.81],[259640.76,1974785.23],[259651.51,1974758.25],[259634.24,1974751.45],[259628.79,1974765.14],[259634.81,1974767.5],[259629.51,1974780.81]]]]}},{"type":"Feature","properties":{"building":"yes","height":6,"heightSource":"default"},"geometry":{"type":"MultiPolygon","coordinates":[[[[258774.05,1976338.65],[258784.41,1976342.62],[258779.69,1976354.83],[258790.11,1976358.82],[258794.63,1976347.15],[258805.98,1976351.48],[258808.92,1976343.9],[258798.15,1976339.78],[258802.08,1976329.63],[258790.74,1976325.29],[258787.26,1976334.31],[258777.21,1976330.48],[258774.05,1976338.65]]]]}},{"type":"Feature","properties":{"building":"roof","height":6,"heightSource":"default"},"geometry":{"type":"MultiPolygon","coordinates":[[[[259142.18,1976106.02],[259155.6,1976118.11],[259163.28,1976125.01],[259173.22,1976114.11],[259165.38,1976107.06],[259152.12,1976095.12],[259142.18,1976106.02]]]]}},{"type":"Feature","properties":{"building":"yes","height":6,"heightSource":"default"},"geometry":{"type":"MultiPolygon","coordinates":[[[[258641.71,1976712.37],[258649.66,1976705.64],[258623.96,1976675.64],[258616.02,1976682.37],[258641.71,1976712.37]]]]}},{"type":"Feature","properties":{"building":"yes","height":6,"heightSource":"default"},"geometry":{"type":"MultiPolygon","coordinates":[[[[258653.42,1976702.21],[258660.94,1976695.86],[258635.62,1976666.3],[258628.1,1976672.64],[258653.42,1976702.21]]]]}},{"type":"Feature","properties":{"building":"retail","height":6,"heightSource":"default"},"geometry":{"type":"MultiPolygon","coordinates":[[[[259123.01,1976141.78],[259112.62,1976153.8],[259131.95,1976170.31],[259142.34,1976158.29],[259123.01,1976141.78]]]]}},{"type":"Feature","properties":{"building":"retail","height":6,"heightSource":"default"},"geometry":{"type":"MultiPolygon","coordinates":[[[[259088.22,1976132.06],[259107.7,1976148.87],[259117.98,1976137.1],[259098.51,1976120.3],[259088.22,1976132.06]]]]}},{"type":"Feature","properties":{"building":"yes","height":6,"heightSource":"default"},"geometry":{"type":"MultiPolygon","coordinates":[[[[259577.8,1975178.92],[259553.72,1975210.03],[259557.08,1975229.49],[259576.15,1975242.27],[259585.67,1975229.43],[259568.88,1975216.91],[259590.15,1975188.66],[259577.8,1975178.92]]]]}},{"type":"Feature","properties":{"building":"yes","height":6,"heightSource":"default"},"geometry":{"type":"MultiPolygon","coordinates":[[[[259612.28,1975716.58],[259666.46,1975740.1],[259688.96,1975689.03],[259691.98,1975682.06],[259637.8,1975658.54],[259635.17,1975664.52],[259612.28,1975716.58]]]]}},{"type":"Feature","properties":{"building":"yes","height":6,"heightSource":"default"},"geometry":{"type":"MultiPolygon","coordinates":[[[[261695.92,1973314.47],[261760.19,1973066.28],[261667.66,1973042.62],[261603.4,1973290.83],[261695.92,1973314.47]]]]}},{"type":"Feature","properties":{"building":"yes","height":6,"heightSource":"default"},"geometry":{"type":"MultiPolygon","coordinates":[[[[262129.2,1972884.5],[262138.81,1972838.88],[262180.07,1972847.47],[262170.46,1972893.09],[262129.2,1972884.5]]]]}},{"type":"Feature","properties":{"building":"train_station","height":6,"heightSource":"default"},"geometry":{"type":"MultiPolygon","coordinates":[[[[261354.83,1974137.33],[261369.36,1974140.33],[261371.26,1974131.19],[261368.17,1974130.56],[261369.16,1974125.78],[261357.71,1974123.43],[261354.83,1974137.33]]]]}},{"type":"Feature","properties":{"building":"yes","height":6,"heightSource":"default"},"geometry":{"type":"MultiPolygon","coordinates":[[[[258979.87,1978246.57],[258982.88,1978234.82],[259007.3,1978240.99],[259004.29,1978252.74],[258979.87,1978246.57]]]]}},{"type":"Feature","properties":{"building":"roof","height":6,"heightSource":"default"},"geometry":{"type":"MultiPolygon","coordinates":[[[[258924.99,1978218.03],[259068.13,1978252.17],[259067.25,1978255.83],[258923.98,1978222.02],[258924.99,1978218.03]]]]}},{"type":"Feature","properties":{"building":"yes","height":6,"heightSource":"default"},"geometry":{"type":"MultiPolygon","coordinates":[[[[262295.64,1971579.21],[262249.75,1971570.71],[262251.12,1971566.45],[262207.5,1971558.21],[262217.42,1971507.2],[262261.29,1971513.18],[262286.43,1971521.93],[262285.97,1971530.98],[262305.05,1971533.01],[262295.64,1971579.21]]]]}},{"type":"Feature","properties":{"building":"yes","height":6,"heightSource":"default"},"geometry":{"type":"MultiPolygon","coordinates":[[[[262309.51,1971517.37],[262235.8,1971503],[262244.74,1971464.49],[262317.74,1971480.36],[262309.51,1971517.37]]]]}},{"type":"Feature","properties":{"building":"yes","height":6,"heightSource":"default"},"geometry":{"type":"MultiPolygon","coordinates":[[[[262310.15,1971475.3],[262266.02,1971463.54],[262274.01,1971433.93],[262318.8,1971445.86],[262318.12,1971448.39],[262319.85,1971449.87],[262313.44,1971473.62],[262310.8,1971472.92],[262310.15,1971475.3]]]]}},{"type":"Feature","properties":{"building":"house","height":6,"heightSource":"default"},"geometry":{"type":"MultiPolygon","coordinates":[[[[259840.14,1977047.59],[259842.86,1977040.59],[259852.71,1977044.33],[259850.32,1977051.11],[259840.14,1977047.59]]]]}},{"type":"Feature","properties":{"building":"detached","height":6,"heightSource":"default"},"geometry":{"type":"MultiPolygon","coordinates":[[[[259184.68,1977416.16],[259187.43,1977411.65],[259193.77,1977415.31],[259191.19,1977420],[259184.68,1977416.16]]]]}},{"type":"Feature","properties":{"building":"yes","height":6,"heightSource":"default"},"geometry":{"type":"MultiPolygon","coordinates":[[[[259646.2,1977452.13],[259653.49,1977430.51],[259665.35,1977439.6],[259658.18,1977459.86],[259646.2,1977452.13]]]]}},{"type":"Feature","properties":{"building":"apartments","height":6,"heightSource":"default"},"geometry":{"type":"MultiPolygon","coordinates":[[[[260325.57,1976433.1],[260334.86,1976433.11],[260334.44,1976419.58],[260324.67,1976419.94],[260325.57,1976433.1]]]]}},{"type":"Feature","properties":{"building":"yes","height":6,"heightSource":"default"},"geometry":{"type":"MultiPolygon","coordinates":[[[[261108.07,1977694.05],[261114.17,1977680.42],[261136.45,1977688.63],[261149.47,1977661.05],[261179.35,1977674.69],[261159.51,1977715.48],[261108.07,1977694.05]]]]}},{"type":"Feature","properties":{"building":"yes","height":6,"heightSource":"default"},"geometry":{"type":"MultiPolygon","coordinates":[[[[260799.02,1977404.15],[260802.26,1977392.21],[260824.95,1977398.78],[260819.91,1977411.22],[260809.34,1977407.74],[260799.02,1977404.15]]]]}},{"type":"Feature","properties":{"building":"yes","height":6,"heightSource":"default"},"geometry":{"type":"MultiPolygon","coordinates":[[[[260108.3,1976765.03],[260108.78,1976751.23],[260123.34,1976752.34],[260120.72,1976766.02],[260108.3,1976765.03]]]]}},{"type":"Feature","properties":{"building":"yes","height":6,"heightSource":"default"},"geometry":{"type":"MultiPolygon","coordinates":[[[[260272.93,1976275.69],[260266.83,1976283.23],[260271.42,1976290.07],[260277.9,1976283.09],[260272.93,1976275.69]]]]}},{"type":"Feature","properties":{"building":"yes","height":6,"heightSource":"default"},"geometry":{"type":"MultiPolygon","coordinates":[[[[260299.59,1976323.11],[260294.61,1976314.4],[260280.07,1976323.35],[260286.2,1976333.15],[260299.59,1976323.11]]]]}},{"type":"Feature","properties":{"building":"yes","height":6,"heightSource":"default"},"geometry":{"type":"MultiPolygon","coordinates":[[[[261655.48,1977070.05],[261656.04,1977063.14],[261637.66,1977062.48],[261637.5,1977069.29],[261655.48,1977070.05]]]]}},{"type":"Feature","properties":{"building":"yes","height":6,"heightSource":"default"},"geometry":{"type":"MultiPolygon","coordinates":[[[[261645.47,1977197.83],[261645.52,1977193.73],[261628.53,1977192.91],[261628.68,1977197.85],[261645.47,1977197.83]]]]}},{"type":"Feature","properties":{"building":"retail","height":6,"heightSource":"default"},"geometry":{"type":"MultiPolygon","coordinates":[[[[259756.86,1975074.85],[259772.07,1975083.75],[259786.59,1975059.22],[259771.38,1975050.33],[259756.86,1975074.85]]]]}},{"type":"Feature","properties":{"building":"yes","height":6,"heightSource":"default"},"geometry":{"type":"MultiPolygon","coordinates":[[[[258833.09,1976915.28],[258823.89,1976927.73],[258790.98,1976903.73],[258818.41,1976866.58],[258838.68,1976881.38],[258820.45,1976906.07],[258833.09,1976915.28]]]]}},{"type":"Feature","properties":{"building":"yes","height":6,"heightSource":"default"},"geometry":{"type":"MultiPolygon","coordinates":[[[[258841.67,1976904.76],[258858.26,1976917],[258868.31,1976903.55],[258851.73,1976891.31],[258841.67,1976904.76]]]]}},{"type":"Feature","properties":{"building":"yes","height":6,"heightSource":"default"},"geometry":{"type":"MultiPolygon","coordinates":[[[[258907.37,1976939.6],[258940.07,1976962.64],[258950.43,1976948.12],[258917.72,1976925.08],[258907.37,1976939.6]]]]}},{"type":"Feature","properties":{"building":"yes","height":6,"heightSource":"default"},"geometry":{"type":"MultiPolygon","coordinates":[[[[259068.18,1974420.83],[259081.88,1974403.89],[259073.59,1974397.26],[259059.88,1974414.2],[259068.18,1974420.83]]]]}},{"type":"Feature","properties":{"building":"yes","height":6,"heightSource":"default"},"geometry":{"type":"MultiPolygon","coordinates":[[[[258869.62,1976912.82],[258901.77,1976935.47],[258911.73,1976921.5],[258879.58,1976898.86],[258869.62,1976912.82]]]]}},{"type":"Feature","properties":{"building":"public","height":6,"heightSource":"default"},"geometry":{"type":"MultiPolygon","coordinates":[[[[265309.09,1980638.57],[265326.04,1980626.9],[265339.08,1980644.75],[265349.74,1980636.97],[265334.85,1980616.49],[265341.57,1980611.67],[265336.33,1980604.46],[265329.84,1980609.12],[265324.42,1980601.65],[265313.32,1980609.62],[265317.56,1980615.47],[265300.97,1980627.39],[265309.09,1980638.57]]]]}},{"type":"Feature","properties":{"building":"yes","height":6,"heightSource":"default"},"geometry":{"type":"MultiPolygon","coordinates":[[[[265537.04,1980444.86],[265544.92,1980437.51],[265528.79,1980420.4],[265520.89,1980427.76],[265537.04,1980444.86]]]]}},{"type":"Feature","properties":{"building":"roof","height":6,"heightSource":"default"},"geometry":{"type":"MultiPolygon","coordinates":[[[[264363.55,1979492.38],[264380.33,1979502.85],[264395.14,1979479.39],[264378.35,1979468.93],[264363.55,1979492.38]]]]}},{"type":"Feature","properties":{"building":"retail","height":6,"heightSource":"default"},"geometry":{"type":"MultiPolygon","coordinates":[[[[265875,1981336.6],[265902.1,1981315.57],[265893.9,1981305.12],[265866.8,1981326.16],[265875,1981336.6]]]]}},{"type":"Feature","properties":{"building":"yes","height":6,"heightSource":"default"},"geometry":{"type":"MultiPolygon","coordinates":[[[[261167.8,1976902.23],[261165.28,1976908.3],[261158.49,1976905.5],[261161.01,1976899.45],[261167.8,1976902.23]]]]}},{"type":"Feature","properties":{"building":"yes","height":6,"heightSource":"default"},"geometry":{"type":"MultiPolygon","coordinates":[[[[261370.72,1976758.29],[261351.21,1976802.93],[261409.57,1976828.11],[261429.09,1976783.49],[261370.72,1976758.29]]]]}},{"type":"Feature","properties":{"building":"yes","height":6,"heightSource":"default"},"geometry":{"type":"MultiPolygon","coordinates":[[[[261469.15,1976497.67],[261465.27,1976506.79],[261469.54,1976508.4],[261479.13,1976505.41],[261480.95,1976501.84],[261469.15,1976497.67]]]]}},{"type":"Feature","properties":{"building":"roof","height":6,"heightSource":"default"},"geometry":{"type":"MultiPolygon","coordinates":[[[[261501.88,1976370.56],[261515.84,1976372.94],[261520.93,1976346.87],[261506.68,1976344.22],[261501.88,1976370.56]]]]}},{"type":"Feature","properties":{"building":"yes","height":6,"heightSource":"default"},"geometry":{"type":"MultiPolygon","coordinates":[[[[261480.95,1976501.84],[261492.27,1976470.24],[261480.48,1976466.06],[261469.15,1976497.67],[261480.95,1976501.84]]]]}},{"type":"Feature","properties":{"building":"yes","height":6,"heightSource":"default"},"geometry":{"type":"MultiPolygon","coordinates":[[[[261366.01,1976860.51],[261423.05,1976885.39],[261432.9,1976863.09],[261375.85,1976838.22],[261366.01,1976860.51]]]]}},{"type":"Feature","properties":{"building":"public","height":6,"heightSource":"default"},"geometry":{"type":"MultiPolygon","coordinates":[[[[261312.99,1976598.06],[261308.78,1976607.08],[261323.47,1976613.84],[261331.55,1976596.52],[261321.82,1976592.04],[261317.96,1976600.34],[261312.99,1976598.06]]]]}},{"type":"Feature","properties":{"building":"yes","height":6,"heightSource":"default"},"geometry":{"type":"MultiPolygon","coordinates":[[[[261349.57,1976866.87],[261365.47,1976832.99],[261332.1,1976817.51],[261316.18,1976851.38],[261349.57,1976866.87]]]]}},{"type":"Feature","properties":{"building":"yes","height":6,"heightSource":"default"},"geometry":{"type":"MultiPolygon","coordinates":[[[[261416.42,1976843.92],[261440.26,1976853.99],[261457.23,1976814.34],[261433.39,1976804.27],[261416.42,1976843.92]]]]}},{"type":"Feature","properties":{"building":"yes","height":6,"heightSource":"default"},"geometry":{"type":"MultiPolygon","coordinates":[[[[260986.9,1977654.85],[261011.76,1977662.81],[261006.2,1977679.95],[260981.34,1977671.99],[260986.9,1977654.85]]]]}},{"type":"Feature","properties":{"building":"yes","height":6,"heightSource":"default"},"geometry":{"type":"MultiPolygon","coordinates":[[[[260987.89,1977684.67],[261007.97,1977691.01],[261010.53,1977683],[260990.45,1977676.65],[260987.89,1977684.67]]]]}},{"type":"Feature","properties":{"building":"yes","height":6,"heightSource":"default"},"geometry":{"type":"MultiPolygon","coordinates":[[[[260977.07,1977677.92],[260986.34,1977680.93],[260987.97,1977675.96],[260978.69,1977672.95],[260977.07,1977677.92]]]]}},{"type":"Feature","properties":{"building":"yes","height":6,"heightSource":"default"},"geometry":{"type":"MultiPolygon","coordinates":[[[[260959.07,1977673.98],[260972.46,1977678.15],[260974.47,1977671.79],[260961.09,1977667.61],[260959.07,1977673.98]]]]}},{"type":"Feature","properties":{"building":"yes","height":6,"heightSource":"default"},"geometry":{"type":"MultiPolygon","coordinates":[[[[259526.99,1976813.19],[259556.93,1976786.35],[259541.77,1976769.63],[259511.82,1976796.46],[259526.99,1976813.19]]]]}},{"type":"Feature","properties":{"building":"yes","height":6,"heightSource":"default"},"geometry":{"type":"MultiPolygon","coordinates":[[[[259610.61,1976796.92],[259610.99,1976793.24],[259603.77,1976784.15],[259606.44,1976782.41],[259604.56,1976779.47],[259612.17,1976773.44],[259615.34,1976777.64],[259620.14,1976774.2],[259625.05,1976780.93],[259623.23,1976782.35],[259625.26,1976785.44],[259621.19,1976789.73],[259619.6,1976799.36],[259610.61,1976796.92]]]]}},{"type":"Feature","properties":{"building":"yes","height":6,"heightSource":"default"},"geometry":{"type":"MultiPolygon","coordinates":[[[[259598.69,1976807.87],[259599.41,1976802.64],[259593.5,1976801.85],[259592.79,1976807.08],[259598.69,1976807.87]]]]}},{"type":"Feature","properties":{"building":"yes","height":6,"heightSource":"default"},"geometry":{"type":"MultiPolygon","coordinates":[[[[259591.49,1976806.93],[259587.48,1976801.3],[259583.56,1976804.07],[259587.57,1976809.69],[259591.49,1976806.93]]]]}},{"type":"Feature","properties":{"building":"yes","height":6,"heightSource":"default"},"geometry":{"type":"MultiPolygon","coordinates":[[[[259594.62,1976781.26],[259620.34,1976759.48],[259614.49,1976752.65],[259588.77,1976774.44],[259594.62,1976781.26]]]]}},{"type":"Feature","properties":{"building":"yes","height":6,"heightSource":"default"},"geometry":{"type":"MultiPolygon","coordinates":[[[[259549.06,1976804.9],[259613.72,1976750.18],[259611.48,1976747.56],[259613.42,1976745.92],[259621.97,1976738.69],[259617.41,1976733.36],[259609.21,1976740.31],[259604.84,1976744],[259590.31,1976727.04],[259576.69,1976738.56],[259580.31,1976742.8],[259549.85,1976768.57],[259559.25,1976779.54],[259555.41,1976782.79],[259558.82,1976786.77],[259544.16,1976799.18],[259549.06,1976804.9]]]]}},{"type":"Feature","properties":{"building":"yes","height":6,"heightSource":"default"},"geometry":{"type":"MultiPolygon","coordinates":[[[[259545.13,1976770.98],[259549.5,1976767.29],[259545.01,1976762.01],[259540.63,1976765.7],[259545.13,1976770.98]]]]}},{"type":"Feature","properties":{"building":"roof","height":6,"heightSource":"default"},"geometry":{"type":"MultiPolygon","coordinates":[[[[259566.08,1976671.85],[259571.58,1976678.27],[259575.13,1976675.27],[259578.5,1976679.23],[259583.89,1976674.69],[259580.44,1976670.66],[259583.35,1976668.2],[259577.92,1976661.85],[259566.08,1976671.85]]]]}},{"type":"Feature","properties":{"building":"yes","height":6,"heightSource":"default"},"geometry":{"type":"MultiPolygon","coordinates":[[[[259746.76,1976507.36],[259739.67,1976498.83],[259749.61,1976490.66],[259752.92,1976487.95],[259756.94,1976492.83],[259759.96,1976496.47],[259758.18,1976497.94],[259746.76,1976507.36]]]]}},{"type":"Feature","properties":{"building":"yes","height":6,"heightSource":"default"},"geometry":{"type":"MultiPolygon","coordinates":[[[[259758.18,1976497.94],[259759.62,1976499.67],[259767.7,1976493.02],[259763.23,1976487.65],[259756.94,1976492.83],[259759.96,1976496.47],[259758.18,1976497.94]]]]}},{"type":"Feature","properties":{"building":"roof","height":6,"heightSource":"default"},"geometry":{"type":"MultiPolygon","coordinates":[[[[259749.61,1976490.66],[259748.32,1976488.71],[259746.6,1976486.8],[259374.52,1976816.47],[259375.76,1976818.06],[259376.83,1976819.41],[259506.36,1976705.29],[259534.99,1976679.92],[259537.48,1976682.71],[259621.06,1976608.73],[259618.85,1976606.57],[259749.61,1976490.66]]]]}},{"type":"Feature","properties":{"building":"yes","height":6,"heightSource":"default"},"geometry":{"type":"MultiPolygon","coordinates":[[[[259506.36,1976705.29],[259509.64,1976708.95],[259530.25,1976690.68],[259537.81,1976699.1],[259545.82,1976691.99],[259544.64,1976690.68],[259537.48,1976682.71],[259534.99,1976679.92],[259506.36,1976705.29]]]]}},{"type":"Feature","properties":{"building":"yes","height":6,"heightSource":"default"},"geometry":{"type":"MultiPolygon","coordinates":[[[[259558.82,1976678.09],[259564.72,1976685.02],[259569.4,1976681.08],[259563.5,1976674.16],[259558.82,1976678.09]]]]}},{"type":"Feature","properties":{"building":"yes","height":6,"heightSource":"default"},"geometry":{"type":"MultiPolygon","coordinates":[[[[259607.66,1976729.2],[259604.52,1976725.6],[259609.01,1976721.73],[259605.84,1976718.1],[259611.32,1976713.37],[259609.01,1976710.72],[259623.16,1976698.48],[259625.27,1976700.89],[259617.97,1976707.2],[259624.49,1976714.65],[259607.66,1976729.2]]]]}},{"type":"Feature","properties":{"building":"yes","height":6,"heightSource":"default"},"geometry":{"type":"MultiPolygon","coordinates":[[[[259645.16,1976727.26],[259650.84,1976717.59],[259643.38,1976713.26],[259637.71,1976722.93],[259645.16,1976727.26]]]]}},{"type":"Feature","properties":{"building":"yes","height":6,"heightSource":"default"},"geometry":{"type":"MultiPolygon","coordinates":[[[[259670.87,1976747.3],[259679.21,1976724.37],[259662.72,1976718.45],[259654.38,1976741.36],[259670.87,1976747.3]]]]}},{"type":"Feature","properties":{"building":"yes","height":6,"heightSource":"default"},"geometry":{"type":"MultiPolygon","coordinates":[[[[261143.3,1978456.52],[261157.45,1978462.91],[261166.81,1978442.45],[261152.67,1978436.04],[261143.3,1978456.52]]]]}},{"type":"Feature","properties":{"building":"roof","height":6,"heightSource":"default"},"geometry":{"type":"MultiPolygon","coordinates":[[[[261356.03,1978635.26],[261367.36,1978639.59],[261377.21,1978614.09],[261365.88,1978609.78],[261356.03,1978635.26]]]]}},{"type":"Feature","properties":{"building":"yes","height":6,"heightSource":"default"},"geometry":{"type":"MultiPolygon","coordinates":[[[[261739.55,1978924.12],[261756.61,1978926.6],[261758.24,1978915.58],[261741.17,1978913.11],[261739.55,1978924.12]]]]}},{"type":"Feature","properties":{"building":"yes","height":6,"heightSource":"default"},"geometry":{"type":"MultiPolygon","coordinates":[[[[262406.3,1978894.45],[262409.02,1978884.84],[262418.05,1978887.35],[262415.34,1978896.96],[262406.3,1978894.45]]]]}},{"type":"Feature","properties":{"building":"roof","height":6,"heightSource":"default"},"geometry":{"type":"MultiPolygon","coordinates":[[[[261943.24,1979163.43],[261931.43,1979157.32],[261935.3,1979149.91],[261947.11,1979156.02],[261943.24,1979163.43]]]]}},{"type":"Feature","properties":{"building":"yes","height":28.5,"heightSource":"tag"},"geometry":{"type":"MultiPolygon","coordinates":[[[[263639.07,1980464.35],[263628.55,1980454.64],[263639.05,1980443.42],[263649.57,1980453.13],[263639.07,1980464.35]]]]}},{"type":"Feature","properties":{"building":"yes","height":6,"heightSource":"default"},"geometry":{"type":"MultiPolygon","coordinates":[[[[258264.29,1977119.4],[258280.75,1977105.7],[258275.08,1977099.09],[258271.35,1977094.72],[258253.99,1977108.06],[258264.29,1977119.4]]]]}},{"type":"Feature","properties":{"building":"yes","height":6,"heightSource":"default"},"geometry":{"type":"MultiPolygon","coordinates":[[[[260866.96,1977421.88],[260846,1977413.64],[260848.45,1977406.28],[260869.56,1977415.02],[260866.96,1977421.88]]]]}},{"type":"Feature","properties":{"building":"yes","height":6,"heightSource":"default"},"geometry":{"type":"MultiPolygon","coordinates":[[[[261237.33,1975100.1],[261254.31,1975098.09],[261253.86,1975094.34],[261256.8,1975094],[261256.22,1975089.17],[261259.63,1975088.77],[261257.39,1975069.97],[261252.55,1975070.54],[261252.09,1975066.74],[261233.6,1975068.93],[261237.33,1975100.1]]]]}},{"type":"Feature","properties":{"building":"yes","height":6,"heightSource":"default"},"geometry":{"type":"MultiPolygon","coordinates":[[[[261289.93,1975124.67],[261288.89,1975114.28],[261266.08,1975116.56],[261267.11,1975126.94],[261289.93,1975124.67]]]]}},{"type":"Feature","properties":{"building":"hotel","height":6,"heightSource":"default"},"geometry":{"type":"MultiPolygon","coordinates":[[[[260027.14,1978454.44],[260030.14,1978440.7],[260031.5,1978440.99],[260039.96,1978402.26],[260050.07,1978404.44],[260038.6,1978456.91],[260027.14,1978454.44]]]]}},{"type":"Feature","properties":{"building":"hotel","height":6,"heightSource":"default"},"geometry":{"type":"MultiPolygon","coordinates":[[[[260050.66,1978385.3],[260067.55,1978330.35],[260050.38,1978325.95],[260039.07,1978366.21],[260048.52,1978384.77],[260050.66,1978385.3]]]]}},{"type":"Feature","properties":{"building":"roof","height":6,"heightSource":"default"},"geometry":{"type":"MultiPolygon","coordinates":[[[[260040.26,1978388.38],[260034.83,1978378.32],[260036.72,1978371.8],[260038.52,1978365.62],[260048.52,1978384.77],[260044.21,1978386.65],[260040.26,1978388.38]]]]}},{"type":"Feature","properties":{"building":"yes","height":6,"heightSource":"default"},"geometry":{"type":"MultiPolygon","coordinates":[[[[263639.76,1980426.25],[263633.61,1980419.73],[263645.56,1980408.59],[263651.71,1980415.11],[263639.76,1980426.25]]]]}},{"type":"Feature","properties":{"building":"yes","height":6,"heightSource":"default"},"geometry":{"type":"MultiPolygon","coordinates":[[[[264405.91,1979412.45],[264407.12,1979410.52],[264401.76,1979407.19],[264400.55,1979409.13],[264405.91,1979412.45]]]]}},{"type":"Feature","properties":{"building":"yes","height":6,"heightSource":"default"},"geometry":{"type":"MultiPolygon","coordinates":[[[[264415.16,1979418.09],[264416.38,1979416.15],[264411.03,1979412.84],[264409.81,1979414.77],[264415.16,1979418.09]]]]}},{"type":"Feature","properties":{"building":"yes","height":6,"heightSource":"default"},"geometry":{"type":"MultiPolygon","coordinates":[[[[264358.24,1979444.06],[264359.46,1979442.12],[264354.1,1979438.8],[264352.88,1979440.74],[264358.24,1979444.06]]]]}},{"type":"Feature","properties":{"building":"yes","height":6,"heightSource":"default"},"geometry":{"type":"MultiPolygon","coordinates":[[[[264349.44,1979374.9],[264350.66,1979372.97],[264345.3,1979369.65],[264344.08,1979371.58],[264349.44,1979374.9]]]]}},{"type":"Feature","properties":{"building":"yes","height":6,"heightSource":"default"},"geometry":{"type":"MultiPolygon","coordinates":[[[[264356.33,1979377.82],[264357.53,1979375.89],[264352.18,1979372.56],[264350.97,1979374.51],[264356.33,1979377.82]]]]}},{"type":"Feature","properties":{"building":"yes","height":6,"heightSource":"default"},"geometry":{"type":"MultiPolygon","coordinates":[[[[264342.43,1979434.81],[264343.64,1979432.88],[264338.29,1979429.55],[264337.07,1979431.49],[264342.43,1979434.81]]]]}},{"type":"Feature","properties":{"building":"yes","height":6,"heightSource":"default"},"geometry":{"type":"MultiPolygon","coordinates":[[[[264366.51,1979449.35],[264367.73,1979447.41],[264362.38,1979444.09],[264361.16,1979446.03],[264366.51,1979449.35]]]]}},{"type":"Feature","properties":{"building":"yes","height":6,"heightSource":"default"},"geometry":{"type":"MultiPolygon","coordinates":[[[[264267.6,1979446.7],[264283.12,1979423.11],[264230.09,1979388.67],[264214.58,1979412.28],[264267.6,1979446.7]]]]}},{"type":"Feature","properties":{"building":"yes","height":6,"heightSource":"default"},"geometry":{"type":"MultiPolygon","coordinates":[[[[264409.71,1979521.38],[264395.51,1979513.61],[264408.26,1979490.59],[264422.46,1979498.37],[264409.71,1979521.38]]]]}},{"type":"Feature","properties":{"building":"yes","height":6,"heightSource":"default"},"geometry":{"type":"MultiPolygon","coordinates":[[[[264396.96,1979536.35],[264387.3,1979529.57],[264394.8,1979516.62],[264405.56,1979523.17],[264396.96,1979536.35]]]]}},{"type":"Feature","properties":{"building":"yes","height":6,"heightSource":"default"},"geometry":{"type":"MultiPolygon","coordinates":[[[[264376.85,1979543.59],[264387.72,1979532.75],[264393.27,1979538.25],[264391.32,1979540.19],[264394.48,1979543.33],[264385.55,1979552.22],[264376.85,1979543.59]]]]}},{"type":"Feature","properties":{"building":"yes","height":6,"heightSource":"default"},"geometry":{"type":"MultiPolygon","coordinates":[[[[264343.06,1979521.86],[264353.74,1979503.76],[264343.22,1979497.64],[264332.55,1979515.74],[264343.06,1979521.86]]]]}},{"type":"Feature","properties":{"building":"yes","height":6,"heightSource":"default"},"geometry":{"type":"MultiPolygon","coordinates":[[[[264416.63,1979524.78],[264431.85,1979494.38],[264455.25,1979508.47],[264438.32,1979537.62],[264416.63,1979524.78]]]]}},{"type":"Feature","properties":{"building":"yes","height":6,"heightSource":"default"},"geometry":{"type":"MultiPolygon","coordinates":[[[[264432.35,1979574.71],[264437.15,1979566.24],[264432.7,1979563.75],[264434.03,1979561.4],[264428.17,1979558.12],[264433.45,1979548.79],[264421.84,1979542.3],[264410.43,1979562.44],[264432.35,1979574.71]]]]}},{"type":"Feature","properties":{"building":"yes","height":6,"heightSource":"default"},"geometry":{"type":"MultiPolygon","coordinates":[[[[264436.26,1979588.7],[264428.19,1979584.32],[264436.91,1979568.49],[264444.97,1979572.88],[264436.26,1979588.7]]]]}},{"type":"Feature","properties":{"building":"yes","height":6,"heightSource":"default"},"geometry":{"type":"MultiPolygon","coordinates":[[[[264492.32,1979548.39],[264499.63,1979535.74],[264481.92,1979525.64],[264474.61,1979538.29],[264492.32,1979548.39]]]]}},{"type":"Feature","properties":{"building":"yes","height":6,"heightSource":"default"},"geometry":{"type":"MultiPolygon","coordinates":[[[[264474.12,1979524.84],[264477.12,1979519.97],[264465.37,1979512.8],[264462.36,1979517.68],[264470.51,1979522.64],[264474.12,1979524.84]]]]}},{"type":"Feature","properties":{"building":"yes","height":6,"heightSource":"default"},"geometry":{"type":"MultiPolygon","coordinates":[[[[264470.51,1979522.64],[264465.23,1979532.57],[264464.5,1979533.92],[264456.02,1979529.34],[264462.36,1979517.68],[264470.51,1979522.64]]]]}},{"type":"Feature","properties":{"building":"yes","height":6,"heightSource":"default"},"geometry":{"type":"MultiPolygon","coordinates":[[[[264456.02,1979529.34],[264464.5,1979533.92],[264465.23,1979532.57],[264468.33,1979534.63],[264463.79,1979541.8],[264452.43,1979536.18],[264456.02,1979529.34]]]]}},{"type":"Feature","properties":{"building":"roof","height":6,"heightSource":"default"},"geometry":{"type":"MultiPolygon","coordinates":[[[[261463.27,1978235.14],[261473.75,1978245.56],[261493.55,1978225.87],[261483.06,1978215.45],[261463.27,1978235.14]]]]}},{"type":"Feature","properties":{"building":"yes","height":3.2,"heightSource":"inferred"},"geometry":{"type":"MultiPolygon","coordinates":[[[[261415.02,1978223.97],[261425.21,1978231.9],[261448.59,1978201.8],[261438.42,1978193.97],[261415.02,1978223.97]]]]}},{"type":"Feature","properties":{"building":"yes","height":3.2,"heightSource":"inferred"},"geometry":{"type":"MultiPolygon","coordinates":[[[[261439.2,1978191.7],[261448.99,1978199.53],[261462.75,1978182.52],[261452.95,1978174.69],[261439.2,1978191.7]]]]}},{"type":"Feature","properties":{"building":"yes","height":6,"heightSource":"default"},"geometry":{"type":"MultiPolygon","coordinates":[[[[261475.17,1978197],[261509.33,1978212.35],[261515.58,1978198.6],[261481.42,1978183.25],[261475.17,1978197]]]]}},{"type":"Feature","properties":{"building":"yes","height":3.2,"heightSource":"inferred"},"geometry":{"type":"MultiPolygon","coordinates":[[[[261465.3,1978189],[261474.89,1978188.57],[261474.27,1978175.02],[261464.68,1978175.46],[261465.3,1978189]]]]}},{"type":"Feature","properties":{"building":"yes","height":6,"heightSource":"default"},"geometry":{"type":"MultiPolygon","coordinates":[[[[261751.48,1975417.79],[261778.24,1975422.03],[261780.77,1975406.23],[261754.01,1975401.98],[261751.48,1975417.79]]]]}},{"type":"Feature","properties":{"building":"yes","height":6,"heightSource":"default"},"geometry":{"type":"MultiPolygon","coordinates":[[[[261800.16,1975426.98],[261839.48,1975433.53],[261844.15,1975405.92],[261804.83,1975399.35],[261800.16,1975426.98]]]]}},{"type":"Feature","properties":{"building":"yes","height":6,"heightSource":"default"},"geometry":{"type":"MultiPolygon","coordinates":[[[[261850.32,1975383.33],[261870.8,1975383.78],[261871.86,1975365.25],[261853.78,1975363.35],[261850.32,1975383.33]]]]}},{"type":"Feature","properties":{"building":"yes","height":6,"heightSource":"default"},"geometry":{"type":"MultiPolygon","coordinates":[[[[258959.58,1976996.43],[258977.39,1977008.31],[258986.07,1976995.46],[258968.25,1976983.58],[258959.58,1976996.43]]]]}},{"type":"Feature","properties":{"building":"yes","height":6,"heightSource":"default"},"geometry":{"type":"MultiPolygon","coordinates":[[[[256861.23,1972805.46],[256880.71,1972803.74],[256879.83,1972793.88],[256860.35,1972795.62],[256861.23,1972805.46]]]]}},{"type":"Feature","properties":{"building":"roof","height":6,"heightSource":"default"},"geometry":{"type":"MultiPolygon","coordinates":[[[[264899.04,1980002.94],[264874.63,1979973.33],[264884.72,1979965.11],[264909.14,1979994.72],[264899.04,1980002.94]]]]}},{"type":"Feature","properties":{"building":"yes","height":6,"heightSource":"default"},"geometry":{"type":"MultiPolygon","coordinates":[[[[264886.42,1980038.18],[264895.27,1980039.37],[264896.78,1980031.28],[264887.78,1980029.83],[264886.42,1980038.18]]]]}},{"type":"Feature","properties":{"building":"retail","height":6,"heightSource":"default"},"geometry":{"type":"MultiPolygon","coordinates":[[[[264906.25,1980041.33],[264897.97,1980030.36],[264924.59,1980010.51],[264932.87,1980021.49],[264906.25,1980041.33]]]]}},{"type":"Feature","properties":{"building":"roof","height":6,"heightSource":"default"},"geometry":{"type":"MultiPolygon","coordinates":[[[[264860.67,1979954.55],[264853,1979944.11],[264860.39,1979938.76],[264868.06,1979949.19],[264860.67,1979954.55]]]]}},{"type":"Feature","properties":{"building":"yes","height":6,"heightSource":"default"},"geometry":{"type":"MultiPolygon","coordinates":[[[[265424.88,1980580.77],[265429.75,1980577.16],[265426.19,1980572.42],[265421.33,1980576.03],[265424.88,1980580.77]]]]}},{"type":"Feature","properties":{"building":"yes","height":6,"heightSource":"default"},"geometry":{"type":"MultiPolygon","coordinates":[[[[265863.51,1981352.27],[265875.26,1981346.22],[265869.57,1981335.31],[265857.81,1981341.36],[265863.51,1981352.27]]]]}},{"type":"Feature","properties":{"building":"yes","height":6,"heightSource":"default"},"geometry":{"type":"MultiPolygon","coordinates":[[[[265838.22,1981349.23],[265845.49,1981349.33],[265845.46,1981351.45],[265850.39,1981351.52],[265850.59,1981337.62],[265838.39,1981337.45],[265838.22,1981349.23]]]]}},{"type":"Feature","properties":{"building":"retail","height":6,"heightSource":"default"},"geometry":{"type":"MultiPolygon","coordinates":[[[[265820.29,1981328.85],[265832.19,1981335.9],[265824.21,1981349.2],[265812.31,1981342.14],[265820.29,1981328.85]]]]}},{"type":"Feature","properties":{"building":"yes","height":6,"heightSource":"default"},"geometry":{"type":"MultiPolygon","coordinates":[[[[260262.86,1978068.22],[260271.39,1978049.46],[260283.18,1978054.96],[260275.67,1978073.82],[260262.86,1978068.22]]]]}},{"type":"Feature","properties":{"building":"yes","height":6,"heightSource":"default"},"geometry":{"type":"MultiPolygon","coordinates":[[[[258838.02,1976768.6],[258833.81,1976782.08],[258823.54,1976779.4],[258813.96,1976776.91],[258802.64,1976773.97],[258793,1976771.47],[258796.34,1976758.21],[258802.12,1976760.06],[258802.05,1976761.2],[258806.79,1976761.52],[258838.02,1976768.6]]]]}},{"type":"Feature","properties":{"building":"yes","height":6,"heightSource":"default"},"geometry":{"type":"MultiPolygon","coordinates":[[[[258833.81,1976782.08],[258824.76,1976807.87],[258815.65,1976801.2],[258823.54,1976779.4],[258833.81,1976782.08]]]]}},{"type":"Feature","properties":{"building":"yes","height":6,"heightSource":"default"},"geometry":{"type":"MultiPolygon","coordinates":[[[[258815.65,1976801.2],[258808.22,1976796.47],[258813.96,1976776.91],[258823.54,1976779.4],[258815.65,1976801.2]]]]}},{"type":"Feature","properties":{"building":"yes","height":6,"heightSource":"default"},"geometry":{"type":"MultiPolygon","coordinates":[[[[258808.22,1976796.47],[258798.33,1976790.25],[258802.64,1976773.97],[258813.96,1976776.91],[258808.22,1976796.47]]]]}},{"type":"Feature","properties":{"building":"yes","height":6,"heightSource":"default"},"geometry":{"type":"MultiPolygon","coordinates":[[[[258798.33,1976790.25],[258802.64,1976773.97],[258793,1976771.47],[258787.73,1976769.79],[258784.68,1976781.99],[258798.33,1976790.25]]]]}},{"type":"Feature","properties":{"building":"yes","height":6,"heightSource":"default"},"geometry":{"type":"MultiPolygon","coordinates":[[[[258796,1976709.78],[258801.55,1976705.76],[258805.87,1976711.08],[258814.05,1976721.16],[258830.89,1976708.55],[258821.62,1976696.89],[258817.23,1976691.36],[258844.71,1976668.58],[258848.93,1976673.43],[258826.79,1976692.34],[258840.06,1976709.1],[258812.53,1976730.65],[258796,1976709.78]]]]}},{"type":"Feature","properties":{"building":"yes","height":6,"heightSource":"default"},"geometry":{"type":"MultiPolygon","coordinates":[[[[258814.05,1976721.16],[258805.87,1976711.08],[258814.74,1976704.6],[258813.65,1976703.15],[258821.62,1976696.89],[258830.89,1976708.55],[258814.05,1976721.16]]]]}},{"type":"Feature","properties":{"building":"yes","height":6,"heightSource":"default"},"geometry":{"type":"MultiPolygon","coordinates":[[[[258813.65,1976703.15],[258814.74,1976704.6],[258805.87,1976711.08],[258801.55,1976705.76],[258800.98,1976704.84],[258817.23,1976691.36],[258821.62,1976696.89],[258813.65,1976703.15]]]]}}]}