{"type":"FeatureCollection","features":[{"type":"Feature","properties":{"provinceCode":"49","nameTh":"มุกดาหาร","nameEn":"Mukdahan"},"geometry":{"type":"Polygon","coordinates":[[[104.5983597,16.8662741],[104.5776519,16.8644009],[104.5712193,16.8654032],[104.5667777,16.8632915],[104.558389,16.8656794],[104.5547908,16.8690744],[104.5514936,16.8691565],[104.5467482,16.8647704],[104.5376769,16.8675975],[104.5324986,16.8652585],[104.5270292,16.8649198],[104.5241887,16.8592026],[104.5191854,16.859124],[104.5159932,16.8567612],[104.5115893,16.8573401],[104.5053097,16.8521018],[104.4980104,16.8546719],[104.4832789,16.8535921],[104.4673902,16.8659869],[104.4628105,16.8624746],[104.469721,16.8588787],[104.4775766,16.8470616],[104.4787947,16.8422067],[104.4761542,16.843386],[104.4747985,16.8415699],[104.4721009,16.8440513],[104.4724535,16.8408848],[104.4708062,16.8426833],[104.4674838,16.8413398],[104.4690149,16.8494384],[104.4675499,16.8536999],[104.4603167,16.8603973],[104.4556956,16.8603569],[104.4540179,16.8569196],[104.4580243,16.8536316],[104.4579531,16.8498714],[104.4563361,16.8466765],[104.4565068,16.8417647],[104.4526259,16.841474],[104.4532022,16.8399139],[104.4514865,16.8379535],[104.4532102,16.8303086],[104.4504164,16.8300087],[104.4461761,16.8322424],[104.4455385,16.8342385],[104.4496033,16.8426827],[104.4469121,16.8531757],[104.4492856,16.8561646],[104.445077,16.8578183],[104.440822,16.8529419],[104.4423288,16.8434045],[104.4408239,16.8423258],[104.4376632,16.8454665],[104.4367062,16.8491733],[104.4338792,16.8471612],[104.4324658,16.847654],[104.4342284,16.8497932],[104.4318319,16.8498404],[104.4365123,16.8536981],[104.4366272,16.8599569],[104.4345113,16.8598997],[104.4311613,16.8568166],[104.4288594,16.857047],[104.4288096,16.8629178],[104.4369791,16.86808],[104.4419826,16.8691931],[104.4415191,16.8725063],[104.4351198,16.8790632],[104.4286111,16.8825664],[104.4278918,16.8866989],[104.4184966,16.8921104],[104.4101725,16.8926163],[104.4073513,16.8961951],[104.4045278,16.8819425],[104.4018833,16.8803564],[104.4017799,16.8755674],[104.39827,16.8706894],[104.3986122,16.8634452],[104.4026242,16.8531167],[104.4095755,16.8450246],[104.4093774,16.8415718],[104.4056024,16.8378813],[104.3965115,16.8390454],[104.3899978,16.8500147],[104.3822308,16.8586333],[104.3817023,16.8643961],[104.3767597,16.8655964],[104.3680196,16.8640661],[104.3622734,16.8661642],[104.3633245,16.8773288],[104.3547271,16.8801716],[104.3449201,16.8774099],[104.3312516,16.8755835],[104.3258487,16.8765273],[104.3194266,16.8746598],[104.3195839,16.8689457],[104.3139698,16.8665983],[104.306113,16.8539853],[104.3041355,16.8476298],[104.3051984,16.8447164],[104.2960201,16.8377679],[104.2894711,16.8487683],[104.2875643,16.8567458],[104.2777437,16.8565128],[104.277802,16.8624676],[104.2649154,16.8645647],[104.2624859,16.8661455],[104.2588971,16.8728145],[104.2484014,16.8719346],[104.2492535,16.8807989],[104.2526763,16.8866813],[104.2511328,16.8971096],[104.2517884,16.9067798],[104.2453051,16.9018258],[104.2413797,16.8932578],[104.2336901,16.8937432],[104.2309942,16.892089],[104.2251125,16.8934485],[104.2178707,16.8914193],[104.2091588,16.8778367],[104.2082948,16.8729821],[104.2018965,16.8761047],[104.1993618,16.8754207],[104.1977384,16.8771744],[104.1944437,16.8762063],[104.185328,16.8825937],[104.1822819,16.882253],[104.1816363,16.8862934],[104.1778982,16.8883889],[104.169035,16.8862165],[104.1608378,16.8887008],[104.1327455,16.8861107],[104.1245516,16.8885058],[104.1205719,16.884628],[104.1193561,16.8803063],[104.1238099,16.8611495],[104.1178724,16.8549734],[104.1045468,16.8519569],[104.1042652,16.8349664],[104.0880056,16.8263613],[104.0745811,16.8267646],[104.0701069,16.8212999],[104.0786322,16.8108932],[104.0839833,16.8092344],[104.0918483,16.8105532],[104.0912552,16.7985024],[104.0942761,16.7903297],[104.1087313,16.7747247],[104.1139491,16.7667687],[104.1188676,16.7658029],[104.1318293,16.7714221],[104.1355306,16.7712154],[104.1361192,16.7677439],[104.1389645,16.7665872],[104.1431453,16.759969],[104.1362887,16.7561195],[104.1310155,16.7485325],[104.131105,16.738954],[104.1361415,16.729472],[104.1455341,16.7222924],[104.1507931,16.7159084],[104.1498598,16.7045528],[104.153963,16.6985788],[104.1703121,16.6971984],[104.1686093,16.6923365],[104.1616926,16.6852033],[104.1619646,16.6793184],[104.1666713,16.6741918],[104.1837749,16.6698959],[104.1901985,16.6640101],[104.1988713,16.6605813],[104.1948824,16.6571136],[104.1946902,16.6498981],[104.1886547,16.6491409],[104.1814642,16.637109],[104.1766726,16.6377134],[104.1749727,16.6363789],[104.1802344,16.6245763],[104.1778854,16.6164424],[104.1731596,16.6089426],[104.1764227,16.6042222],[104.1775964,16.5969944],[104.1857257,16.5974587],[104.190384,16.5917288],[104.2051343,16.5841385],[104.206337,16.580905],[104.2046087,16.5777777],[104.2060701,16.5765751],[104.2041583,16.5726854],[104.2065906,16.5681311],[104.2054606,16.5651555],[104.2169436,16.5619348],[104.216636,16.5578879],[104.2230498,16.5548642],[104.2260226,16.5513701],[104.2210651,16.5421857],[104.222535,16.5289004],[104.2321482,16.5259527],[104.2346457,16.5217842],[104.2387084,16.5222117],[104.2405054,16.5181219],[104.2382391,16.5068951],[104.2389273,16.4920658],[104.2337203,16.4871836],[104.231736,16.482896],[104.2264092,16.4793119],[104.2246272,16.468465],[104.2342463,16.4604027],[104.2385251,16.454517],[104.2385086,16.4426674],[104.2367475,16.4342503],[104.2378579,16.4285722],[104.2461817,16.4362171],[104.2502385,16.4336707],[104.2564964,16.4369361],[104.2682395,16.4376185],[104.2729499,16.4431923],[104.2842134,16.4498833],[104.2904227,16.4725806],[104.2954055,16.4712489],[104.3063159,16.4603494],[104.3104551,16.4540908],[104.3140167,16.4407391],[104.3141562,16.4302854],[104.319496,16.4221174],[104.3151054,16.3934192],[104.3181504,16.3836295],[104.3181558,16.3751887],[104.3198526,16.3733917],[104.3214842,16.3641522],[104.3263645,16.3547151],[104.327903,16.3416835],[104.3251714,16.3353808],[104.3266323,16.3326263],[104.3426445,16.3257981],[104.3456367,16.3272665],[104.344828,16.3241106],[104.3480046,16.3232112],[104.3516913,16.3294142],[104.3666078,16.3407537],[104.374962,16.342405],[104.3883598,16.3488087],[104.4181543,16.3450299],[104.4248028,16.3469358],[104.4580039,16.3418996],[104.4734137,16.3455556],[104.4817746,16.3421209],[104.4996504,16.3398681],[104.50384,16.3375337],[104.5037993,16.3333511],[104.5079784,16.3292754],[104.5083041,16.3215096],[104.5108164,16.3169758],[104.5145755,16.3157235],[104.5189454,16.3164584],[104.5222789,16.31464],[104.5371026,16.318198],[104.5423986,16.3133761],[104.5504771,16.3122723],[104.551035,16.3064258],[104.5570879,16.2930002],[104.5626199,16.2849773],[104.5626843,16.283285],[104.5591764,16.2811751],[104.5591047,16.2759496],[104.55762,16.2746591],[104.5585732,16.269517],[104.55571,16.2646705],[104.5558836,16.2614855],[104.5567478,16.2605218],[104.5599322,16.2619694],[104.5630541,16.2600724],[104.5726705,16.2590508],[104.5742406,16.2573367],[104.5759116,16.2473814],[104.5804156,16.2406991],[104.5848977,16.2372398],[104.5975515,16.2419527],[104.6006674,16.2379817],[104.6012373,16.2280623],[104.5999711,16.2265241],[104.6026854,16.2245258],[104.6090961,16.223434],[104.6134875,16.2164223],[104.6270503,16.21123],[104.6431036,16.2155688],[104.6542693,16.2245392],[104.6579388,16.2257277],[104.6633463,16.243952],[104.6665284,16.2348841],[104.6697653,16.2305472],[104.6814859,16.2254814],[104.6907008,16.2266431],[104.692771,16.2238557],[104.6922871,16.2154125],[104.6985145,16.2131236],[104.703682,16.2074499],[104.7095763,16.2103119],[104.7166842,16.2038389],[104.7404811,16.2018849],[104.747474,16.2030968],[104.7526442,16.1979666],[104.7585374,16.2008033],[104.7660741,16.1964443],[104.7888651,16.1994292],[104.7964832,16.1966104],[104.8000844,16.1888663],[104.8117809,16.1852646],[104.8150644,16.1861748],[104.8203169,16.1913733],[104.8261632,16.205009],[104.8352289,16.2002172],[104.8417337,16.2031886],[104.8549191,16.2016475],[104.8599107,16.2038739],[104.861064,16.2061476],[104.8641793,16.2064123],[104.8657749,16.2086756],[104.8783054,16.2101168],[104.8822385,16.2135215],[104.8820666,16.2211794],[104.8842274,16.2217457],[104.8850797,16.2254904],[104.8870087,16.2259836],[104.8840665,16.229758],[104.8855537,16.2351425],[104.8893657,16.2359219],[104.8898384,16.2376974],[104.8932498,16.2392839],[104.8960679,16.2390814],[104.9017108,16.2450256],[104.9026101,16.2440495],[104.910209,16.2472508],[104.9127334,16.2554891],[104.9192146,16.2563265],[104.9226063,16.2540017],[104.9311641,16.2529099],[104.9351332,16.2568839],[104.9477884,16.2619779],[104.94856,16.2646864],[104.9505827,16.2649797],[104.9501189,16.2676472],[104.9543699,16.267895],[104.9598873,16.2718325],[104.9603158,16.2748576],[104.9561394,16.277537],[104.9559176,16.279737],[104.9598341,16.2843586],[104.9727762,16.2739627],[104.9731783,16.2770408],[104.9782867,16.2788458],[104.957523,16.29163],[104.946188,16.30712],[104.934141,16.31974],[104.931226,16.328532],[104.926238,16.334274],[104.91594,16.338401],[104.903466,16.338277],[104.8950695,16.3430495],[104.890225,16.34815],[104.885367,16.355746],[104.886209,16.365315],[104.884136,16.370698],[104.871765,16.384574],[104.868526,16.391811],[104.862502,16.399287],[104.863021,16.416752],[104.860754,16.427039],[104.852009,16.443607],[104.843718,16.452698],[104.830181,16.46472],[104.801293,16.47704],[104.773441,16.495163],[104.759774,16.509158],[104.744035,16.528537],[104.736716,16.541755],[104.734643,16.548274],[104.733283,16.564363],[104.734448,16.575189],[104.7397817,16.5941174],[104.7424636,16.6270194],[104.7529632,16.6644939],[104.76243,16.689545],[104.764049,16.700011],[104.758932,16.716698],[104.759062,16.738948],[104.755953,16.748218],[104.745977,16.765323],[104.738011,16.793912],[104.7372618,16.8047136],[104.7272213,16.8062314],[104.7268077,16.8078719],[104.7247245,16.8077771],[104.7254133,16.8089759],[104.7213396,16.8091219],[104.7191448,16.8207662],[104.7162969,16.824424],[104.716518,16.8293517],[104.700647,16.8273277],[104.6926694,16.82402],[104.6923562,16.7904238],[104.6864502,16.7949184],[104.678374,16.7933672],[104.6761015,16.7958069],[104.6687342,16.7924468],[104.6689903,16.7872487],[104.6664974,16.7874375],[104.6652853,16.789818],[104.6625799,16.7894032],[104.6626428,16.7919177],[104.6599881,16.7922683],[104.6592107,16.7977266],[104.6536583,16.8032059],[104.6551321,16.8052899],[104.6516783,16.8071045],[104.648008,16.8067462],[104.6481043,16.8097636],[104.6466689,16.8117545],[104.6458951,16.8107258],[104.6450123,16.811454],[104.6459548,16.8137288],[104.6428609,16.8151252],[104.6413123,16.8196783],[104.6359731,16.8224735],[104.6373977,16.8410788],[104.6336175,16.8498087],[104.6303804,16.8520823],[104.6283292,16.8631086],[104.6225114,16.8620501],[104.6121925,16.8629718],[104.6077177,16.8605914],[104.6059567,16.8632133],[104.5983597,16.8662741]]]}}]}