{"type":"FeatureCollection","features":[{"type":"Feature","properties":{"provinceCode":"66","nameTh":"พิจิตร","nameEn":"Phichit"},"geometry":{"type":"Polygon","coordinates":[[[100.0374543,16.1827303],[100.0381892,16.1729621],[100.0411207,16.1721979],[100.0436666,16.1685127],[100.0569589,16.1665115],[100.0611094,16.1643802],[100.0629777,16.1593373],[100.0652487,16.1612268],[100.07341,16.1614671],[100.0752668,16.1628034],[100.0765217,16.1615245],[100.0774898,16.1574495],[100.074869,16.1529221],[100.0773935,16.1504984],[100.0767217,16.1472567],[100.0783511,16.1456999],[100.0853158,16.146095],[100.0862901,16.1414876],[100.0804668,16.1329285],[100.0802511,16.1288704],[100.0766329,16.1263826],[100.0768845,16.1244255],[100.0857129,16.1147148],[100.0905092,16.1142416],[100.0946485,16.1107467],[100.0951216,16.1058281],[100.0927598,16.1020571],[100.0959828,16.0944204],[100.0996543,16.0945493],[100.1009916,16.0891814],[100.1132728,16.0803389],[100.1085618,16.0760551],[100.1124122,16.0733651],[100.1126201,16.0666896],[100.1182391,16.0588778],[100.1187679,16.0539745],[100.1152928,16.0468063],[100.1200062,16.0427156],[100.1217842,16.0388924],[100.1266665,16.0387714],[100.1277138,16.0356409],[100.1303451,16.0354411],[100.1313234,16.0310285],[100.1272664,16.0284039],[100.1310534,16.0181101],[100.137729,16.0118057],[100.1373523,16.0086558],[100.1475856,15.989129],[100.1506183,15.9882303],[100.1556132,15.9819626],[100.1582194,15.9818677],[100.1619355,15.9780521],[100.1615207,15.9754415],[100.1633741,15.9723776],[100.1594507,15.9680611],[100.1602529,15.959835],[100.1615875,15.9588011],[100.163226,15.9601303],[100.168102,15.9574786],[100.1684702,15.9531583],[100.1708245,15.9512217],[100.1715347,15.9461623],[100.1745013,15.9414385],[100.1730494,15.9371349],[100.1751058,15.9332994],[100.1801595,15.9292639],[100.1826084,15.9290719],[100.1844374,15.9337569],[100.198878,15.932677],[100.2008383,15.9349059],[100.2030467,15.9344864],[100.204152,15.9314083],[100.210795,15.9306197],[100.2153609,15.9281031],[100.2289531,15.9269621],[100.2362471,15.9336491],[100.2429582,15.9347159],[100.2474458,15.9383558],[100.2414757,15.9466952],[100.2477335,15.9582705],[100.2543507,15.961231],[100.2589977,15.9604468],[100.2622203,15.9574521],[100.2647202,15.9505685],[100.2625041,15.941965],[100.2686241,15.9396194],[100.2717374,15.9432581],[100.2760165,15.9434267],[100.2812103,15.9461647],[100.2840922,15.9502701],[100.2912572,15.9518186],[100.2954759,15.9566319],[100.2971639,15.9557858],[100.2992885,15.9580827],[100.3038587,15.9580954],[100.3098676,15.9611106],[100.3106555,15.9670042],[100.3065958,15.9700894],[100.3064806,15.9734389],[100.3092927,15.9735025],[100.3126346,15.9771103],[100.3234418,15.9743942],[100.3245105,15.9814107],[100.3210211,15.9862753],[100.322253,15.9878299],[100.3263013,15.985018],[100.3309931,15.9846107],[100.3463329,15.973988],[100.3311716,15.9406283],[100.3381561,15.937778],[100.3505069,15.9348802],[100.3591147,15.9402593],[100.3784008,15.9408804],[100.3876759,15.9387059],[100.3915215,15.9346711],[100.411344,15.9298525],[100.4210953,15.9317617],[100.4268546,15.9346238],[100.4266382,15.9385197],[100.4371805,15.9368864],[100.4448019,15.9336],[100.4433639,15.9306344],[100.4453973,15.9301601],[100.4488365,15.9308687],[100.4484951,15.9360978],[100.4513735,15.9372861],[100.4624432,15.938508],[100.4788553,15.9344923],[100.4878904,15.9350104],[100.4946238,15.9378051],[100.5150048,15.9377933],[100.5199553,15.9407008],[100.5300521,15.937316],[100.5276793,15.9326803],[100.5216886,15.9317615],[100.5209957,15.9279286],[100.5221266,15.9265792],[100.5195014,15.9253213],[100.5214377,15.9195484],[100.5240572,15.9192137],[100.52535,15.9220691],[100.5306733,15.9218684],[100.5344192,15.925668],[100.5368812,15.9239436],[100.5401402,15.927557],[100.5430898,15.9274075],[100.5432832,15.9253573],[100.5452584,15.9252771],[100.5501558,15.9297817],[100.5504272,15.9337858],[100.5546244,15.9318317],[100.5573901,15.9338712],[100.56317,15.9442625],[100.5665154,15.943185],[100.5688064,15.9445117],[100.5698735,15.943336],[100.5713015,15.9462794],[100.5758152,15.9444049],[100.5804772,15.9451618],[100.5799678,15.949506],[100.5815367,15.9492061],[100.583942,15.9523977],[100.5832901,15.9534406],[100.5854022,15.9539853],[100.5856726,15.9590818],[100.5884081,15.960386],[100.5883722,15.9633547],[100.5913031,15.9643741],[100.5939116,15.9682356],[100.6014654,15.9700144],[100.6089472,15.9791488],[100.611604,15.9791707],[100.6113715,15.9821501],[100.616862,15.9833393],[100.6212611,15.9923805],[100.625146,15.9949558],[100.624156,15.9981687],[100.6254988,16.002511],[100.637298,16.0059535],[100.6370763,16.0101464],[100.6392914,16.0138854],[100.6541303,16.0268565],[100.6637512,16.0129781],[100.6900102,15.9934134],[100.7026965,15.9897332],[100.7186897,15.9888093],[100.7302307,15.990889],[100.7379763,15.9898424],[100.7389341,15.9863376],[100.7424908,15.9857747],[100.7437296,15.9811619],[100.7462369,15.9800905],[100.7455563,15.9741462],[100.7503832,15.9691102],[100.7500384,15.9567978],[100.7540782,15.9508478],[100.7549255,15.9430588],[100.7631002,15.9372136],[100.7657843,15.9376373],[100.7678516,15.9345812],[100.7660667,15.9311283],[100.7706884,15.9297059],[100.7753691,15.9308196],[100.7766155,15.9329351],[100.7804649,15.9329391],[100.7819377,15.9347718],[100.7849814,15.9321651],[100.7874381,15.933458],[100.7946452,15.9313331],[100.7980354,15.9335354],[100.7990521,15.936238],[100.7976328,15.9414279],[100.7955956,15.9421847],[100.7949194,15.9457172],[100.7936332,15.9454418],[100.7934173,15.9509693],[100.7945244,15.9512883],[100.7917342,15.9540521],[100.7911447,15.9577848],[100.7830014,15.9635609],[100.779768,15.9641768],[100.7770543,15.9702247],[100.7797573,15.9785784],[100.7840076,15.9805064],[100.7827149,15.9831096],[100.784742,15.9922789],[100.7766701,15.9986371],[100.7720327,15.999787],[100.7690419,15.998587],[100.7679931,16.0032507],[100.7631734,16.0047345],[100.7593508,16.0113196],[100.7577608,16.0099308],[100.7537602,16.0112212],[100.7508843,16.0101283],[100.7463948,16.0119934],[100.7461714,16.0108308],[100.7433499,16.0123036],[100.7432286,16.0144948],[100.7407644,16.0137122],[100.740306,16.0171214],[100.7383113,16.018926],[100.7340451,16.0185154],[100.7348036,16.0198859],[100.7327477,16.0190236],[100.7309574,16.0215024],[100.729831,16.0192319],[100.7281922,16.0234843],[100.7259631,16.0243313],[100.7159985,16.0230432],[100.714001,16.0242186],[100.7141183,16.025888],[100.7121286,16.0246448],[100.7097273,16.0260184],[100.7055968,16.0243174],[100.7011658,16.0248995],[100.7012101,16.0236655],[100.6991293,16.024852],[100.6983533,16.0230225],[100.6967878,16.0252711],[100.6932551,16.0245254],[100.6919004,16.0271008],[100.6878613,16.0281755],[100.6870611,16.0257951],[100.6832984,16.0269014],[100.6822614,16.0245059],[100.681123,16.0272725],[100.6794952,16.0263081],[100.6787372,16.0287028],[100.6773636,16.0282579],[100.6772941,16.0312196],[100.6742016,16.029654],[100.6707422,16.0319278],[100.6689061,16.0304202],[100.6652436,16.0317332],[100.6628748,16.0378428],[100.6582917,16.0401216],[100.6572314,16.0516056],[100.6556379,16.0526735],[100.6544933,16.0507767],[100.6521918,16.0528497],[100.648333,16.0503224],[100.6460469,16.0479448],[100.6467536,16.0444183],[100.644673,16.0432944],[100.6428336,16.0441272],[100.6409023,16.0419641],[100.6383342,16.0437541],[100.6369152,16.0426748],[100.6329768,16.0437161],[100.6351421,16.0451129],[100.6340641,16.0473114],[100.6374041,16.0468874],[100.6365252,16.0499144],[100.6532117,16.0982652],[100.6530861,16.1024452],[100.6561931,16.1079086],[100.6534144,16.118293],[100.6547535,16.126355],[100.6486296,16.1300199],[100.6479429,16.1364046],[100.6442215,16.1393138],[100.7086245,16.2436593],[100.7099536,16.2455917],[100.7118293,16.2438152],[100.7127514,16.2466841],[100.7198439,16.2508273],[100.7181117,16.2565922],[100.7173313,16.2553659],[100.7159684,16.2567975],[100.7080113,16.2557866],[100.7080545,16.2542355],[100.7030845,16.2519513],[100.7004069,16.2531907],[100.6966405,16.251055],[100.695528,16.2518986],[100.6960256,16.2496616],[100.6937674,16.2481149],[100.6917189,16.2483352],[100.690586,16.2503599],[100.6855418,16.249866],[100.6847779,16.2511953],[100.6810421,16.2480606],[100.6803264,16.2498269],[100.6786412,16.2474867],[100.6777698,16.2487883],[100.6743318,16.2483217],[100.6736798,16.2501321],[100.6667557,16.2484983],[100.6671519,16.2509611],[100.6701506,16.2516633],[100.6694832,16.255104],[100.6736251,16.2562107],[100.6643539,16.2649255],[100.6506115,16.2954049],[100.6492584,16.30951],[100.6526188,16.3157536],[100.6492854,16.327002],[100.6461993,16.3262279],[100.6460331,16.3231753],[100.6373153,16.3261753],[100.6350356,16.3237392],[100.6323889,16.3243453],[100.6260572,16.3188494],[100.6258448,16.3320917],[100.6234169,16.3392226],[100.6251398,16.3396682],[100.6197505,16.3465653],[100.6217429,16.3484932],[100.6204525,16.350084],[100.6238305,16.3539305],[100.6230711,16.361816],[100.6359171,16.3746841],[100.6337347,16.3808427],[100.6357274,16.3870123],[100.6336632,16.3901374],[100.633614,16.3951349],[100.6289476,16.3991351],[100.627757,16.3982328],[100.6233125,16.404661],[100.615036,16.4054452],[100.6104456,16.4100457],[100.6057691,16.4121365],[100.6078435,16.4145243],[100.6070664,16.4173302],[100.6011555,16.4136481],[100.5994677,16.4157223],[100.598408,16.4146406],[100.5974079,16.4167902],[100.5950934,16.4154635],[100.5932205,16.4173091],[100.5948278,16.4204505],[100.5917889,16.4231444],[100.5901537,16.4224764],[100.5874422,16.4321413],[100.5827283,16.4350099],[100.5814792,16.438664],[100.5793557,16.4390927],[100.580364,16.4441069],[100.5739403,16.4485614],[100.5745236,16.4512063],[100.5717426,16.453274],[100.5729136,16.4545502],[100.5702919,16.453854],[100.570774,16.4565554],[100.5676175,16.4580896],[100.5785478,16.4660768],[100.5851616,16.468522],[100.5857759,16.4706432],[100.5837987,16.478951],[100.5861075,16.4938644],[100.5835204,16.5065486],[100.5869992,16.5112894],[100.5861396,16.5157631],[100.5874585,16.5208225],[100.5849812,16.5211203],[100.5843862,16.5227053],[100.5814691,16.521015],[100.5811308,16.524805],[100.5771026,16.5241609],[100.5770581,16.5317361],[100.5800832,16.5443273],[100.5795489,16.5573328],[100.58059,16.5580997],[100.5785024,16.5630221],[100.5805109,16.5791974],[100.5751732,16.5857798],[100.5714928,16.5822548],[100.5684454,16.5826388],[100.5648868,16.5760113],[100.5538351,16.5703451],[100.5500453,16.5696223],[100.5464437,16.5712327],[100.5400595,16.5676413],[100.5372441,16.5683548],[100.5316429,16.5661735],[100.5281661,16.5673854],[100.5265296,16.5654967],[100.5230722,16.5701347],[100.5212732,16.5680591],[100.5209896,16.5692146],[100.5189214,16.5679715],[100.5163579,16.56947],[100.5114222,16.5653509],[100.4976792,16.5631382],[100.4949195,16.5566406],[100.4930086,16.5579795],[100.4918659,16.554967],[100.486136,16.5544062],[100.484976,16.5528896],[100.4860086,16.5515535],[100.4826065,16.5504677],[100.4839729,16.5497836],[100.481072,16.5472858],[100.4821883,16.5457961],[100.4806287,16.5443063],[100.4837367,16.5419059],[100.4842517,16.5401398],[100.4821865,16.538904],[100.483224,16.5377042],[100.4819901,16.5362298],[100.4775949,16.5358706],[100.4753229,16.5329553],[100.4727109,16.5328626],[100.4760283,16.526334],[100.4733064,16.5254139],[100.4728237,16.5215871],[100.469237,16.5201097],[100.444689,16.5185406],[100.4297072,16.5203308],[100.4299099,16.5283158],[100.4252067,16.5359596],[100.4086876,16.5420528],[100.4066214,16.544726],[100.3953946,16.5489885],[100.3885758,16.5541821],[100.3822013,16.5519551],[100.3723193,16.5519866],[100.3694645,16.5486165],[100.3765466,16.5459092],[100.3602157,16.5360919],[100.3460556,16.5329404],[100.3328803,16.5259367],[100.328045,16.5285162],[100.3216726,16.5247132],[100.3139649,16.52535],[100.2782427,16.5327264],[100.2650657,16.5374804],[100.2605668,16.536314],[100.2552714,16.5301707],[100.2374664,16.5289115],[100.2328857,16.5315188],[100.229893,16.537921],[100.2326088,16.548639],[100.2351236,16.551164],[100.2323479,16.5582391],[100.23127,16.5680615],[100.2332146,16.5974158],[100.2329986,16.6125403],[100.2314867,16.6167819],[100.2304482,16.6181054],[100.2259392,16.61689],[100.2255761,16.6261281],[100.2174927,16.6299987],[100.2174885,16.6338207],[100.2152308,16.6377859],[100.2165209,16.6484339],[100.2123065,16.6445189],[100.2038176,16.6454448],[100.2040874,16.6428985],[100.2026969,16.6419801],[100.1971456,16.6436638],[100.1931291,16.6482548],[100.191189,16.6453164],[100.1937778,16.6410766],[100.1930459,16.6390807],[100.1951179,16.6335934],[100.1903064,16.6333685],[100.1917338,16.6268659],[100.2028014,16.623604],[100.2009007,16.6211905],[100.2011103,16.6176099],[100.1947399,16.6199404],[100.1942189,16.6138773],[100.1972603,16.6107555],[100.1964336,16.6078016],[100.1891431,16.6061375],[100.1858844,16.6075173],[100.1785544,16.6015059],[100.1852538,16.5927583],[100.1856812,16.5892191],[100.1738554,16.5893397],[100.1605073,16.5936411],[100.1538972,16.5972717],[100.1497808,16.6059105],[100.146483,16.6062269],[100.1464147,16.6007515],[100.1399798,16.5989354],[100.1376276,16.599951],[100.1372542,16.6030714],[100.1333793,16.6040923],[100.1300751,16.6106997],[100.1186515,16.6140719],[100.1049957,16.6092232],[100.104382,16.6040057],[100.0977486,16.6058048],[100.0954081,16.5997238],[100.089548,16.6001627],[100.0866415,16.5983242],[100.087228,16.5913695],[100.0890768,16.5882681],[100.0864979,16.5873068],[100.0856009,16.5843419],[100.0821436,16.5818556],[100.0801013,16.5826058],[100.0795351,16.5792694],[100.0749861,16.5771991],[100.0709692,16.5784054],[100.0688923,16.5761075],[100.0609593,16.5767007],[100.0588996,16.5735058],[100.0552487,16.5731785],[100.0543471,16.5744579],[100.0531577,16.5728037],[100.0442278,16.5714646],[100.040327,16.5761898],[100.0401978,16.5786826],[100.031747,16.584348],[100.0294278,16.5804088],[100.0234753,16.5806282],[100.019557,16.5742152],[100.0123229,16.5735195],[100.0110457,16.5615069],[100.0140159,16.5597849],[100.0116339,16.5540785],[100.012189,16.5396179],[100.0083501,16.5307978],[100.0116731,16.5302053],[100.0106223,16.5212073],[100.0187726,16.5201701],[100.0202502,16.52161],[100.0249391,16.5201975],[100.0263126,16.5115617],[100.0345848,16.5016995],[100.0101448,16.4707428],[100.0008229,16.4534087],[100.0000735,16.4463186],[100.0034171,16.4331908],[99.9996893,16.4229011],[99.9948575,16.4165082],[99.9940571,16.4031166],[99.9866639,16.389373],[99.9836919,16.379109],[99.9864885,16.3722634],[99.994873,16.3637244],[99.9954094,16.3562646],[99.9978193,16.3535728],[100.0018487,16.3427852],[100.0054846,16.3393992],[100.0055838,16.3348857],[100.0075792,16.3326865],[100.0128317,16.3326095],[100.0146231,16.3299393],[100.0129006,16.3203714],[100.0161804,16.3192899],[100.0212823,16.3128698],[100.0191334,16.2969761],[100.0266643,16.2907757],[100.0311702,16.2793514],[100.0271602,16.2677481],[100.026773,16.2578875],[100.0214122,16.2529963],[100.0213333,16.2506266],[100.0268708,16.2418835],[100.0356789,16.222093],[100.0470903,16.2102636],[100.0467025,16.2070054],[100.0446906,16.2055932],[100.04525,16.2036617],[100.041271,16.2017808],[100.0417615,16.1997666],[100.038254,16.1962777],[100.0338561,16.1963679],[100.0248507,16.1911844],[100.0296898,16.187386],[100.029918,16.185111],[100.0374543,16.1827303]]]}}]}