{"type":"FeatureCollection","features":[{"type":"Feature","properties":{"provinceCode":"44","nameTh":"มหาสารคาม","nameEn":"Maha Sarakham"},"geometry":{"type":"Polygon","coordinates":[[[102.9881171,15.6511217],[102.9888928,15.6471744],[102.9921724,15.6471993],[102.9930041,15.6486347],[102.9949175,15.6478042],[102.9957632,15.6436645],[102.9925311,15.639979],[102.9955316,15.6391622],[102.9966427,15.6406716],[103.005649,15.633839],[103.005167,15.6302417],[103.0124242,15.6283325],[103.0121689,15.6264621],[103.0102574,15.6263006],[103.0130474,15.6232058],[103.0127647,15.6152088],[103.0153224,15.6169336],[103.0156669,15.6133916],[103.0220095,15.6084172],[103.0212488,15.6049797],[103.0239337,15.6049326],[103.0249116,15.602986],[103.0274155,15.6039942],[103.0259432,15.6003693],[103.0294871,15.59875],[103.033958,15.6005591],[103.0344327,15.5980673],[103.0399389,15.5992624],[103.0414675,15.5974546],[103.0451597,15.5979984],[103.0454144,15.5933128],[103.0490891,15.5926437],[103.0497343,15.595661],[103.0508693,15.5928507],[103.0527679,15.5927024],[103.0539833,15.5895948],[103.0514563,15.5889689],[103.0516684,15.5859169],[103.0478384,15.5820759],[103.0463719,15.5771509],[103.0479849,15.5759974],[103.0495969,15.5774586],[103.0502011,15.5759193],[103.0451293,15.5735624],[103.0476999,15.5698542],[103.0466003,15.5687964],[103.0487671,15.5676195],[103.0459694,15.5643508],[103.0500541,15.5635454],[103.0512007,15.560784],[103.0541866,15.5615204],[103.0549988,15.5605309],[103.0524667,15.5575393],[103.057507,15.5589891],[103.0608926,15.5577742],[103.0610911,15.5537822],[103.0642769,15.5543294],[103.0669452,15.5529216],[103.0770315,15.5449364],[103.077371,15.5425378],[103.0811239,15.5427276],[103.0795968,15.545853],[103.0809016,15.5469603],[103.0836852,15.5414947],[103.0873002,15.5384108],[103.0877959,15.5351492],[103.0905893,15.5333557],[103.0905036,15.5306439],[103.0875794,15.528459],[103.0888524,15.525621],[103.0829513,15.5272798],[103.0848636,15.5222637],[103.0820076,15.5203048],[103.0842196,15.5197578],[103.0839533,15.5175083],[103.0813391,15.5181197],[103.0794948,15.5136514],[103.0776785,15.5153911],[103.0729109,15.5085063],[103.0720643,15.5031025],[103.0740205,15.4995508],[103.0725082,15.4991032],[103.0728057,15.4975847],[103.0760293,15.4967684],[103.0780624,15.4990867],[103.0773988,15.4951246],[103.0786902,15.4933556],[103.0820489,15.4949313],[103.0915177,15.4883067],[103.1108787,15.4842604],[103.1096382,15.4827712],[103.1113517,15.4830539],[103.1113522,15.4813157],[103.1143442,15.4828546],[103.2039514,15.4601478],[103.215442,15.4612594],[103.214353,15.4580409],[103.2187411,15.4574618],[103.224701,15.4537391],[103.224583,15.4484652],[103.2299286,15.4472384],[103.2415506,15.4498858],[103.2506326,15.4484639],[103.2527971,15.4433565],[103.2632307,15.4380768],[103.2634399,15.4331076],[103.2618628,15.4300825],[103.2695231,15.4233342],[103.2905141,15.4214053],[103.2996336,15.4180853],[103.3011249,15.4161253],[103.3044509,15.4170769],[103.3136938,15.4133328],[103.3257583,15.4126527],[103.3273301,15.4142429],[103.3306561,15.4133638],[103.3302645,15.4118434],[103.3404086,15.4095472],[103.341224,15.4059271],[103.3429084,15.4085956],[103.3472911,15.4104315],[103.3483104,15.4088128],[103.3499841,15.4110987],[103.3623276,15.4127225],[103.3655409,15.4145998],[103.3738156,15.4246826],[103.3806713,15.4287342],[103.3906706,15.429272],[103.3971025,15.4316765],[103.3986636,15.4354875],[103.3997901,15.4343086],[103.4032678,15.4364525],[103.4007965,15.4450186],[103.4029349,15.4470293],[103.4076141,15.4596332],[103.4115313,15.4805765],[103.4209059,15.5058774],[103.4210403,15.5241576],[103.4266909,15.5248897],[103.423084,15.5307061],[103.4243761,15.5328784],[103.4183943,15.5369678],[103.4163055,15.5352761],[103.4140586,15.5357026],[103.4135935,15.5388654],[103.4112735,15.5401482],[103.4100989,15.5378686],[103.4072766,15.5386351],[103.4036488,15.5358829],[103.3984983,15.5362127],[103.3983345,15.5386021],[103.395077,15.5365671],[103.3911384,15.5391037],[103.3863228,15.5373102],[103.3841346,15.5385807],[103.3801556,15.5349316],[103.3752276,15.5368001],[103.3737532,15.5306417],[103.3712747,15.5312099],[103.369374,15.5281758],[103.3658042,15.5294284],[103.3651659,15.5276759],[103.3602889,15.5262357],[103.3587506,15.5288923],[103.3594104,15.5318525],[103.3553995,15.5375193],[103.3546835,15.5414024],[103.347922,15.5452147],[103.3454801,15.5447625],[103.3441753,15.5467444],[103.3415122,15.5472377],[103.3404963,15.5458036],[103.3357666,15.5477576],[103.3306216,15.5471771],[103.3243641,15.5526945],[103.3229613,15.5519848],[103.3207679,15.5554848],[103.3136848,15.5549148],[103.3096702,15.559166],[103.3090864,15.5622135],[103.3057039,15.5611406],[103.3026752,15.5622231],[103.3006792,15.5679945],[103.3033512,15.5735716],[103.3011658,15.5747964],[103.2977909,15.57396],[103.2943778,15.5775722],[103.2944295,15.5828685],[103.2971513,15.5871665],[103.293888,15.5932277],[103.2888124,15.5967596],[103.285112,15.5932452],[103.2821608,15.5929746],[103.2737316,15.6017181],[103.275938,15.6071112],[103.2755657,15.6111627],[103.2804605,15.6116125],[103.2833702,15.6139268],[103.2827768,15.6173794],[103.2870759,15.6173137],[103.2891529,15.6208104],[103.2989622,15.6488528],[103.2668887,15.6503882],[103.267474,15.6520926],[103.2768169,15.6541628],[103.2811199,15.6587676],[103.2842233,15.6635209],[103.285432,15.6742888],[103.2985341,15.6845057],[103.2947151,15.6860174],[103.2919662,15.6896517],[103.291858,15.6925513],[103.2956369,15.6933746],[103.3004321,15.6911882],[103.3005948,15.6927614],[103.3083726,15.6935755],[103.3081729,15.7028249],[103.3010302,15.7063852],[103.3169188,15.7083977],[103.3211143,15.6995534],[103.3240335,15.697652],[103.3273024,15.6983805],[103.3390679,15.7103034],[103.3423544,15.7101305],[103.3456219,15.7198305],[103.3493368,15.7219801],[103.3517004,15.7257639],[103.3750805,15.7167418],[103.3775522,15.7140767],[103.3845103,15.7131177],[103.3881326,15.7097994],[103.3986444,15.7089461],[103.4017891,15.7122423],[103.4051197,15.7098155],[103.40746,15.7125406],[103.4131024,15.7124898],[103.4160274,15.716996],[103.4183928,15.7177048],[103.4222588,15.7257469],[103.4238102,15.734196],[103.4203423,15.7370174],[103.4207113,15.7397525],[103.4100572,15.744659],[103.406417,15.757],[103.4019355,15.7571444],[103.4002886,15.7599948],[103.4063747,15.7612482],[103.4083502,15.7663983],[103.4255793,15.7731941],[103.4285048,15.7825823],[103.439934,15.8003064],[103.4355281,15.8035591],[103.4361772,15.8053377],[103.4340636,15.808524],[103.4363341,15.8100712],[103.4378711,15.8092508],[103.4403343,15.8158403],[103.4402871,15.8217681],[103.4378053,15.822926],[103.4412298,15.828351],[103.4410715,15.8310726],[103.437028,15.834394],[103.4373996,15.8386695],[103.4406388,15.8416937],[103.4407545,15.8461918],[103.4427383,15.8479842],[103.4441183,15.8688487],[103.4457503,15.8725771],[103.4507634,15.8757904],[103.4510604,15.8821831],[103.454648,15.8880269],[103.4546315,15.8925284],[103.4576829,15.8943719],[103.4585493,15.899312],[103.4572814,15.9082279],[103.4882531,15.9313833],[103.4814252,15.9365163],[103.4779874,15.9434483],[103.4780708,15.9475802],[103.474198,15.9474477],[103.4740508,15.9503312],[103.4695666,15.9573923],[103.4700112,15.9601027],[103.4667926,15.9622111],[103.4662075,15.9676556],[103.4630406,15.9717362],[103.4619718,15.9941281],[103.4598285,15.997145],[103.4614468,16.0038232],[103.4603668,16.005336],[103.463013,16.0078348],[103.4635114,16.0114242],[103.4604315,16.0242142],[103.4626409,16.0254023],[103.4678437,16.0344553],[103.4705673,16.0461005],[103.4664769,16.0526762],[103.4667519,16.0573045],[103.4631117,16.0619742],[103.4647083,16.0668677],[103.4599132,16.0711222],[103.4535763,16.083543],[103.4583407,16.1060025],[103.4575269,16.1215808],[103.4598961,16.1264956],[103.4629493,16.1273117],[103.4627843,16.1290471],[103.4664018,16.1315234],[103.4667555,16.1350633],[103.4680613,16.1361309],[103.4711518,16.1349938],[103.473802,16.1439834],[103.4784851,16.1433404],[103.480423,16.1457561],[103.4808208,16.1522816],[103.4834542,16.1530007],[103.4816817,16.1548044],[103.4840211,16.1590267],[103.4834164,16.1634151],[103.4904046,16.1715039],[103.4874759,16.1756143],[103.489958,16.1783282],[103.489058,16.1822453],[103.48636,16.182198],[103.4853484,16.1847642],[103.4879968,16.185248],[103.4903418,16.1906059],[103.4926336,16.1912236],[103.4950549,16.1887114],[103.4979088,16.1907757],[103.4965578,16.1928176],[103.4987193,16.1919121],[103.4983076,16.1940988],[103.501324,16.1937646],[103.5022862,16.1996332],[103.5006004,16.2024216],[103.5040277,16.2080538],[103.4960646,16.2081606],[103.4953999,16.2036127],[103.4922988,16.2026601],[103.4881834,16.2071305],[103.4834673,16.205378],[103.4796933,16.2082671],[103.4718932,16.1975693],[103.4717483,16.1922678],[103.4666165,16.1938846],[103.4641213,16.1894293],[103.4585698,16.1871761],[103.4544515,16.1819928],[103.4520235,16.1822352],[103.4481655,16.1917473],[103.4543923,16.1895442],[103.4559691,16.1915436],[103.4519787,16.1955592],[103.4455064,16.196605],[103.444167,16.1983145],[103.4505698,16.20478],[103.4401903,16.2060791],[103.4425126,16.2102007],[103.4484729,16.2127011],[103.4430178,16.2163892],[103.4435171,16.2177411],[103.4481649,16.2176251],[103.4461599,16.2221258],[103.4470411,16.227649],[103.4442285,16.2293085],[103.4424896,16.2220476],[103.4388359,16.2200833],[103.4385174,16.224064],[103.4322667,16.2332586],[103.4270202,16.237033],[103.4139588,16.2397053],[103.4102768,16.249808],[103.4044555,16.2565813],[103.4094114,16.2623859],[103.4074074,16.2726121],[103.4130774,16.2806635],[103.4112971,16.2858495],[103.4091547,16.2866661],[103.410397,16.2894281],[103.4077767,16.2947629],[103.4016143,16.2934167],[103.3989648,16.2943207],[103.3984644,16.2920871],[103.3956592,16.292717],[103.3538327,16.308427],[103.3496487,16.3176242],[103.3478724,16.3294862],[103.3494323,16.3359593],[103.3466742,16.343091],[103.346487,16.3500895],[103.3435877,16.3602296],[103.3396209,16.361555],[103.3389963,16.3632641],[103.3310767,16.3640128],[103.3254375,16.367483],[103.3119668,16.3677743],[103.3073266,16.3651679],[103.3060522,16.3674879],[103.3003746,16.3695072],[103.2964642,16.377022],[103.2948857,16.3907714],[103.2925313,16.3906912],[103.2903519,16.3953649],[103.2886864,16.3941812],[103.2838004,16.3956492],[103.2751504,16.3862985],[103.2694668,16.3843516],[103.2669241,16.3800445],[103.2604435,16.3779123],[103.259996,16.3762267],[103.2478774,16.3796304],[103.24777,16.3783549],[103.2389524,16.3761002],[103.234872,16.3767559],[103.2290107,16.3724806],[103.1754224,16.3634304],[103.1751496,16.3690757],[103.1683707,16.3744614],[103.1685934,16.3823213],[103.163535,16.3890845],[103.1685616,16.4060309],[103.1708866,16.4066214],[103.1707789,16.4089604],[103.1753549,16.4083282],[103.1749325,16.419653],[103.1790526,16.4230159],[103.179002,16.425926],[103.1817303,16.4262566],[103.1834729,16.4341444],[103.1855849,16.4351756],[103.1853338,16.4387056],[103.183145,16.4416356],[103.1849567,16.4429171],[103.1847377,16.4478497],[103.1838172,16.4506426],[103.1822655,16.450374],[103.1782551,16.4563993],[103.1754424,16.4575793],[103.1672392,16.466878],[103.1678152,16.4755958],[103.163703,16.4867554],[103.1628803,16.4995625],[103.1765266,16.5318367],[103.184503,16.5424575],[103.1870608,16.5515987],[103.1811803,16.5770268],[103.1674914,16.6028637],[103.1695881,16.6059019],[103.1723982,16.6067947],[103.1750584,16.6135101],[103.1781828,16.6127814],[103.180195,16.6172453],[103.1939956,16.6277918],[103.1957173,16.6276634],[103.1960786,16.6308939],[103.1902514,16.6403269],[103.1613132,16.6411753],[103.1524124,16.6436224],[103.1520807,16.64245],[103.150231,16.6429226],[103.1513175,16.619789],[103.1542137,16.61709],[103.1527136,16.6105756],[103.1495237,16.6087673],[103.1468489,16.6043912],[103.1405993,16.6014036],[103.1404794,16.5995842],[103.1346566,16.5999888],[103.1313918,16.5973814],[103.1239307,16.5958515],[103.120015,16.5921924],[103.1193252,16.5890979],[103.1214164,16.586741],[103.1196619,16.5854027],[103.1209977,16.58412],[103.1206589,16.5798923],[103.1184388,16.5777794],[103.1194304,16.5739762],[103.1181877,16.5714089],[103.1193778,16.5702104],[103.1171564,16.5679658],[103.1188135,16.5666807],[103.1155637,16.5642758],[103.1155416,16.5615697],[103.1043307,16.554104],[103.1043942,16.5485619],[103.1011488,16.5443323],[103.101324,16.5417634],[103.0986451,16.5420505],[103.0962793,16.5362124],[103.0938199,16.5355872],[103.0871909,16.5283182],[103.0881834,16.5246417],[103.0859536,16.521044],[103.0873062,16.5178388],[103.0856675,16.5176245],[103.0864019,16.516341],[103.0809247,16.5109091],[103.0758892,16.511527],[103.075518,16.5096555],[103.0741422,16.5103557],[103.0747242,16.5079465],[103.070325,16.503623],[103.0665124,16.5021786],[103.0645703,16.5034638],[103.0626417,16.4993942],[103.0565912,16.4992522],[103.0537551,16.4962393],[103.046839,16.4969702],[103.042546,16.4906467],[103.0379563,16.4907392],[103.0384058,16.4956589],[103.0361325,16.4976138],[103.0359903,16.5000558],[103.0346017,16.4994906],[103.0327046,16.5013799],[103.0305736,16.4976044],[103.0316498,16.4958842],[103.0246063,16.4915536],[103.0256385,16.4880477],[103.0234007,16.4879345],[103.0242716,16.486918],[103.0222662,16.4855493],[103.022698,16.4834387],[103.0204193,16.482389],[103.0222484,16.4781967],[103.0191332,16.4734337],[103.0160667,16.4736021],[103.0133622,16.4708297],[103.0109114,16.4713834],[103.006632,16.4669683],[103.0035807,16.4688491],[102.9995172,16.4651783],[102.9944859,16.4662435],[102.9918775,16.465875],[102.9896238,16.4627941],[102.9827369,16.4633952],[102.97602,16.4564195],[102.9669676,16.4571271],[102.9611907,16.448993],[102.9532601,16.4512128],[102.9517294,16.4481572],[102.9550353,16.4471744],[102.9549078,16.442203],[102.9526356,16.4417649],[102.9494149,16.4453425],[102.947368,16.4416114],[102.9498074,16.4379869],[102.9474812,16.4295916],[102.9482562,16.4222548],[102.9511958,16.4214375],[102.9528562,16.4254842],[102.9573113,16.4280447],[102.9592163,16.4265683],[102.9572853,16.4233201],[102.9573549,16.4187298],[102.9533823,16.4149651],[102.9565402,16.4128741],[102.9512573,16.4089345],[102.9467782,16.4097112],[102.9476017,16.4048134],[102.9457916,16.4029489],[102.9554651,16.4022974],[102.9569897,16.4007116],[102.9565168,16.3986741],[102.9526574,16.3984974],[102.9502877,16.3951317],[102.9493518,16.3892292],[102.9459988,16.3908139],[102.9431441,16.3895476],[102.9427858,16.3924289],[102.9410279,16.3932345],[102.9398355,16.3925409],[102.9395388,16.3855007],[102.9356582,16.3887294],[102.9341697,16.3830399],[102.9378588,16.3770145],[102.9307249,16.3774197],[102.925144,16.3801239],[102.9206714,16.3775455],[102.9210132,16.3737238],[102.9191525,16.3727565],[102.9230698,16.3715372],[102.9250207,16.3685799],[102.9274995,16.3689266],[102.9275033,16.3669813],[102.9186963,16.365036],[102.9188152,16.3691237],[102.9175027,16.369387],[102.9145293,16.3616768],[102.9077111,16.3616384],[102.9050575,16.357915],[102.9090485,16.3517517],[102.9087985,16.3496979],[102.8985298,16.3489493],[102.8978285,16.3430235],[102.8999583,16.3390005],[102.8964363,16.3335946],[102.8944585,16.3157398],[102.8826066,16.3086307],[102.8814978,16.3065767],[102.8772714,16.3054218],[102.8750862,16.3022615],[102.8674458,16.299361],[102.8644801,16.2912242],[102.8535344,16.283402],[102.8490324,16.2779912],[102.8480626,16.2742679],[102.8454034,16.2723708],[102.8448365,16.2640607],[102.8505709,16.2565597],[102.8482539,16.2555469],[102.8472152,16.248281],[102.8448143,16.2453442],[102.8445564,16.2332153],[102.8501044,16.2280328],[102.8514593,16.2225461],[102.8470165,16.219945],[102.8433084,16.2113319],[102.8476244,16.2036536],[102.846468,16.201009],[102.8481656,16.1989504],[102.8452905,16.1913593],[102.8462091,16.1850722],[102.8448662,16.1735186],[102.8475326,16.1698716],[102.8561226,16.1650973],[102.8571979,16.1585709],[102.8538452,16.1544993],[102.8438578,16.1508814],[102.8431879,16.1456557],[102.8498254,16.1371661],[102.8500839,16.1343903],[102.851597,16.1348842],[102.8532839,16.1324724],[102.8544742,16.1260435],[102.8585426,16.1274197],[102.8676332,16.1253758],[102.8688426,16.1186594],[102.8641567,16.1139995],[102.8648314,16.1113489],[102.8604425,16.1007637],[102.8608299,16.0946564],[102.8591972,16.0919277],[102.8556122,16.0922196],[102.8558968,16.0816839],[102.8478628,16.0753374],[102.8480749,16.0723231],[102.8513889,16.0654319],[102.8558552,16.0645412],[102.8614179,16.059003],[102.8611012,16.0557143],[102.8632806,16.0526303],[102.8623728,16.0481927],[102.8579646,16.0463317],[102.8572199,16.0444658],[102.8571416,16.0429149],[102.8600708,16.0419631],[102.8590408,16.038957],[102.8655322,16.0374721],[102.8675002,16.0393623],[102.8702775,16.0365714],[102.870472,16.0382762],[102.8742985,16.0386192],[102.876193,16.0379721],[102.8782501,16.0330379],[102.8842349,16.033076],[102.8858313,16.0306439],[102.8913527,16.0293991],[102.8915398,16.0258187],[102.8938659,16.0253854],[102.8949641,16.0214464],[102.8913357,16.0181943],[102.8867288,16.0189721],[102.8841493,16.016785],[102.8843977,16.0137352],[102.8860763,16.0127549],[102.8853939,16.0111583],[102.8871212,16.0103653],[102.8896487,16.0045818],[102.8973483,16.0021633],[102.9007585,15.9947607],[102.902949,15.9936569],[102.9032861,15.9906016],[102.9093001,15.9852521],[102.9032473,15.9793645],[102.9037204,15.975337],[102.9012841,15.9699815],[102.9030504,15.96837],[102.9020069,15.9647621],[102.8950503,15.9584608],[102.8978972,15.9506408],[102.8963368,15.9455898],[102.8898766,15.9406079],[102.891235,15.9352627],[102.8897676,15.9330245],[102.8915111,15.9327079],[102.8933084,15.9273915],[102.8971678,15.9262412],[102.896123,15.9195185],[102.9000897,15.9156529],[102.8995989,15.9119104],[102.9023339,15.9089469],[102.9016066,15.9054965],[102.9033905,15.9049716],[102.9030584,15.9026175],[102.9058959,15.901325],[102.9058565,15.8969074],[102.9139485,15.889396],[102.9156146,15.8815241],[102.9252672,15.8802332],[102.9238058,15.8791296],[102.9253004,15.8748018],[102.9225866,15.869346],[102.92353,15.863318],[102.9256153,15.8608954],[102.9247093,15.856934],[102.9218902,15.8554676],[102.9229647,15.8487659],[102.9193428,15.8449427],[102.9199059,15.8397417],[102.9230703,15.8381052],[102.9207192,15.832714],[102.9231187,15.8318861],[102.9193245,15.8238033],[102.9264397,15.8196761],[102.9270561,15.815969],[102.9311277,15.8156155],[102.9308277,15.8043255],[102.9324847,15.8012218],[102.9284971,15.8001222],[102.9305189,15.7956777],[102.928817,15.7926669],[102.9333077,15.7949442],[102.9325683,15.7897427],[102.9397845,15.7843297],[102.940518,15.7802774],[102.9377838,15.7762191],[102.9413433,15.7661281],[102.9463821,15.7652948],[102.9487511,15.7627738],[102.9519489,15.7629694],[102.9538716,15.7595818],[102.9552049,15.760858],[102.9568653,15.7591501],[102.9621182,15.7603071],[102.9675303,15.7550453],[102.96828,15.7569493],[102.9710253,15.7573131],[102.9734349,15.7523258],[102.9767245,15.753605],[102.9766279,15.7516275],[102.9793609,15.7506634],[102.9777663,15.7463649],[102.9801267,15.7417983],[102.9820289,15.7408621],[102.983156,15.7419872],[102.9847229,15.7381816],[102.9873157,15.7370018],[102.9860712,15.7343019],[102.9881479,15.7327915],[102.9914647,15.7338167],[102.9923241,15.732287],[102.9935751,15.7350015],[102.9969373,15.7341346],[102.997191,15.7325137],[102.9984678,15.7339054],[103.0017929,15.7314452],[103.0021141,15.7291117],[103.0054368,15.7285766],[103.0053688,15.721163],[103.0025864,15.7178297],[103.0065881,15.7164726],[103.0053449,15.7149759],[103.0077798,15.7134368],[103.0056812,15.7132475],[103.0061075,15.7082346],[103.0084213,15.709343],[103.0101707,15.7063696],[103.0089196,15.70486],[103.0111151,15.7035156],[103.006273,15.6998178],[103.0059439,15.6974332],[103.0081119,15.6957078],[103.0065597,15.693975],[103.0074188,15.6893501],[103.0058223,15.6892347],[103.0052598,15.6852195],[103.002665,15.6828953],[103.0001727,15.6836637],[102.9971906,15.6819761],[102.9944481,15.6787015],[102.9911991,15.6777253],[102.9912231,15.6761637],[102.9894974,15.677527],[102.9894745,15.6746522],[102.9870528,15.6743292],[102.9852804,15.6764239],[102.9837202,15.6745931],[102.9827448,15.6760347],[102.9799796,15.6711271],[102.97682,15.6716927],[102.9753438,15.6703676],[102.9763042,15.6685693],[102.9726304,15.6678933],[102.9753988,15.6638868],[102.9744937,15.6607862],[102.9776131,15.6594437],[102.9760333,15.658747],[102.976836,15.6569188],[102.980014,15.6582487],[102.9795275,15.6554364],[102.9820057,15.6572163],[102.9863634,15.6506908],[102.9881171,15.6511217]]]}}]}