{"type":"FeatureCollection","features":[{"type":"Feature","properties":{"id":"TH-LAO-4440102","nameTh":"มหาสารคาม","type":"town_municipality"},"geometry":{"type":"Polygon","coordinates":[[[103.3378878,16.1788485],[103.3369517,16.1635079],[103.33516,16.1632915],[103.3193806,16.159167],[103.3157945,16.1603933],[103.3155262,16.161179],[103.3110791,16.163106],[103.3107841,16.1638583],[103.3079249,16.1645384],[103.3073831,16.1655122],[103.3065999,16.1661201],[103.3041349,16.1671995],[103.2980704,16.1666147],[103.2957905,16.1671042],[103.2943422,16.166893],[103.2893693,16.1673052],[103.2856196,16.1707005],[103.2845896,16.1707623],[103.284477,16.1713703],[103.2855606,16.1744667],[103.2835758,16.1786604],[103.2848257,16.180613],[103.2865798,16.1854996],[103.2738125,16.189402],[103.273716,16.1886808],[103.2713234,16.1881038],[103.2708621,16.1870425],[103.2711732,16.1858988],[103.2687271,16.1869601],[103.2627243,16.2017245],[103.2809472,16.2141183],[103.2867837,16.2079782],[103.2882857,16.2048745],[103.2894552,16.2049286],[103.2939076,16.2033214],[103.298639,16.1988706],[103.3004093,16.1981185],[103.3010316,16.1987264],[103.3025122,16.1994476],[103.3035421,16.1995403],[103.3044755,16.2002203],[103.3051568,16.1971706],[103.3059186,16.1961094],[103.3069324,16.1952852],[103.3086276,16.1947082],[103.3140403,16.1897884],[103.3185625,16.1882583],[103.3185625,16.190216],[103.3182299,16.1914318],[103.3186054,16.1920706],[103.3193296,16.1920706],[103.3214378,16.1910248],[103.3222586,16.1897781],[103.3232725,16.1896132],[103.324914,16.1902211],[103.3256596,16.1899326],[103.3271456,16.1882171],[103.3274031,16.1867437],[103.3288997,16.1860791],[103.3290553,16.1855743],[103.3287549,16.1850591],[103.3279449,16.1845851],[103.3282024,16.1839102],[103.3294898,16.1837917],[103.3312225,16.1852033],[103.3337438,16.1857803],[103.3351278,16.1854146],[103.3357072,16.1846933],[103.3374131,16.1847448],[103.3378878,16.1788485]]]}}]}