{"type":"FeatureCollection","features":[{"type":"Feature","properties":{"provinceCode":"95","nameTh":"ยะลา","nameEn":"Yala"},"geometry":{"type":"Polygon","coordinates":[[[100.9894814,5.7839133],[100.992514,5.782907],[100.995554,5.785395],[100.998402,5.779607],[101.002931,5.780101],[101.005091,5.775195],[101.007365,5.774666],[101.007136,5.770078],[101.017706,5.767307],[101.019197,5.759384],[101.021968,5.75409],[101.027282,5.749996],[101.0339222,5.7379501],[101.0374553,5.7365328],[101.0402236,5.7398461],[101.0498686,5.7398768],[101.0538695,5.7438623],[101.0549788,5.7423497],[101.0570771,5.744299],[101.0601956,5.7443273],[101.0619814,5.7422212],[101.0591591,5.734061],[101.063365,5.7312496],[101.0618875,5.7299105],[101.0622492,5.7266703],[101.0661658,5.725769],[101.0682609,5.7284165],[101.0823938,5.7210864],[101.0827457,5.719112],[101.0800618,5.7161223],[101.0813495,5.7155958],[101.08084,5.7098476],[101.0824773,5.7093852],[101.0838449,5.7117694],[101.0860174,5.7118629],[101.0851076,5.7083428],[101.0893755,5.7034369],[101.095747,5.702811],[101.0970773,5.6993445],[101.0946557,5.6975361],[101.0970778,5.6943234],[101.0969299,5.6920353],[101.0987186,5.6894476],[101.1030506,5.6883905],[101.104233,5.683947],[101.111363,5.680947],[101.114058,5.675318],[101.119046,5.670642],[101.119983,5.663019],[101.123462,5.661484],[101.123232,5.65762],[101.126329,5.649202],[101.125258,5.646538],[101.129845,5.638809],[101.128278,5.631927],[101.133267,5.618887],[101.133095,5.614192],[101.135866,5.612851],[101.139307,5.614475],[101.142307,5.613522],[101.144983,5.615128],[101.144582,5.622927],[101.148902,5.624074],[101.15261,5.622733],[101.167614,5.63355],[101.1692,5.635915],[101.167232,5.641526],[101.172335,5.647579],[101.176349,5.647367],[101.189136,5.651161],[101.191353,5.649449],[101.196437,5.649537],[101.20005,5.651743],[101.199954,5.653666],[101.203433,5.654425],[101.204847,5.660072],[101.209014,5.659296],[101.214977,5.661413],[101.21492,5.663848],[101.218303,5.665913],[101.218724,5.672195],[101.222413,5.675671],[101.219278,5.681036],[101.218514,5.68753],[101.233002,5.687653],[101.235869,5.689982],[101.241909,5.691253],[101.244565,5.695611],[101.248579,5.695893],[101.251236,5.698699],[101.249153,5.703358],[101.251752,5.70784],[101.25999,5.711545],[101.261194,5.717598],[101.258614,5.719416],[101.258232,5.721727],[101.260258,5.731909],[101.254275,5.745673],[101.255728,5.751496],[101.250682,5.75626],[101.249363,5.761201],[101.254603,5.772278],[101.25979,5.777193],[101.258664,5.786822],[101.262808,5.793536],[101.263769,5.800732],[101.269615,5.80319],[101.275378,5.808941],[101.276339,5.811805],[101.290556,5.816011],[101.295029,5.811627],[101.304745,5.813477],[101.307188,5.804432],[101.313472,5.801872],[101.317507,5.805648],[101.320828,5.811931],[101.325576,5.81368],[101.332821,5.810994],[101.336938,5.806636],[101.339408,5.806813],[101.341741,5.809195],[101.346132,5.808435],[101.346132,5.812185],[101.348712,5.817455],[101.347257,5.823409],[101.350111,5.826881],[101.35442,5.82792],[101.359059,5.833164],[101.362078,5.830605],[101.370531,5.832353],[101.371931,5.830909],[101.375389,5.833494],[101.374071,5.83661],[101.377557,5.844288],[101.379835,5.845606],[101.380137,5.850216],[101.38719,5.853662],[101.390429,5.858882],[101.389084,5.861163],[101.391362,5.875681],[101.396906,5.872412],[101.402944,5.873578],[101.406923,5.871906],[101.411068,5.873451],[101.414361,5.872793],[101.416529,5.876162],[101.424708,5.873679],[101.426848,5.875453],[101.429044,5.875098],[101.431651,5.870715],[101.435164,5.87074],[101.437305,5.872539],[101.43854,5.870563],[101.447213,5.870436],[101.455282,5.867269],[101.458877,5.872666],[101.462665,5.873831],[101.464174,5.87639],[101.473505,5.870538],[101.476469,5.870588],[101.479022,5.872945],[101.485389,5.869727],[101.487721,5.87335],[101.487146,5.88346],[101.493787,5.881509],[101.502268,5.889718],[101.4987154,5.9005556],[101.493519,5.8983533],[101.4898979,5.9003725],[101.492146,5.906075],[101.4900415,5.9143317],[101.4924377,5.9232143],[101.4900674,5.9371028],[101.4958446,5.9440434],[101.4966869,5.9504339],[101.4920783,5.9493114],[101.49096,5.9546884],[101.48619,5.9563391],[101.4846062,5.9620825],[101.4856726,5.9682473],[101.4833892,5.9724688],[101.4841083,5.9782883],[101.4789071,5.9764748],[101.4766057,5.980471],[101.4754143,5.9888123],[101.4728172,5.9886851],[101.4780178,5.9980894],[101.4776572,6.0073178],[101.4823852,6.0126135],[101.4776032,6.020573],[101.4772464,6.0255122],[101.4793512,6.0295285],[101.4780109,6.0351941],[101.4740467,6.0395035],[101.4778156,6.0422594],[101.4784778,6.0474429],[101.4756469,6.0653471],[101.466758,6.0802523],[101.4597636,6.0774733],[101.4525594,6.0785698],[101.4465427,6.0820914],[101.4372751,6.096946],[101.4379163,6.1044636],[101.4411302,6.1102979],[101.4394008,6.1138764],[101.4361462,6.1157519],[101.4376201,6.1228099],[101.4352955,6.1290495],[101.4300582,6.1289591],[101.4260218,6.1425751],[101.422841,6.1441091],[101.4155562,6.1429959],[101.411112,6.1514963],[101.411603,6.1573753],[101.3986498,6.1578167],[101.3939059,6.1598558],[101.3867492,6.1673725],[101.3860876,6.1816203],[101.3835134,6.186215],[101.3837163,6.1889257],[101.3711341,6.2084593],[101.3779551,6.214692],[101.3945165,6.2228666],[101.3976053,6.2307963],[101.4033299,6.23921],[101.4018913,6.2417756],[101.3973937,6.2429802],[101.3950399,6.2457787],[101.3971598,6.2502753],[101.3967958,6.253637],[101.4007918,6.2580403],[101.4001556,6.2666818],[101.4027312,6.2717784],[101.3997528,6.2771254],[101.3991779,6.2827624],[101.3949889,6.2860869],[101.3954752,6.2938973],[101.3936279,6.2999486],[101.3993972,6.3092465],[101.3997567,6.3177857],[101.3896427,6.326459],[101.3876515,6.3365777],[101.3890733,6.3404103],[101.3934437,6.3435006],[101.3973679,6.3494992],[101.3976632,6.3583963],[101.4170086,6.3726885],[101.4197715,6.3828279],[101.4194085,6.3908895],[101.4117128,6.3966029],[101.4186341,6.4012907],[101.4219316,6.4068772],[101.4219484,6.4104303],[101.4251109,6.4142973],[101.4223356,6.4172055],[101.4243317,6.4219598],[101.4349296,6.4292396],[101.4428177,6.4282281],[101.4563971,6.4317817],[101.4589828,6.4304666],[101.4638696,6.4236527],[101.4670006,6.4237167],[101.4691701,6.4261804],[101.4675725,6.4383759],[101.4643904,6.4430986],[101.4660513,6.4501246],[101.4627026,6.4541831],[101.4653103,6.4621158],[101.4630107,6.4658047],[101.4867064,6.462899],[101.4939134,6.4567981],[101.5027687,6.4543799],[101.5076161,6.4512946],[101.5143374,6.4589086],[101.5235101,6.4656754],[101.5288274,6.4658248],[101.5357827,6.4684271],[101.5375621,6.4728131],[101.5427591,6.4781551],[101.5427018,6.4804471],[101.54589,6.4811187],[101.5470697,6.4833586],[101.5522909,6.4817608],[101.5615169,6.4876828],[101.5634334,6.494868],[101.5686425,6.4984799],[101.5737116,6.4986585],[101.5787692,6.5046012],[101.5819948,6.5119431],[101.5907626,6.5120823],[101.5921821,6.5188544],[101.5909153,6.5228849],[101.5950823,6.5294131],[101.597821,6.5294399],[101.6023009,6.5337029],[101.6049523,6.539574],[101.6089762,6.5437119],[101.5984376,6.5512254],[101.597085,6.5610575],[101.5924315,6.5656024],[101.5869139,6.5626215],[101.5820901,6.5562701],[101.5744141,6.555072],[101.5649022,6.5499367],[101.5500457,6.5552213],[101.5352619,6.5565417],[101.5294675,6.5626945],[101.526047,6.5716635],[101.5172324,6.5777467],[101.5220885,6.583612],[101.5194493,6.5912647],[101.5098586,6.6019849],[101.5038617,6.6045232],[101.4990957,6.6006281],[101.4950057,6.59945],[101.4958711,6.601104],[101.4936358,6.6025602],[101.4945237,6.6060091],[101.4925687,6.6029084],[101.4900055,6.6054893],[101.4911982,6.6021912],[101.4893249,6.6042702],[101.4891096,6.6017224],[101.4876098,6.6028785],[101.4846445,6.6000563],[101.4831316,6.6016419],[101.4830572,6.5989708],[101.4795862,6.5995334],[101.4787925,6.5968202],[101.4760001,6.5972831],[101.4768514,6.5940236],[101.4689118,6.5969357],[101.4583011,6.5976731],[101.4597963,6.5889065],[101.4573105,6.5827864],[101.4552008,6.5826742],[101.4553155,6.5804751],[101.4523577,6.5770308],[101.4498053,6.5773035],[101.4497762,6.5788308],[101.4483263,6.5778217],[101.4458873,6.5811121],[101.4479611,6.5833729],[101.4456569,6.582621],[101.440112,6.5863871],[101.4371744,6.5914],[101.4282695,6.5937466],[101.4219208,6.5934539],[101.4074224,6.5818504],[101.4063355,6.5794242],[101.400578,6.5766468],[101.4009226,6.5740594],[101.3965417,6.5716215],[101.3879,6.5680042],[101.3835963,6.5697124],[101.3733962,6.5683851],[101.361874,6.5635729],[101.3605952,6.5541145],[101.3566666,6.5575056],[101.3489975,6.5564947],[101.3455326,6.5576865],[101.3313881,6.5662778],[101.3267912,6.5720769],[101.3066326,6.5646967],[101.300565,6.5701952],[101.3013976,6.5754909],[101.3003166,6.5778613],[101.2983662,6.5779386],[101.2976777,6.5836536],[101.3000965,6.5877522],[101.2934118,6.6022822],[101.2928766,6.6157337],[101.2957284,6.6178927],[101.301793,6.617937],[101.3034345,6.6205541],[101.2977742,6.6335231],[101.2989417,6.6472203],[101.2892191,6.6647894],[101.2910605,6.6718279],[101.2971597,6.6740536],[101.2976271,6.6765016],[101.2901569,6.6829988],[101.2828464,6.6798532],[101.2801342,6.6818989],[101.2794715,6.6798817],[101.283371,6.6749772],[101.2813907,6.6706443],[101.2845297,6.6689979],[101.2808834,6.6687371],[101.2785648,6.6666197],[101.2779961,6.6556647],[101.2749648,6.6495757],[101.2675856,6.6443312],[101.2548211,6.6411867],[101.24864,6.6439837],[101.2384706,6.6331994],[101.2318917,6.6152592],[101.224659,6.6078973],[101.2189196,6.5984404],[101.2150072,6.5961945],[101.1862378,6.5997283],[101.1785049,6.5992435],[101.169005,6.6041879],[101.1600266,6.6038122],[101.1568248,6.6072506],[101.1494707,6.6105509],[101.1337418,6.6090106],[101.1270906,6.6129042],[101.1122958,6.627814],[101.1078134,6.629462],[101.1036198,6.6279672],[101.0908241,6.6146572],[101.0894875,6.60913],[101.091829,6.604115],[101.0870366,6.6011461],[101.0850795,6.5942501],[101.0870919,6.5734498],[101.0839777,6.5706576],[101.0807375,6.5547711],[101.0731557,6.5517734],[101.0692492,6.5440159],[101.0603855,6.5418235],[101.0431419,6.5416336],[101.0444244,6.5250986],[101.0387055,6.5218849],[101.0351426,6.5153364],[101.0375689,6.5148492],[101.0426344,6.5046067],[101.0417693,6.4939503],[101.0450388,6.4909382],[101.0443711,6.4868567],[101.0337512,6.4856894],[101.0234253,6.4820202],[101.0218088,6.4825843],[101.022093,6.4865658],[101.0207336,6.4877909],[100.9992674,6.4790561],[100.9907541,6.4851288],[100.9851676,6.4843699],[100.9769294,6.4863312],[100.9746208,6.4837397],[100.9762957,6.4819785],[100.9754844,6.4794894],[100.9719712,6.4761627],[100.9730283,6.4679695],[100.9687243,6.4664079],[100.965224,6.4688676],[100.9638692,6.4681381],[100.9611605,6.4609485],[100.9603595,6.4508066],[100.9557119,6.4514532],[100.9538261,6.4500542],[100.9526656,6.4513879],[100.9530574,6.4452868],[100.9489709,6.4424097],[100.9422259,6.4444474],[100.9381267,6.4430292],[100.9357999,6.446147],[100.9328605,6.4445078],[100.9302026,6.4360179],[100.9221177,6.4264579],[100.9221389,6.4226032],[100.9198804,6.4182348],[100.9198994,6.4099543],[100.9181581,6.4085245],[100.9202655,6.4006645],[100.9184879,6.4009762],[100.9171907,6.3989219],[100.9185374,6.3931164],[100.9224654,6.3907638],[100.9201463,6.3889148],[100.9194925,6.3833335],[100.9227098,6.3824871],[100.9212974,6.3785016],[100.9220984,6.375053],[100.9264418,6.3720773],[100.9267839,6.3708123],[100.9249716,6.3706425],[100.9275524,6.3669736],[100.9253086,6.3598534],[100.9263409,6.3543643],[100.9200436,6.3546548],[100.9205085,6.3513756],[100.9227254,6.3493378],[100.9203638,6.3484764],[100.9201461,6.3447177],[100.9223895,6.3402454],[100.9265783,6.3402261],[100.9252306,6.3365235],[100.9290695,6.3313117],[100.9253957,6.3288443],[100.9292088,6.3283741],[100.9291511,6.3256704],[100.9248343,6.326814],[100.9244346,6.3249341],[100.9263047,6.3221631],[100.9293547,6.322523],[100.9299273,6.3210851],[100.9267434,6.318826],[100.9239199,6.3187716],[100.9232697,6.3208217],[100.917229,6.3180138],[100.915055,6.311213],[100.9124017,6.3111926],[100.9138608,6.3064636],[100.910715,6.3057073],[100.9123621,6.3034985],[100.8976751,6.3036706],[100.8905125,6.2993593],[100.8887946,6.2956799],[100.8839443,6.2965238],[100.8795231,6.2947406],[100.8782456,6.2963573],[100.8705915,6.2936942],[100.8665036,6.2948493],[100.8649946,6.2974549],[100.8620052,6.2933919],[100.8599105,6.2942624],[100.8495548,6.2901255],[100.8411217,6.3002416],[100.837027,6.299546],[100.834975,6.296083],[100.836646,6.290968],[100.834741,6.289101],[100.835239,6.285718],[100.838522,6.28239],[100.839108,6.276653],[100.845146,6.262933],[100.844267,6.260767],[100.846436,6.257168],[100.844267,6.254841],[100.844091,6.249835],[100.846582,6.246777],[100.851038,6.234302],[100.853676,6.231894],[100.857574,6.232543],[100.860183,6.235466],[100.87012,6.240039],[100.865899,6.245614],[100.869915,6.252974],[100.869446,6.259874],[100.872348,6.264557],[100.875045,6.263393],[100.875953,6.258197],[100.877624,6.256682],[100.880614,6.254652],[100.884864,6.254544],[100.886066,6.249944],[100.892134,6.249294],[100.892808,6.239687],[100.898934,6.234653],[100.903742,6.233598],[100.907435,6.23736],[100.907288,6.240255],[100.911451,6.241689],[100.912682,6.24491],[100.917401,6.248157],[100.922267,6.245072],[100.930298,6.243313],[100.944661,6.243286],[100.944837,6.24905],[100.947593,6.252298],[100.94601,6.256979],[100.947036,6.263988],[100.95495,6.265584],[100.956123,6.269102],[100.959113,6.268642],[100.960109,6.271077],[100.96562,6.272322],[100.967877,6.275245],[100.967086,6.282632],[100.971189,6.283038],[100.976172,6.27971],[100.984409,6.278736],[100.989685,6.266369],[101.001117,6.259902],[101.003345,6.260497],[101.007829,6.255869],[101.010174,6.255842],[101.01249,6.248778],[101.015275,6.246667],[101.019672,6.246559],[101.021401,6.249671],[101.026853,6.247263],[101.028055,6.244584],[101.031631,6.244259],[101.040308,6.249536],[101.042096,6.248616],[101.04447,6.24978],[101.049453,6.254163],[101.053937,6.255029],[101.059976,6.253622],[101.060972,6.257356],[101.064021,6.259359],[101.066923,6.255814],[101.072228,6.257952],[101.074925,6.255435],[101.082077,6.259548],[101.094945,6.260441],[101.100544,6.257059],[101.102801,6.253838],[101.108165,6.251565],[101.112122,6.251863],[101.111429,6.247701],[101.105195,6.237962],[101.110435,6.232017],[101.110641,6.227968],[101.113484,6.226514],[101.113141,6.222529],[101.116156,6.220505],[101.115402,6.216932],[101.119067,6.212284],[101.115436,6.204061],[101.123177,6.20055],[101.12698,6.193878],[101.120334,6.186636],[101.10814,6.179395],[101.100673,6.178256],[101.096528,6.179616],[101.093205,6.175884],[101.085772,6.178667],[101.085327,6.174271],[101.075428,6.170793],[101.076387,6.160484],[101.071009,6.159156],[101.064398,6.151377],[101.061041,6.150744],[101.058677,6.142269],[101.061657,6.140213],[101.06337,6.141256],[101.064843,6.13996],[101.071523,6.140086],[101.07488,6.135406],[101.089438,6.134489],[101.094644,6.128734],[101.099851,6.126615],[101.101803,6.123453],[101.105605,6.123548],[101.108106,6.117571],[101.105879,6.113427],[101.114374,6.113016],[101.119067,6.114503],[101.126637,6.106913],[101.127939,6.097837],[101.12698,6.095339],[101.120985,6.095181],[101.115094,6.092651],[101.11708,6.085915],[101.11547,6.079844],[101.111497,6.077187],[101.110367,6.073551],[101.111051,6.066436],[101.104715,6.062736],[101.1054,6.060617],[101.10033,6.050244],[101.102865,6.048188],[101.105502,6.048378],[101.106393,6.045089],[101.114408,6.039081],[101.112524,6.031618],[101.10814,6.029024],[101.111257,6.019822],[101.108106,6.01685],[101.113038,6.008944],[101.108722,6.005497],[101.108756,6.002493],[101.106222,6.000311],[101.106967,5.990359],[101.114822,5.988524],[101.113962,5.986512],[101.115893,5.984518],[101.123557,5.981641],[101.124436,5.977001],[101.119486,5.974141],[101.118721,5.9701],[101.11509,5.967648],[101.11163,5.957554],[101.109279,5.959336],[101.1015,5.951448],[101.095135,5.950495],[101.099684,5.942272],[101.092211,5.933043],[101.091504,5.925755],[101.0877,5.925878],[101.089401,5.920319],[101.086993,5.916862],[101.086802,5.910897],[101.085024,5.90915],[101.079787,5.915396],[101.075047,5.918273],[101.070708,5.917391],[101.063426,5.919738],[101.061572,5.919456],[101.060158,5.916032],[101.056124,5.916173],[101.055341,5.911514],[101.053066,5.910279],[101.046835,5.912802],[101.044465,5.916138],[101.037068,5.918044],[101.032653,5.914867],[101.028142,5.914761],[101.025848,5.912997],[101.026479,5.90675],[101.028811,5.905479],[101.029442,5.901827],[101.025256,5.898774],[101.02237,5.891415],[101.019292,5.890038],[101.018623,5.88575],[101.014208,5.882415],[101.013042,5.874563],[101.00899,5.873733],[101.009927,5.857216],[101.006066,5.851658],[101.011915,5.837487],[101.009143,5.836728],[101.006811,5.831681],[101.001632,5.828823],[101.00232,5.824659],[100.999529,5.822912],[100.999281,5.818217],[100.991998,5.811759],[100.984181,5.808971],[100.984582,5.802953],[100.987143,5.801171],[100.988806,5.796442],[100.9894814,5.7839133]]]}}]}