{"type":"FeatureCollection","name":"p95-subset","crs":{"type":"name","properties":{"name":"urn:ogc:def:crs:EPSG::32647"}},"features":[{"type":"Feature","properties":{"building":"yes","height":6,"heightSource":"default"},"geometry":{"type":"MultiPolygon","coordinates":[[[[749782.98,692749.64],[749774.33,692760.07],[749778.07,692763.14],[749780.88,692759.75],[749783.36,692761.79],[749789.21,692754.73],[749782.98,692749.64]]]]}},{"type":"Feature","properties":{"building":"yes","height":6,"heightSource":"default"},"geometry":{"type":"MultiPolygon","coordinates":[[[[749791.57,692754.77],[749776.51,692771.51],[749782.44,692776.79],[749797.51,692760.04],[749791.57,692754.77]]]]}},{"type":"Feature","properties":{"building":"yes","height":6,"heightSource":"default"},"geometry":{"type":"MultiPolygon","coordinates":[[[[749791.32,692778.21],[749782.82,692787.32],[749788.77,692792.8],[749797.27,692783.69],[749791.32,692778.21]]]]}},{"type":"Feature","properties":{"building":"yes","height":6,"heightSource":"default"},"geometry":{"type":"MultiPolygon","coordinates":[[[[749807.72,692763.02],[749793.63,692777.11],[749798.62,692782.04],[749812.72,692767.94],[749807.72,692763.02]]]]}},{"type":"Feature","properties":{"building":"yes","height":6,"heightSource":"default"},"geometry":{"type":"MultiPolygon","coordinates":[[[[749754.17,692939.83],[749743.89,692949.68],[749747.17,692953.06],[749757.46,692943.22],[749754.17,692939.83]]]]}},{"type":"Feature","properties":{"building":"yes","height":6,"heightSource":"default"},"geometry":{"type":"MultiPolygon","coordinates":[[[[749754.45,692928.04],[749748.98,692933.04],[749754.6,692939.1],[749760.07,692934.12],[749754.45,692928.04]]]]}},{"type":"Feature","properties":{"building":"yes","height":6,"heightSource":"default"},"geometry":{"type":"MultiPolygon","coordinates":[[[[749764.22,692918.2],[749759.05,692923.17],[749764.96,692929.25],[749770.13,692924.27],[749764.22,692918.2]]]]}},{"type":"Feature","properties":{"building":"yes","height":6,"heightSource":"default"},"geometry":{"type":"MultiPolygon","coordinates":[[[[749740.87,692892.66],[749721.57,692910.64],[749728.92,692918.43],[749748.22,692900.44],[749740.87,692892.66]]]]}},{"type":"Feature","properties":{"building":"yes","height":6,"heightSource":"default"},"geometry":{"type":"MultiPolygon","coordinates":[[[[749743.22,692914.94],[749738.23,692920.08],[749743.63,692925.26],[749748.64,692920.13],[749743.22,692914.94]]]]}},{"type":"Feature","properties":{"building":"yes","height":6,"heightSource":"default"},"geometry":{"type":"MultiPolygon","coordinates":[[[[749742.38,692938.9],[749737.04,692943.93],[749741.92,692949.04],[749747.26,692944.01],[749742.38,692938.9]]]]}},{"type":"Feature","properties":{"building":"yes","height":6,"heightSource":"default"},"geometry":{"type":"MultiPolygon","coordinates":[[[[749731.21,692930.52],[749726.66,692935.13],[749734.14,692942.39],[749738.67,692937.77],[749731.21,692930.52]]]]}},{"type":"Feature","properties":{"building":"yes","height":6,"heightSource":"default"},"geometry":{"type":"MultiPolygon","coordinates":[[[[749718.94,692917.79],[749714.91,692921.66],[749724.44,692931.44],[749728.48,692927.56],[749718.94,692917.79]]]]}},{"type":"Feature","properties":{"building":"yes","height":6,"heightSource":"default"},"geometry":{"type":"MultiPolygon","coordinates":[[[[749728.27,692957.79],[749722.89,692962.72],[749729.61,692969.97],[749734.99,692965.05],[749728.27,692957.79]]]]}},{"type":"Feature","properties":{"building":"yes","height":6,"heightSource":"default"},"geometry":{"type":"MultiPolygon","coordinates":[[[[749723.41,692948.77],[749717.24,692954.94],[749722.7,692960.35],[749728.87,692954.18],[749723.41,692948.77]]]]}},{"type":"Feature","properties":{"building":"yes","height":6,"heightSource":"default"},"geometry":{"type":"MultiPolygon","coordinates":[[[[749702.48,692930.77],[749696.39,692937.15],[749702.53,692942.92],[749708.61,692936.54],[749702.48,692930.77]]]]}},{"type":"Feature","properties":{"building":"yes","height":6,"heightSource":"default"},"geometry":{"type":"MultiPolygon","coordinates":[[[[749702.6,692903.48],[749683.07,692921.54],[749690.14,692929.08],[749709.66,692911.02],[749702.6,692903.48]]]]}},{"type":"Feature","properties":{"building":"yes","height":6,"heightSource":"default"},"geometry":{"type":"MultiPolygon","coordinates":[[[[749728.83,692878.22],[749708.12,692897.31],[749715.45,692905.16],[749736.16,692886.08],[749728.83,692878.22]]]]}},{"type":"Feature","properties":{"building":"yes","height":6,"heightSource":"default"},"geometry":{"type":"MultiPolygon","coordinates":[[[[749772.57,692841.17],[749766.39,692846.46],[749771.06,692851.85],[749777.24,692846.57],[749772.57,692841.17]]]]}},{"type":"Feature","properties":{"building":"yes","height":6,"heightSource":"default"},"geometry":{"type":"MultiPolygon","coordinates":[[[[749766,692867.62],[749757.05,692875.55],[749762.32,692881.41],[749771.26,692873.48],[749766,692867.62]]]]}},{"type":"Feature","properties":{"building":"yes","height":6,"heightSource":"default"},"geometry":{"type":"MultiPolygon","coordinates":[[[[749761.03,692849.47],[749739.85,692869.87],[749747.89,692878.08],[749769.05,692857.68],[749761.03,692849.47]]]]}},{"type":"Feature","properties":{"building":"yes","height":6,"heightSource":"default"},"geometry":{"type":"MultiPolygon","coordinates":[[[[749874.76,692812.49],[749869.06,692819.3],[749877.49,692826.26],[749883.2,692819.46],[749874.76,692812.49]]]]}},{"type":"Feature","properties":{"building":"yes","height":6,"heightSource":"default"},"geometry":{"type":"MultiPolygon","coordinates":[[[[749825.81,692819.13],[749815.67,692828.02],[749821.44,692834.5],[749831.57,692825.62],[749825.81,692819.13]]]]}},{"type":"Feature","properties":{"building":"yes","height":6,"heightSource":"default"},"geometry":{"type":"MultiPolygon","coordinates":[[[[749839.97,692806.44],[749831.1,692814],[749836.94,692820.75],[749845.8,692813.19],[749839.97,692806.44]]]]}},{"type":"Feature","properties":{"building":"yes","height":6,"heightSource":"default"},"geometry":{"type":"MultiPolygon","coordinates":[[[[749794.29,692811.11],[749781.04,692823.81],[749807.65,692851.2],[749820.9,692838.51],[749794.29,692811.11]]]]}},{"type":"Feature","properties":{"building":"yes","height":6,"heightSource":"default"},"geometry":{"type":"MultiPolygon","coordinates":[[[[749572.06,692807.5],[749567,692814.3],[749578.92,692823.06],[749583.98,692816.26],[749572.06,692807.5]]]]}},{"type":"Feature","properties":{"building":"yes","height":6,"heightSource":"default"},"geometry":{"type":"MultiPolygon","coordinates":[[[[749547.32,692779.81],[749538.69,692783.03],[749540.95,692789.02],[749542.85,692788.31],[749545.57,692795.5],[749550.04,692793.84],[749547.32,692786.65],[749549.57,692785.82],[749547.32,692779.81]]]]}},{"type":"Feature","properties":{"building":"yes","height":6,"heightSource":"default"},"geometry":{"type":"MultiPolygon","coordinates":[[[[749460.43,692805.55],[749463.63,692814.87],[749475.23,692810.93],[749472.03,692801.62],[749460.43,692805.55]]]]}},{"type":"Feature","properties":{"building":"yes","height":6,"heightSource":"default"},"geometry":{"type":"MultiPolygon","coordinates":[[[[749471.28,692837.3],[749473.66,692843.51],[749486.75,692838.55],[749484.37,692832.35],[749471.28,692837.3]]]]}},{"type":"Feature","properties":{"building":"yes","height":6,"heightSource":"default"},"geometry":{"type":"MultiPolygon","coordinates":[[[[749462.72,692826.8],[749454.98,692829.23],[749459.15,692842.31],[749466.89,692839.86],[749462.72,692826.8]]]]}},{"type":"Feature","properties":{"building":"yes","height":6,"heightSource":"default"},"geometry":{"type":"MultiPolygon","coordinates":[[[[749482.65,692817.88],[749465.18,692823.78],[749468.41,692833.25],[749485.89,692827.36],[749482.65,692817.88]]]]}},{"type":"Feature","properties":{"building":"yes","height":6,"heightSource":"default"},"geometry":{"type":"MultiPolygon","coordinates":[[[[749534.25,692840.08],[749526.85,692843.33],[749528.59,692847.22],[749535.98,692843.96],[749534.25,692840.08]]]]}},{"type":"Feature","properties":{"building":"yes","height":6,"heightSource":"default"},"geometry":{"type":"MultiPolygon","coordinates":[[[[749538.12,692845.92],[749529.46,692849.93],[749535.49,692862.79],[749544.16,692858.78],[749538.12,692845.92]]]]}},{"type":"Feature","properties":{"building":"yes","height":6,"heightSource":"default"},"geometry":{"type":"MultiPolygon","coordinates":[[[[749544.91,692839.24],[749538.94,692842.19],[749545.34,692854.98],[749551.32,692852.03],[749544.91,692839.24]]]]}},{"type":"Feature","properties":{"building":"yes","height":6,"heightSource":"default"},"geometry":{"type":"MultiPolygon","coordinates":[[[[749491.07,692844.91],[749495.34,692854.6],[749527.7,692840.51],[749523.42,692830.81],[749491.07,692844.91]]]]}},{"type":"Feature","properties":{"building":"yes","height":6,"heightSource":"default"},"geometry":{"type":"MultiPolygon","coordinates":[[[[749488.09,692847.99],[749478.24,692852.5],[749487.21,692871.85],[749497.06,692867.35],[749488.09,692847.99]]]]}},{"type":"Feature","properties":{"building":"yes","height":6,"heightSource":"default"},"geometry":{"type":"MultiPolygon","coordinates":[[[[749463.5,692885.71],[749453.32,692889.65],[749455.93,692896.35],[749466.12,692892.41],[749463.5,692885.71]]]]}},{"type":"Feature","properties":{"building":"yes","height":6,"heightSource":"default"},"geometry":{"type":"MultiPolygon","coordinates":[[[[749480.49,692869.79],[749463.47,692877.16],[749467.11,692885.46],[749484.13,692878.09],[749480.49,692869.79]]]]}},{"type":"Feature","properties":{"building":"yes","height":6,"heightSource":"default"},"geometry":{"type":"MultiPolygon","coordinates":[[[[749489.55,692887.31],[749475.56,692893.14],[749478.72,692900.59],[749492.7,692894.76],[749489.55,692887.31]]]]}},{"type":"Feature","properties":{"building":"yes","height":6,"heightSource":"default"},"geometry":{"type":"MultiPolygon","coordinates":[[[[749502.75,692891.57],[749496.83,692893.98],[749500.79,692903.58],[749506.71,692901.17],[749502.75,692891.57]]]]}},{"type":"Feature","properties":{"building":"yes","height":6,"heightSource":"default"},"geometry":{"type":"MultiPolygon","coordinates":[[[[749513.45,692886.97],[749504.3,692890.69],[749507.23,692897.75],[749516.36,692894.03],[749513.45,692886.97]]]]}},{"type":"Feature","properties":{"building":"yes","height":6,"heightSource":"default"},"geometry":{"type":"MultiPolygon","coordinates":[[[[749511.49,692877.51],[749491.64,692885.47],[749494.67,692892.95],[749514.52,692884.99],[749511.49,692877.51]]]]}},{"type":"Feature","properties":{"building":"yes","height":6,"heightSource":"default"},"geometry":{"type":"MultiPolygon","coordinates":[[[[749517.81,692891.48],[749521.05,692900.83],[749532.13,692897.05],[749528.89,692887.7],[749517.81,692891.48]]]]}},{"type":"Feature","properties":{"building":"yes","height":6,"heightSource":"default"},"geometry":{"type":"MultiPolygon","coordinates":[[[[749503.83,692916.34],[749505.91,692921.37],[749515.57,692917.43],[749513.5,692912.4],[749503.83,692916.34]]]]}},{"type":"Feature","properties":{"building":"yes","height":6,"heightSource":"default"},"geometry":{"type":"MultiPolygon","coordinates":[[[[749503.37,692919.52],[749498.3,692921.6],[749506.23,692940.59],[749511.3,692938.5],[749503.37,692919.52]]]]}},{"type":"Feature","properties":{"building":"yes","height":6,"heightSource":"default"},"geometry":{"type":"MultiPolygon","coordinates":[[[[749510.88,692932.6],[749513.32,692938.2],[749542.62,692925.64],[749540.19,692920.04],[749510.88,692932.6]]]]}},{"type":"Feature","properties":{"building":"yes","height":6,"heightSource":"default"},"geometry":{"type":"MultiPolygon","coordinates":[[[[749500.37,692951.25],[749502.77,692959.15],[749509.22,692957.22],[749510.16,692960.3],[749515.93,692958.57],[749514.99,692955.49],[749518.11,692954.56],[749515.71,692946.65],[749500.37,692951.25]]]]}},{"type":"Feature","properties":{"building":"yes","height":6,"heightSource":"default"},"geometry":{"type":"MultiPolygon","coordinates":[[[[749601.99,692909.54],[749595.87,692916.07],[749602.34,692922.04],[749608.45,692915.51],[749601.99,692909.54]]]]}},{"type":"Feature","properties":{"building":"yes","height":6,"heightSource":"default"},"geometry":{"type":"MultiPolygon","coordinates":[[[[749587.29,692892.3],[749572.84,692902.11],[749577.39,692908.7],[749591.83,692898.89],[749587.29,692892.3]]]]}},{"type":"Feature","properties":{"building":"yes","height":6,"heightSource":"default"},"geometry":{"type":"MultiPolygon","coordinates":[[[[749570.68,692853.95],[749563.33,692860.85],[749596.63,692895.8],[749603.97,692888.89],[749570.68,692853.95]]]]}},{"type":"Feature","properties":{"building":"yes","height":6,"heightSource":"default"},"geometry":{"type":"MultiPolygon","coordinates":[[[[749609.16,692813.11],[749601.91,692819.93],[749614.12,692832.75],[749621.37,692825.94],[749609.16,692813.11]]]]}},{"type":"Feature","properties":{"building":"yes","height":6,"heightSource":"default"},"geometry":{"type":"MultiPolygon","coordinates":[[[[749635,692809.1],[749629.11,692814.64],[749637.46,692823.41],[749643.37,692817.87],[749635,692809.1]]]]}},{"type":"Feature","properties":{"building":"yes","height":6,"heightSource":"default"},"geometry":{"type":"MultiPolygon","coordinates":[[[[749646.78,692780.24],[749641.7,692785.02],[749652.91,692796.77],[749655.5,692794.34],[749651.56,692790.21],[749654.05,692787.87],[749646.78,692780.24]]]]}},{"type":"Feature","properties":{"building":"yes","height":6,"heightSource":"default"},"geometry":{"type":"MultiPolygon","coordinates":[[[[749673.25,692770.48],[749667.24,692776.12],[749673.94,692783.17],[749679.95,692777.51],[749673.25,692770.48]]]]}},{"type":"Feature","properties":{"building":"yes","height":6,"heightSource":"default"},"geometry":{"type":"MultiPolygon","coordinates":[[[[749663.87,692761.88],[749657.64,692767.73],[749665.37,692775.83],[749671.58,692769.98],[749663.87,692761.88]]]]}},{"type":"Feature","properties":{"building":"yes","height":6,"heightSource":"default"},"geometry":{"type":"MultiPolygon","coordinates":[[[[749658.26,692770.55],[749651.25,692777.15],[749663.66,692790.19],[749670.67,692783.6],[749658.26,692770.55]]]]}},{"type":"Feature","properties":{"building":"yes","height":6,"heightSource":"default"},"geometry":{"type":"MultiPolygon","coordinates":[[[[749688.74,692740.9],[749680.09,692749.42],[749687.05,692756.37],[749695.7,692747.86],[749688.74,692740.9]]]]}},{"type":"Feature","properties":{"building":"yes","height":6,"heightSource":"default"},"geometry":{"type":"MultiPolygon","coordinates":[[[[749712.75,692717.92],[749710.65,692720.43],[749717.47,692726.05],[749719.56,692723.55],[749712.75,692717.92]]]]}},{"type":"Feature","properties":{"building":"yes","height":6,"heightSource":"default"},"geometry":{"type":"MultiPolygon","coordinates":[[[[749719.24,692709.25],[749713,692716.71],[749720.23,692722.68],[749726.47,692715.2],[749719.24,692709.25]]]]}},{"type":"Feature","properties":{"building":"yes","height":6,"heightSource":"default"},"geometry":{"type":"MultiPolygon","coordinates":[[[[749751.38,692726.71],[749738.24,692742.43],[749741.58,692745.18],[749754.71,692729.46],[749751.38,692726.71]]]]}},{"type":"Feature","properties":{"building":"yes","height":6,"heightSource":"default"},"geometry":{"type":"MultiPolygon","coordinates":[[[[749757.24,692746.13],[749754.01,692750.01],[749760.32,692755.22],[749763.55,692751.35],[749757.24,692746.13]]]]}},{"type":"Feature","properties":{"building":"yes","height":6,"heightSource":"default"},"geometry":{"type":"MultiPolygon","coordinates":[[[[749754.85,692731.3],[749742.98,692745.52],[749750.3,692751.56],[749762.19,692737.35],[749754.85,692731.3]]]]}},{"type":"Feature","properties":{"building":"yes","height":6,"heightSource":"default"},"geometry":{"type":"MultiPolygon","coordinates":[[[[749767.54,692732.57],[749765.78,692734.71],[749773.25,692740.78],[749775.01,692738.65],[749767.54,692732.57]]]]}},{"type":"Feature","properties":{"building":"yes","height":6,"heightSource":"default"},"geometry":{"type":"MultiPolygon","coordinates":[[[[749776.08,692739.51],[749773.47,692742.68],[749780.38,692748.31],[749783,692745.14],[749776.08,692739.51]]]]}},{"type":"Feature","properties":{"building":"yes","height":6,"heightSource":"default"},"geometry":{"type":"MultiPolygon","coordinates":[[[[749772.32,692744.21],[749761.12,692757.58],[749767.53,692762.88],[749778.73,692749.5],[749772.32,692744.21]]]]}},{"type":"Feature","properties":{"building":"yes","height":6,"heightSource":"default"},"geometry":{"type":"MultiPolygon","coordinates":[[[[749610.51,692757.23],[749606.06,692762.41],[749615.23,692770.18],[749619.68,692765.01],[749610.51,692757.23]]]]}},{"type":"Feature","properties":{"building":"yes","height":6,"heightSource":"default"},"geometry":{"type":"MultiPolygon","coordinates":[[[[749629.92,692765.58],[749623.79,692771.05],[749630.14,692778.08],[749636.28,692772.61],[749629.92,692765.58]]]]}},{"type":"Feature","properties":{"building":"yes","height":6,"heightSource":"default"},"geometry":{"type":"MultiPolygon","coordinates":[[[[749707.38,692688.1],[749691.74,692703.27],[749694.98,692706.56],[749710.62,692691.4],[749707.38,692688.1]]]]}},{"type":"Feature","properties":{"building":"yes","height":6,"heightSource":"default"},"geometry":{"type":"MultiPolygon","coordinates":[[[[749702.21,692701.8],[749695.78,692708.02],[749700.44,692712.78],[749706.87,692706.55],[749702.21,692701.8]]]]}},{"type":"Feature","properties":{"building":"yes","height":6,"heightSource":"default"},"geometry":{"type":"MultiPolygon","coordinates":[[[[749711.52,692692.7],[749703.46,692700.51],[749710.12,692707.29],[749718.18,692699.48],[749711.52,692692.7]]]]}},{"type":"Feature","properties":{"building":"yes","height":6,"heightSource":"default"},"geometry":{"type":"MultiPolygon","coordinates":[[[[749696.61,692680.62],[749680.37,692696.35],[749687.4,692703.51],[749703.63,692687.78],[749696.61,692680.62]]]]}},{"type":"Feature","properties":{"building":"yes","height":6,"heightSource":"default"},"geometry":{"type":"MultiPolygon","coordinates":[[[[749688.01,692705.5],[749683.22,692711.65],[749694.84,692720.57],[749699.63,692714.42],[749688.01,692705.5]]]]}},{"type":"Feature","properties":{"building":"yes","height":6,"heightSource":"default"},"geometry":{"type":"MultiPolygon","coordinates":[[[[749668.28,692701.37],[749662.51,692708.78],[749673.93,692717.53],[749679.7,692710.11],[749668.28,692701.37]]]]}},{"type":"Feature","properties":{"building":"yes","height":6,"heightSource":"default"},"geometry":{"type":"MultiPolygon","coordinates":[[[[749665.94,692724.71],[749662.52,692729.1],[749665.35,692731.27],[749663.17,692734.08],[749668.86,692738.45],[749674.46,692731.25],[749665.94,692724.71]]]]}},{"type":"Feature","properties":{"building":"yes","height":6,"heightSource":"default"},"geometry":{"type":"MultiPolygon","coordinates":[[[[749675.47,692719.91],[749670.48,692726.05],[749680.83,692734.35],[749685.83,692728.2],[749675.47,692719.91]]]]}},{"type":"Feature","properties":{"building":"yes","height":6,"heightSource":"default"},"geometry":{"type":"MultiPolygon","coordinates":[[[[749642.63,692725.51],[749638.06,692731.22],[749648.71,692739.67],[749653.29,692733.96],[749642.63,692725.51]]]]}},{"type":"Feature","properties":{"building":"yes","height":6,"heightSource":"default"},"geometry":{"type":"MultiPolygon","coordinates":[[[[749659.52,692734.87],[749653.02,692741.38],[749662.33,692750.57],[749668.84,692744.06],[749659.52,692734.87]]]]}},{"type":"Feature","properties":{"building":"yes","height":6,"heightSource":"default"},"geometry":{"type":"MultiPolygon","coordinates":[[[[749648.06,692744.11],[749639.11,692752.93],[749648.42,692762.26],[749657.37,692753.45],[749648.06,692744.11]]]]}},{"type":"Feature","properties":{"building":"yes","height":6,"heightSource":"default"},"geometry":{"type":"MultiPolygon","coordinates":[[[[749637.41,692732.86],[749627.43,692742.7],[749636.51,692751.81],[749646.5,692741.97],[749637.41,692732.86]]]]}},{"type":"Feature","properties":{"building":"yes","height":6,"heightSource":"default"},"geometry":{"type":"MultiPolygon","coordinates":[[[[749600.02,692762.2],[749593.92,692768.52],[749605.75,692779.79],[749611.85,692773.45],[749600.02,692762.2]]]]}},{"type":"Feature","properties":{"building":"yes","height":6,"heightSource":"default"},"geometry":{"type":"MultiPolygon","coordinates":[[[[749614.78,692782.17],[749606.73,692790.69],[749613.1,692796.64],[749621.16,692788.12],[749614.78,692782.17]]]]}},{"type":"Feature","properties":{"building":"yes","height":6,"heightSource":"default"},"geometry":{"type":"MultiPolygon","coordinates":[[[[749582.65,692796.48],[749596.26,692808.93],[749607.52,692796.78],[749593.92,692784.34],[749582.65,692796.48]]]]}},{"type":"Feature","properties":{"building":"yes","height":6,"heightSource":"default"},"geometry":{"type":"MultiPolygon","coordinates":[[[[749588.47,692720.42],[749582.86,692726.6],[749597.6,692739.77],[749603.2,692733.58],[749588.47,692720.42]]]]}},{"type":"Feature","properties":{"building":"yes","height":6,"heightSource":"default"},"geometry":{"type":"MultiPolygon","coordinates":[[[[749585.75,692731.31],[749580.48,692737.13],[749599.61,692754.23],[749604.89,692748.42],[749585.75,692731.31]]]]}},{"type":"Feature","properties":{"building":"yes","height":6,"heightSource":"default"},"geometry":{"type":"MultiPolygon","coordinates":[[[[749612.57,692693.03],[749606.36,692699.88],[749612.75,692705.6],[749607.16,692711.77],[749618.74,692722.12],[749613.23,692728.19],[749620.16,692734.38],[749637.46,692715.28],[749612.57,692693.03]]]]}},{"type":"Feature","properties":{"building":"yes","height":6,"heightSource":"default"},"geometry":{"type":"MultiPolygon","coordinates":[[[[749626.67,692674.97],[749624.09,692678.17],[749638.79,692689.84],[749641.37,692686.65],[749626.67,692674.97]]]]}},{"type":"Feature","properties":{"building":"yes","height":6,"heightSource":"default"},"geometry":{"type":"MultiPolygon","coordinates":[[[[749644.95,692669.99],[749641.18,692673.85],[749647.37,692679.81],[749651.14,692675.96],[749644.95,692669.99]]]]}},{"type":"Feature","properties":{"building":"yes","height":6,"heightSource":"default"},"geometry":{"type":"MultiPolygon","coordinates":[[[[749661.19,692657.82],[749657.28,692661.82],[749663.23,692667.57],[749667.14,692663.57],[749661.19,692657.82]]]]}},{"type":"Feature","properties":{"building":"yes","height":6,"heightSource":"default"},"geometry":{"type":"MultiPolygon","coordinates":[[[[749656.19,692664.06],[749649.8,692670.6],[749655.32,692675.94],[749661.72,692669.41],[749656.19,692664.06]]]]}},{"type":"Feature","properties":{"building":"yes","height":6,"heightSource":"default"},"geometry":{"type":"MultiPolygon","coordinates":[[[[749670.61,692661.99],[749658.96,692673.89],[749665.4,692680.11],[749677.04,692668.21],[749670.61,692661.99]]]]}},{"type":"Feature","properties":{"building":"yes","height":6,"heightSource":"default"},"geometry":{"type":"MultiPolygon","coordinates":[[[[749680,692668.23],[749674.66,692673.68],[749680.63,692679.44],[749685.96,692673.98],[749680,692668.23]]]]}},{"type":"Feature","properties":{"building":"yes","height":6,"heightSource":"default"},"geometry":{"type":"MultiPolygon","coordinates":[[[[749673.74,692675.06],[749667.7,692681.23],[749673.5,692686.83],[749679.54,692680.66],[749673.74,692675.06]]]]}},{"type":"Feature","properties":{"building":"yes","height":6,"heightSource":"default"},"geometry":{"type":"MultiPolygon","coordinates":[[[[749398.84,692280.25],[749398.81,692287.77],[749407.57,692287.81],[749407.6,692280.29],[749398.84,692280.25]]]]}},{"type":"Feature","properties":{"building":"yes","height":6,"heightSource":"default"},"geometry":{"type":"MultiPolygon","coordinates":[[[[749423.45,692256.03],[749423.1,692266.2],[749431.79,692266.48],[749432.12,692256.31],[749423.45,692256.03]]]]}},{"type":"Feature","properties":{"building":"yes","height":6,"heightSource":"default"},"geometry":{"type":"MultiPolygon","coordinates":[[[[749388.27,692254.11],[749387.63,692266.06],[749406.04,692267.03],[749406.68,692255.07],[749388.27,692254.11]]]]}},{"type":"Feature","properties":{"building":"yes","height":6,"heightSource":"default"},"geometry":{"type":"MultiPolygon","coordinates":[[[[749452.75,692312.63],[749453.96,692322.89],[749464.95,692321.61],[749463.74,692311.35],[749452.75,692312.63]]]]}},{"type":"Feature","properties":{"building":"yes","height":6,"heightSource":"default"},"geometry":{"type":"MultiPolygon","coordinates":[[[[749406.28,692312.29],[749408.09,692322.89],[749418.34,692321.17],[749416.54,692310.56],[749406.28,692312.29]]]]}},{"type":"Feature","properties":{"building":"yes","height":6,"heightSource":"default"},"geometry":{"type":"MultiPolygon","coordinates":[[[[749385.47,692319.42],[749386.58,692328.16],[749403.52,692326.02],[749402.39,692317.28],[749385.47,692319.42]]]]}},{"type":"Feature","properties":{"building":"yes","height":6,"heightSource":"default"},"geometry":{"type":"MultiPolygon","coordinates":[[[[749386.11,692343.46],[749402,692342.06],[749400.75,692328.23],[749384.86,692329.63],[749386.11,692343.46]]]]}},{"type":"Feature","properties":{"building":"yes","height":6,"heightSource":"default"},"geometry":{"type":"MultiPolygon","coordinates":[[[[749382.49,692356.58],[749379.91,692365.43],[749392.96,692369.17],[749395.53,692360.32],[749382.49,692356.58]]]]}},{"type":"Feature","properties":{"building":"yes","height":6,"heightSource":"default"},"geometry":{"type":"MultiPolygon","coordinates":[[[[749377.53,692368.06],[749374.99,692379.07],[749395.47,692383.73],[749398,692372.72],[749377.53,692368.06]]]]}},{"type":"Feature","properties":{"building":"yes","height":6,"heightSource":"default"},"geometry":{"type":"MultiPolygon","coordinates":[[[[749371.36,692387.94],[749369.38,692399.44],[749378.11,692405.67],[749383.62,692398.59],[749380.61,692396.02],[749381.88,692389.73],[749371.36,692387.94]]]]}},{"type":"Feature","properties":{"building":"yes","height":6,"heightSource":"default"},"geometry":{"type":"MultiPolygon","coordinates":[[[[749405.91,692397.38],[749391.12,692417.53],[749401.65,692425.15],[749416.44,692405],[749405.91,692397.38]]]]}},{"type":"Feature","properties":{"building":"yes","height":6,"heightSource":"default"},"geometry":{"type":"MultiPolygon","coordinates":[[[[749419.67,692409.24],[749412.95,692419.39],[749420.06,692424.04],[749426.79,692413.89],[749419.67,692409.24]]]]}},{"type":"Feature","properties":{"building":"yes","height":6,"heightSource":"default"},"geometry":{"type":"MultiPolygon","coordinates":[[[[749433.98,692429.51],[749427.85,692439.51],[749436.23,692444.57],[749442.36,692434.57],[749433.98,692429.51]]]]}},{"type":"Feature","properties":{"building":"yes","height":6,"heightSource":"default"},"geometry":{"type":"MultiPolygon","coordinates":[[[[749453,692428.12],[749438.8,692448.7],[749445.77,692453.43],[749459.96,692432.85],[749453,692428.12]]]]}},{"type":"Feature","properties":{"building":"yes","height":6,"heightSource":"default"},"geometry":{"type":"MultiPolygon","coordinates":[[[[749468.23,692441.3],[749456.57,692458.81],[749463.17,692463.14],[749474.83,692445.64],[749468.23,692441.3]]]]}},{"type":"Feature","properties":{"building":"yes","height":6,"heightSource":"default"},"geometry":{"type":"MultiPolygon","coordinates":[[[[749291.83,692378.6],[749281.53,692391.39],[749289.88,692398.03],[749300.18,692385.24],[749291.83,692378.6]]]]}},{"type":"Feature","properties":{"building":"yes","height":6,"heightSource":"default"},"geometry":{"type":"MultiPolygon","coordinates":[[[[749346.73,692419.84],[749336.13,692432.33],[749343.16,692438.21],[749353.75,692425.72],[749346.73,692419.84]]]]}},{"type":"Feature","properties":{"building":"yes","height":6,"heightSource":"default"},"geometry":{"type":"MultiPolygon","coordinates":[[[[749374.11,692440.75],[749364.25,692454.43],[749368.72,692457.61],[749378.58,692443.94],[749374.11,692440.75]]]]}},{"type":"Feature","properties":{"building":"yes","height":6,"heightSource":"default"},"geometry":{"type":"MultiPolygon","coordinates":[[[[749383.42,692451.56],[749373.11,692465.23],[749377.16,692468.24],[749387.46,692454.56],[749383.42,692451.56]]]]}},{"type":"Feature","properties":{"building":"yes","height":6,"heightSource":"default"},"geometry":{"type":"MultiPolygon","coordinates":[[[[749402.49,692468.9],[749393.53,692481.25],[749399.18,692485.29],[749408.15,692472.95],[749402.49,692468.9]]]]}},{"type":"Feature","properties":{"building":"yes","height":6,"heightSource":"default"},"geometry":{"type":"MultiPolygon","coordinates":[[[[749424.06,692493.76],[749417.93,692500.55],[749427.25,692508.85],[749433.37,692502.06],[749424.06,692493.76]]]]}},{"type":"Feature","properties":{"building":"yes","height":6,"heightSource":"default"},"geometry":{"type":"MultiPolygon","coordinates":[[[[749416.67,692485.33],[749410.25,692494.3],[749416.7,692498.85],[749423.13,692489.88],[749416.67,692485.33]]]]}},{"type":"Feature","properties":{"building":"yes","height":6,"heightSource":"default"},"geometry":{"type":"MultiPolygon","coordinates":[[[[749435.68,692485.11],[749428.36,692494.38],[749435.31,692499.78],[749442.62,692490.53],[749435.68,692485.11]]]]}},{"type":"Feature","properties":{"building":"yes","height":6,"heightSource":"default"},"geometry":{"type":"MultiPolygon","coordinates":[[[[749456.06,692509.53],[749441.91,692519.5],[749446.53,692525.96],[749460.68,692516],[749456.06,692509.53]]]]}},{"type":"Feature","properties":{"building":"yes","height":6,"heightSource":"default"},"geometry":{"type":"MultiPolygon","coordinates":[[[[749518.08,692638.12],[749514.23,692640.83],[749520.8,692650.01],[749524.65,692647.28],[749518.08,692638.12]]]]}},{"type":"Feature","properties":{"building":"yes","height":6,"heightSource":"default"},"geometry":{"type":"MultiPolygon","coordinates":[[[[749507.01,692622.5],[749500.21,692627.26],[749506.32,692635.92],[749513.14,692631.16],[749507.01,692622.5]]]]}},{"type":"Feature","properties":{"building":"yes","height":6,"heightSource":"default"},"geometry":{"type":"MultiPolygon","coordinates":[[[[749334.45,692219.66],[749332.76,692231.38],[749340.33,692232.45],[749342.02,692220.73],[749334.45,692219.66]]]]}},{"type":"Feature","properties":{"building":"yes","height":6,"heightSource":"default"},"geometry":{"type":"MultiPolygon","coordinates":[[[[749325.86,692251.06],[749343.34,692252.98],[749344.35,692243.97],[749326.86,692242.05],[749325.86,692251.06]]]]}},{"type":"Feature","properties":{"building":"yes","height":6,"heightSource":"default"},"geometry":{"type":"MultiPolygon","coordinates":[[[[749322.93,692222.41],[749320.48,692240.98],[749327.74,692241.93],[749330.2,692223.36],[749322.93,692222.41]]]]}},{"type":"Feature","properties":{"building":"yes","height":6,"heightSource":"default"},"geometry":{"type":"MultiPolygon","coordinates":[[[[749312.55,692221.03],[749309.34,692242.26],[749317.93,692243.54],[749321.14,692222.32],[749312.55,692221.03]]]]}},{"type":"Feature","properties":{"building":"yes","height":6,"heightSource":"default"},"geometry":{"type":"MultiPolygon","coordinates":[[[[749295.31,692224.5],[749293.17,692237.77],[749299.18,692238.72],[749301.32,692225.46],[749295.31,692224.5]]]]}},{"type":"Feature","properties":{"building":"yes","height":6,"heightSource":"default"},"geometry":{"type":"MultiPolygon","coordinates":[[[[749304.69,692218.35],[749302.85,692231.61],[749309.31,692232.49],[749311.15,692219.24],[749304.69,692218.35]]]]}},{"type":"Feature","properties":{"building":"yes","height":6,"heightSource":"default"},"geometry":{"type":"MultiPolygon","coordinates":[[[[749255.59,692241.89],[749255.01,692253.82],[749291.82,692255.61],[749292.4,692243.66],[749255.59,692241.89]]]]}},{"type":"Feature","properties":{"building":"yes","height":6,"heightSource":"default"},"geometry":{"type":"MultiPolygon","coordinates":[[[[749234.27,692263.91],[749234.22,692274.97],[749280.39,692275.17],[749280.44,692264.11],[749234.27,692263.91]]]]}},{"type":"Feature","properties":{"building":"yes","height":6,"heightSource":"default"},"geometry":{"type":"MultiPolygon","coordinates":[[[[749254.44,692304.71],[749251.75,692316.62],[749259.25,692318.29],[749258.61,692321.14],[749271.44,692323.99],[749274.75,692309.22],[749254.44,692304.71]]]]}},{"type":"Feature","properties":{"building":"yes","height":6,"heightSource":"default"},"geometry":{"type":"MultiPolygon","coordinates":[[[[749297.08,692260.64],[749297.27,692285.42],[749306.77,692285.35],[749306.58,692260.57],[749297.08,692260.64]]]]}},{"type":"Feature","properties":{"building":"yes","height":6,"heightSource":"default"},"geometry":{"type":"MultiPolygon","coordinates":[[[[749296.79,692294.71],[749297.29,692314.33],[749307.57,692314.06],[749307.07,692294.45],[749296.79,692294.71]]]]}},{"type":"Feature","properties":{"building":"yes","height":6,"heightSource":"default"},"geometry":{"type":"MultiPolygon","coordinates":[[[[749282.51,692267.21],[749282.01,692313.52],[749292.7,692313.63],[749293.2,692267.33],[749282.51,692267.21]]]]}},{"type":"Feature","properties":{"building":"yes","height":6,"heightSource":"default"},"geometry":{"type":"MultiPolygon","coordinates":[[[[749331.64,692301.64],[749333.74,692311.69],[749345.03,692309.38],[749342.95,692299.34],[749331.64,692301.64]]]]}},{"type":"Feature","properties":{"building":"yes","height":6,"heightSource":"default"},"geometry":{"type":"MultiPolygon","coordinates":[[[[749312.06,692300.23],[749312.57,692313.61],[749330.09,692312.95],[749329.58,692299.57],[749312.06,692300.23]]]]}},{"type":"Feature","properties":{"building":"yes","height":6,"heightSource":"default"},"geometry":{"type":"MultiPolygon","coordinates":[[[[749311.28,692344.77],[749306.04,692352.06],[749313.59,692357.39],[749318.82,692350.11],[749311.28,692344.77]]]]}},{"type":"Feature","properties":{"building":"yes","height":6,"heightSource":"default"},"geometry":{"type":"MultiPolygon","coordinates":[[[[749290.05,692343.35],[749299.38,692350.03],[749309.07,692336.67],[749299.74,692329.99],[749290.05,692343.35]]]]}},{"type":"Feature","properties":{"building":"yes","height":6,"heightSource":"default"},"geometry":{"type":"MultiPolygon","coordinates":[[[[749310.37,692314.09],[749306.37,692322.16],[749328.3,692332.87],[749332.29,692324.8],[749310.37,692314.09]]]]}},{"type":"Feature","properties":{"building":"yes","height":6,"heightSource":"default"},"geometry":{"type":"MultiPolygon","coordinates":[[[[749335.65,692336.91],[749327.28,692351.33],[749339.85,692358.53],[749348.22,692344.12],[749335.65,692336.91]]]]}},{"type":"Feature","properties":{"building":"yes","height":6,"heightSource":"default"},"geometry":{"type":"MultiPolygon","coordinates":[[[[749364.42,692345.66],[749361.41,692354.2],[749368.52,692356.66],[749371.52,692348.12],[749364.42,692345.66]]]]}},{"type":"Feature","properties":{"building":"yes","height":6,"heightSource":"default"},"geometry":{"type":"MultiPolygon","coordinates":[[[[749356.12,692343.63],[749353.63,692351.59],[749360.13,692353.58],[749362.62,692345.64],[749356.12,692343.63]]]]}},{"type":"Feature","properties":{"building":"yes","height":6,"heightSource":"default"},"geometry":{"type":"MultiPolygon","coordinates":[[[[749354.66,692370.4],[749347.33,692385.4],[749354.11,692388.67],[749361.45,692373.67],[749354.66,692370.4]]]]}},{"type":"Feature","properties":{"building":"yes","height":6,"heightSource":"default"},"geometry":{"type":"MultiPolygon","coordinates":[[[[749365.33,692132.92],[749363.91,692146.65],[749373,692147.57],[749374.42,692133.85],[749365.33,692132.92]]]]}},{"type":"Feature","properties":{"building":"yes","height":6,"heightSource":"default"},"geometry":{"type":"MultiPolygon","coordinates":[[[[749404.55,692126.45],[749403.87,692133.11],[749418.42,692134.59],[749419.1,692127.93],[749404.55,692126.45]]]]}},{"type":"Feature","properties":{"building":"yes","height":6,"heightSource":"default"},"geometry":{"type":"MultiPolygon","coordinates":[[[[749420.5,692111.92],[749419.33,692123.28],[749427.78,692124.13],[749428.94,692112.77],[749420.5,692111.92]]]]}},{"type":"Feature","properties":{"building":"yes","height":6,"heightSource":"default"},"geometry":{"type":"MultiPolygon","coordinates":[[[[749416.19,692149.51],[749415.04,692160.63],[749428.45,692161.99],[749429.6,692150.88],[749416.19,692149.51]]]]}},{"type":"Feature","properties":{"building":"yes","height":6,"heightSource":"default"},"geometry":{"type":"MultiPolygon","coordinates":[[[[749396.3,692182.31],[749394.35,692190.55],[749404.7,692192.96],[749406.65,692184.72],[749396.3,692182.31]]]]}},{"type":"Feature","properties":{"building":"yes","height":6,"heightSource":"default"},"geometry":{"type":"MultiPolygon","coordinates":[[[[749356.05,692185.23],[749352.17,692200.68],[749373.98,692206.09],[749377.85,692190.64],[749356.05,692185.23]]]]}},{"type":"Feature","properties":{"building":"yes","height":6,"heightSource":"default"},"geometry":{"type":"MultiPolygon","coordinates":[[[[749323.86,692179.2],[749318.86,692203.96],[749327.2,692205.62],[749332.21,692180.86],[749323.86,692179.2]]]]}},{"type":"Feature","properties":{"building":"yes","height":6,"heightSource":"default"},"geometry":{"type":"MultiPolygon","coordinates":[[[[749303.71,692169.82],[749300.97,692184.41],[749307.34,692185.59],[749310.07,692171],[749303.71,692169.82]]]]}},{"type":"Feature","properties":{"building":"yes","height":6,"heightSource":"default"},"geometry":{"type":"MultiPolygon","coordinates":[[[[749193.85,692134.4],[749190.97,692147.81],[749196.07,692148.88],[749198.94,692135.47],[749193.85,692134.4]]]]}},{"type":"Feature","properties":{"building":"yes","height":6,"heightSource":"default"},"geometry":{"type":"MultiPolygon","coordinates":[[[[749178.28,692130.49],[749174.61,692143.77],[749187.82,692147.36],[749191.47,692134.09],[749178.28,692130.49]]]]}},{"type":"Feature","properties":{"building":"yes","height":6,"heightSource":"default"},"geometry":{"type":"MultiPolygon","coordinates":[[[[749199.96,692162.15],[749196.81,692175.45],[749207.04,692177.85],[749210.2,692164.55],[749199.96,692162.15]]]]}},{"type":"Feature","properties":{"building":"yes","height":6,"heightSource":"default"},"geometry":{"type":"MultiPolygon","coordinates":[[[[749189,692157.82],[749184.04,692170.63],[749193.37,692174.19],[749198.33,692161.39],[749189,692157.82]]]]}},{"type":"Feature","properties":{"building":"yes","height":6,"heightSource":"default"},"geometry":{"type":"MultiPolygon","coordinates":[[[[749218.85,692189.37],[749215.22,692205.28],[749222.02,692206.82],[749225.66,692190.9],[749218.85,692189.37]]]]}},{"type":"Feature","properties":{"building":"yes","height":6,"heightSource":"default"},"geometry":{"type":"MultiPolygon","coordinates":[[[[749204.7,692235.76],[749193.12,692271.84],[749204.74,692275.53],[749216.33,692239.45],[749204.7,692235.76]]]]}},{"type":"Feature","properties":{"building":"yes","height":6,"heightSource":"default"},"geometry":{"type":"MultiPolygon","coordinates":[[[[749898.43,692622.93],[749901.76,692645.51],[749910.46,692644.25],[749907.14,692621.67],[749898.43,692622.93]]]]}},{"type":"Feature","properties":{"building":"yes","height":6,"heightSource":"default"},"geometry":{"type":"MultiPolygon","coordinates":[[[[749845.55,692666.36],[749846.74,692672.04],[749864.13,692668.43],[749862.94,692662.74],[749845.55,692666.36]]]]}},{"type":"Feature","properties":{"building":"yes","height":6,"heightSource":"default"},"geometry":{"type":"MultiPolygon","coordinates":[[[[749852.58,692722.14],[749837.72,692726.5],[749839.66,692733.06],[749854.53,692728.7],[749852.58,692722.14]]]]}},{"type":"Feature","properties":{"building":"yes","height":6,"heightSource":"default"},"geometry":{"type":"MultiPolygon","coordinates":[[[[749838.32,692690.96],[749841.81,692707.49],[749849.94,692705.8],[749846.45,692689.27],[749838.32,692690.96]]]]}},{"type":"Feature","properties":{"building":"yes","height":6,"heightSource":"default"},"geometry":{"type":"MultiPolygon","coordinates":[[[[749817.32,692706.06],[749793.38,692713.77],[749809.05,692725.15],[749822.17,692720.92],[749817.32,692706.06]]]]}},{"type":"Feature","properties":{"building":"yes","height":6,"heightSource":"default"},"geometry":{"type":"MultiPolygon","coordinates":[[[[749767.33,692661.74],[749744.71,692673.01],[749747.24,692678.03],[749769.86,692666.77],[749767.33,692661.74]]]]}},{"type":"Feature","properties":{"building":"yes","height":6,"heightSource":"default"},"geometry":{"type":"MultiPolygon","coordinates":[[[[749784.53,692667.43],[749755.67,692679.98],[749759.2,692687.97],[749788.05,692675.42],[749784.53,692667.43]]]]}},{"type":"Feature","properties":{"building":"yes","height":6,"heightSource":"default"},"geometry":{"type":"MultiPolygon","coordinates":[[[[749789.48,692653.87],[749792.85,692665.98],[749797.4,692664.74],[749794.04,692652.63],[749789.48,692653.87]]]]}},{"type":"Feature","properties":{"building":"yes","height":6,"heightSource":"default"},"geometry":{"type":"MultiPolygon","coordinates":[[[[749792.84,692668.64],[749796.47,692685.17],[749805.33,692683.25],[749801.69,692666.71],[749792.84,692668.64]]]]}},{"type":"Feature","properties":{"building":"yes","height":6,"heightSource":"default"},"geometry":{"type":"MultiPolygon","coordinates":[[[[749715.78,692635.27],[749704.91,692640.83],[749709.88,692650.41],[749720.74,692644.85],[749715.78,692635.27]]]]}},{"type":"Feature","properties":{"building":"yes","height":6,"heightSource":"default"},"geometry":{"type":"MultiPolygon","coordinates":[[[[749695.68,692611.88],[749679.31,692622.28],[749683.04,692628.09],[749699.42,692617.69],[749695.68,692611.88]]]]}},{"type":"Feature","properties":{"building":"yes","height":6,"heightSource":"default"},"geometry":{"type":"MultiPolygon","coordinates":[[[[749690.97,692603.46],[749671.91,692615.02],[749675.49,692620.83],[749694.53,692609.26],[749690.97,692603.46]]]]}},{"type":"Feature","properties":{"building":"yes","height":6,"heightSource":"default"},"geometry":{"type":"MultiPolygon","coordinates":[[[[749665.17,692594.05],[749653.15,692602.36],[749663.92,692617.76],[749675.95,692609.44],[749665.17,692594.05]]]]}},{"type":"Feature","properties":{"building":"yes","height":6,"heightSource":"default"},"geometry":{"type":"MultiPolygon","coordinates":[[[[749650.96,692585.58],[749643.8,692594.4],[749650.15,692599.5],[749657.32,692590.68],[749650.96,692585.58]]]]}},{"type":"Feature","properties":{"building":"yes","height":6,"heightSource":"default"},"geometry":{"type":"MultiPolygon","coordinates":[[[[749628.79,692563.08],[749623.56,692570.13],[749627.95,692573.33],[749633.17,692566.28],[749628.79,692563.08]]]]}},{"type":"Feature","properties":{"building":"yes","height":6,"heightSource":"default"},"geometry":{"type":"MultiPolygon","coordinates":[[[[749634.25,692569.88],[749625.01,692578.83],[749629.84,692583.76],[749639.09,692574.8],[749634.25,692569.88]]]]}},{"type":"Feature","properties":{"building":"yes","height":6,"heightSource":"default"},"geometry":{"type":"MultiPolygon","coordinates":[[[[749635.65,692555.28],[749650.15,692566.56],[749653.7,692562.05],[749639.2,692550.78],[749635.65,692555.28]]]]}},{"type":"Feature","properties":{"building":"yes","height":6,"heightSource":"default"},"geometry":{"type":"MultiPolygon","coordinates":[[[[749610.74,692547.07],[749606.41,692552.66],[749611.7,692556.7],[749616.03,692551.12],[749610.74,692547.07]]]]}},{"type":"Feature","properties":{"building":"yes","height":6,"heightSource":"default"},"geometry":{"type":"MultiPolygon","coordinates":[[[[749605.67,692554.27],[749598.2,692564.71],[749603.7,692568.6],[749611.16,692558.15],[749605.67,692554.27]]]]}},{"type":"Feature","properties":{"building":"yes","height":6,"heightSource":"default"},"geometry":{"type":"MultiPolygon","coordinates":[[[[749599.03,692544.36],[749591.26,692554.51],[749598.65,692560.09],[749606.43,692549.95],[749599.03,692544.36]]]]}},{"type":"Feature","properties":{"building":"yes","height":6,"heightSource":"default"},"geometry":{"type":"MultiPolygon","coordinates":[[[[750051.7,692784.79],[750056.02,692795.23],[750072.82,692788.37],[750068.5,692777.93],[750051.7,692784.79]]]]}},{"type":"Feature","properties":{"building":"yes","height":6,"heightSource":"default"},"geometry":{"type":"MultiPolygon","coordinates":[[[[750051.64,692696.74],[750039.51,692701.39],[750044.49,692714.25],[750056.62,692709.6],[750051.64,692696.74]]]]}},{"type":"Feature","properties":{"building":"yes","height":6,"heightSource":"default"},"geometry":{"type":"MultiPolygon","coordinates":[[[[750068.28,692693.86],[750072.37,692706.85],[750081.66,692703.97],[750077.55,692690.97],[750068.28,692693.86]]]]}},{"type":"Feature","properties":{"building":"yes","height":6,"heightSource":"default"},"geometry":{"type":"MultiPolygon","coordinates":[[[[750026.47,692711.82],[750030.76,692749.3],[750048.66,692747.28],[750045,692715.33],[750038.98,692716.01],[750038.35,692710.48],[750026.47,692711.82]]]]}},{"type":"Feature","properties":{"building":"yes","height":6,"heightSource":"default"},"geometry":{"type":"MultiPolygon","coordinates":[[[[750019.8,692714.69],[749984.4,692719.81],[749990.87,692764.06],[750006.96,692761.73],[750002.51,692731.38],[750005.45,692730.95],[750009.53,692758.91],[750025.93,692756.54],[750019.8,692714.69]]]]}},{"type":"Feature","properties":{"building":"yes","height":6,"heightSource":"default"},"geometry":{"type":"MultiPolygon","coordinates":[[[[750022.41,692794.99],[750014.82,692799.67],[750018.73,692805.92],[750026.32,692801.24],[750022.41,692794.99]]]]}},{"type":"Feature","properties":{"building":"yes","height":6,"heightSource":"default"},"geometry":{"type":"MultiPolygon","coordinates":[[[[750032.31,692771.88],[750018.01,692781.25],[750024.34,692790.77],[750038.64,692781.4],[750032.31,692771.88]]]]}},{"type":"Feature","properties":{"building":"yes","height":6,"heightSource":"default"},"geometry":{"type":"MultiPolygon","coordinates":[[[[750005.71,692843.8],[749999.3,692849.83],[750005.02,692855.83],[750011.43,692849.8],[750005.71,692843.8]]]]}},{"type":"Feature","properties":{"building":"yes","height":6,"heightSource":"default"},"geometry":{"type":"MultiPolygon","coordinates":[[[[749957.59,692815.35],[749948.35,692823.72],[749954.64,692830.57],[749963.88,692822.21],[749957.59,692815.35]]]]}},{"type":"Feature","properties":{"building":"yes","height":6,"heightSource":"default"},"geometry":{"type":"MultiPolygon","coordinates":[[[[749984.35,692842.16],[749979.97,692847.51],[749989.88,692855.52],[749994.25,692850.17],[749984.35,692842.16]]]]}},{"type":"Feature","properties":{"building":"yes","height":6,"heightSource":"default"},"geometry":{"type":"MultiPolygon","coordinates":[[[[749997.62,692835.95],[749991.17,692843.52],[749997.19,692848.58],[750003.65,692841.01],[749997.62,692835.95]]]]}},{"type":"Feature","properties":{"building":"yes","height":6,"heightSource":"default"},"geometry":{"type":"MultiPolygon","coordinates":[[[[750010.13,692817.35],[749986.59,692837.75],[749990.46,692842.16],[749997.62,692835.95],[750014,692821.76],[750010.13,692817.35]]]]}},{"type":"Feature","properties":{"building":"yes","height":6,"heightSource":"default"},"geometry":{"type":"MultiPolygon","coordinates":[[[[749959.59,692801.29],[749943.84,692816.26],[749947.83,692820.39],[749963.58,692805.42],[749959.59,692801.29]]]]}},{"type":"Feature","properties":{"building":"yes","height":6,"heightSource":"default"},"geometry":{"type":"MultiPolygon","coordinates":[[[[749942.01,692796.79],[749927.9,692811.75],[749933.3,692816.79],[749947.42,692801.83],[749942.01,692796.79]]]]}},{"type":"Feature","properties":{"building":"yes","height":6,"heightSource":"default"},"geometry":{"type":"MultiPolygon","coordinates":[[[[749921.42,692768.22],[749914.97,692776.62],[749919.37,692779.94],[749925.81,692771.55],[749921.42,692768.22]]]]}},{"type":"Feature","properties":{"building":"yes","height":6,"heightSource":"default"},"geometry":{"type":"MultiPolygon","coordinates":[[[[749902.98,692775.59],[749893.01,692788.57],[749895.42,692790.38],[749905.37,692777.41],[749902.98,692775.59]]]]}},{"type":"Feature","properties":{"building":"yes","height":6,"heightSource":"default"},"geometry":{"type":"MultiPolygon","coordinates":[[[[749909.43,692775.11],[749901.02,692786.07],[749907.36,692790.88],[749915.78,692779.92],[749909.43,692775.11]]]]}},{"type":"Feature","properties":{"building":"yes","height":6,"heightSource":"default"},"geometry":{"type":"MultiPolygon","coordinates":[[[[749899.28,692772.11],[749891.12,692782.74],[749893.51,692784.55],[749901.67,692773.92],[749899.28,692772.11]]]]}},{"type":"Feature","properties":{"building":"yes","height":6,"heightSource":"default"},"geometry":{"type":"MultiPolygon","coordinates":[[[[749895.58,692767.89],[749890.96,692773.92],[749894.58,692776.66],[749899.21,692770.64],[749895.58,692767.89]]]]}},{"type":"Feature","properties":{"building":"yes","height":6,"heightSource":"default"},"geometry":{"type":"MultiPolygon","coordinates":[[[[749880.47,692761.19],[749881.94,692765.78],[749886.9,692764.2],[749885.43,692759.63],[749880.47,692761.19]]]]}},{"type":"Feature","properties":{"building":"yes","height":6,"heightSource":"default"},"geometry":{"type":"MultiPolygon","coordinates":[[[[749878.6,692747.9],[749880.94,692756.62],[749886.45,692755.16],[749884.11,692746.45],[749878.6,692747.9]]]]}},{"type":"Feature","properties":{"building":"yes","height":6,"heightSource":"default"},"geometry":{"type":"MultiPolygon","coordinates":[[[[749852.59,692753.99],[749850.25,692756.98],[749871.71,692773.59],[749874.05,692770.6],[749852.59,692753.99]]]]}},{"type":"Feature","properties":{"building":"yes","height":6,"heightSource":"default"},"geometry":{"type":"MultiPolygon","coordinates":[[[[750101.23,692829.91],[750097.13,692833.75],[750103.42,692840.39],[750107.53,692836.54],[750101.23,692829.91]]]]}},{"type":"Feature","properties":{"building":"yes","height":6,"heightSource":"default"},"geometry":{"type":"MultiPolygon","coordinates":[[[[750090.7,692828.62],[750082.3,692836.48],[750087.93,692842.42],[750089.44,692841.01],[750092.28,692844.01],[750095.17,692841.31],[750096.02,692842.21],[750100.03,692838.45],[750090.7,692828.62]]]]}},{"type":"Feature","properties":{"building":"yes","height":6,"heightSource":"default"},"geometry":{"type":"MultiPolygon","coordinates":[[[[750074.74,692846.83],[750068.34,692852.81],[750077.79,692862.77],[750084.18,692856.79],[750074.74,692846.83]]]]}},{"type":"Feature","properties":{"building":"yes","height":6,"heightSource":"default"},"geometry":{"type":"MultiPolygon","coordinates":[[[[750053.94,692866.2],[750037.23,692881.85],[750041.09,692885.92],[750057.8,692870.27],[750053.94,692866.2]]]]}},{"type":"Feature","properties":{"building":"yes","height":6,"heightSource":"default"},"geometry":{"type":"MultiPolygon","coordinates":[[[[750049.15,692859.7],[750063.34,692874.65],[750070.37,692868.08],[750056.18,692853.11],[750049.15,692859.7]]]]}},{"type":"Feature","properties":{"building":"yes","height":6,"heightSource":"default"},"geometry":{"type":"MultiPolygon","coordinates":[[[[750046.32,692862.71],[750027.23,692881.88],[750032.01,692886.58],[750051.1,692867.41],[750046.32,692862.71]]]]}},{"type":"Feature","properties":{"building":"yes","height":6,"heightSource":"default"},"geometry":{"type":"MultiPolygon","coordinates":[[[[750036.9,692858.02],[750016.63,692876.81],[750022.69,692883.26],[750042.97,692864.47],[750036.9,692858.02]]]]}},{"type":"Feature","properties":{"building":"yes","height":6,"heightSource":"default"},"geometry":{"type":"MultiPolygon","coordinates":[[[[750015.69,692854.47],[750005.85,692863.05],[750010.8,692868.64],[750020.63,692860.05],[750015.69,692854.47]]]]}},{"type":"Feature","properties":{"building":"yes","height":6,"heightSource":"default"},"geometry":{"type":"MultiPolygon","coordinates":[[[[750027.02,692845.08],[750019.09,692851.46],[750028.1,692862.49],[750036.03,692856.1],[750027.02,692845.08]]]]}},{"type":"Feature","properties":{"building":"yes","height":6,"heightSource":"default"},"geometry":{"type":"MultiPolygon","coordinates":[[[[750051.14,692827.7],[750037.66,692838.49],[750044.99,692847.52],[750058.46,692836.74],[750051.14,692827.7]]]]}},{"type":"Feature","properties":{"building":"yes","height":6,"heightSource":"default"},"geometry":{"type":"MultiPolygon","coordinates":[[[[750088.66,692803.9],[750081.81,692808.03],[750088.37,692818.76],[750095.22,692814.62],[750088.66,692803.9]]]]}},{"type":"Feature","properties":{"building":"yes","height":6,"heightSource":"default"},"geometry":{"type":"MultiPolygon","coordinates":[[[[750103.63,692793.05],[750094.91,692799.06],[750101.04,692807.83],[750109.76,692801.81],[750103.63,692793.05]]]]}},{"type":"Feature","properties":{"building":"yes","height":6,"heightSource":"default"},"geometry":{"type":"MultiPolygon","coordinates":[[[[749960.81,692688.68],[749963.07,692702.37],[750016.84,692693.61],[750014.59,692679.92],[749960.81,692688.68]]]]}},{"type":"Feature","properties":{"building":"yes","height":6,"heightSource":"default"},"geometry":{"type":"MultiPolygon","coordinates":[[[[750028.09,692680.42],[750033.24,692694.31],[750039.91,692691.87],[750034.78,692677.97],[750028.09,692680.42]]]]}},{"type":"Feature","properties":{"building":"yes","height":6,"heightSource":"default"},"geometry":{"type":"MultiPolygon","coordinates":[[[[750043.26,692675.32],[750046.91,692689.64],[750056.79,692687.16],[750053.14,692672.84],[750043.26,692675.32]]]]}},{"type":"Feature","properties":{"building":"yes","height":6,"heightSource":"default"},"geometry":{"type":"MultiPolygon","coordinates":[[[[750062.59,692670.09],[750066.08,692685.3],[750078.14,692682.56],[750074.64,692667.36],[750062.59,692670.09]]]]}},{"type":"Feature","properties":{"building":"yes","height":6,"heightSource":"default"},"geometry":{"type":"MultiPolygon","coordinates":[[[[750045.53,692630.49],[750046.98,692640.07],[750059.46,692638.2],[750058.01,692628.63],[750045.53,692630.49]]]]}},{"type":"Feature","properties":{"building":"yes","height":6,"heightSource":"default"},"geometry":{"type":"MultiPolygon","coordinates":[[[[750051.49,692660.47],[750052.58,692668.48],[750058.97,692667.62],[750057.87,692659.61],[750051.49,692660.47]]]]}},{"type":"Feature","properties":{"building":"yes","height":6,"heightSource":"default"},"geometry":{"type":"MultiPolygon","coordinates":[[[[750017.95,692622.41],[750018.76,692627.37],[750030.34,692625.5],[750029.54,692620.54],[750017.95,692622.41]]]]}},{"type":"Feature","properties":{"building":"yes","height":6,"heightSource":"default"},"geometry":{"type":"MultiPolygon","coordinates":[[[[750039.8,692617.05],[750040.83,692622.4],[750050.65,692620.51],[750049.61,692615.18],[750039.8,692617.05]]]]}},{"type":"Feature","properties":{"building":"yes","height":6,"heightSource":"default"},"geometry":{"type":"MultiPolygon","coordinates":[[[[750036.05,692590.05],[750037.12,692596.77],[750038.62,692596.54],[750039.44,692601.77],[750037.94,692602],[750039.63,692612.7],[750057.16,692609.98],[750053.59,692587.32],[750036.05,692590.05]]]]}},{"type":"Feature","properties":{"building":"yes","height":6,"heightSource":"default"},"geometry":{"type":"MultiPolygon","coordinates":[[[[750016.75,692592.91],[750017.82,692603.71],[750030.74,692602.44],[750029.66,692591.64],[750016.75,692592.91]]]]}},{"type":"Feature","properties":{"building":"yes","height":6,"heightSource":"default"},"geometry":{"type":"MultiPolygon","coordinates":[[[[750030.16,692512.44],[750033.2,692528.38],[750042.01,692526.73],[750038.95,692510.79],[750030.16,692512.44]]]]}},{"type":"Feature","properties":{"building":"yes","height":6,"heightSource":"default"},"geometry":{"type":"MultiPolygon","coordinates":[[[[750045.82,692528.15],[750047.85,692540.69],[750054.33,692539.66],[750052.3,692527.12],[750045.82,692528.15]]]]}},{"type":"Feature","properties":{"building":"yes","height":6,"heightSource":"default"},"geometry":{"type":"MultiPolygon","coordinates":[[[[750046.33,692547.47],[750047.75,692558.1],[750045.32,692558.42],[750046.2,692565.06],[750055.33,692563.86],[750053.02,692546.59],[750046.33,692547.47]]]]}},{"type":"Feature","properties":{"building":"yes","height":6,"heightSource":"default"},"geometry":{"type":"MultiPolygon","coordinates":[[[[750028.53,692544.44],[750031.87,692561.71],[750042.71,692559.64],[750039.37,692542.37],[750028.53,692544.44]]]]}},{"type":"Feature","properties":{"building":"yes","height":6,"heightSource":"default"},"geometry":{"type":"MultiPolygon","coordinates":[[[[750020.85,692570.51],[750012.85,692572.11],[750015.18,692583.62],[750023.17,692582.03],[750020.85,692570.51]]]]}},{"type":"Feature","properties":{"building":"yes","height":6,"heightSource":"default"},"geometry":{"type":"MultiPolygon","coordinates":[[[[750005.92,692553.93],[750008.17,692564.47],[750019.17,692562.15],[750016.92,692551.62],[750005.92,692553.93]]]]}},{"type":"Feature","properties":{"building":"yes","height":6,"heightSource":"default"},"geometry":{"type":"MultiPolygon","coordinates":[[[[750011.63,692539.8],[750012.98,692545.01],[750026.64,692541.53],[750025.3,692536.32],[750011.63,692539.8]]]]}},{"type":"Feature","properties":{"building":"yes","height":6,"heightSource":"default"},"geometry":{"type":"MultiPolygon","coordinates":[[[[750007.46,692508.37],[750010.68,692518.55],[750017.51,692516.42],[750014.29,692506.23],[750007.46,692508.37]]]]}},{"type":"Feature","properties":{"building":"yes","height":6,"heightSource":"default"},"geometry":{"type":"MultiPolygon","coordinates":[[[[749994.25,692506.83],[749998.5,692519.98],[750003.76,692518.3],[749999.51,692505.16],[749994.25,692506.83]]]]}},{"type":"Feature","properties":{"building":"yes","height":6,"heightSource":"default"},"geometry":{"type":"MultiPolygon","coordinates":[[[[749995.34,692530.73],[749997.95,692536.23],[750007.92,692531.56],[750005.3,692526.05],[749995.34,692530.73]]]]}},{"type":"Feature","properties":{"building":"yes","height":6,"heightSource":"default"},"geometry":{"type":"MultiPolygon","coordinates":[[[[749986.71,692534.38],[749990.96,692547.82],[749997.07,692545.92],[749992.82,692532.47],[749986.71,692534.38]]]]}},{"type":"Feature","properties":{"building":"yes","height":6,"heightSource":"default"},"geometry":{"type":"MultiPolygon","coordinates":[[[[749972.32,692530.78],[749977.16,692545.84],[749986.37,692542.93],[749981.54,692527.86],[749972.32,692530.78]]]]}},{"type":"Feature","properties":{"building":"yes","height":6,"heightSource":"default"},"geometry":{"type":"MultiPolygon","coordinates":[[[[749907.06,692585.21],[749911.9,692598.95],[749921.29,692595.69],[749916.45,692581.95],[749907.06,692585.21]]]]}},{"type":"Feature","properties":{"building":"yes","height":6,"heightSource":"default"},"geometry":{"type":"MultiPolygon","coordinates":[[[[750142.73,692849.34],[750137.39,692854.9],[750143.12,692860.33],[750148.46,692854.75],[750142.73,692849.34]]]]}},{"type":"Feature","properties":{"building":"yes","height":6,"heightSource":"default"},"geometry":{"type":"MultiPolygon","coordinates":[[[[750135.42,692854.83],[750129.56,692860.95],[750140.11,692870.93],[750145.97,692864.81],[750135.42,692854.83]]]]}},{"type":"Feature","properties":{"building":"yes","height":6,"heightSource":"default"},"geometry":{"type":"MultiPolygon","coordinates":[[[[750121.27,692866.65],[750113.68,692874.57],[750125.13,692885.39],[750132.72,692877.46],[750121.27,692866.65]]]]}},{"type":"Feature","properties":{"building":"yes","height":6,"heightSource":"default"},"geometry":{"type":"MultiPolygon","coordinates":[[[[750115.22,692840.96],[750105.11,692851.51],[750118.47,692864.13],[750128.56,692853.57],[750115.22,692840.96]]]]}},{"type":"Feature","properties":{"building":"yes","height":6,"heightSource":"default"},"geometry":{"type":"MultiPolygon","coordinates":[[[[750106.55,692855.59],[750101.46,692860.9],[750111.16,692870.07],[750116.25,692864.76],[750106.55,692855.59]]]]}},{"type":"Feature","properties":{"building":"yes","height":6,"heightSource":"default"},"geometry":{"type":"MultiPolygon","coordinates":[[[[750099.55,692861.83],[750093.17,692868.47],[750103.33,692878.07],[750109.69,692871.43],[750099.55,692861.83]]]]}},{"type":"Feature","properties":{"building":"yes","height":6,"heightSource":"default"},"geometry":{"type":"MultiPolygon","coordinates":[[[[750096.91,692888.51],[750085.38,692900.55],[750097.69,692912.19],[750109.22,692900.15],[750096.91,692888.51]]]]}},{"type":"Feature","properties":{"building":"yes","height":6,"heightSource":"default"},"geometry":{"type":"MultiPolygon","coordinates":[[[[750099.28,692887.56],[750111.03,692898.68],[750123.36,692885.81],[750112.68,692875.71],[750108.61,692879.96],[750110.23,692881.5],[750109.03,692882.76],[750106.33,692880.21],[750099.28,692887.56]]]]}},{"type":"Feature","properties":{"building":"yes","height":6,"heightSource":"default"},"geometry":{"type":"MultiPolygon","coordinates":[[[[750081.82,692874.15],[750076.75,692879.28],[750079.94,692882.39],[750085.01,692877.25],[750081.82,692874.15]]]]}},{"type":"Feature","properties":{"building":"yes","height":6,"heightSource":"default"},"geometry":{"type":"MultiPolygon","coordinates":[[[[750081.71,692882.33],[750090.13,692891.06],[750096.08,692885.41],[750087.66,692876.67],[750081.71,692882.33]]]]}},{"type":"Feature","properties":{"building":"yes","height":6,"heightSource":"default"},"geometry":{"type":"MultiPolygon","coordinates":[[[[750075.43,692894.18],[750070.73,692898.95],[750075.29,692903.37],[750079.98,692898.6],[750075.43,692894.18]]]]}},{"type":"Feature","properties":{"building":"yes","height":6,"heightSource":"default"},"geometry":{"type":"MultiPolygon","coordinates":[[[[750082.36,692886.6],[750075.96,692892.48],[750081.53,692898.49],[750087.94,692892.62],[750082.36,692886.6]]]]}},{"type":"Feature","properties":{"building":"yes","height":6,"heightSource":"default"},"geometry":{"type":"MultiPolygon","coordinates":[[[[750072.51,692883.1],[750060.43,692894.55],[750065.91,692900.25],[750077.99,692888.8],[750072.51,692883.1]]]]}}]}