{"type":"FeatureCollection","features":[{"type":"Feature","properties":{"id":"TH-LAO-3950102","nameTh":"ยะลา","type":"city_municipality"},"geometry":{"type":"Polygon","coordinates":[[[101.2999851,6.5680037],[101.3005151,6.5731735],[101.3013976,6.5754909],[101.3004971,6.5766972],[101.3003166,6.5778613],[101.2994574,6.5781234],[101.2983662,6.5779386],[101.2985104,6.5785724],[101.2981666,6.5793773],[101.2987132,6.5806623],[101.2979301,6.5812551],[101.2976777,6.5836536],[101.2948137,6.5831381],[101.2934619,6.5835985],[101.2914577,6.5848476],[101.2906338,6.5848306],[101.287401,6.5799958],[101.2873367,6.5780432],[101.2884739,6.5762995],[101.2894095,6.5756728],[101.2907757,6.5756617],[101.2930845,6.5769158],[101.2943005,6.5766586],[101.295336,6.5750581],[101.2951929,6.5737282],[101.2924748,6.5708351],[101.2908602,6.5677659],[101.2895693,6.5660503],[101.2884486,6.5662263],[101.2857986,6.5688115],[101.2843885,6.569353],[101.2834143,6.569221],[101.2828216,6.5682295],[101.2826683,6.563526],[101.2814591,6.5610253],[101.2803828,6.5598578],[101.2792826,6.5598172],[101.2783459,6.5605651],[101.2778965,6.5614346],[101.2779523,6.5618951],[101.2801037,6.5640774],[101.2801582,6.5650723],[101.2796404,6.5660536],[101.2780463,6.5672007],[101.2764863,6.5674985],[101.2753418,6.5672752],[101.2744392,6.56648],[101.2739248,6.5651569],[101.2747341,6.5619355],[101.2742664,6.5605243],[101.272552,6.5596188],[101.268978,6.5592857],[101.2678858,6.558437],[101.2666476,6.5563636],[101.2662214,6.5536038],[101.2665261,6.5513612],[101.2662257,6.5496216],[101.266363,6.5463728],[101.267702,6.5421178],[101.2676505,6.5404806],[101.2669124,6.5390906],[101.2651099,6.5379053],[101.2635221,6.5378201],[101.2623505,6.5380929],[101.2603463,6.5397302],[101.2569689,6.5413205],[101.2513703,6.5417915],[101.2504025,6.5414075],[101.2498888,6.5408112],[101.2497077,6.5399517],[101.2502267,6.5389472],[101.2531384,6.537478],[101.253944,6.5367017],[101.2553298,6.5321876],[101.2562358,6.5309524],[101.2569886,6.5305666],[101.2595253,6.530285],[101.2608701,6.5294791],[101.2695239,6.5160184],[101.2728638,6.5125247],[101.2828639,6.5224074],[101.2836679,6.5266363],[101.3007858,6.5672676],[101.3007671,6.56767],[101.2999851,6.5680037]]]}}]}