{"type":"FeatureCollection","features":[{"type":"Feature","properties":{"provinceCode":"23","nameTh":"ตราด","nameEn":"Trat"},"geometry":{"type":"Polygon","coordinates":[[[102.4911673,12.7572388],[102.4888418,12.7519345],[102.4807645,12.745795],[102.4759535,12.7365898],[102.4719138,12.734731],[102.4646763,12.733147],[102.4607637,12.7360327],[102.4587054,12.7329198],[102.4453711,12.7373275],[102.4412401,12.7367987],[102.4400107,12.7309602],[102.4348122,12.7299798],[102.4308048,12.7230524],[102.4245086,12.7233341],[102.4257267,12.7162714],[102.4241282,12.7149202],[102.4241162,12.7110238],[102.4213655,12.711464],[102.4208732,12.7087858],[102.4155314,12.7070189],[102.4102532,12.7007313],[102.4076583,12.70106],[102.4071871,12.6987683],[102.4028072,12.7009391],[102.4005468,12.6987288],[102.4032015,12.6928612],[102.3931434,12.6873681],[102.3924875,12.6854499],[102.3951405,12.6817507],[102.3939093,12.6785338],[102.3856871,12.6796084],[102.3846113,12.6780445],[102.3834775,12.6715983],[102.3861511,12.6684753],[102.3865883,12.665654],[102.384456,12.6623933],[102.3875386,12.6584644],[102.387326,12.6533205],[102.3887141,12.6515151],[102.3876266,12.6486775],[102.393985,12.6397147],[102.3901654,12.6327671],[102.3917945,12.6323098],[102.3931397,12.6281708],[102.3968347,12.628573],[102.3975095,12.6219866],[102.3997729,12.6224252],[102.4015956,12.6187214],[102.4001687,12.6174909],[102.4014959,12.6149094],[102.3985109,12.6158276],[102.3963729,12.6145157],[102.3965944,12.6112263],[102.3981382,12.6105969],[102.3974679,12.6084214],[102.3945719,12.6092642],[102.3918197,12.6073645],[102.3922336,12.6100336],[102.3882821,12.6098801],[102.3892482,12.6071425],[102.3877883,12.6037879],[102.3901199,12.605844],[102.395273,12.5983618],[102.3970243,12.5993036],[102.4003717,12.5958071],[102.4001141,12.59359],[102.4031682,12.5899995],[102.4073904,12.589044],[102.4079989,12.58581],[102.4101206,12.5867478],[102.4136303,12.5845569],[102.4135424,12.5821688],[102.4158408,12.5817573],[102.4165113,12.5787246],[102.4194623,12.5792775],[102.4189409,12.5765727],[102.4236015,12.5731732],[102.422948,12.5694899],[102.4214019,12.5701302],[102.4200491,12.568611],[102.4186445,12.5697423],[102.4200565,12.5709336],[102.4171192,12.571588],[102.4168318,12.5678353],[102.4142537,12.5700984],[102.4092124,12.5687165],[102.4089793,12.5701502],[102.4052284,12.567507],[102.3994376,12.5673535],[102.3966598,12.571227],[102.3973728,12.5744209],[102.3923161,12.574135],[102.3924774,12.5765495],[102.3883588,12.5766725],[102.3869007,12.5822694],[102.3842934,12.5838246],[102.3801786,12.5831584],[102.380478,12.5852284],[102.3783034,12.5872622],[102.380575,12.5891522],[102.3755896,12.5928972],[102.3764932,12.5959125],[102.3719473,12.5977187],[102.3693238,12.5955697],[102.3676472,12.59665],[102.3655041,12.5944353],[102.3600826,12.596697],[102.3536967,12.5943643],[102.35183,12.5912825],[102.34702,12.5905191],[102.3415058,12.5859743],[102.3355919,12.5764955],[102.3310871,12.5737381],[102.3242066,12.5736018],[102.3186977,12.5701626],[102.3165209,12.5661641],[102.3116811,12.5659751],[102.3113662,12.5636907],[102.3069072,12.561896],[102.3066588,12.5568974],[102.3050622,12.5563477],[102.305952,12.5484386],[102.3128153,12.5444242],[102.316877,12.5370308],[102.3153747,12.5363935],[102.3170616,12.5346888],[102.3159966,12.5351028],[102.3160275,12.5329579],[102.3138662,12.5317133],[102.3149216,12.5304651],[102.3120806,12.5290428],[102.3148535,12.527127],[102.3144861,12.5238972],[102.3198941,12.5232185],[102.3235861,12.5209113],[102.3228036,12.519353],[102.3245189,12.5194711],[102.3243857,12.5181704],[102.3256702,12.5210993],[102.3312896,12.5200133],[102.3337881,12.5180625],[102.3338584,12.5156238],[102.3351387,12.5169982],[102.3380124,12.5136946],[102.3372146,12.5114637],[102.3345527,12.5106605],[102.3389215,12.5057807],[102.3361213,12.5040379],[102.3347252,12.4992269],[102.3328767,12.4989063],[102.3361584,12.492816],[102.3346722,12.4908736],[102.3420351,12.4813206],[102.3419353,12.4766101],[102.3398192,12.4757984],[102.3404117,12.4739434],[102.3374134,12.4708605],[102.3382665,12.4669369],[102.3366757,12.4636545],[102.3342582,12.4639184],[102.3338225,12.4615443],[102.3309547,12.461509],[102.3294736,12.4578956],[102.3259647,12.4584871],[102.3266829,12.4550743],[102.3231596,12.455392],[102.3199561,12.4526127],[102.3200895,12.4481073],[102.3240436,12.4484375],[102.3266199,12.4457404],[102.3297008,12.4454898],[102.3253868,12.4273057],[102.3312337,12.4229459],[102.3347638,12.417841],[102.3498984,12.4132245],[102.3584595,12.4053064],[102.367522,12.4029578],[102.3718156,12.3896964],[102.3711297,12.3872842],[102.3639538,12.3857821],[102.359788,12.376848],[102.3515313,12.372362],[102.3455456,12.3648925],[102.3449343,12.3613796],[102.3478141,12.3506158],[102.3472899,12.341649],[102.3383844,12.3268633],[102.3094862,12.3029854],[102.285941,12.299069],[102.2651828,12.2996129],[102.2580223,12.2932941],[102.2564732,12.2836],[102.2424374,12.2836593],[101.9487781,12.1474325],[101.9917524,12.1323126],[102.0399942,12.1307183],[102.0333937,12.0200169],[102.0999113,11.8613407],[102.2155919,11.6656313],[102.3979556,11.4412885],[102.5615507,11.3463991],[102.7569699,11.4017269],[102.9046913,11.6394699],[102.9088775,11.6504921],[102.9141851,11.6551688],[102.912757,11.660226],[102.91328,11.675768],[102.911188,11.681827],[102.912329,11.696578],[102.91057,11.717652],[102.911331,11.745531],[102.908621,11.750372],[102.902583,11.771796],[102.894595,11.781498],[102.891742,11.787337],[102.881472,11.790234],[102.885942,11.79941],[102.867351,11.805556],[102.862882,11.8128],[102.864451,11.815302],[102.8621275,11.8193397],[102.8624796,11.8221093],[102.8604368,11.8242135],[102.8510411,11.826655],[102.8479359,11.8319116],[102.8453484,11.8440961],[102.8366242,11.8505649],[102.8327871,11.8563095],[102.8192795,11.8927066],[102.821089,11.895905],[102.8219601,11.9083119],[102.8180597,11.9118478],[102.8190799,11.9168383],[102.813767,11.922422],[102.8151763,11.9335398],[102.808632,11.945382],[102.7998278,11.9497532],[102.796127,11.958157],[102.797078,11.962416],[102.7919096,11.9731974],[102.789248,11.9772341],[102.784763,11.976728],[102.780748,11.9884035],[102.776708,12.004402],[102.776033,12.014026],[102.780038,12.023605],[102.774199,12.033629],[102.774633,12.051406],[102.769567,12.067668],[102.7714,12.069495],[102.770291,12.074485],[102.764934,12.075465],[102.758131,12.080455],[102.752051,12.094044],[102.746791,12.096268],[102.735018,12.109457],[102.732509,12.124695],[102.727539,12.131556],[102.724306,12.131334],[102.717262,12.139042],[102.715862,12.143854],[102.709783,12.152854],[102.707804,12.16827],[102.7035904,12.1722511],[102.706791,12.185692],[102.712099,12.195138],[102.708383,12.20592],[102.7132796,12.222091],[102.7142639,12.2228848],[102.7168834,12.2210749],[102.7175185,12.2223609],[102.718323,12.248426],[102.713594,12.261432],[102.718757,12.273061],[102.719433,12.279522],[102.7231,12.285403],[102.726188,12.302468],[102.725223,12.31882],[102.726574,12.32381],[102.723389,12.334771],[102.725271,12.34034],[102.723872,12.347113],[102.725802,12.364311],[102.732654,12.371129],[102.734439,12.375272],[102.737768,12.37701],[102.742738,12.386901],[102.7521345,12.3923696],[102.7726301,12.3957201],[102.779767,12.4009725],[102.7846653,12.4017787],[102.787419,12.415466],[102.781388,12.433868],[102.778686,12.436541],[102.776514,12.435026],[102.773378,12.435427],[102.769132,12.441977],[102.769421,12.448482],[102.76532,12.456903],[102.753884,12.456368],[102.752147,12.461269],[102.750024,12.462112],[102.746309,12.457299],[102.743365,12.459483],[102.743896,12.461889],[102.741918,12.465498],[102.736562,12.465854],[102.736996,12.474721],[102.740277,12.482028],[102.734391,12.486795],[102.733763,12.489201],[102.730096,12.490404],[102.722183,12.484969],[102.720349,12.486617],[102.720012,12.491206],[102.725657,12.495929],[102.72334,12.502474],[102.728937,12.509558],[102.728502,12.512677],[102.722133,12.512499],[102.715957,12.507509],[102.711277,12.509023],[102.704715,12.514548],[102.70568,12.517445],[102.704329,12.520341],[102.695113,12.520964],[102.695209,12.524306],[102.69738,12.527024],[102.693038,12.529831],[102.691928,12.533173],[102.685124,12.537762],[102.677887,12.538876],[102.677549,12.543153],[102.685124,12.548233],[102.675667,12.559461],[102.667851,12.563426],[102.667609,12.573362],[102.662205,12.582585],[102.650335,12.582674],[102.644449,12.585437],[102.645462,12.589892],[102.644352,12.595729],[102.646909,12.595952],[102.648067,12.599294],[102.645269,12.611101],[102.643291,12.612037],[102.629056,12.610076],[102.629346,12.612794],[102.627464,12.614799],[102.616994,12.61569],[102.606909,12.625359],[102.606185,12.628032],[102.598755,12.630349],[102.593109,12.63574],[102.592144,12.638636],[102.588091,12.640107],[102.585968,12.643894],[102.582687,12.644785],[102.581143,12.652226],[102.578923,12.65383],[102.571589,12.653652],[102.566812,12.657974],[102.554267,12.652582],[102.552385,12.652671],[102.550407,12.655924],[102.545582,12.656325],[102.539502,12.652003],[102.532843,12.65334],[102.516245,12.665013],[102.513688,12.669335],[102.511082,12.66987],[102.505051,12.68346],[102.509056,12.686623],[102.509779,12.691747],[102.507174,12.69696],[102.498489,12.702263],[102.497282,12.704447],[102.5037,12.714649],[102.5023,12.719327],[102.504472,12.731936],[102.500033,12.7396],[102.505244,12.745749],[102.5076683,12.7524003],[102.4983269,12.7566716],[102.4911673,12.7572388]]]}}]}