{"type":"FeatureCollection","features":[{"type":"Feature","properties":{"provinceCode":"57","nameTh":"เชียงราย","nameEn":"Chiang Rai"},"geometry":{"type":"Polygon","coordinates":[[[99.6829461,19.422322],[99.684911,19.4083794],[99.6874172,19.4052292],[99.6885755,19.3930477],[99.6932702,19.3849749],[99.6936154,19.3826842],[99.690077,19.3818643],[99.683376,19.3831624],[99.6814342,19.3915326],[99.6747292,19.3916008],[99.6600196,19.3853492],[99.6504373,19.385593],[99.6460743,19.3891257],[99.6400947,19.3877567],[99.6392911,19.3853646],[99.6347116,19.3878068],[99.6322952,19.3854741],[99.6281109,19.3896925],[99.6228814,19.3908607],[99.622055,19.3893499],[99.6211295,19.3914068],[99.620483,19.3902094],[99.6177077,19.3914059],[99.6177398,19.3928943],[99.6154003,19.3938317],[99.6156196,19.3958282],[99.6107274,19.3970943],[99.6057209,19.4016361],[99.6006655,19.4021513],[99.5955635,19.4059425],[99.5845137,19.4059327],[99.564669,19.4171534],[99.5625865,19.4131674],[99.5637152,19.4035383],[99.5760383,19.3892594],[99.5754187,19.3620253],[99.5798108,19.3580711],[99.5806591,19.3523674],[99.5783404,19.3485856],[99.5727606,19.3461635],[99.5811651,19.3377837],[99.5802671,19.3318058],[99.5760464,19.3257605],[99.5798852,19.3207865],[99.5772018,19.3157342],[99.5806104,19.3114002],[99.5753467,19.3022694],[99.5779492,19.2938542],[99.5708812,19.2935988],[99.5688639,19.2880981],[99.5644523,19.2837486],[99.5604825,19.2728726],[99.5603024,19.2688447],[99.562205,19.2657681],[99.5591284,19.2599027],[99.5593268,19.2570881],[99.5515286,19.2568156],[99.5483583,19.2512679],[99.5494727,19.2487369],[99.5471395,19.2412337],[99.5498283,19.2362419],[99.5476599,19.2288802],[99.5489479,19.2246997],[99.545133,19.2214824],[99.5443383,19.209777],[99.5414148,19.2062859],[99.5459474,19.1967725],[99.5458511,19.1909201],[99.5429487,19.1805036],[99.5420616,19.1682339],[99.5366288,19.1639174],[99.5394005,19.1616411],[99.5457943,19.1602166],[99.5496813,19.1564034],[99.5526927,19.1488232],[99.5525982,19.1449113],[99.5600628,19.1433932],[99.5599774,19.1320751],[99.5535245,19.12775],[99.5525042,19.1217732],[99.5391254,19.1113847],[99.5369385,19.1071057],[99.5390082,19.1017726],[99.534736,19.0951906],[99.5373122,19.0911786],[99.5362404,19.0883529],[99.5382816,19.0861978],[99.5309229,19.0810023],[99.5291116,19.0764519],[99.5205157,19.0757809],[99.5178766,19.080611],[99.5147593,19.0770876],[99.5036044,19.0782666],[99.4990961,19.0747959],[99.494448,19.0777243],[99.4917122,19.0738751],[99.4836159,19.0718093],[99.4790601,19.0580702],[99.4766592,19.0557579],[99.4754373,19.0500906],[99.4716035,19.0441898],[99.4679778,19.0414959],[99.4648119,19.0355439],[99.46148,19.0351799],[99.4567968,19.030142],[99.4529542,19.0291043],[99.4443737,19.0206845],[99.4442405,19.0181355],[99.437856,19.0133649],[99.4361563,19.007867],[99.4274458,19.0083738],[99.4217337,19.002796],[99.4075684,19.0023991],[99.4018034,19.0001482],[99.3961898,19.0070059],[99.3952962,19.0183945],[99.3938155,19.0201761],[99.3893526,19.0206095],[99.385951,19.0386665],[99.3813172,19.0419029],[99.3818665,19.0515636],[99.3851362,19.0552021],[99.3826554,19.0592877],[99.3837861,19.0631043],[99.3811403,19.0654447],[99.3654833,19.0692391],[99.3639718,19.0731358],[99.3650658,19.0789423],[99.3602783,19.0830517],[99.3509902,19.0872209],[99.3469044,19.0856996],[99.3443696,19.0863904],[99.3435681,19.0938073],[99.3406598,19.0956496],[99.337867,19.1037924],[99.330046,19.1129908],[99.3296009,19.1173089],[99.325128,19.1189411],[99.3240674,19.1220162],[99.3210757,19.1236144],[99.3192338,19.1330007],[99.3227367,19.1342126],[99.3240668,19.1364307],[99.3229932,19.1467941],[99.3193112,19.1554546],[99.319435,19.1652411],[99.3148314,19.1716802],[99.3099924,19.1727627],[99.3062653,19.1758848],[99.3045739,19.1825046],[99.3066653,19.1881744],[99.3036418,19.1935622],[99.3066544,19.194383],[99.3089387,19.2051272],[99.3145485,19.2091144],[99.3109757,19.2128605],[99.3119582,19.2161982],[99.3100301,19.2182914],[99.3107676,19.2240628],[99.3175391,19.2286684],[99.3184625,19.2316124],[99.3221828,19.2341437],[99.3227533,19.2407204],[99.321254,19.2437015],[99.3336409,19.2510573],[99.3376086,19.2556064],[99.3360395,19.2623456],[99.3429798,19.2678368],[99.3392211,19.2746813],[99.3413733,19.2764486],[99.336475,19.2839822],[99.3402216,19.2859718],[99.3396683,19.2888881],[99.3368457,19.2913542],[99.3392702,19.2982549],[99.3328583,19.303341],[99.3319609,19.3107552],[99.3295853,19.3127692],[99.3272273,19.3193458],[99.3277628,19.3236996],[99.3325537,19.3273337],[99.3341213,19.3304881],[99.3343014,19.3522665],[99.3327288,19.3622862],[99.3298886,19.3646802],[99.332026,19.378145],[99.3296848,19.3802107],[99.3308306,19.3817738],[99.3258871,19.3870826],[99.3254707,19.3940954],[99.3230638,19.3965332],[99.3248986,19.3974628],[99.3275547,19.3961287],[99.3305735,19.3984211],[99.329631,19.4008059],[99.3261677,19.4013413],[99.3221876,19.40647],[99.3194476,19.4075404],[99.3187087,19.4141174],[99.3149115,19.4185538],[99.3151022,19.4238002],[99.3080595,19.4309563],[99.3113343,19.4323448],[99.3107264,19.4359957],[99.3120593,19.4359407],[99.3122227,19.4409002],[99.3135492,19.4407227],[99.3143435,19.4517087],[99.3186573,19.4547887],[99.3166372,19.4557795],[99.310562,19.4713158],[99.3053968,19.47462],[99.3075793,19.4786629],[99.3065197,19.4823458],[99.3078108,19.4831939],[99.3078439,19.4888257],[99.306168,19.4895966],[99.2986781,19.4870117],[99.2945116,19.4951859],[99.2949864,19.4996065],[99.2991922,19.5076146],[99.2992891,19.5126101],[99.3017819,19.5174086],[99.3070429,19.5212158],[99.3039685,19.5228297],[99.3059219,19.5266283],[99.309721,19.5269331],[99.3122951,19.529002],[99.3133518,19.534898],[99.3171412,19.5344249],[99.3189646,19.5359874],[99.3224587,19.5350115],[99.3262497,19.5391099],[99.3201927,19.5420735],[99.3204207,19.5458555],[99.3194263,19.5482598],[99.317126,19.5491098],[99.316789,19.5546167],[99.3153117,19.5556421],[99.312424,19.5545873],[99.3104946,19.5560782],[99.3102003,19.553853],[99.3076562,19.5540883],[99.2995541,19.5613505],[99.2970037,19.5611753],[99.2983729,19.5629879],[99.2946924,19.56769],[99.2957793,19.5747694],[99.2946387,19.577338],[99.288983,19.5809893],[99.2908193,19.5842835],[99.2896145,19.5869435],[99.2929067,19.5903063],[99.2927715,19.5924878],[99.2841976,19.6036103],[99.2804099,19.602771],[99.2756883,19.6069566],[99.2670449,19.6108129],[99.2679025,19.6205715],[99.2665807,19.6253099],[99.2585588,19.629133],[99.2614977,19.6355396],[99.2591649,19.6397691],[99.259762,19.6447279],[99.2579856,19.6495944],[99.2620147,19.6533521],[99.2654691,19.6648088],[99.2760238,19.6682016],[99.2816674,19.6734316],[99.28668,19.6751549],[99.2888458,19.6788831],[99.2928328,19.6788946],[99.2967854,19.6821229],[99.2967915,19.6853992],[99.3019444,19.6895889],[99.3048085,19.6966142],[99.3075398,19.6977127],[99.311009,19.7028435],[99.3140162,19.7027065],[99.3134173,19.7076303],[99.325804,19.7120535],[99.3362203,19.713302],[99.3468256,19.7122521],[99.3465477,19.7203152],[99.3489193,19.7246448],[99.3597996,19.726301],[99.3620759,19.7317957],[99.3623415,19.7404636],[99.3597928,19.7452223],[99.3604409,19.7489027],[99.3645319,19.7513179],[99.3647085,19.764087],[99.3661947,19.7681851],[99.3615252,19.7773262],[99.3674868,19.7747171],[99.3747392,19.7767726],[99.3770093,19.7791637],[99.3772112,19.7894819],[99.378724,19.7907817],[99.3774073,19.7973413],[99.381166,19.8000023],[99.3786061,19.8066486],[99.380374,19.8102258],[99.392769,19.8125304],[99.3992652,19.8117961],[99.4028804,19.8135542],[99.4065288,19.812394],[99.4199079,19.8140391],[99.420602,19.8231787],[99.4099228,19.8292311],[99.4080263,19.8318228],[99.4082748,19.8346632],[99.4149657,19.8453041],[99.4096573,19.8451023],[99.4080659,19.8478312],[99.4032296,19.8495259],[99.4024075,19.8524099],[99.3952711,19.8570631],[99.3875859,19.8652991],[99.3863323,19.8771501],[99.3814391,19.8795433],[99.3835909,19.8839619],[99.3813971,19.8894677],[99.3847541,19.8966295],[99.3983242,19.9061202],[99.3999282,19.9121714],[99.4029951,19.9147325],[99.4204152,19.9176177],[99.420969,19.9202558],[99.4172762,19.9223851],[99.4166242,19.9287901],[99.4146252,19.9315353],[99.4149549,19.9404149],[99.417386,19.9429917],[99.4185827,19.952976],[99.4271033,19.960703],[99.4378898,19.961072],[99.4413794,19.9631715],[99.4423187,19.9702313],[99.4488585,19.9765655],[99.454843,19.9877488],[99.459927,19.9923917],[99.459565,19.9964604],[99.4648008,19.9997328],[99.465502,20.0053731],[99.4732529,20.0114095],[99.4756432,20.0107849],[99.4783296,20.0132286],[99.4781429,20.015053],[99.4760896,20.0144707],[99.4726117,20.0177151],[99.4729045,20.0196371],[99.4707792,20.0221144],[99.4674172,20.0239461],[99.4677103,20.0261066],[99.4656712,20.0259023],[99.4701922,20.0301909],[99.4673381,20.0322938],[99.4674777,20.0340873],[99.4723628,20.0344275],[99.4762963,20.0393772],[99.4846097,20.0387067],[99.4864888,20.0419937],[99.4893767,20.042477],[99.4960731,20.0477571],[99.4983743,20.0520239],[99.505188,20.0537034],[99.5026633,20.0549797],[99.5046068,20.0571648],[99.502938,20.0594423],[99.4915423,20.0655295],[99.4894774,20.0724531],[99.4911901,20.0790347],[99.5022249,20.08308],[99.5085047,20.0881823],[99.5142925,20.0886804],[99.517646,20.0915616],[99.5302813,20.0936547],[99.5322529,20.0947558],[99.5320217,20.0965409],[99.5346845,20.096741],[99.5376515,20.0994869],[99.5469639,20.101489],[99.5501214,20.1039393],[99.5544122,20.1030381],[99.5575439,20.0981726],[99.5591624,20.0981172],[99.5603985,20.1009371],[99.5708247,20.1078052],[99.5729134,20.1192257],[99.5705183,20.122206],[99.5645715,20.1241095],[99.5566441,20.1301114],[99.5459858,20.1308808],[99.5297361,20.1375255],[99.5206039,20.1380826],[99.511301,20.151071],[99.518177,20.152743],[99.530621,20.146607],[99.538597,20.147665],[99.53729,20.154775],[99.539307,20.16163],[99.538024,20.16529],[99.541622,20.173119],[99.545885,20.172823],[99.551225,20.176505],[99.554847,20.184545],[99.553907,20.188247],[99.556542,20.195695],[99.560828,20.203883],[99.563785,20.205936],[99.555672,20.216769],[99.544671,20.217742],[99.541508,20.225042],[99.533738,20.232194],[99.522577,20.233442],[99.523402,20.238224],[99.521179,20.243302],[99.521406,20.250275],[99.515774,20.256326],[99.519236,20.259877],[99.517944,20.266851],[99.513882,20.27614],[99.513913,20.279706],[99.509343,20.285246],[99.509497,20.289621],[99.504943,20.294124],[99.506389,20.296013],[99.505851,20.307064],[99.51002,20.313313],[99.509543,20.317533],[99.506682,20.322404],[99.507097,20.32577],[99.500358,20.336879],[99.497241,20.335836],[99.496247,20.340452],[99.489551,20.345743],[99.479492,20.349711],[99.473468,20.350224],[99.468292,20.355218],[99.467503,20.358836],[99.455749,20.362399],[99.457532,20.366935],[99.457883,20.378273],[99.460018,20.380163],[99.460135,20.385913],[99.457532,20.392122],[99.473293,20.393984],[99.488966,20.383186],[99.49306,20.383105],[99.495487,20.385157],[99.499113,20.384158],[99.501235,20.379421],[99.508913,20.373426],[99.509882,20.36871],[99.513559,20.367361],[99.516267,20.362674],[99.519651,20.361267],[99.525437,20.362617],[99.534591,20.35675],[99.539684,20.355983],[99.557685,20.357986],[99.560624,20.352844],[99.572655,20.349662],[99.575578,20.347758],[99.57664,20.344776],[99.585826,20.342134],[99.59178,20.344236],[99.597119,20.338498],[99.601442,20.3382],[99.605688,20.334009],[99.612689,20.331765],[99.614919,20.336722],[99.618274,20.335443],[99.622597,20.338469],[99.629352,20.335813],[99.63329,20.341864],[99.64166,20.341452],[99.643353,20.343327],[99.647353,20.341423],[99.649168,20.335756],[99.653477,20.33418],[99.657231,20.327717],[99.661354,20.325728],[99.665339,20.326708],[99.666739,20.324009],[99.671478,20.322404],[99.673847,20.318441],[99.681463,20.316183],[99.684678,20.317972],[99.685909,20.320714],[99.698402,20.326637],[99.706218,20.326211],[99.709819,20.323583],[99.713711,20.328399],[99.718465,20.328981],[99.719942,20.331282],[99.717958,20.333612],[99.718573,20.337503],[99.716542,20.339733],[99.717542,20.342304],[99.719712,20.342944],[99.720896,20.345444],[99.723127,20.344876],[99.727743,20.346864],[99.730143,20.350117],[99.739636,20.34489],[99.744267,20.346239],[99.758128,20.339111],[99.761237,20.342352],[99.770659,20.341817],[99.776264,20.334784],[99.7893022,20.3369801],[99.7988533,20.3352626],[99.8100892,20.3365881],[99.8124832,20.3433185],[99.823843,20.3533366],[99.826765,20.3571393],[99.8280298,20.3637631],[99.8371883,20.3743114],[99.8421165,20.3901734],[99.8450385,20.393362],[99.8447768,20.4060339],[99.8499231,20.4127781],[99.8562032,20.4162115],[99.8621716,20.4316523],[99.8648696,20.4330897],[99.8716714,20.44489],[99.8736492,20.4438388],[99.8852919,20.4461819],[99.8913957,20.4454558],[99.893321,20.4430678],[99.8943198,20.4444683],[99.8931843,20.4461307],[99.8959171,20.4461207],[99.8973931,20.4488248],[99.9015398,20.4474293],[99.9078646,20.4501428],[99.9157666,20.4497031],[99.9166303,20.4472465],[99.9200232,20.4477073],[99.9208903,20.4455987],[99.9225634,20.4465166],[99.9221708,20.4486917],[99.9241048,20.4481143],[99.9259074,20.4514493],[99.9281727,20.4518287],[99.9284874,20.4541839],[99.9321708,20.4562557],[99.9340062,20.4542826],[99.9412852,20.4557008],[99.94915,20.461112],[99.9514749,20.4612187],[99.9537112,20.4641953],[99.960349,20.4648135],[99.9605603,20.4618815],[99.9640838,20.4638593],[99.9656484,20.462699],[99.9641395,20.4582564],[99.9669502,20.4576953],[99.9677732,20.4602904],[99.9695322,20.4603722],[99.9702012,20.4575389],[99.9674672,20.4569795],[99.9665328,20.4550612],[99.9716192,20.4543392],[99.9750463,20.4511003],[99.9756406,20.4476955],[99.979424,20.4494098],[99.9774153,20.4452406],[99.9743883,20.4439599],[99.9791249,20.4414486],[99.9817991,20.4430572],[99.9833696,20.4423262],[99.983501,20.4386007],[99.9865503,20.4329406],[99.9894865,20.4311858],[99.984731,20.4294433],[99.9896925,20.4282083],[99.990529,20.4232655],[99.9957194,20.4220298],[99.9959669,20.4184185],[99.9990668,20.4193865],[99.9999216,20.4160017],[100.0036846,20.4161741],[100.0035393,20.4128069],[100.0054587,20.4138107],[100.0054804,20.417104],[100.0087245,20.4191211],[100.0092613,20.4167791],[100.0124185,20.4165471],[100.0104763,20.4132261],[100.0141969,20.4150142],[100.0164054,20.4129413],[100.0188874,20.4133715],[100.0192469,20.4113196],[100.0170742,20.4093705],[100.0201979,20.4066823],[100.0226893,20.406411],[100.0250205,20.4090454],[100.0248183,20.4045907],[100.0260961,20.4032211],[100.028589,20.4043929],[100.0289069,20.4003479],[100.0317388,20.4001043],[100.0336946,20.4027751],[100.0342455,20.4013402],[100.0323315,20.3996256],[100.0337434,20.3989197],[100.0367529,20.4020577],[100.0358284,20.3975362],[100.0392491,20.3955966],[100.0395838,20.392806],[100.0413213,20.3939743],[100.0407322,20.3981891],[100.041796,20.3987105],[100.0442234,20.3968255],[100.044932,20.3918356],[100.0513731,20.3932219],[100.0537543,20.3877405],[100.0560363,20.3890504],[100.0550375,20.3949817],[100.0572846,20.3964836],[100.0596144,20.396187],[100.0638067,20.3910552],[100.0635937,20.3851715],[100.0666888,20.3856141],[100.0695086,20.3896688],[100.0716017,20.3896689],[100.0712429,20.3862617],[100.0655968,20.3817139],[100.0676412,20.3781934],[100.0673794,20.3744535],[100.0701582,20.374535],[100.0766966,20.3806318],[100.0785878,20.38032],[100.0765939,20.3740542],[100.0819937,20.3691737],[100.0858445,20.3683984],[100.0800134,20.365592],[100.079076,20.3620072],[100.0807261,20.3570931],[100.084653,20.352275],[100.086111,20.345183],[100.093912,20.327048],[100.098594,20.308476],[100.090593,20.275865],[100.091517,20.268851],[100.095842,20.262767],[100.105135,20.253827],[100.112457,20.250004],[100.160296,20.24412],[100.171684,20.245772],[100.17603,20.251142],[100.180615,20.2634],[100.176441,20.276291],[100.168434,20.285327],[100.167476,20.298123],[100.171514,20.302073],[100.180752,20.306622],[100.194438,20.310824],[100.213428,20.312847],[100.221229,20.317744],[100.226977,20.326496],[100.228688,20.332246],[100.224445,20.344915],[100.224514,20.351077],[100.23081,20.359228],[100.246994,20.369212],[100.249149,20.375278],[100.248362,20.383272],[100.249731,20.386368],[100.26427,20.397732],[100.272329,20.400626],[100.299015,20.397153],[100.311999,20.402114],[100.319432,20.398724],[100.330536,20.398228],[100.352027,20.378631],[100.355251,20.377969],[100.359281,20.368543],[100.358206,20.363333],[100.359191,20.35523],[100.369042,20.354733],[100.374862,20.350682],[100.376653,20.335715],[100.380504,20.325957],[100.382384,20.313967],[100.392324,20.301481],[100.395638,20.293461],[100.405757,20.282049],[100.408175,20.276013],[100.410503,20.260715],[100.414443,20.253687],[100.418562,20.249883],[100.435442,20.241906],[100.453352,20.230164],[100.456218,20.224955],[100.452904,20.204035],[100.456038,20.19866],[100.465083,20.197503],[100.476008,20.190392],[100.481381,20.182867],[100.485142,20.181296],[100.489709,20.1765],[100.507395,20.151016],[100.518051,20.143908],[100.523782,20.142834],[100.53005,20.1449],[100.540707,20.159446],[100.545005,20.168042],[100.551184,20.174819],[100.557184,20.174075],[100.564885,20.175976],[100.578496,20.167794],[100.577064,20.165728],[100.575004,20.148702],[100.572138,20.143826],[100.573392,20.141264],[100.571243,20.136883],[100.572138,20.126883],[100.568825,20.115395],[100.570258,20.103163],[100.568736,20.100932],[100.569989,20.098783],[100.564706,20.093906],[100.560676,20.086633],[100.559781,20.080104],[100.560945,20.077046],[100.553691,20.052583],[100.554229,20.047458],[100.550557,20.042499],[100.551632,20.030846],[100.541692,20.022168],[100.540975,20.018036],[100.543662,20.011589],[100.536499,19.995561],[100.537484,19.993246],[100.530588,19.980347],[100.529066,19.971251],[100.525574,19.965215],[100.525842,19.958683],[100.518141,19.946197],[100.516081,19.939499],[100.516798,19.93553],[100.52226,19.928915],[100.519842,19.914445],[100.513932,19.909401],[100.52029,19.903365],[100.515455,19.899313],[100.51232,19.890714],[100.501127,19.884264],[100.5005,19.869381],[100.496559,19.864583],[100.489485,19.865906],[100.473724,19.855983],[100.462173,19.857389],[100.4540708,19.8500707],[100.4499596,19.8488187],[100.442293,19.835559],[100.44883,19.825636],[100.444263,19.822329],[100.443725,19.814969],[100.44086,19.809346],[100.442651,19.805873],[100.438442,19.791651],[100.433159,19.787434],[100.427428,19.787516],[100.415159,19.781563],[100.403966,19.752539],[100.404145,19.744355],[100.4065764,19.7360621],[100.405022,19.7324571],[100.3961132,19.728823],[100.3901588,19.7213029],[100.3896325,19.7150939],[100.3844856,19.7099544],[100.373771,19.7079568],[100.3607735,19.7159365],[100.3563325,19.7116716],[100.3515034,19.71513],[100.3369641,19.7086448],[100.3336895,19.7026314],[100.3415629,19.6877686],[100.331456,19.6794213],[100.3273207,19.6681241],[100.3196471,19.6567779],[100.3177868,19.6497964],[100.3137865,19.6487102],[100.3133798,19.649869],[100.3110645,19.6461026],[100.3056091,19.6459678],[100.3039697,19.6440303],[100.3011363,19.6468782],[100.2995279,19.6450808],[100.2938424,19.645689],[100.2904142,19.6426875],[100.2862419,19.6447971],[100.2835165,19.6435841],[100.2809168,19.6466658],[100.280293,19.6520352],[100.2757323,19.650602],[100.2737099,19.6456436],[100.2690582,19.646815],[100.2694882,19.6415983],[100.2673415,19.6418871],[100.2661639,19.6468773],[100.2611168,19.6488169],[100.2601587,19.6476765],[100.2620629,19.6465242],[100.261354,19.6450674],[100.2572977,19.6450445],[100.2567898,19.6425978],[100.2530351,19.641747],[100.2528793,19.6351858],[100.2470012,19.634414],[100.2444082,19.6296842],[100.2398823,19.6259963],[100.2343413,19.6107642],[100.2299305,19.6057887],[100.218965,19.6110038],[100.2139844,19.6081354],[100.2076558,19.6072793],[100.2037091,19.6105634],[100.1950041,19.6089738],[100.1871458,19.6096623],[100.1840077,19.6138467],[100.1808346,19.6123019],[100.1793419,19.6133815],[100.1789015,19.6093099],[100.1759427,19.611761],[100.1743995,19.6112416],[100.1759043,19.6107546],[100.1744729,19.6091735],[100.176116,19.6082797],[100.1720976,19.6053343],[100.1716667,19.6028468],[100.1701661,19.6035995],[100.1678126,19.6019025],[100.1698077,19.5991303],[100.1735406,19.5981575],[100.1708742,19.5959364],[100.1715917,19.5931038],[100.1667093,19.5912207],[100.1701171,19.5870488],[100.1688821,19.5863265],[100.1678137,19.5878609],[100.1646482,19.5848194],[100.1652065,19.5833609],[100.1681311,19.5829286],[100.166512,19.5800679],[100.168853,19.5755703],[100.166432,19.5738637],[100.1649173,19.5757219],[100.1627872,19.5755532],[100.1622554,19.5738973],[100.1641605,19.5727894],[100.1620354,19.5685023],[100.1636894,19.5691624],[100.1650452,19.5657316],[100.1687281,19.5653902],[100.1648025,19.5626271],[100.1666872,19.5606089],[100.1662642,19.5574527],[100.1639012,19.5590983],[100.1621978,19.5563829],[100.1654598,19.5558147],[100.164428,19.5535454],[100.1658406,19.5517211],[100.1621704,19.5512315],[100.1637671,19.547186],[100.1618312,19.5424974],[100.1593254,19.5426008],[100.1586557,19.5448696],[100.1547421,19.5461577],[100.0975277,19.554542],[100.0957693,19.5531693],[100.0836509,19.5521986],[100.0684427,19.5410069],[100.0697117,19.5319284],[100.0666123,19.5256577],[100.0656608,19.510257],[100.0670982,19.5066909],[100.0653757,19.5046337],[100.0652225,19.5006905],[100.0700266,19.4836627],[100.0668171,19.478524],[100.0655723,19.4700857],[100.0700173,19.4638059],[100.0704299,19.4567601],[100.0653616,19.4483865],[100.064939,19.4423674],[100.0691732,19.4415245],[100.0720002,19.4341579],[100.068639,19.4314832],[100.0629687,19.434248],[100.0604355,19.4323907],[100.0599651,19.434572],[100.0563749,19.4354258],[100.0546714,19.4316223],[100.0516503,19.4309782],[100.0492998,19.435445],[100.051199,19.440607],[100.0490618,19.4405337],[100.0478161,19.44326],[100.0458835,19.4418354],[100.0446669,19.4439994],[100.0393594,19.4450371],[100.0375796,19.4419844],[100.0330357,19.4438816],[100.0309374,19.4426401],[100.032043,19.4409332],[100.0277243,19.4386751],[100.0273663,19.4360982],[100.0232734,19.4370608],[100.0182444,19.4358717],[100.0174838,19.438303],[100.010178,19.438906],[100.0086856,19.4339393],[100.0104086,19.4303027],[100.0133497,19.4284178],[100.0106276,19.4257458],[100.0083305,19.4290326],[100.0012298,19.431204],[100.0010036,19.4344417],[99.9981447,19.4356687],[99.9954934,19.4338752],[99.9968783,19.4309362],[99.9919623,19.4290413],[99.9861723,19.4327587],[99.9819848,19.4314289],[99.9817393,19.4295801],[99.9735741,19.4276498],[99.9677141,19.4296323],[99.9624968,19.4277181],[99.947777,19.4285455],[99.9440913,19.4258112],[99.944815,19.423278],[99.9422607,19.4195838],[99.9297163,19.4155815],[99.9266117,19.4103805],[99.9200825,19.4063948],[99.918362,19.4191269],[99.914442,19.4324552],[99.9069114,19.4316186],[99.8990577,19.4256949],[99.8944351,19.4376004],[99.8859854,19.4475266],[99.879663,19.4491749],[99.8779135,19.4539975],[99.8745751,19.4552355],[99.8711177,19.453592],[99.8638676,19.4458682],[99.8525144,19.44665],[99.843785,19.4445806],[99.8288562,19.4455556],[99.8035108,19.4515431],[99.7868556,19.4510489],[99.775121,19.4417213],[99.7709218,19.4432512],[99.7658294,19.4413733],[99.7553359,19.4411065],[99.7512639,19.4353625],[99.7453437,19.4320504],[99.7400226,19.4312143],[99.7400383,19.4295647],[99.736228,19.4288082],[99.7313832,19.4242095],[99.7269452,19.4251203],[99.723704,19.4228684],[99.7168615,19.4224569],[99.7140998,19.419636],[99.7065199,19.4253645],[99.7048253,19.4224716],[99.7016745,19.4224838],[99.6992888,19.4196069],[99.6878226,19.420011],[99.6829461,19.422322]]]}}]}