{"type":"FeatureCollection","features":[{"type":"Feature","properties":{"id":"TH-LAO-3570102","nameTh":"เชียงราย","type":"city_municipality"},"geometry":{"type":"Polygon","coordinates":[[[99.8699077,19.9132605],[99.8688714,19.9152321],[99.8699067,19.9151463],[99.8710174,19.9142052],[99.8735491,19.914879],[99.8743487,19.9167522],[99.8741768,19.9177993],[99.8747618,19.918235],[99.874107,19.9194737],[99.8727659,19.9200991],[99.8731254,19.9215163],[99.8727391,19.9222728],[99.8734526,19.9231806],[99.8748208,19.9236466],[99.8744937,19.9249878],[99.8751211,19.9254045],[99.8736942,19.9298879],[99.8691291,19.9299736],[99.8669565,19.9311689],[99.8640597,19.9309167],[99.8639148,19.9318295],[99.8729646,19.9475631],[99.8673963,19.9478556],[99.8642635,19.9452335],[99.8584807,19.9440636],[99.8474407,19.9462218],[99.8402417,19.9469278],[99.8396408,19.9464437],[99.8374092,19.9470387],[99.8356283,19.9470085],[99.8339975,19.9464134],[99.8329353,19.9455965],[99.8318624,19.9431962],[99.8276782,19.9432567],[99.8090958,19.9380727],[99.8011887,19.9246883],[99.7988498,19.9251523],[99.7977447,19.9236292],[99.7998047,19.9229736],[99.8000729,19.9219448],[99.798603,19.9209966],[99.7983241,19.9194533],[99.7961247,19.9187573],[99.7985011,19.9110532],[99.7974175,19.9109245],[99.7972888,19.9105765],[99.7941935,19.9089171],[99.7929972,19.9090987],[99.7916776,19.9085741],[99.791007,19.9079638],[99.7908407,19.9061077],[99.7901595,19.9056487],[99.7943866,19.9005795],[99.7959852,19.8990864],[99.8025244,19.8956715],[99.7983026,19.8915806],[99.7965002,19.886748],[99.7956419,19.8860821],[99.7886038,19.8829343],[99.7830248,19.8788985],[99.7894406,19.8741362],[99.7897169,19.8767494],[99.7901246,19.8774128],[99.7936061,19.8780207],[99.7943357,19.8786135],[99.7950304,19.8782578],[99.7979754,19.8785757],[99.7996545,19.8775516],[99.8008186,19.8777029],[99.8016661,19.8768201],[99.8023474,19.8767394],[99.8033881,19.8756295],[99.8040318,19.8755135],[99.8047882,19.8745398],[99.8061454,19.8747113],[99.80636,19.875009],[99.8102009,19.8724714],[99.8094606,19.8707056],[99.8094821,19.869071],[99.8098254,19.8685665],[99.8115528,19.8679409],[99.8124754,19.8682335],[99.8130548,19.8704004],[99.8140043,19.8709906],[99.8148626,19.8709125],[99.8161876,19.87148],[99.81648,19.8707661],[99.8169923,19.870804],[99.8174295,19.8713211],[99.8171532,19.8718458],[99.817282,19.8725622],[99.8179901,19.8722393],[99.818902,19.8710285],[99.8202002,19.8709478],[99.8200714,19.8723906],[99.820565,19.8739748],[99.8274314,19.8691971],[99.8321199,19.8751326],[99.8349336,19.8781519],[99.8356712,19.8806087],[99.8375273,19.8808862],[99.8377687,19.881663],[99.838289,19.8811333],[99.8386323,19.8814259],[99.8393512,19.8813906],[99.8407111,19.8800979],[99.8428823,19.8793753],[99.844678,19.879963],[99.8450535,19.8806591],[99.846046,19.8807701],[99.8469043,19.8804321],[99.8494846,19.8807348],[99.850654,19.8812242],[99.853422,19.8760129],[99.8559058,19.8752562],[99.859221,19.8752063],[99.8594677,19.8767999],[99.8590171,19.8778189],[99.8599183,19.8799983],[99.8616779,19.8817034],[99.8642045,19.8822003],[99.8645478,19.8828536],[99.863534,19.8849433],[99.8635071,19.8867026],[99.8645586,19.8873533],[99.8653217,19.8884568],[99.8662403,19.8885274],[99.8667473,19.8901127],[99.8674151,19.8909425],[99.8686382,19.8906549],[99.8689359,19.8908668],[99.87459,19.9121401],[99.8726535,19.9123872],[99.8699077,19.9132605]]]}}]}