{"type":"FeatureCollection","features":[{"type":"Feature","properties":{"provinceCode":"33","nameTh":"ศรีสะเกษ","nameEn":"Si Sa Ket"},"geometry":{"type":"Polygon","coordinates":[[[104.0566163,14.3453275],[104.0633212,14.3438896],[104.0753772,14.3450174],[104.0845331,14.3479999],[104.0933281,14.3533972],[104.098818,14.3672371],[104.1063292,14.3701948],[104.1080676,14.3784352],[104.121959,14.3739611],[104.1318052,14.3759705],[104.1369092,14.3735911],[104.1391997,14.3718286],[104.1398855,14.3660427],[104.1369902,14.3576558],[104.1454156,14.3546227],[104.1716471,14.3588742],[104.171045,14.3653706],[104.1749237,14.3706844],[104.1708614,14.3762507],[104.1867732,14.3847602],[104.1945586,14.3818294],[104.1982362,14.3837529],[104.2023886,14.3796906],[104.2077625,14.3702066],[104.2116322,14.368035],[104.2170238,14.3673465],[104.2320021,14.3713013],[104.24754,14.3775996],[104.2528596,14.3860009],[104.2520872,14.3914615],[104.2582036,14.3948146],[104.2603336,14.3996176],[104.2679819,14.4009716],[104.2753551,14.4085322],[104.2788819,14.4072072],[104.2859991,14.3994999],[104.2915691,14.3996861],[104.307204,14.3828199],[104.3139173,14.3822586],[104.3192684,14.3783491],[104.321657,14.3739167],[104.3300411,14.3706564],[104.3339018,14.3721636],[104.3406571,14.3686417],[104.3550998,14.3691663],[104.3613731,14.3739842],[104.3694233,14.3759305],[104.3762215,14.3835578],[104.3782646,14.3778977],[104.3832391,14.375169],[104.3857701,14.3718371],[104.3983412,14.3745772],[104.4043784,14.3662021],[104.4068797,14.3661621],[104.4147723,14.3718698],[104.4263045,14.3680261],[104.4325771,14.3599357],[104.4373395,14.3578144],[104.4424151,14.3589622],[104.4503275,14.3567305],[104.4556681,14.3603775],[104.4610832,14.3602395],[104.4641182,14.3559879],[104.4612208,14.3471728],[104.4632458,14.3451826],[104.4715609,14.3468672],[104.4784026,14.3520133],[104.4786279,14.3553422],[104.4759893,14.358745],[104.4783437,14.3633081],[104.4850431,14.3689816],[104.4962015,14.3733455],[104.4989892,14.3762344],[104.5148255,14.3709737],[104.5245969,14.3608953],[104.5304725,14.3593915],[104.5351605,14.3555604],[104.5450799,14.3569584],[104.5503565,14.3545714],[104.5609964,14.3537866],[104.5656788,14.3545027],[104.5666959,14.3578726],[104.5705164,14.3607705],[104.5788743,14.3582019],[104.5802484,14.359269],[104.5783697,14.3736552],[104.5793925,14.3752675],[104.5893754,14.3814423],[104.6023171,14.3963354],[104.6138561,14.3983765],[104.6267053,14.4075697],[104.6409487,14.423193],[104.6497696,14.4234435],[104.6528258,14.4212385],[104.6560932,14.4118582],[104.652952,14.408445],[104.6592969,14.4005926],[104.6660489,14.4023934],[104.6850582,14.3984098],[104.6923705,14.4121072],[104.691348,14.4167498],[104.6987045,14.4273492],[104.7058909,14.4321099],[104.7124183,14.4341838],[104.7201741,14.4273083],[104.7237031,14.4215808],[104.7198932,14.4075324],[104.7236891,14.4032828],[104.7315807,14.4129348],[104.7388823,14.4144925],[104.7548315,14.4049413],[104.7546884,14.4083024],[104.7575894,14.4112303],[104.7567842,14.4142483],[104.7668588,14.4235329],[104.7778423,14.4251167],[104.7915095,14.4351574],[104.8058488,14.4374188],[104.8086325,14.4366423],[104.8172136,14.429183],[104.819431,14.4180059],[104.8274968,14.4190348],[104.8339192,14.4157923],[104.8339581,14.4098847],[104.8356257,14.4073915],[104.8336097,14.4012271],[104.8379067,14.397922],[104.8401301,14.3991995],[104.8410291,14.4031762],[104.8526449,14.406728],[104.85755,14.411965],[104.8618007,14.4089454],[104.8716904,14.4181915],[104.8782567,14.4124807],[104.8943228,14.4061626],[104.8990081,14.4059635],[104.9054177,14.3996562],[104.9071055,14.3991778],[104.9085397,14.4055022],[104.9065657,14.4118506],[104.8963598,14.4165911],[104.8763598,14.4370771],[104.8676478,14.433107],[104.8662634,14.4298243],[104.8598076,14.4299616],[104.8512986,14.4238976],[104.8499073,14.4255989],[104.8407894,14.425679],[104.8381521,14.4270027],[104.8285461,14.4427513],[104.8327144,14.4492699],[104.8344622,14.4480741],[104.834428,14.4494074],[104.8389341,14.4506529],[104.8381324,14.4515055],[104.8400089,14.4518518],[104.8398778,14.4530875],[104.8452367,14.4535893],[104.8462996,14.4583931],[104.8500476,14.459814],[104.8511429,14.4664619],[104.8598208,14.4719694],[104.859054,14.4757852],[104.860158,14.4769655],[104.8584727,14.4815818],[104.8603024,14.4835054],[104.8588443,14.4880041],[104.8615518,14.4928668],[104.8605982,14.4959501],[104.8620083,14.4990514],[104.8601339,14.5010744],[104.857834,14.5007222],[104.8591042,14.50138],[104.8566713,14.5028938],[104.8571203,14.5057632],[104.8534673,14.5057713],[104.8537316,14.5074396],[104.8487696,14.5093726],[104.8486206,14.5124356],[104.8446143,14.5168938],[104.8419338,14.5169738],[104.8420663,14.5184677],[104.8393623,14.5193807],[104.836539,14.5253042],[104.8329707,14.5269738],[104.832642,14.5297704],[104.8277338,14.5307685],[104.8285917,14.5323042],[104.8264584,14.53681],[104.8234358,14.5376094],[104.8208701,14.5412139],[104.8219596,14.54679],[104.8193685,14.549872],[104.8179575,14.5488512],[104.8180664,14.5503201],[104.8155322,14.5512397],[104.817462,14.5559918],[104.8190116,14.5554631],[104.8188263,14.559347],[104.8209922,14.5606043],[104.8196264,14.5656967],[104.8234313,14.5676992],[104.8226994,14.5698464],[104.825353,14.5705268],[104.8232268,14.5750196],[104.8250869,14.5749854],[104.8245754,14.5766583],[104.8277386,14.5768801],[104.8289134,14.5804828],[104.8262751,14.586139],[104.8281911,14.588871],[104.8259106,14.5934515],[104.827495,14.5940549],[104.8280451,14.5922301],[104.8291209,14.5938849],[104.8257325,14.5994953],[104.8271114,14.6079918],[104.8286174,14.6108721],[104.832765,14.6124421],[104.8353536,14.6171069],[104.8377771,14.6169904],[104.83604,14.6209713],[104.837882,14.6265261],[104.8364236,14.6310373],[104.8389651,14.6321851],[104.8364284,14.6369342],[104.8396228,14.6377577],[104.8393727,14.6403235],[104.8415707,14.6394738],[104.8409588,14.6422813],[104.8427691,14.6421321],[104.8438692,14.6451947],[104.8474267,14.6475827],[104.8475495,14.6522395],[104.8502938,14.6549101],[104.8501112,14.6566124],[104.8478278,14.6576592],[104.8483906,14.6591049],[104.8539998,14.6609934],[104.8568533,14.6581082],[104.8615853,14.6621046],[104.8666826,14.6634318],[104.8708256,14.6607295],[104.8767096,14.6611274],[104.8795546,14.6560595],[104.8868977,14.6546919],[104.8887515,14.6509741],[104.8911177,14.6520025],[104.8878961,14.6562132],[104.8863116,14.6619709],[104.8812978,14.6651536],[104.8765324,14.6722487],[104.87631,14.6817665],[104.8779455,14.6868246],[104.8764886,14.6900426],[104.8764954,14.7001937],[104.8678669,14.7036853],[104.8500181,14.7186936],[104.8442763,14.726967],[104.8424568,14.7371991],[104.8337007,14.7419203],[104.8203339,14.7529523],[104.8172179,14.761693],[104.8178953,14.7778421],[104.8154162,14.7891486],[104.8088212,14.7968082],[104.7980174,14.80491],[104.7988683,14.8191839],[104.8065559,14.8303411],[104.8144791,14.8345521],[104.8134973,14.8400644],[104.8102423,14.8448192],[104.8103552,14.8480168],[104.8111225,14.8525098],[104.8165729,14.8555651],[104.8142649,14.8577998],[104.8125496,14.8660639],[104.8104872,14.8687762],[104.8110854,14.8829955],[104.8069951,14.8867826],[104.8047841,14.8920479],[104.8053755,14.8978188],[104.8026546,14.8990716],[104.8001684,14.8977498],[104.7849593,14.8971913],[104.7779242,14.8988373],[104.7716251,14.9113516],[104.767889,14.9135977],[104.7617396,14.9139431],[104.7625807,14.9206741],[104.7566031,14.9218011],[104.7544069,14.9203092],[104.743735,14.9278332],[104.7403003,14.9334228],[104.7348429,14.9363635],[104.7348681,14.9382268],[104.7273439,14.934198],[104.7273225,14.9313464],[104.7204924,14.9256051],[104.7190136,14.9320745],[104.7046661,14.9363276],[104.699747,14.9359733],[104.6956255,14.9420496],[104.6879341,14.9458667],[104.6839546,14.9523949],[104.686241,14.9653267],[104.6884739,14.9674007],[104.6876662,14.9719784],[104.6847106,14.9726948],[104.6821891,14.9772357],[104.6843778,14.9798031],[104.68449,14.9860179],[104.6819757,14.9876699],[104.6851381,14.9948315],[104.6831429,15.0008428],[104.6843661,15.0047612],[104.6819995,15.0058032],[104.681921,15.0107699],[104.6787181,15.0099761],[104.679272,15.0114255],[104.6766906,15.0156079],[104.6774762,15.0181258],[104.6760336,15.0188974],[104.6739757,15.017364],[104.6738983,15.0193639],[104.6718708,15.0202611],[104.6739409,15.0298754],[104.6694132,15.0323871],[104.6753526,15.033766],[104.673044,15.0379865],[104.6741036,15.0405362],[104.6761102,15.040551],[104.6813726,15.0353058],[104.6828569,15.0370446],[104.6821198,15.0398532],[104.6862523,15.0428722],[104.6850108,15.0452223],[104.6807366,15.0465883],[104.6802276,15.04851],[104.6841719,15.0511375],[104.6865915,15.0567637],[104.6891729,15.0585876],[104.6893009,15.0612603],[104.6863185,15.0641018],[104.6858522,15.0727217],[104.6931157,15.0830931],[104.6838487,15.0858498],[104.6785235,15.0836047],[104.676251,15.0853118],[104.6847524,15.0943024],[104.6899089,15.0963436],[104.6887259,15.1000403],[104.680187,15.1005275],[104.6788911,15.0944094],[104.6764759,15.0930069],[104.6717007,15.0947633],[104.670203,15.0987416],[104.6729436,15.1041017],[104.6807871,15.1085272],[104.6761012,15.1134883],[104.6811449,15.1188536],[104.67948,15.1233182],[104.6860487,15.1238959],[104.6894284,15.1281714],[104.7036317,15.1303783],[104.7199874,15.1479305],[104.7347742,15.1583306],[104.7365946,15.1633797],[104.7322845,15.1689801],[104.725944,15.1710776],[104.7219361,15.1699613],[104.7055179,15.1579304],[104.6982171,15.1580525],[104.697512,15.1654067],[104.7000277,15.1744726],[104.7072792,15.1815462],[104.7142001,15.1825969],[104.7184546,15.1895007],[104.7167525,15.1932558],[104.713264,15.195071],[104.7079099,15.1869157],[104.7019182,15.1857457],[104.6986818,15.1906417],[104.7042479,15.1968451],[104.7037702,15.2006688],[104.6948629,15.2040781],[104.6860061,15.1994426],[104.6811075,15.2020723],[104.6815286,15.2057388],[104.6868822,15.2040371],[104.6893068,15.2071307],[104.6884991,15.2090767],[104.6828735,15.2122382],[104.6824685,15.2180611],[104.6855103,15.2198856],[104.694662,15.2196731],[104.6963302,15.2217302],[104.695717,15.2246746],[104.6929746,15.2262117],[104.6839442,15.2235645],[104.6792795,15.2263512],[104.6772796,15.2388589],[104.6705517,15.2525745],[104.664609,15.2578332],[104.6580128,15.2583797],[104.6588841,15.2519231],[104.6535315,15.2493369],[104.6521212,15.2464675],[104.6540222,15.2433472],[104.6624833,15.2407453],[104.665367,15.2318666],[104.6633477,15.232199],[104.6582839,15.2387264],[104.6469557,15.238777],[104.6444094,15.2426707],[104.6457388,15.2520495],[104.6445608,15.2677728],[104.6424971,15.2724962],[104.6401163,15.2736501],[104.6369739,15.2703971],[104.6328582,15.2697246],[104.6210553,15.2752996],[104.6178431,15.2714461],[104.6192308,15.2651914],[104.6155407,15.2636267],[104.613493,15.2656933],[104.613757,15.2749161],[104.60911,15.2820559],[104.6053699,15.2728399],[104.6015534,15.268859],[104.5922487,15.2664708],[104.5903783,15.2685838],[104.5897675,15.2656997],[104.5869217,15.2646095],[104.5820354,15.25744],[104.5754033,15.2570472],[104.5780425,15.253714],[104.576811,15.2519706],[104.5249241,15.2524689],[104.5170469,15.2551777],[104.5065007,15.263647],[104.5041624,15.2676623],[104.4718458,15.2679103],[104.4630516,15.2721206],[104.4596794,15.2760265],[104.4468333,15.2808789],[104.4158164,15.2863193],[104.3822225,15.2946604],[104.3821541,15.2984921],[104.3856411,15.3022979],[104.3858475,15.3082655],[104.388089,15.3127485],[104.3881551,15.3225012],[104.383761,15.3295621],[104.3766272,15.330508],[104.3747434,15.322139],[104.3696705,15.3212615],[104.3673277,15.3234874],[104.3685572,15.3256501],[104.3652732,15.3285593],[104.3664755,15.3299324],[104.3645535,15.3298853],[104.3619623,15.3346382],[104.3602756,15.3345427],[104.3586969,15.3384834],[104.3565068,15.3384762],[104.3571223,15.3398533],[104.3541014,15.3418354],[104.3534332,15.3446826],[104.3479274,15.3438098],[104.3456723,15.3418434],[104.3447397,15.345028],[104.3393149,15.3458396],[104.3342119,15.3436963],[104.3221968,15.3454949],[104.3212349,15.3467551],[104.3130088,15.3418737],[104.3090536,15.3439689],[104.3044742,15.3420888],[104.3003357,15.3454771],[104.2966289,15.3447703],[104.2936463,15.3466124],[104.2941296,15.3492333],[104.2907575,15.3542883],[104.2853989,15.3572117],[104.2804516,15.3575186],[104.2742117,15.3661254],[104.2719636,15.3646947],[104.2638874,15.3713861],[104.251141,15.3731046],[104.2435489,15.3783456],[104.2382291,15.3869095],[104.2328634,15.4031502],[104.2047837,15.4404063],[104.1970768,15.4549261],[104.1934211,15.4585907],[104.1802291,15.4624537],[104.1742878,15.4616237],[104.1718893,15.464665],[104.1691213,15.477625],[104.1655246,15.4785158],[104.1634291,15.4826049],[104.1563241,15.4882737],[104.1477804,15.4984295],[104.1374789,15.5062737],[104.1328297,15.512247],[104.1325698,15.5185442],[104.1346654,15.5248695],[104.1411866,15.528667],[104.1352457,15.5388995],[104.1341005,15.5385224],[104.1286512,15.5604568],[104.1217351,15.5631304],[104.1163493,15.5612305],[104.1100767,15.5668936],[104.1048142,15.5683827],[104.0996213,15.5674741],[104.097956,15.5644586],[104.1017002,15.5536765],[104.1039806,15.5537479],[104.1056241,15.5466838],[104.1007123,15.5457737],[104.0979487,15.5482441],[104.0944961,15.5484991],[104.0952949,15.5505535],[104.0931412,15.5500778],[104.0922016,15.5516768],[104.0899852,15.5497526],[104.0885377,15.5510353],[104.0872008,15.5491569],[104.0855293,15.5505178],[104.0829976,15.5465426],[104.0820825,15.5477846],[104.0822597,15.5432543],[104.0789719,15.5449017],[104.0769066,15.5411101],[104.0739029,15.5398065],[104.0737593,15.5370735],[104.0763858,15.5364941],[104.0754271,15.5342618],[104.0768538,15.5347228],[104.0780392,15.5325055],[104.0740641,15.5224791],[104.0662761,15.5237817],[104.063773,15.521384],[104.0644364,15.5197524],[104.0617198,15.5200584],[104.0618764,15.5173021],[104.0597692,15.517907],[104.0598691,15.515692],[104.0589771,15.5169531],[104.0555062,15.5153962],[104.0564264,15.5085483],[104.059976,15.5024193],[104.055939,15.4988178],[104.0315591,15.4892316],[104.0224637,15.4784813],[104.0163985,15.4615575],[104.0102266,15.4556875],[104.0009263,15.4530073],[103.9957135,15.4470695],[103.9913989,15.4131609],[103.9890006,15.4069784],[103.9942819,15.3986601],[103.9934839,15.39353],[103.9955636,15.3933522],[104.0032866,15.3991873],[104.0018733,15.407849],[104.0041728,15.4100305],[104.0072986,15.4095798],[104.0128797,15.4033324],[104.0159225,15.4046863],[104.0164989,15.4106258],[104.0180835,15.4119005],[104.019891,15.411635],[104.0267411,15.4036177],[104.0297112,15.4043552],[104.0322704,15.4080597],[104.0337486,15.4077454],[104.0410023,15.403687],[104.0499331,15.4019676],[104.049441,15.396502],[104.0506681,15.3956614],[104.0554329,15.400401],[104.0571686,15.4047774],[104.0599884,15.4052575],[104.0607709,15.4017206],[104.0748849,15.3917957],[104.0749045,15.3886319],[104.0717843,15.3840799],[104.072472,15.3814231],[104.075294,15.3810262],[104.0815569,15.3848815],[104.0846408,15.3835726],[104.0842196,15.3807011],[104.0799371,15.3779838],[104.0797961,15.3755672],[104.0856172,15.3701643],[104.0851562,15.3633589],[104.0874166,15.3629148],[104.0894978,15.3657905],[104.0906906,15.3651828],[104.0842257,15.3573185],[104.0874782,15.3552717],[104.0919319,15.3584269],[104.0890502,15.3530637],[104.0907964,15.3484368],[104.086263,15.350178],[104.0801301,15.3487435],[104.0771583,15.3533372],[104.0749137,15.3539982],[104.0686636,15.3474311],[104.0663323,15.3475717],[104.0662269,15.3496257],[104.0619356,15.3489429],[104.0610828,15.3431622],[104.0582008,15.3435258],[104.0595118,15.3460389],[104.0569873,15.3471766],[104.0532228,15.3405662],[104.0446511,15.3419866],[104.0439878,15.3327884],[104.0386099,15.3345749],[104.0392771,15.3321728],[104.036219,15.327595],[104.0317267,15.332065],[104.022834,15.3318845],[104.0255126,15.3295842],[104.0257297,15.3257677],[104.0301953,15.325246],[104.0265044,15.3215335],[104.0289598,15.3180422],[104.0221037,15.3136923],[104.0198377,15.3156622],[104.0150869,15.3136348],[104.0118543,15.3168203],[104.0107155,15.3162666],[104.0127856,15.3102417],[104.0118159,15.2979343],[104.0153008,15.2896306],[104.012528,15.2888079],[104.0098573,15.2922691],[104.0026316,15.2893049],[104.0004544,15.2938161],[103.9965245,15.2954659],[103.9950069,15.2895303],[103.9973026,15.2883336],[103.9960792,15.2774629],[103.9987319,15.2732388],[103.9922834,15.268923],[103.9892158,15.2684709],[103.982958,15.2744761],[103.9776952,15.2749404],[103.9787095,15.2777639],[103.9776217,15.281658],[103.9737084,15.2817452],[103.9727138,15.2803444],[103.9738449,15.2721083],[103.9776866,15.2635701],[103.9902062,15.2586984],[103.9943068,15.2559229],[103.9968363,15.2517666],[103.9954762,15.2500274],[103.985563,15.2470198],[103.9921877,15.2367651],[103.9890978,15.2309531],[103.9874333,15.2326283],[103.9841432,15.2323573],[103.9885551,15.2277296],[103.9881942,15.2256994],[103.9858013,15.2246393],[103.9762937,15.226295],[103.9704105,15.2202981],[103.9769333,15.2127347],[103.9794254,15.2127135],[103.9759073,15.2070703],[103.9764153,15.2054171],[103.9838994,15.2013007],[103.9815505,15.1995402],[103.9764948,15.2000154],[103.9784829,15.1959261],[103.9776108,15.1902827],[103.9701551,15.1890884],[103.9663557,15.1853899],[103.9714032,15.1801094],[103.9682362,15.173049],[103.9708322,15.1725649],[103.9695401,15.170202],[103.9706466,15.1660891],[103.9676108,15.1661813],[103.9671968,15.1649066],[103.9782465,15.1587935],[103.9828239,15.1627797],[103.9838855,15.1551871],[103.9924752,15.1527222],[103.9928014,15.1503564],[103.9967611,15.1482843],[104.0001496,15.1496844],[103.9972584,15.1433035],[104.0000351,15.1418577],[103.9993259,15.1363706],[103.9948708,15.1360551],[103.9945338,15.1336682],[103.9932396,15.1359652],[103.9898246,15.1359105],[103.9886123,15.1303976],[103.9865359,15.1296385],[103.9902882,15.1263712],[103.9890309,15.1234724],[103.995476,15.1248625],[103.9954366,15.121231],[104.0003991,15.1204269],[103.9989135,15.1188608],[103.9943447,15.1187433],[103.9914311,15.1125476],[103.991257,15.111472],[103.9941699,15.1108416],[103.9958173,15.1120139],[103.994168,15.1080546],[103.9958715,15.1071569],[103.9955163,15.1032682],[103.9970029,15.1009017],[103.9944324,15.0984676],[103.9985531,15.0940726],[103.9964313,15.0892152],[103.9918995,15.0904423],[103.994463,15.0835679],[103.9951856,15.0859496],[104.0012622,15.0871206],[103.9989739,15.0813934],[104.0015801,15.0780728],[104.0145161,15.0822253],[104.0205113,15.0781617],[104.0198282,15.0723824],[104.0181797,15.0705155],[104.0144057,15.0713333],[104.0115495,15.0744392],[104.0096941,15.0741072],[104.0097026,15.070061],[104.0132869,15.0659466],[104.0054353,15.0593722],[104.0069162,15.0579063],[104.0099452,15.0593152],[104.0131089,15.0577463],[104.0148772,15.0520977],[104.0210261,15.0482726],[104.0205119,15.0438543],[104.0188228,15.0419737],[104.0122382,15.042453],[104.0138039,15.0409804],[104.0121051,15.0379417],[104.0168764,15.0327883],[104.0113365,15.0292817],[104.0110288,15.0271973],[104.012836,15.026015],[104.010489,15.0193264],[104.0045879,15.0212151],[103.9999099,15.020515],[103.9948168,15.016109],[103.9964973,15.0135801],[103.9997199,15.0142281],[103.9976762,15.0105451],[103.9983323,15.0062028],[104.0006798,15.0043257],[103.9989166,14.9993532],[104.002146,14.9961919],[103.9980195,14.9945872],[103.995692,14.9893158],[103.9938409,14.988417],[103.993809,14.9856885],[103.9916867,14.9848307],[103.9897007,14.9864828],[103.9875262,14.9854774],[103.9875983,14.9836709],[103.9845596,14.9838672],[103.9841616,14.9814752],[103.9808617,14.9794137],[103.9808436,14.9775125],[103.9826335,14.9771046],[103.9815624,14.974824],[103.9773628,14.9760193],[103.9754262,14.9743151],[103.976327,14.9785],[103.9752927,14.9792167],[103.9710879,14.9751698],[103.9669267,14.9738002],[103.9662876,14.9711039],[103.9689199,14.9685247],[103.9693311,14.9629133],[103.9674201,14.9586861],[103.9672037,14.9522404],[103.9699295,14.9500173],[103.9639743,14.9498288],[103.9560092,14.9377225],[103.9545654,14.9398281],[103.9553748,14.9423077],[103.9481331,14.9410174],[103.9458281,14.9433474],[103.9459575,14.9394102],[103.9482339,14.9363713],[103.9466371,14.9291881],[103.9450407,14.9269442],[103.9422404,14.9270722],[103.9439944,14.9221751],[103.9393257,14.9195773],[103.9368816,14.9150947],[103.9390674,14.9123282],[103.9372924,14.9093132],[103.9390023,14.9080859],[103.9344653,14.9071372],[103.9337208,14.904339],[103.92847,14.9036897],[103.9248621,14.8997025],[103.9264153,14.8974096],[103.924558,14.8965899],[103.9255049,14.8941198],[103.9204556,14.8901391],[103.9207132,14.8858995],[103.9187839,14.8853177],[103.9199729,14.8836908],[103.9168277,14.8831648],[103.9172673,14.877953],[103.9196927,14.8772719],[103.9206585,14.8752714],[103.9193607,14.8755277],[103.9190631,14.8730986],[103.9208622,14.8721607],[103.9119527,14.8670246],[103.9122656,14.8642087],[103.9074382,14.8613206],[103.9063819,14.8588303],[103.9075745,14.8554607],[103.9035503,14.8528983],[103.9038139,14.8505835],[103.9020075,14.8488325],[103.9039508,14.8471768],[103.9039923,14.8423128],[103.9187788,14.828723],[103.979744,14.8084916],[103.9954616,14.7988849],[104.0036011,14.7699287],[104.0023125,14.7599379],[103.9997082,14.7548393],[103.9987811,14.7425096],[103.9985855,14.7349605],[104.0012728,14.7255784],[104.019733,14.7006674],[104.0491585,14.6737214],[104.052997,14.6596821],[104.0523176,14.655588],[104.053925,14.6549035],[104.0521411,14.654291],[104.0535879,14.653982],[104.0529642,14.6514623],[104.0562071,14.6516731],[104.0510237,14.636977],[104.0532318,14.6348019],[104.0512983,14.6329003],[104.0566311,14.627122],[104.0590575,14.613314],[104.0588182,14.6017608],[104.0557739,14.5887521],[104.0554077,14.5799004],[104.0524139,14.5734359],[104.0456568,14.5661472],[104.0468424,14.5555248],[104.031986,14.5441887],[104.0371381,14.5162532],[104.0350999,14.4982178],[104.0389353,14.495333],[104.0438275,14.4969511],[104.0479834,14.4938441],[104.0535977,14.4947222],[104.0515488,14.4930694],[104.0517606,14.4908688],[104.04924,14.4896523],[104.0493445,14.4848273],[104.0474061,14.4830469],[104.0515435,14.4758172],[104.0496735,14.4751526],[104.0517884,14.4742194],[104.0512885,14.4726417],[104.0580639,14.4690862],[104.0561436,14.4664645],[104.0585379,14.4637019],[104.0567835,14.4611806],[104.0590491,14.460285],[104.0577029,14.4595614],[104.0582772,14.4568029],[104.0537666,14.4547806],[104.0566354,14.4519175],[104.0546902,14.4507202],[104.0566088,14.4488607],[104.0539043,14.4474572],[104.055299,14.4460673],[104.0531703,14.4418033],[104.0541275,14.440653],[104.0534437,14.4383358],[104.0519021,14.438754],[104.05246,14.435064],[104.050406,14.4336281],[104.05179,14.4300793],[104.0505003,14.4298512],[104.0502549,14.4268653],[104.051827,14.4248724],[104.0507977,14.4234439],[104.05327,14.4134575],[104.0476615,14.4099647],[104.0468089,14.4078829],[104.0485281,14.3913324],[104.0468296,14.387364],[104.0506369,14.3790182],[104.0469361,14.3732376],[104.0464616,14.3673878],[104.0435205,14.3613425],[104.0478741,14.3566709],[104.052305,14.355991],[104.0566163,14.3453275]]]}}]}