{"type":"FeatureCollection","features":[{"type":"Feature","properties":{"id":"TH-LAO-4330102","nameTh":"ศรีสะเกษ","type":"town_municipality"},"geometry":{"type":"Polygon","coordinates":[[[104.3081012,15.10037],[104.3076364,15.1009366],[104.3068761,15.100598],[104.3069704,15.1021902],[104.3065166,15.1034906],[104.3051702,15.1051375],[104.3052345,15.1076028],[104.3054867,15.108535],[104.3060533,15.1083486],[104.3064991,15.108582],[104.3068854,15.1121861],[104.3060869,15.1123079],[104.3047942,15.1119608],[104.3035991,15.1110389],[104.3030255,15.1110904],[104.3029268,15.1120037],[104.30392,15.113566],[104.3019842,15.1161489],[104.3042636,15.1226317],[104.3091213,15.1319266],[104.3099847,15.1329713],[104.3115994,15.1336784],[104.3170319,15.134002],[104.3195793,15.1337015],[104.3224978,15.1340577],[104.3242927,15.1339329],[104.3253234,15.1335928],[104.3285727,15.1315382],[104.3301541,15.1311607],[104.3320837,15.1297871],[104.3325134,15.1297897],[104.333792,15.1304245],[104.3363388,15.1329286],[104.3361438,15.1343682],[104.3365027,15.1351674],[104.3379143,15.1347685],[104.3389242,15.1348731],[104.3400665,15.1343713],[104.34117,15.1328576],[104.3411839,15.1301418],[104.3414666,15.1297081],[104.3419237,15.1297488],[104.3428541,15.1306452],[104.3430231,15.1320092],[104.3436298,15.1322241],[104.3472417,15.1295227],[104.3481842,15.1272582],[104.3498987,15.1260844],[104.3487107,15.1242258],[104.3490677,15.1231117],[104.3500041,15.122795],[104.3527005,15.122963],[104.3549922,15.1217251],[104.3555764,15.1219283],[104.3571535,15.1238525],[104.3591078,15.1254312],[104.3609529,15.1274961],[104.3622017,15.1278296],[104.3627432,15.1270552],[104.3627737,15.1257926],[104.3606215,15.1236994],[104.3614361,15.1217491],[104.3657885,15.1179762],[104.3685777,15.117543],[104.3693947,15.1156967],[104.3689119,15.1147335],[104.3672417,15.1142316],[104.3661313,15.1129059],[104.3664317,15.1126055],[104.3674188,15.1129266],[104.3678801,15.1118442],[104.3685077,15.1114506],[104.3674314,15.1100776],[104.3668456,15.1077024],[104.365155,15.1077579],[104.3647036,15.1072422],[104.3638023,15.1046733],[104.3639552,15.1004601],[104.3653588,15.0985394],[104.3661474,15.0981458],[104.3635832,15.0975139],[104.3619578,15.0985964],[104.3611711,15.0979793],[104.361273,15.0968968],[104.3627571,15.0962709],[104.3635188,15.0954577],[104.363569,15.093235],[104.3628846,15.0926034],[104.3609814,15.0922621],[104.3602787,15.0916561],[104.3612784,15.0887289],[104.3607025,15.0882687],[104.3594097,15.0880978],[104.3591844,15.0876886],[104.3594974,15.0872062],[104.3605971,15.0869472],[104.3608403,15.0859537],[104.3600982,15.0855694],[104.3601553,15.0864093],[104.359771,15.0865898],[104.3579471,15.0857559],[104.3576126,15.0851507],[104.357854,15.0839277],[104.3573529,15.0830055],[104.3573409,15.0824876],[104.3578219,15.0818551],[104.3569581,15.0815508],[104.3564524,15.0825859],[104.3563838,15.0816975],[104.3558385,15.0814025],[104.3559174,15.0800869],[104.3555027,15.0797858],[104.3562276,15.0792933],[104.3556101,15.0785869],[104.3561605,15.078211],[104.3557108,15.0770768],[104.3563283,15.076986],[104.3562813,15.0762731],[104.35708,15.0760074],[104.3570312,15.0751006],[104.3559848,15.0753212],[104.3533013,15.0745859],[104.3532428,15.075406],[104.3525142,15.0761236],[104.3516385,15.0754742],[104.3512611,15.0744339],[104.3502599,15.0745419],[104.3503277,15.0731804],[104.3507408,15.0732943],[104.351009,15.0739781],[104.3513845,15.0739418],[104.3517195,15.0728491],[104.3509395,15.0719957],[104.3515098,15.0718328],[104.3515849,15.0714909],[104.3499541,15.0708072],[104.3505496,15.0695122],[104.3488951,15.0686637],[104.3484767,15.0674827],[104.3480798,15.0676277],[104.3480905,15.0680629],[104.3473953,15.0677484],[104.3474757,15.0666943],[104.3341112,15.0660527],[104.3090731,15.0956961],[104.3084479,15.0969688],[104.3092729,15.0996909],[104.3088204,15.1002593],[104.3081012,15.10037]]]}}]}