{"type":"FeatureCollection","features":[{"type":"Feature","properties":{"provinceCode":"54","nameTh":"แพร่","nameEn":"Phrae"},"geometry":{"type":"Polygon","coordinates":[[[99.8116519,17.8026406],[99.8110874,17.8040232],[99.8136775,17.8015906],[99.8171605,17.8031469],[99.819847,17.8012301],[99.8219849,17.8028465],[99.8248766,17.8007417],[99.8274551,17.8016736],[99.8295658,17.8004603],[99.8322085,17.802979],[99.8343823,17.798215],[99.8371563,17.7968394],[99.8386531,17.8003466],[99.842217,17.7978885],[99.8454034,17.8012819],[99.8493664,17.802124],[99.8522902,17.797761],[99.8548643,17.8005094],[99.8562596,17.7998518],[99.8567104,17.8018932],[99.8573077,17.7983496],[99.8597277,17.7979672],[99.860776,17.8001807],[99.8679976,17.8022042],[99.868667,17.8051441],[99.8706218,17.802093],[99.8728089,17.803871],[99.8762864,17.8012465],[99.8762494,17.8033905],[99.8784658,17.8055303],[99.878868,17.8018883],[99.8826721,17.8026264],[99.8839578,17.8099666],[99.8856313,17.8065834],[99.890897,17.8041038],[99.8944913,17.8071924],[99.9012279,17.8040268],[99.906901,17.8056877],[99.910935,17.8029657],[99.9120944,17.7980469],[99.9161199,17.797742],[99.9169761,17.7956975],[99.924917,17.7920571],[99.927061,17.7893083],[99.9323504,17.7901503],[99.9362513,17.782144],[99.9426543,17.780804],[99.9458995,17.7771379],[99.9493486,17.7770028],[99.9531698,17.779066],[99.9593215,17.778216],[99.9615493,17.7831653],[99.9609651,17.7915379],[99.9647528,17.7979396],[99.9698876,17.7994401],[99.9734248,17.7967039],[99.9774166,17.7967717],[99.984461,17.8025946],[99.9903814,17.8103699],[99.9908278,17.8155643],[99.9860308,17.8290863],[99.9901443,17.8297167],[99.9886102,17.8350401],[99.9947785,17.8307944],[100.0054119,17.8368937],[100.0116704,17.8329871],[100.0158498,17.8363286],[100.0247444,17.8395142],[100.0281332,17.8382187],[100.029507,17.8413744],[100.0324184,17.841069],[100.0339427,17.8440581],[100.0410234,17.8452221],[100.0434115,17.8479027],[100.050613,17.8389002],[100.0551773,17.836903],[100.0577193,17.8332876],[100.0632719,17.8405124],[100.076477,17.8382285],[100.0781743,17.8403178],[100.0807875,17.8399423],[100.0814068,17.8429967],[100.0885446,17.8426975],[100.0890872,17.8466887],[100.0952888,17.8510202],[100.1014015,17.847071],[100.1102109,17.8503271],[100.1130671,17.8549144],[100.1198343,17.858596],[100.1252152,17.85876],[100.1300454,17.856433],[100.1408447,17.8657177],[100.1442362,17.8668146],[100.1468022,17.8714461],[100.15829,17.8834985],[100.1593509,17.8886152],[100.1663058,17.8919786],[100.1695869,17.8910608],[100.1855899,17.9024535],[100.1954556,17.9059322],[100.2023324,17.9179341],[100.2075606,17.9169833],[100.2101383,17.9194197],[100.214943,17.9206595],[100.2150465,17.9283222],[100.2183207,17.9325571],[100.2178013,17.9357244],[100.2199003,17.9382416],[100.2258739,17.9401628],[100.2258332,17.9490769],[100.231316,17.9493551],[100.2349996,17.9551583],[100.2398759,17.9562704],[100.2463326,17.9614988],[100.2528272,17.9609147],[100.2623765,17.953298],[100.2689365,17.9543074],[100.2762035,17.9576693],[100.279871,17.9574135],[100.2863346,17.9490595],[100.2873057,17.9369663],[100.2994138,17.9390885],[100.3026776,17.9353186],[100.306824,17.9334145],[100.3090903,17.9281037],[100.3088014,17.9201815],[100.312107,17.9165479],[100.3130998,17.909078],[100.3173725,17.9087882],[100.3195845,17.9059605],[100.321079,17.9015178],[100.3249748,17.8974429],[100.3238006,17.8951058],[100.3257025,17.8913731],[100.3302476,17.8930222],[100.3346029,17.8890108],[100.3398077,17.8939984],[100.3420446,17.8942419],[100.3434758,17.8971887],[100.342566,17.9003295],[100.3489252,17.9092831],[100.3480145,17.9158292],[100.3531292,17.9189532],[100.3537931,17.9211041],[100.3584514,17.9228684],[100.3595545,17.9256308],[100.3585186,17.9322259],[100.3600386,17.9363021],[100.354537,17.9434191],[100.3545398,17.9472704],[100.3559179,17.9472481],[100.3545829,17.9526055],[100.3564027,17.9627779],[100.3503782,17.9832982],[100.3646004,17.9908885],[100.3694601,17.9962292],[100.3760503,18.0002258],[100.3791509,18.0038396],[100.3815461,18.0115858],[100.3883774,18.0147494],[100.3906295,18.0190894],[100.3940022,18.0210121],[100.4011543,18.0209215],[100.4080619,18.0240058],[100.4142975,18.0216974],[100.4153319,18.023213],[100.4177947,18.0296343],[100.4158303,18.0369574],[100.4083723,18.0475859],[100.4093058,18.0566058],[100.40335,18.0649832],[100.40981,18.0753164],[100.4012437,18.0832817],[100.3972202,18.0830177],[100.3957728,18.0862071],[100.3979578,18.0905844],[100.396526,18.0960324],[100.4000578,18.1004661],[100.3922921,18.1184771],[100.3964337,18.1276664],[100.3976281,18.1365601],[100.4100301,18.1416068],[100.4139619,18.1492256],[100.4144283,18.1536668],[100.4178324,18.1552931],[100.4367212,18.152319],[100.4413481,18.153424],[100.4469912,18.158547],[100.4482492,18.1663956],[100.4524369,18.173123],[100.4526992,18.1808311],[100.4514186,18.1835866],[100.4555887,18.1907898],[100.4600038,18.194833],[100.4577686,18.2071127],[100.4540514,18.2146486],[100.4588448,18.2177286],[100.4618376,18.2231153],[100.4608144,18.2292143],[100.4678807,18.2371858],[100.4680911,18.2449092],[100.4700636,18.2460741],[100.4726409,18.2556673],[100.4758528,18.2578383],[100.4761958,18.2650254],[100.4783481,18.2675795],[100.4811543,18.267659],[100.4847806,18.2702817],[100.4877488,18.2753875],[100.4940101,18.2786936],[100.4921519,18.284725],[100.4888258,18.2852811],[100.4834335,18.2901403],[100.4833993,18.2955689],[100.486361,18.2982996],[100.4849946,18.3044065],[100.4823799,18.3055393],[100.4798335,18.3185183],[100.4810681,18.3235786],[100.4850286,18.3247474],[100.4893377,18.3340333],[100.493086,18.3379718],[100.4875119,18.3422134],[100.4828142,18.341922],[100.4835229,18.3466919],[100.481456,18.3494055],[100.4978019,18.3529821],[100.498218,18.3574154],[100.5013954,18.3582668],[100.505675,18.3625634],[100.505975,18.37015],[100.5105009,18.3761173],[100.5103151,18.3816125],[100.5129291,18.3877925],[100.5174731,18.3924447],[100.5269762,18.3905615],[100.5328534,18.3920074],[100.5363963,18.3908199],[100.5411866,18.404861],[100.5460008,18.4068391],[100.5477774,18.4141333],[100.5505776,18.4170436],[100.5512337,18.4227894],[100.5498777,18.4265626],[100.5512935,18.4294617],[100.5483295,18.4317346],[100.5473087,18.4385908],[100.5505991,18.4499272],[100.549372,18.4582511],[100.5457773,18.4619805],[100.5465546,18.4654506],[100.5431815,18.4694357],[100.5418649,18.4892251],[100.5370663,18.4912952],[100.5341705,18.4903185],[100.5323381,18.485642],[100.5247812,18.483225],[100.5238461,18.4800769],[100.5193551,18.4764696],[100.5162121,18.4755311],[100.5121272,18.4767887],[100.5050408,18.4729535],[100.502974,18.4755037],[100.4939293,18.4740612],[100.48436,18.4803656],[100.477342,18.4886091],[100.4767117,18.4947852],[100.4713204,18.4918231],[100.4601808,18.4905392],[100.4545688,18.4960582],[100.4467608,18.4960548],[100.4440602,18.4898746],[100.4387209,18.4955736],[100.4368491,18.5018979],[100.4295354,18.4977478],[100.4216801,18.495589],[100.4183269,18.4900793],[100.4187731,18.4861752],[100.4146663,18.4805206],[100.4111552,18.4836891],[100.3993154,18.4857502],[100.4004379,18.4929899],[100.3955672,18.495862],[100.3974374,18.4970704],[100.3959614,18.5035996],[100.3895598,18.511638],[100.3869164,18.5119827],[100.3957105,18.5282155],[100.3952836,18.5330213],[100.3931754,18.5338365],[100.3899441,18.5402985],[100.386889,18.5427166],[100.3875587,18.5584151],[100.3709544,18.5670021],[100.3761518,18.575187],[100.3768486,18.5836385],[100.3793233,18.5872704],[100.3766276,18.592071],[100.3777778,18.593141],[100.3768178,18.6027916],[100.3781869,18.604521],[100.3781845,18.6132035],[100.3812054,18.6168737],[100.3806515,18.6211407],[100.3819064,18.6231383],[100.3846734,18.6250528],[100.3897891,18.6251868],[100.3922306,18.6276864],[100.392589,18.6383935],[100.3889713,18.6374749],[100.3860402,18.6393918],[100.3750695,18.6370744],[100.3685783,18.6387641],[100.364615,18.6437356],[100.3613069,18.6436794],[100.3592644,18.6490604],[100.3597012,18.6585315],[100.3557061,18.6595938],[100.3542244,18.6619889],[100.3575685,18.6665358],[100.3545068,18.6695793],[100.3561755,18.6731715],[100.3544037,18.6741241],[100.3547499,18.6768341],[100.3515796,18.6805543],[100.3588956,18.6900051],[100.3601955,18.6995489],[100.3638725,18.7038018],[100.3633156,18.7072237],[100.3677605,18.710093],[100.3709021,18.7099345],[100.3763544,18.7170792],[100.3778147,18.7228669],[100.3806129,18.7243081],[100.3801488,18.7253981],[100.3883975,18.7274653],[100.3874176,18.7320111],[100.3913692,18.739383],[100.3902145,18.7412153],[100.3838662,18.7390945],[100.3737013,18.740919],[100.3693008,18.7452277],[100.3654349,18.7458924],[100.3580651,18.7508238],[100.3573093,18.7612108],[100.3612293,18.7675155],[100.3589839,18.7719022],[100.3623376,18.7780361],[100.3560435,18.784598],[100.3467859,18.7864053],[100.3418377,18.7846067],[100.3370295,18.7870289],[100.3359683,18.7950417],[100.3403838,18.8059555],[100.3384021,18.813247],[100.333191,18.8121853],[100.3302227,18.8132852],[100.3259044,18.8106729],[100.3186645,18.8118616],[100.312536,18.8100965],[100.3020109,18.8185003],[100.2932476,18.8174657],[100.2783205,18.8210339],[100.2717846,18.8185587],[100.2680668,18.8200763],[100.2632261,18.8189612],[100.25773,18.8211457],[100.2554803,18.8190335],[100.2493825,18.8226863],[100.2414027,18.8195229],[100.2339265,18.8237347],[100.22604,18.8254853],[100.2218123,18.8209028],[100.2193294,18.8217963],[100.215875,18.8184219],[100.2093928,18.819192],[100.1990106,18.8145182],[100.1874653,18.8191335],[100.1764998,18.8134729],[100.1736494,18.8134478],[100.1653975,18.8191031],[100.1559326,18.8354709],[100.1531953,18.8327556],[100.1537206,18.8300628],[100.1491223,18.8272979],[100.1464214,18.8274836],[100.1446261,18.8245084],[100.1386922,18.8238738],[100.1334307,18.8171375],[100.1244018,18.8191384],[100.1166629,18.8189364],[100.1135927,18.8077855],[100.1162502,18.8036887],[100.1154915,18.7998823],[100.121475,18.7978611],[100.1259552,18.7866195],[100.1228025,18.7818023],[100.119256,18.7811809],[100.1145353,18.7764373],[100.1158128,18.7655042],[100.1083318,18.7622028],[100.1066689,18.7600315],[100.107304,18.7565412],[100.1002592,18.7521483],[100.1016318,18.7375514],[100.0975989,18.7345866],[100.0963219,18.7300793],[100.0986612,18.7241207],[100.1015027,18.7228348],[100.1002061,18.7153069],[100.1027108,18.7115004],[100.1029196,18.7046867],[100.1076492,18.7034056],[100.1084802,18.6912058],[100.1046674,18.6900952],[100.1040095,18.6879693],[100.1096943,18.6800569],[100.1089268,18.6762596],[100.1113479,18.6720633],[100.1082802,18.6656576],[100.1049454,18.6631958],[100.1064642,18.6516489],[100.1032429,18.6480472],[100.0995437,18.6289238],[100.1053969,18.6216022],[100.106184,18.6157429],[100.1102773,18.6144803],[100.1119364,18.6111859],[100.1162723,18.609764],[100.120827,18.6014398],[100.1130412,18.5921809],[100.1090133,18.5896207],[100.1117885,18.5771277],[100.1055188,18.5704958],[100.1090882,18.5600134],[100.1046994,18.5595777],[100.0949515,18.5698163],[100.0895746,18.5728268],[100.0785091,18.5628389],[100.0637004,18.5613079],[100.0555326,18.55695],[100.0553383,18.5493054],[100.0518609,18.5423019],[100.0527986,18.5376162],[100.0490592,18.5302204],[100.0565056,18.5267269],[100.052669,18.519312],[100.0534985,18.5148746],[100.0512467,18.5116927],[100.0496783,18.4976572],[100.0389324,18.4856655],[100.0315177,18.4707264],[100.0287772,18.4689165],[100.0230246,18.4691334],[100.0286365,18.4649055],[100.0218201,18.4477252],[100.004437,18.4453246],[100.010248,18.4431485],[100.0141693,18.4373467],[100.00617,18.4216694],[100.0044195,18.4150852],[100.0068903,18.4116918],[100.0021194,18.4076495],[100.0011016,18.4032344],[99.996625,18.4029608],[99.9904137,18.3987214],[99.987142,18.3916326],[99.976809,18.3908899],[99.9684884,18.3939681],[99.9666822,18.3932554],[99.9707764,18.3897787],[99.9684419,18.3847278],[99.9664996,18.3831029],[99.960663,18.3839762],[99.955445,18.3768171],[99.95013,18.3644636],[99.9509138,18.3563118],[99.9487795,18.3548458],[99.9434515,18.355136],[99.9397886,18.3518448],[99.9383172,18.345273],[99.9393513,18.3424597],[99.9369399,18.3367964],[99.9384043,18.334416],[99.9357693,18.3270721],[99.9262623,18.3122311],[99.9231574,18.3103137],[99.9197188,18.3009377],[99.9063392,18.2798879],[99.8957783,18.2797867],[99.8892204,18.2833205],[99.8872822,18.2818599],[99.8807192,18.2825708],[99.8786493,18.2795326],[99.8720231,18.2779158],[99.8635801,18.2799194],[99.8575981,18.2839089],[99.8564604,18.2793177],[99.858621,18.2756684],[99.856308,18.2735089],[99.8518645,18.262776],[99.8496971,18.261681],[99.8516227,18.258237],[99.8503138,18.2553597],[99.8447452,18.2562128],[99.8397797,18.245017],[99.8345623,18.2402677],[99.8334301,18.2355742],[99.8281842,18.2377326],[99.8216631,18.2375103],[99.8103011,18.2265929],[99.8015997,18.214956],[99.799483,18.1994994],[99.7906044,18.191476],[99.7887512,18.1848774],[99.7862209,18.1839611],[99.7835562,18.1788451],[99.7789747,18.1746807],[99.7720637,18.1625588],[99.758927,18.1480807],[99.7538675,18.1399554],[99.7563031,18.1361482],[99.7544708,18.1299668],[99.7620163,18.1234233],[99.759897,18.120492],[99.7549608,18.1200085],[99.7467105,18.1114276],[99.7391531,18.1085386],[99.7360676,18.1028139],[99.7344839,18.0951546],[99.7269397,18.0874359],[99.7250493,18.0805145],[99.7224167,18.0778328],[99.7228777,18.0754363],[99.7200669,18.0736353],[99.7198277,18.070085],[99.7155674,18.0716147],[99.7096579,18.0686427],[99.7052189,18.0705196],[99.700334,18.0669211],[99.6904788,18.0650439],[99.6893112,18.0633568],[99.6915412,18.055523],[99.6842747,18.0517235],[99.6802186,18.0457964],[99.6688257,18.0416774],[99.6594604,18.0410573],[99.65097,18.0522935],[99.6503061,18.0566204],[99.6418457,18.0556289],[99.6347478,18.0613452],[99.6313289,18.0622953],[99.6275993,18.0607596],[99.6187951,18.0485888],[99.6137983,18.0479551],[99.6100382,18.0498246],[99.6010674,18.0398347],[99.5850043,18.0352073],[99.5847532,18.0330873],[99.5888407,18.0268292],[99.5881011,18.0225369],[99.5916239,18.0180127],[99.5913705,18.013918],[99.5946185,18.0111401],[99.5946069,18.00891],[99.578926,17.9994297],[99.5763637,17.9955362],[99.5721269,17.9956077],[99.5641323,17.9909691],[99.5614849,17.9865199],[99.5612816,17.9781711],[99.5583614,17.9743621],[99.5492342,17.9713041],[99.546408,17.9724027],[99.5417008,17.968843],[99.538331,17.9623808],[99.5331682,17.9618202],[99.5227243,17.9569149],[99.5214919,17.9515479],[99.5117778,17.9432716],[99.5065082,17.9427014],[99.5014868,17.9372192],[99.49786,17.9267994],[99.485816,17.9197301],[99.4830367,17.9201895],[99.4841498,17.9164585],[99.4783806,17.9032207],[99.4763032,17.9016029],[99.4771876,17.8985364],[99.4749053,17.8942798],[99.4687935,17.8925613],[99.4687955,17.8892121],[99.4636678,17.8830457],[99.4572593,17.8826218],[99.4531072,17.8795102],[99.4480103,17.8695914],[99.4437071,17.8678187],[99.4420658,17.8637427],[99.437598,17.8637679],[99.4288866,17.8577812],[99.4277422,17.8526565],[99.4219375,17.848981],[99.4202432,17.8428527],[99.4168757,17.8424864],[99.4114789,17.8249381],[99.4044232,17.8231614],[99.4007154,17.8178377],[99.3926459,17.8146998],[99.3938143,17.8085899],[99.38539,17.7902516],[99.3771776,17.7822533],[99.3690529,17.7777313],[99.3675728,17.7734879],[99.3738028,17.7628129],[99.3773875,17.7605004],[99.3810118,17.7547655],[99.3791633,17.7461671],[99.381113,17.7416832],[99.3789602,17.7400485],[99.3796906,17.7356477],[99.3767298,17.7334555],[99.3767824,17.7268298],[99.3797362,17.7224426],[99.3858289,17.7222179],[99.3844247,17.7146119],[99.3795745,17.7115619],[99.3816773,17.7083387],[99.3805203,17.7059732],[99.3814709,17.7026325],[99.3892036,17.6973232],[99.3872059,17.6875566],[99.402515,17.6972787],[99.4051886,17.6968153],[99.4077015,17.7001619],[99.4153323,17.7039619],[99.4220808,17.7100758],[99.4296743,17.7103004],[99.4322006,17.7083515],[99.4426479,17.7075338],[99.4489883,17.7090471],[99.4532518,17.7121063],[99.4581339,17.7221882],[99.455369,17.7250779],[99.4561748,17.7279138],[99.459363,17.7293814],[99.4596092,17.7322647],[99.4624728,17.7334075],[99.4641697,17.7369181],[99.4710508,17.7378681],[99.4743369,17.7413565],[99.4817242,17.7449726],[99.4843541,17.7547555],[99.4874675,17.7581776],[99.486711,17.762813],[99.4929122,17.7682229],[99.4961935,17.768964],[99.4985938,17.7743065],[99.5058554,17.7796308],[99.5104035,17.7824701],[99.5134871,17.781479],[99.5152556,17.7828045],[99.5144526,17.7886275],[99.517383,17.7915376],[99.5163251,17.7943259],[99.5190261,17.7974299],[99.539835,17.8048365],[99.5419479,17.8095949],[99.547615,17.8119334],[99.566072,17.8113025],[99.5690366,17.8126244],[99.5712028,17.8161002],[99.5829125,17.8161071],[99.5916174,17.8201386],[99.5971862,17.8199727],[99.5991825,17.8216562],[99.6064768,17.8193882],[99.6079686,17.8162577],[99.6148534,17.8178017],[99.6213817,17.81303],[99.6252767,17.8122038],[99.6270905,17.8144857],[99.6296233,17.8144291],[99.6350493,17.8087628],[99.6359879,17.8053994],[99.64057,17.8050112],[99.6425713,17.8015732],[99.6448103,17.802349],[99.6507323,17.7960181],[99.670695,17.7992519],[99.6738018,17.7906092],[99.6795579,17.7869495],[99.6863351,17.7772746],[99.6850123,17.7733022],[99.6878993,17.7721629],[99.6920561,17.7648686],[99.6908062,17.7591113],[99.6942254,17.7599932],[99.6978727,17.7562276],[99.7066948,17.7575533],[99.7090047,17.7510423],[99.7080365,17.7479697],[99.7102461,17.7445873],[99.7096996,17.738077],[99.7138056,17.7365473],[99.715503,17.7321284],[99.7205747,17.7316012],[99.7202046,17.7301705],[99.722993,17.72946],[99.7251666,17.7252141],[99.7242322,17.7229962],[99.7260303,17.7211774],[99.7307285,17.721913],[99.7311265,17.7234257],[99.7357936,17.7228483],[99.7365971,17.7242481],[99.7347904,17.7262565],[99.7409745,17.728617],[99.7416665,17.7314272],[99.7444134,17.7326725],[99.7449829,17.736381],[99.7486406,17.7350127],[99.7526647,17.7391759],[99.7532065,17.7453093],[99.7567685,17.7489061],[99.7516508,17.749509],[99.7505879,17.7524301],[99.7551914,17.7523802],[99.7560443,17.7554303],[99.761119,17.758184],[99.7610592,17.7617844],[99.7627812,17.7593679],[99.7652926,17.7609223],[99.7687956,17.7712014],[99.7714295,17.7712931],[99.7722396,17.7748999],[99.7770783,17.7771118],[99.7755923,17.7799519],[99.7730603,17.7788585],[99.7724541,17.7806155],[99.7757524,17.7814671],[99.7766911,17.78704],[99.7821843,17.7884447],[99.7823774,17.7908046],[99.7862184,17.7909221],[99.7874736,17.7930214],[99.789336,17.7929467],[99.7902586,17.7909955],[99.7914335,17.7923644],[99.7964438,17.7921346],[99.7985735,17.7958633],[99.8021086,17.7955767],[99.8038092,17.8005879],[99.8075106,17.8027943],[99.8099353,17.801308],[99.8116519,17.8026406]]]}}]}