{"type":"FeatureCollection","features":[{"type":"Feature","properties":{"provinceCode":"47","nameTh":"สกลนคร","nameEn":"Sakon Nakhon"},"geometry":{"type":"Polygon","coordinates":[[[103.5425468,18.0646339],[103.5389154,18.0732365],[103.546734,18.0778998],[103.543279,18.0806788],[103.5424425,18.0880472],[103.5402511,18.0889458],[103.5367363,18.0851165],[103.5372427,18.0782022],[103.5348609,18.0747924],[103.5367364,18.0681632],[103.5318338,18.069904],[103.5272046,18.0664021],[103.5258774,18.069472],[103.5194053,18.0708391],[103.5164407,18.0742595],[103.5144754,18.0741327],[103.5045318,18.0681895],[103.505602,18.0616247],[103.5043552,18.0583013],[103.4980209,18.0621852],[103.4968889,18.0652706],[103.4933255,18.0601171],[103.4965901,18.0564043],[103.4955374,18.0557711],[103.4940146,18.058015],[103.4924586,18.0547004],[103.4955623,18.0538099],[103.494149,18.0507327],[103.4975154,18.04882],[103.4981424,18.0417564],[103.4944464,18.04176],[103.4954486,18.0380031],[103.4924579,18.039256],[103.4913353,18.0377068],[103.496824,18.032447],[103.4980799,18.0273715],[103.4985019,18.0200138],[103.4961106,18.0218996],[103.4946922,18.0173561],[103.4974915,18.0167605],[103.496599,18.0151183],[103.499036,18.0137693],[103.5001356,18.0072223],[103.5029092,18.0058404],[103.5024146,18.0038854],[103.5039153,18.0022512],[103.503317,17.9959347],[103.497921,17.9977369],[103.4971152,17.9967504],[103.4985503,17.9951041],[103.4941999,17.9939469],[103.4981199,17.9902684],[103.4913635,17.9878691],[103.4867036,17.9942982],[103.481798,17.997149],[103.4781617,18.0036007],[103.4748933,18.0055407],[103.4715225,18.0052159],[103.4732742,17.9987114],[103.4685786,18.0005586],[103.4669802,17.9917525],[103.4642859,17.9890639],[103.4544121,17.9908063],[103.4490164,17.9943942],[103.4437461,17.991133],[103.4386026,17.9842653],[103.4378824,17.9809554],[103.4440411,17.9798185],[103.4464317,17.9752768],[103.4500592,17.9784374],[103.4515395,17.9775726],[103.4507193,17.9730321],[103.4459612,17.9670887],[103.4389233,17.9691424],[103.4391929,17.9750967],[103.4321214,17.9754071],[103.4299009,17.9768458],[103.4263085,17.975906],[103.4258163,17.9790986],[103.4302779,17.981456],[103.4298724,17.9831499],[103.4093695,17.9867447],[103.4071095,17.9935056],[103.4010049,17.9882625],[103.3992347,17.9813714],[103.3950606,17.9829128],[103.3910664,17.9868887],[103.3867668,17.980858],[103.3874341,17.9790318],[103.3908183,17.9802697],[103.3919115,17.9790755],[103.3887494,17.9718694],[103.3890429,17.9574215],[103.3936633,17.9567459],[103.3977413,17.9581941],[103.408012,17.9501592],[103.4099287,17.9466772],[103.4043492,17.9430496],[103.4102469,17.9421565],[103.4127156,17.9342101],[103.4123974,17.9312989],[103.407515,17.9315834],[103.4043288,17.9289297],[103.4024317,17.9303904],[103.3985369,17.928464],[103.3981056,17.9313696],[103.3950806,17.9330424],[103.3938698,17.9298127],[103.3959457,17.9284321],[103.3942774,17.9246276],[103.3958932,17.9229019],[103.3989353,17.9242009],[103.4004706,17.9175154],[103.3968032,17.9076996],[103.400275,17.9042086],[103.4075136,17.9045],[103.4092462,17.9014279],[103.4128618,17.9010801],[103.4138425,17.8976337],[103.4118359,17.8967311],[103.4110025,17.8930411],[103.4139189,17.8911758],[103.4138647,17.8871988],[103.417753,17.8825339],[103.416361,17.8792918],[103.4148479,17.8813614],[103.4093461,17.87766],[103.4075206,17.8792865],[103.4056114,17.8773879],[103.4032185,17.8679829],[103.4081389,17.8610099],[103.4069023,17.8587279],[103.4020104,17.8570514],[103.3952483,17.8572656],[103.3937132,17.8556898],[103.39719,17.8516506],[103.398304,17.8459205],[103.4050139,17.8499535],[103.4138775,17.8427818],[103.420252,17.8432776],[103.4225623,17.8419882],[103.4180846,17.8402882],[103.4169669,17.8363954],[103.4133397,17.8341882],[103.408927,17.8357515],[103.4022646,17.8430146],[103.4046922,17.8366487],[103.4016841,17.8311793],[103.3998299,17.8305878],[103.3948396,17.8328173],[103.3990332,17.8403423],[103.3976201,17.8427424],[103.3861749,17.8427232],[103.38015,17.839945],[103.3800538,17.8372888],[103.3875459,17.8329932],[103.3900225,17.829211],[103.3865896,17.8210159],[103.382379,17.819415],[103.3807235,17.8219404],[103.3792634,17.8217188],[103.3797621,17.815887],[103.3772865,17.8159972],[103.3773354,17.8143412],[103.376278,17.815259],[103.3748352,17.8136163],[103.3755382,17.8122439],[103.3767863,17.8135759],[103.3811447,17.812616],[103.3819222,17.809288],[103.380002,17.8099017],[103.3801948,17.8074039],[103.377737,17.8090394],[103.3755272,17.8055618],[103.377262,17.8036374],[103.3740167,17.8024762],[103.3787987,17.7960119],[103.3758577,17.7949038],[103.3769919,17.7927893],[103.3750373,17.7920018],[103.3730722,17.7937959],[103.3702865,17.7891621],[103.3713679,17.7921148],[103.3690149,17.7946673],[103.3668609,17.7901858],[103.3671756,17.7888151],[103.3681992,17.790362],[103.3691779,17.789124],[103.3691787,17.7855394],[103.3680458,17.7864089],[103.3675544,17.7845333],[103.3703157,17.7844359],[103.3710924,17.7813578],[103.367924,17.7808351],[103.3697509,17.7768457],[103.3695104,17.7785925],[103.3736231,17.7783655],[103.3732154,17.7767001],[103.3767482,17.7746178],[103.3766954,17.7721628],[103.3807142,17.7695999],[103.3770397,17.7639079],[103.3842561,17.7530107],[103.3877652,17.7524851],[103.3891345,17.7544046],[103.3930836,17.7535301],[103.391725,17.7552996],[103.394037,17.7563957],[103.3954564,17.7539462],[103.3978879,17.7582624],[103.4013408,17.7575402],[103.4093073,17.7338391],[103.4041731,17.7335232],[103.4050465,17.7322208],[103.4078002,17.7331734],[103.4075378,17.7303074],[103.4106101,17.7293022],[103.4046663,17.7253759],[103.4082704,17.7212954],[103.4044353,17.7217171],[103.4044217,17.7197429],[103.4031018,17.7204836],[103.4008054,17.7185185],[103.4027829,17.7170733],[103.402687,17.7125676],[103.4050152,17.714477],[103.4060954,17.7111939],[103.4031753,17.710636],[103.4050199,17.7094551],[103.4039973,17.7070614],[103.4060885,17.7060285],[103.4046362,17.7056579],[103.4058632,17.7015516],[103.4036441,17.7025074],[103.4028074,17.699853],[103.4034422,17.6983088],[103.4052829,17.6989314],[103.4028963,17.6963119],[103.4056522,17.6961868],[103.4057051,17.6940992],[103.4015111,17.6923392],[103.4030429,17.6912244],[103.4015675,17.6896551],[103.4030935,17.689023],[103.4008925,17.6848957],[103.4038117,17.6839958],[103.4026328,17.6815824],[103.4038087,17.6816122],[103.4037938,17.678977],[103.4023975,17.6778617],[103.4049343,17.6772701],[103.4035938,17.6755021],[103.4057151,17.6746737],[103.4035861,17.6732138],[103.4051447,17.6732775],[103.4073214,17.6682581],[103.4041622,17.6661617],[103.4041192,17.6614673],[103.4021865,17.6610209],[103.4010254,17.6582969],[103.4030762,17.6543439],[103.4008565,17.6542256],[103.3991393,17.6518705],[103.3983313,17.6475856],[103.3996271,17.6466597],[103.3981839,17.6427763],[103.400924,17.6411884],[103.4015499,17.6348956],[103.3982482,17.6253653],[103.399363,17.6222969],[103.401742,17.6210077],[103.3972676,17.6178932],[103.4005886,17.6125597],[103.3985359,17.6112689],[103.3991533,17.6094145],[103.4028163,17.6064308],[103.4020597,17.6042081],[103.4041422,17.6044919],[103.4037025,17.6030454],[103.4066123,17.6038173],[103.4059056,17.6021841],[103.4075508,17.6022227],[103.4058838,17.5994645],[103.408693,17.6007454],[103.4112181,17.5950999],[103.4087374,17.5953017],[103.4091336,17.5925489],[103.4077423,17.5914892],[103.4062491,17.5936888],[103.4030863,17.5909705],[103.4013366,17.5925926],[103.3984624,17.5924011],[103.3991133,17.5950978],[103.3973001,17.594377],[103.3968017,17.5958434],[103.3943405,17.594278],[103.39363,17.5913631],[103.3911712,17.592322],[103.3913466,17.5941075],[103.3844273,17.594696],[103.3841469,17.5909934],[103.3812653,17.5893857],[103.3799883,17.5926247],[103.3760996,17.5927954],[103.3763514,17.5865956],[103.3783661,17.5876797],[103.3787672,17.5852045],[103.3754272,17.5846358],[103.3779219,17.5827781],[103.3780812,17.5804144],[103.3764445,17.5810336],[103.3743005,17.5791647],[103.3743769,17.5806079],[103.3714479,17.5805049],[103.3708687,17.5850129],[103.3681567,17.5856045],[103.3671382,17.5881554],[103.3656536,17.5873082],[103.3627491,17.590299],[103.3611624,17.5881295],[103.3604907,17.5916772],[103.3551132,17.5897685],[103.3536068,17.5851611],[103.350226,17.5878338],[103.3497355,17.5839764],[103.3476115,17.5853227],[103.3477987,17.5827784],[103.3436075,17.5783704],[103.3403928,17.5788893],[103.3399529,17.5772174],[103.3377987,17.5783089],[103.3390689,17.5764182],[103.3366174,17.5769023],[103.3384796,17.5752927],[103.3371151,17.5730144],[103.3403671,17.5709714],[103.3390123,17.5692045],[103.3404503,17.5695262],[103.3395162,17.5675755],[103.3366296,17.5674217],[103.336273,17.5615822],[103.3343643,17.5605851],[103.3356052,17.5579416],[103.3342996,17.5571361],[103.3323119,17.558575],[103.3316083,17.5540354],[103.3294638,17.5523943],[103.3312202,17.5510893],[103.3280035,17.5497418],[103.3234792,17.5545615],[103.3215505,17.5538276],[103.3223745,17.550759],[103.3203694,17.5488354],[103.3217832,17.5478145],[103.3214195,17.5455714],[103.3190917,17.5459746],[103.318974,17.538524],[103.3175081,17.5384766],[103.3178316,17.5355947],[103.316742,17.5367078],[103.3159515,17.5364458],[103.3177862,17.5341092],[103.315537,17.5348443],[103.3169579,17.5323538],[103.3147697,17.5321223],[103.3168168,17.5300273],[103.3171547,17.528178],[103.3152614,17.5264172],[103.3170673,17.5263701],[103.3169628,17.5238665],[103.313334,17.5218439],[103.313846,17.5198782],[103.31182,17.5201871],[103.3050732,17.5131728],[103.3026266,17.5126202],[103.3012745,17.5108586],[103.3026316,17.5090841],[103.3001914,17.5050744],[103.2986908,17.5055568],[103.2950033,17.5010543],[103.2899988,17.5017395],[103.2884691,17.4996364],[103.2903603,17.4985679],[103.2864506,17.4976013],[103.2865511,17.4960173],[103.2889272,17.496208],[103.2876663,17.4950724],[103.2878421,17.4901188],[103.2911124,17.4875698],[103.2891054,17.4856874],[103.2904425,17.4843569],[103.2890895,17.4848043],[103.2853574,17.4817668],[103.2883696,17.4759284],[103.286633,17.4726025],[103.2901888,17.468056],[103.2878878,17.4671547],[103.2873347,17.4624947],[103.2850163,17.4625822],[103.285743,17.4600205],[103.2869744,17.4610187],[103.2863075,17.4581606],[103.2850083,17.457131],[103.2844384,17.4590001],[103.2821563,17.458856],[103.2808062,17.4566518],[103.281256,17.4505489],[103.2777484,17.4485626],[103.2773074,17.4468338],[103.2787905,17.445995],[103.2750722,17.4450809],[103.2762198,17.4440854],[103.274492,17.4434265],[103.2756506,17.4429332],[103.2745858,17.4397982],[103.2771158,17.4383513],[103.2759255,17.4374926],[103.2773904,17.4336063],[103.2809842,17.4318812],[103.2804788,17.4278019],[103.2835799,17.4263298],[103.2818672,17.4241993],[103.2828396,17.4231049],[103.2813028,17.4226924],[103.282899,17.4180513],[103.2813131,17.415721],[103.2851705,17.415472],[103.2850564,17.4126381],[103.287871,17.4121883],[103.2884424,17.4070783],[103.2930938,17.4035042],[103.2948938,17.3982706],[103.3013816,17.3952799],[103.3015249,17.3898867],[103.2978335,17.3891416],[103.2955905,17.3866776],[103.2912171,17.3777209],[103.2920399,17.3758346],[103.2908042,17.3741058],[103.288064,17.3748021],[103.2881097,17.3713323],[103.2831965,17.36895],[103.2834774,17.3656921],[103.2813271,17.3618749],[103.2823302,17.3602991],[103.2791878,17.3578344],[103.2788026,17.3552557],[103.2750679,17.3536923],[103.2763652,17.3506514],[103.2723832,17.3492851],[103.271558,17.3413635],[103.2731406,17.3382992],[103.2711611,17.3381949],[103.2713483,17.3367213],[103.2689013,17.3352263],[103.2712087,17.3325449],[103.2671452,17.3305473],[103.2670092,17.3284373],[103.2568836,17.3276752],[103.2574915,17.325927],[103.255459,17.3248407],[103.2564668,17.3227587],[103.2548133,17.3214922],[103.256102,17.3203816],[103.2506949,17.3128979],[103.2528734,17.3101642],[103.2571282,17.3095748],[103.2587792,17.3053554],[103.2574172,17.3026064],[103.2604635,17.2958486],[103.2629484,17.2945873],[103.2612529,17.2929642],[103.2626453,17.2895424],[103.2672904,17.2861997],[103.2689755,17.2826702],[103.2744842,17.2802175],[103.2730088,17.2736065],[103.2749464,17.2704236],[103.2828672,17.2664273],[103.2865575,17.2711887],[103.2886982,17.2698518],[103.288699,17.267187],[103.2939485,17.2679646],[103.2934869,17.2701637],[103.2958251,17.2707366],[103.2982171,17.2706833],[103.2981356,17.2682496],[103.2995008,17.2695888],[103.3014554,17.2680566],[103.3071881,17.2708237],[103.3072662,17.2676156],[103.3141724,17.2675571],[103.3136616,17.2657958],[103.3167166,17.2631054],[103.3225726,17.2625561],[103.324577,17.2642945],[103.3249358,17.2623504],[103.327706,17.2618252],[103.3285736,17.2567978],[103.3363236,17.2584425],[103.3372059,17.2551901],[103.338744,17.2564165],[103.3456885,17.2541057],[103.3480872,17.255803],[103.3518229,17.2552344],[103.3553194,17.2508399],[103.3530688,17.249195],[103.3539588,17.2481589],[103.3522586,17.2443017],[103.3543824,17.244456],[103.3551821,17.242382],[103.358412,17.2426622],[103.3577441,17.2401066],[103.3611993,17.2358727],[103.3657791,17.2345718],[103.3693751,17.2358259],[103.3698374,17.237545],[103.3735811,17.2352032],[103.3758564,17.236837],[103.3829235,17.2278527],[103.3854739,17.2282853],[103.3858784,17.2302402],[103.3927127,17.2264634],[103.3949538,17.2275922],[103.3966909,17.2235412],[103.4007576,17.2247716],[103.4022554,17.2229554],[103.4017199,17.2206766],[103.4047027,17.220582],[103.4075689,17.2166986],[103.4103328,17.2171355],[103.416916,17.2123856],[103.4199594,17.2144884],[103.4194921,17.2168136],[103.4214701,17.2193902],[103.4278168,17.2212228],[103.4308327,17.220021],[103.4304952,17.2164403],[103.4359487,17.2154256],[103.4371141,17.2137597],[103.4404877,17.2132538],[103.4472371,17.2173388],[103.4503375,17.2156679],[103.4499091,17.2139878],[103.4516211,17.212565],[103.4571946,17.2152211],[103.4591342,17.2178121],[103.4636039,17.2175994],[103.4685095,17.2230325],[103.4702597,17.2299164],[103.4728241,17.2255771],[103.4717105,17.2216908],[103.4746029,17.2177885],[103.5080746,17.2005977],[103.5474891,17.1748886],[103.5548801,17.1718806],[103.5590347,17.1659163],[103.5661327,17.1612049],[103.5678634,17.1571888],[103.5721867,17.1571199],[103.5809046,17.1620765],[103.590844,17.1712702],[103.6010654,17.1692614],[103.6060138,17.1611311],[103.6112639,17.1584283],[103.6138751,17.1504272],[103.6195229,17.1508769],[103.6218707,17.1492549],[103.6234263,17.1414201],[103.6284008,17.1356925],[103.6362434,17.1207527],[103.6377648,17.1118794],[103.6448421,17.1146995],[103.656393,17.114075],[103.6638596,17.1103258],[103.6681182,17.1057923],[103.6657543,17.1023186],[103.6625849,17.0898827],[103.6560818,17.0835162],[103.6541504,17.0738403],[103.6555234,17.0689019],[103.6616511,17.0658772],[103.6620123,17.0609468],[103.6663397,17.0544913],[103.6598625,17.0368995],[103.6597783,17.0284368],[103.6621202,17.0196152],[103.6742237,17.0208523],[103.6764065,17.0249212],[103.6747864,17.0294962],[103.6772976,17.0317729],[103.6839917,17.0296148],[103.6866764,17.0324401],[103.6942756,17.0340339],[103.7041908,17.0245002],[103.7055212,17.0206554],[103.7106915,17.0199089],[103.7197013,17.0155058],[103.7259432,17.0106364],[103.7302237,17.0031863],[103.7202963,16.9898803],[103.7185265,16.9845736],[103.7203252,16.9813971],[103.7227281,16.9805246],[103.7273018,16.9824211],[103.7330711,16.9884701],[103.7386149,16.9902896],[103.7405504,16.9872587],[103.736671,16.98463],[103.7361905,16.9824714],[103.7418299,16.9777547],[103.742122,16.9746603],[103.7399994,16.9712708],[103.7499897,16.9733087],[103.7631558,16.9643078],[103.7686355,16.9671319],[103.7835282,16.9583529],[103.7759551,16.9424174],[103.7788778,16.9338696],[103.7813241,16.9090458],[103.789112,16.9037182],[103.7922764,16.8956793],[103.7890863,16.888257],[103.7996614,16.8839949],[103.8060418,16.8846008],[103.8060168,16.8790145],[103.8076228,16.8775059],[103.8216332,16.8744796],[103.8241145,16.8706932],[103.8243035,16.8658584],[103.8356791,16.8650704],[103.8366882,16.8591136],[103.8354624,16.8492476],[103.8398644,16.846107],[103.8437011,16.8392019],[103.8523623,16.8382075],[103.861598,16.8332519],[103.8694865,16.8324275],[103.8737061,16.8292942],[103.8749678,16.8184891],[103.8794603,16.8192825],[103.8835681,16.8157361],[103.8880153,16.8164473],[103.8922023,16.8112869],[103.8964506,16.810651],[103.9015994,16.8054529],[103.9203385,16.7943324],[103.9232473,16.7890721],[103.931542,16.7893006],[103.9351319,16.7879151],[103.9364433,16.7853745],[103.9359513,16.7749534],[103.9376646,16.7726864],[103.9427188,16.7724469],[103.9505727,16.7762119],[103.9526875,16.7791189],[103.9490439,16.7885722],[103.955066,16.8001866],[103.9537844,16.8061863],[103.9561895,16.8190075],[103.9611673,16.819602],[103.9677651,16.8116235],[103.9694921,16.8115786],[103.9776922,16.8199353],[103.9817444,16.8350871],[103.9895618,16.8333201],[104.0001855,16.8370351],[104.0049575,16.84162],[104.0113747,16.8438367],[104.0142865,16.8493734],[104.022814,16.8559391],[104.0298863,16.8520579],[104.0357343,16.8461121],[104.0445151,16.8426386],[104.0520447,16.8424025],[104.068712,16.83804],[104.0694571,16.8351145],[104.0674447,16.8283613],[104.0701069,16.8212999],[104.0745811,16.8267646],[104.0880056,16.8263613],[104.1042652,16.8349664],[104.1045468,16.8519569],[104.1178724,16.8549734],[104.1238099,16.8611495],[104.1193561,16.8803063],[104.1205719,16.884628],[104.1245516,16.8885058],[104.1327455,16.8861107],[104.1608378,16.8887008],[104.169035,16.8862165],[104.1778982,16.8883889],[104.1816363,16.8862934],[104.1822819,16.882253],[104.185328,16.8825937],[104.1944437,16.8762063],[104.1977384,16.8771744],[104.1993618,16.8754207],[104.2018965,16.8761047],[104.2082948,16.8729821],[104.2091588,16.8778367],[104.2178707,16.8914193],[104.2251125,16.8934485],[104.2309942,16.892089],[104.2336901,16.8937432],[104.2413797,16.8932578],[104.2453051,16.9018258],[104.2533573,16.908643],[104.2588252,16.9105253],[104.2667773,16.9204232],[104.2858216,16.9289571],[104.3014591,16.9271359],[104.3106113,16.9456944],[104.3159259,16.9618475],[104.3210525,16.9675237],[104.3175353,16.976298],[104.3246487,16.9777592],[104.3306942,16.9752719],[104.334102,16.9767414],[104.3338534,16.979058],[104.3360407,16.9799628],[104.336607,16.9823149],[104.3418184,16.9834218],[104.3422833,16.9820424],[104.3436672,16.9853637],[104.351252,16.9846455],[104.3524877,16.9860701],[104.3514356,16.987243],[104.3548211,16.9890798],[104.3524611,16.9933966],[104.355838,16.9989116],[104.3547464,17.0024286],[104.3583877,17.0045522],[104.356534,17.0059297],[104.3605026,17.0064379],[104.3618487,17.0088516],[104.3672943,17.0071073],[104.3697854,17.0099999],[104.3717434,17.0093296],[104.3749202,17.0120784],[104.3749458,17.0155161],[104.3782746,17.0171314],[104.3846768,17.0151311],[104.3856103,17.01586],[104.3842785,17.0172643],[104.3869217,17.0168519],[104.3887457,17.0190052],[104.3889812,17.0165567],[104.3910072,17.0173869],[104.3919376,17.0161664],[104.391322,17.0203862],[104.3956085,17.0226206],[104.3976813,17.0215877],[104.3975231,17.0245239],[104.3992798,17.0267241],[104.3989487,17.0281443],[104.3964457,17.027329],[104.3947993,17.0286607],[104.3968314,17.0327611],[104.3950048,17.0332175],[104.3966869,17.0344225],[104.3945829,17.0375114],[104.3902227,17.0370733],[104.3913005,17.0347946],[104.3883503,17.0359786],[104.3861573,17.0345053],[104.3855468,17.0361255],[104.3831679,17.0364449],[104.3854933,17.0406129],[104.3837751,17.0424714],[104.3852508,17.0445679],[104.3844394,17.0461334],[104.3827882,17.0453017],[104.3791669,17.0478233],[104.3778656,17.0462567],[104.3764437,17.0490596],[104.3746617,17.049001],[104.3755273,17.050014],[104.3731035,17.0508914],[104.3741813,17.0526422],[104.3711267,17.0522192],[104.3713758,17.0543456],[104.3666193,17.0544411],[104.3626423,17.057295],[104.3646849,17.059981],[104.363386,17.060319],[104.3631754,17.0634768],[104.3612341,17.0630186],[104.3618421,17.0653445],[104.3579019,17.0629175],[104.3594781,17.0611409],[104.3577391,17.0612733],[104.3571798,17.0586231],[104.3556451,17.0580037],[104.3543127,17.0604116],[104.3528184,17.059585],[104.3513284,17.0685328],[104.3526441,17.0708224],[104.3542922,17.0700175],[104.3560779,17.0714372],[104.3586499,17.069879],[104.3621757,17.0728676],[104.3606591,17.0790276],[104.3640241,17.0804438],[104.3606796,17.0823244],[104.3598429,17.0855651],[104.3615846,17.0850921],[104.3615306,17.0876718],[104.3599021,17.0897222],[104.3622741,17.0898958],[104.3600835,17.091169],[104.3606738,17.093001],[104.358979,17.0953205],[104.3618712,17.0963399],[104.365231,17.1048835],[104.3662713,17.1058709],[104.3721312,17.1031627],[104.3771212,17.1043747],[104.3803096,17.1092485],[104.3897429,17.1126923],[104.3918962,17.1121433],[104.3932721,17.1223595],[104.3908627,17.1228459],[104.403187,17.1359622],[104.4088194,17.1386542],[104.4011643,17.1401094],[104.3972875,17.143131],[104.3906756,17.1451743],[104.3886872,17.1481835],[104.3910767,17.1571782],[104.3913848,17.1778555],[104.3945527,17.1838306],[104.402242,17.1883483],[104.4065655,17.1929026],[104.4075525,17.1989867],[104.4168549,17.2169238],[104.429058,17.2347573],[104.435278,17.2400159],[104.4329726,17.2424302],[104.4299913,17.2426953],[104.4266629,17.2472977],[104.4245019,17.2475716],[104.4259522,17.2553333],[104.4215626,17.2583716],[104.4208985,17.2623363],[104.4160446,17.2623924],[104.413221,17.2697641],[104.4057035,17.2798699],[104.4062562,17.2901473],[104.4028949,17.2995869],[104.4030681,17.3083317],[104.4178737,17.3149959],[104.4160401,17.3212965],[104.4222156,17.3275088],[104.423336,17.3343514],[104.4235053,17.3398855],[104.4198548,17.3445958],[104.4201039,17.3481714],[104.4130036,17.3545857],[104.4137077,17.3644895],[104.4112076,17.36703],[104.4123452,17.3701201],[104.4087691,17.3724527],[104.4095742,17.37555],[104.4069452,17.3791378],[104.4101357,17.3861585],[104.4091847,17.3897755],[104.4115494,17.3897765],[104.4123832,17.3928084],[104.4153231,17.3952888],[104.4138621,17.4003111],[104.4099054,17.4043991],[104.4115331,17.4054119],[104.4102386,17.4084929],[104.4143176,17.413125],[104.4165325,17.4135459],[104.4154488,17.4160624],[104.4175953,17.4176645],[104.415959,17.4196231],[104.4168669,17.4218816],[104.4132907,17.423467],[104.4138212,17.4269334],[104.4098508,17.42665],[104.4087909,17.4287895],[104.4021176,17.4264709],[104.4011818,17.4297185],[104.3974808,17.4282939],[104.3964826,17.4249595],[104.3946909,17.4263622],[104.3936267,17.4232185],[104.3911886,17.4220676],[104.3950847,17.4208129],[104.3935398,17.4179132],[104.3956486,17.4151106],[104.3922764,17.414368],[104.3879736,17.4163176],[104.3861469,17.412492],[104.3739729,17.4206635],[104.3394902,17.4223562],[104.3339974,17.4267698],[104.3250186,17.42727],[104.3181586,17.4319126],[104.3079281,17.4323299],[104.3032728,17.4300358],[104.2879598,17.432101],[104.2740328,17.4257956],[104.2604639,17.4171508],[104.2513407,17.415516],[104.2437508,17.4171268],[104.2286384,17.4136195],[104.2163949,17.4173534],[104.2122978,17.4156511],[104.2120801,17.4142236],[104.2097272,17.4162656],[104.2078389,17.4154452],[104.2077034,17.4170969],[104.2045157,17.4179525],[104.2044081,17.4246032],[104.2025947,17.4239938],[104.2021733,17.4265264],[104.199758,17.4267554],[104.2006016,17.4277612],[104.1987453,17.4291281],[104.1949028,17.4270748],[104.1954572,17.4259128],[104.1931104,17.4264093],[104.1940264,17.4232163],[104.1903644,17.4241256],[104.1890872,17.4228902],[104.1876027,17.4270566],[104.1844607,17.4222667],[104.1815257,17.4232759],[104.1824026,17.4249486],[104.1798302,17.4265231],[104.1810656,17.4266447],[104.1806997,17.4292266],[104.1766377,17.4273727],[104.172106,17.4293941],[104.1700198,17.4265428],[104.1717819,17.4250837],[104.1697447,17.4238535],[104.1723621,17.4202914],[104.1700469,17.4178917],[104.1726953,17.4154181],[104.1764514,17.4155114],[104.1759806,17.4137987],[104.1574057,17.417086],[104.1532176,17.4139823],[104.1521633,17.4114144],[104.1536751,17.4106749],[104.1511647,17.409009],[104.1544725,17.4072597],[104.1483201,17.4052669],[104.1470611,17.4094279],[104.1442697,17.409353],[104.1425952,17.4059754],[104.1442091,17.4023068],[104.1469133,17.4005632],[104.1505764,17.4022418],[104.153363,17.3954127],[104.1501319,17.3927115],[104.1465323,17.3935574],[104.1449142,17.3973787],[104.1409398,17.3962167],[104.1391487,17.3940269],[104.1429792,17.3894922],[104.1400053,17.3843048],[104.1354226,17.3832505],[104.1312033,17.3798173],[104.1281135,17.3805719],[104.1267968,17.382631],[104.1272763,17.3885626],[104.1242443,17.3916119],[104.1264446,17.3959755],[104.12583,17.3989346],[104.1210091,17.3963366],[104.1176765,17.3983528],[104.1144578,17.3919112],[104.1094976,17.3916201],[104.1078585,17.3928839],[104.1111644,17.3975521],[104.1101101,17.4017537],[104.1049633,17.4027234],[104.1008937,17.3992482],[104.0959613,17.4036071],[104.0909103,17.4018334],[104.0961916,17.3979631],[104.0918783,17.3895609],[104.0947785,17.3881816],[104.0986585,17.3924118],[104.1017243,17.3901795],[104.0996443,17.3866449],[104.0999915,17.3821647],[104.0982639,17.3781006],[104.0937725,17.3751282],[104.0885435,17.3761802],[104.0874669,17.3784241],[104.0910764,17.3842429],[104.0866213,17.386388],[104.0815314,17.3920321],[104.0774151,17.3936342],[104.0776284,17.3871234],[104.0743105,17.3845214],[104.0733004,17.3805313],[104.0771181,17.378539],[104.0729623,17.3765784],[104.0720003,17.379494],[104.0679775,17.3816038],[104.0660084,17.389004],[104.0605477,17.3881974],[104.0570002,17.389626],[104.0588726,17.3956672],[104.052465,17.4013845],[104.0510984,17.4068258],[104.0480047,17.4077293],[104.0447142,17.4137903],[104.0430929,17.4135573],[104.0409974,17.4156563],[104.041332,17.417596],[104.0376419,17.4202958],[104.0371534,17.4228026],[104.038748,17.4235375],[104.0359951,17.4273531],[104.0370036,17.4300629],[104.0344437,17.4310391],[104.0350547,17.4320795],[104.0316919,17.4352603],[104.0280678,17.4365074],[104.0292699,17.4408498],[104.0283144,17.4434658],[104.0298927,17.4440136],[104.0278594,17.4476989],[104.0242969,17.4497745],[104.0249036,17.4513391],[104.017776,17.4567927],[104.0094654,17.4859579],[104.0200478,17.4874881],[104.023696,17.4968551],[104.0241393,17.502687],[104.0300555,17.5074136],[104.0343699,17.5218867],[104.0393242,17.5238259],[104.0407548,17.5269788],[104.0351697,17.5635184],[104.0388635,17.5682486],[104.0469353,17.5702174],[104.0514249,17.5737138],[104.0538001,17.5850486],[104.0535338,17.5912463],[104.054935,17.5927732],[104.0521709,17.5947466],[104.0439916,17.6072506],[104.0391781,17.6078904],[104.0380553,17.6138641],[104.0321682,17.6183405],[104.0324793,17.62814],[104.0339017,17.630774],[104.035155,17.6304126],[104.0346862,17.6335153],[104.0365368,17.6352754],[104.0332599,17.6370247],[104.0348338,17.6376738],[104.0330921,17.6396603],[104.0282754,17.639184],[104.0311513,17.6402593],[104.0314752,17.6434667],[104.0368462,17.639258],[104.0405812,17.6408065],[104.0381121,17.641727],[104.0404772,17.642086],[104.0431312,17.6463316],[104.046099,17.6444268],[104.0453854,17.6414669],[104.0490185,17.6380166],[104.0502096,17.6402587],[104.0533917,17.6402205],[104.0549792,17.6429161],[104.0562978,17.6413443],[104.0591659,17.6438077],[104.0631992,17.6438924],[104.0623249,17.6458121],[104.0647156,17.6436803],[104.0660357,17.6453043],[104.0672992,17.6440864],[104.0661463,17.6492939],[104.0678618,17.6482913],[104.0673573,17.6509027],[104.0687055,17.6512914],[104.068808,17.6495773],[104.0706945,17.6490564],[104.0710777,17.6518281],[104.0689499,17.6530228],[104.0717084,17.6541868],[104.0729536,17.6582152],[104.0698787,17.6604377],[104.0714845,17.6672572],[104.0748591,17.6669424],[104.0736408,17.6707623],[104.0769261,17.6726588],[104.0782645,17.6725381],[104.0773363,17.6708316],[104.0785137,17.6690392],[104.0811222,17.6701649],[104.0799728,17.671977],[104.0834623,17.6706978],[104.0838841,17.6720364],[104.0782204,17.6742391],[104.0839724,17.6795915],[104.0827643,17.6820622],[104.0842555,17.6835106],[104.0809931,17.682112],[104.0803724,17.6791472],[104.0787854,17.680378],[104.0756157,17.6786377],[104.0701619,17.6794254],[104.0712318,17.6824592],[104.0688028,17.6835812],[104.0663738,17.6907561],[104.0683873,17.6936341],[104.0768575,17.6940139],[104.078249,17.6970372],[104.0750016,17.7000026],[104.0714827,17.6987215],[104.0692725,17.7001082],[104.0707383,17.7019752],[104.0774672,17.702672],[104.0773481,17.706578],[104.0717811,17.7069012],[104.0712596,17.7124771],[104.066805,17.7154],[104.0629125,17.7225881],[104.0593401,17.7258465],[104.0597265,17.727938],[104.0621232,17.7289851],[104.0639072,17.7232827],[104.0665089,17.7224204],[104.0684147,17.7236724],[104.0676597,17.7367923],[104.0645647,17.7473357],[104.0618294,17.7477383],[104.0610116,17.7421559],[104.0581433,17.7395517],[104.051978,17.7370256],[104.0497309,17.7388582],[104.0499795,17.7485617],[104.0563133,17.749224],[104.0588717,17.7514039],[104.0574224,17.757431],[104.0495069,17.7651481],[104.0389746,17.7695527],[104.0290336,17.7681462],[104.0284797,17.7567821],[104.0257969,17.7568088],[104.0234941,17.7591152],[104.0205344,17.7710617],[104.0144389,17.7784167],[104.0143902,17.7850097],[104.0099179,17.7919341],[104.0117329,17.7959683],[104.0190188,17.7958917],[104.021045,17.7973802],[104.0170719,17.8100566],[104.0065436,17.8104018],[104.0008382,17.8075756],[103.9992452,17.8028245],[104.0009307,17.7949263],[104.0003715,17.7885158],[103.9974231,17.7875649],[103.9918332,17.7911869],[103.9870098,17.7889503],[103.987643,17.7823715],[103.9804456,17.7765113],[103.9797289,17.7709002],[103.9700906,17.7797282],[103.9705823,17.7814677],[103.9745153,17.7831625],[103.9732111,17.7850302],[103.9655252,17.7832428],[103.9596552,17.7752172],[103.9545316,17.7769379],[103.9511293,17.7816303],[103.9424236,17.7849425],[103.9390425,17.7894642],[103.9408258,17.7950306],[103.9348029,17.8065673],[103.9283558,17.8141777],[103.9227464,17.8154969],[103.9177778,17.8198792],[103.9251848,17.8341131],[103.9211321,17.8489693],[103.922514,17.8553678],[103.9153079,17.8593292],[103.9106318,17.8510265],[103.9058127,17.8510893],[103.9025567,17.8467941],[103.9004452,17.8482204],[103.9021251,17.8610346],[103.900651,17.869577],[103.9070267,17.8776652],[103.9046578,17.8806781],[103.8870832,17.8790895],[103.8753569,17.8758861],[103.8720578,17.8729475],[103.8697371,17.8652245],[103.8661842,17.8641872],[103.863213,17.8656646],[103.8684483,17.8771096],[103.8679622,17.8798428],[103.8564576,17.8828987],[103.8490027,17.8818471],[103.8406167,17.8718057],[103.8360637,17.8702126],[103.8098835,17.871649],[103.803007,17.8736922],[103.7997315,17.8772713],[103.795888,17.8772296],[103.7935938,17.8751565],[103.7940004,17.8713205],[103.7988388,17.8686913],[103.8042637,17.8614857],[103.8091937,17.8604551],[103.8108286,17.8584435],[103.8072257,17.8500969],[103.8001749,17.8473097],[103.7960912,17.8421912],[103.7943674,17.8420455],[103.7870689,17.8502141],[103.7861918,17.8577751],[103.7784678,17.8604116],[103.77541,17.8631527],[103.7725039,17.8726587],[103.7645933,17.8833062],[103.7646579,17.8874112],[103.7686244,17.890971],[103.7769711,17.8908793],[103.783247,17.888714],[103.786809,17.891622],[103.7747671,17.9090716],[103.7758103,17.9141732],[103.7832958,17.9271986],[103.7823342,17.9316115],[103.776458,17.9306847],[103.7646455,17.9207667],[103.7595299,17.9193512],[103.7567884,17.9222519],[103.7572816,17.9303302],[103.765598,17.9446166],[103.7654659,17.9556573],[103.7627556,17.9555112],[103.758972,17.9502012],[103.7538552,17.9335451],[103.7493981,17.9262553],[103.7494594,17.9228177],[103.7531056,17.9196048],[103.7528518,17.9154479],[103.7462602,17.911337],[103.7394934,17.9189761],[103.7298947,17.9241173],[103.721795,17.9260331],[103.7187718,17.9305851],[103.7175307,17.940712],[103.7155071,17.9429137],[103.7044367,17.9390789],[103.703472,17.9449128],[103.6825625,17.9558559],[103.6691533,17.9485126],[103.6612868,17.9502508],[103.661215,17.9575938],[103.667192,17.9666741],[103.6624524,17.9735471],[103.657151,17.9724135],[103.65512,17.9657576],[103.6516642,17.9630704],[103.6413159,17.9629998],[103.6386437,17.9644328],[103.6409736,17.9702156],[103.6379044,17.9766939],[103.6292777,17.9742157],[103.6280917,17.9697624],[103.6254251,17.9678611],[103.6231719,17.9728702],[103.6260732,17.9803956],[103.6214088,17.988945],[103.6226154,17.994364],[103.6211786,18.0034116],[103.6258415,18.006006],[103.6323931,18.0044722],[103.6360413,18.0105859],[103.6407024,18.0132579],[103.6325331,18.0156095],[103.6236521,18.0128441],[103.6112221,18.0130734],[103.6076581,18.0198981],[103.6059563,18.0351065],[103.5946093,18.043554],[103.595201,18.0496739],[103.5918514,18.0505164],[103.587856,18.0473872],[103.5869762,18.0377378],[103.581235,18.0380571],[103.5768561,18.0404008],[103.5759621,18.0465252],[103.5734769,18.0504543],[103.5655113,18.0539577],[103.5588727,18.0621441],[103.5494752,18.0616074],[103.5425468,18.0646339]]]}}]}