{"type":"FeatureCollection","name":"p47-subset","crs":{"type":"name","properties":{"name":"urn:ogc:def:crs:EPSG::32648"}},"features":[{"type":"Feature","properties":{"building":"yes","height":6,"heightSource":"default"},"geometry":{"type":"MultiPolygon","coordinates":[[[[410463.05,1895580.6],[410446.75,1895605.94],[410460.05,1895614.39],[410476.35,1895589.06],[410463.05,1895580.6]]]]}},{"type":"Feature","properties":{"building":"yes","height":6,"heightSource":"default"},"geometry":{"type":"MultiPolygon","coordinates":[[[[410422.4,1895756.02],[410415.91,1895765.82],[410439.27,1895781.11],[410445.77,1895771.31],[410422.4,1895756.02]]]]}},{"type":"Feature","properties":{"building":"yes","height":6,"heightSource":"default"},"geometry":{"type":"MultiPolygon","coordinates":[[[[410437.7,1895729.78],[410430.44,1895740.74],[410452.89,1895755.44],[410460.15,1895744.47],[410437.7,1895729.78]]]]}},{"type":"Feature","properties":{"building":"yes","height":6,"heightSource":"default"},"geometry":{"type":"MultiPolygon","coordinates":[[[[410495.87,1895753.8],[410491.13,1895760.96],[410535.29,1895789.87],[410540.03,1895782.7],[410495.87,1895753.8]]]]}},{"type":"Feature","properties":{"building":"yes","height":6,"heightSource":"default"},"geometry":{"type":"MultiPolygon","coordinates":[[[[410565.64,1895626.01],[410525.79,1895687.93],[410564.89,1895712.79],[410604.75,1895650.87],[410565.64,1895626.01]]]]}},{"type":"Feature","properties":{"building":"yes","height":6,"heightSource":"default"},"geometry":{"type":"MultiPolygon","coordinates":[[[[410475.97,1895782.85],[410466.29,1895797.46],[410497.83,1895818.1],[410507.51,1895803.49],[410475.97,1895782.85]]]]}},{"type":"Feature","properties":{"building":"yes","height":6,"heightSource":"default"},"geometry":{"type":"MultiPolygon","coordinates":[[[[410583.31,1895561.52],[410571.79,1895580.47],[410580.68,1895585.8],[410592.18,1895566.85],[410583.31,1895561.52]]]]}},{"type":"Feature","properties":{"building":"yes","height":6,"heightSource":"default"},"geometry":{"type":"MultiPolygon","coordinates":[[[[406090.37,1901554.54],[406065.61,1901530.35],[406062.21,1901533.79],[406049.25,1901521.13],[406054.48,1901515.84],[406028.48,1901490.43],[405992.67,1901526.63],[405999.61,1901533.4],[405994.25,1901538.82],[406016.2,1901560.27],[406013.96,1901562.54],[406021.86,1901570.27],[406023.85,1901568.25],[406044.48,1901588.4],[406050.44,1901582.37],[406056.75,1901588.54],[406090.37,1901554.54]]]]}},{"type":"Feature","properties":{"building":"roof","height":6,"heightSource":"default"},"geometry":{"type":"MultiPolygon","coordinates":[[[[404581.01,1895168.3],[404596.7,1895173.08],[404604.68,1895147.28],[404588.98,1895142.48],[404581.01,1895168.3]]]]}},{"type":"Feature","properties":{"building":"yes","height":6,"heightSource":"default"},"geometry":{"type":"MultiPolygon","coordinates":[[[[404014.45,1899178.1],[404041.69,1899187.16],[404046.66,1899172.4],[404019.43,1899163.32],[404014.45,1899178.1]]]]}},{"type":"Feature","properties":{"building":"yes","height":6,"heightSource":"default"},"geometry":{"type":"MultiPolygon","coordinates":[[[[404676.89,1895606.87],[404823.12,1895537.89],[404807.97,1895506.14],[404661.72,1895575.12],[404676.89,1895606.87]]]]}},{"type":"Feature","properties":{"building":"yes","height":6,"heightSource":"default"},"geometry":{"type":"MultiPolygon","coordinates":[[[[404578.67,1895587.94],[404664.2,1895547.6],[404598.25,1895346.98],[404483.15,1895385.1],[404534.73,1895545.85],[404578.67,1895587.94]]]]}},{"type":"Feature","properties":{"building":"yes","height":6,"heightSource":"default"},"geometry":{"type":"MultiPolygon","coordinates":[[[[409908.99,1897990.07],[409915.42,1897991.27],[409914.05,1897998.51],[409927.14,1898000.97],[409928.53,1897993.67],[409940.22,1897995.85],[409942.78,1897982.36],[409929.59,1897979.88],[409930.65,1897974.29],[409920.51,1897972.39],[409919.14,1897979.54],[409911.27,1897978.06],[409908.99,1897990.07]]]]}},{"type":"Feature","properties":{"building":"yes","height":6,"heightSource":"default"},"geometry":{"type":"MultiPolygon","coordinates":[[[[407908.05,1896435.61],[407919.41,1896420.76],[407931.29,1896429.74],[407919.93,1896444.58],[407908.05,1896435.61]]]]}},{"type":"Feature","properties":{"building":"yes","height":3.2,"heightSource":"inferred"},"geometry":{"type":"MultiPolygon","coordinates":[[[[407277.62,1899084.72],[407355.34,1899044.79],[407318.42,1898971.25],[407240.46,1899011.43],[407277.62,1899084.72]]]]}},{"type":"Feature","properties":{"building":"yes","height":6,"heightSource":"default"},"geometry":{"type":"MultiPolygon","coordinates":[[[[410306.15,1897636.82],[410340.44,1897621.78],[410344.08,1897629.98],[410349.75,1897627.49],[410347.02,1897621.36],[410373.18,1897609.88],[410391.85,1897651.89],[410384.36,1897655.36],[410370.34,1897661.38],[410326.28,1897680.67],[410320.55,1897667.77],[410311.91,1897671.56],[410302.14,1897649.59],[410310.24,1897646.04],[410306.15,1897636.82]]]]}},{"type":"Feature","properties":{"building":"yes","height":6,"heightSource":"default"},"geometry":{"type":"MultiPolygon","coordinates":[[[[410317.81,1897687.04],[410360.91,1897667.44],[410382.82,1897715],[410349.64,1897730.09],[410340.42,1897710.07],[410330.49,1897714.58],[410317.81,1897687.04]]]]}},{"type":"Feature","properties":{"building":"yes","height":6,"heightSource":"default"},"geometry":{"type":"MultiPolygon","coordinates":[[[[410370.34,1897661.38],[410374.07,1897669.95],[410388.09,1897663.93],[410384.36,1897655.36],[410370.34,1897661.38]]]]}},{"type":"Feature","properties":{"building":"yes","height":6,"heightSource":"default"},"geometry":{"type":"MultiPolygon","coordinates":[[[[410391.69,1897677.46],[410404.96,1897671.75],[410416.33,1897697.85],[410403.07,1897703.56],[410391.69,1897677.46]]]]}},{"type":"Feature","properties":{"building":"yes","height":6,"heightSource":"default"},"geometry":{"type":"MultiPolygon","coordinates":[[[[410371.04,1897584.23],[410406.77,1897567.78],[410422.56,1897601.65],[410381.14,1897620.74],[410375.92,1897609.56],[410381.62,1897606.93],[410371.04,1897584.23]]]]}},{"type":"Feature","properties":{"building":"yes","height":6,"heightSource":"tag"},"geometry":{"type":"MultiPolygon","coordinates":[[[[409529.77,1897906.74],[409490.3,1897903.29],[409491.77,1897886.44],[409531.25,1897889.87],[409529.77,1897906.74]]]]}},{"type":"Feature","properties":{"building":"yes","height":5,"heightSource":"tag"},"geometry":{"type":"MultiPolygon","coordinates":[[[[409550.02,1897892.33],[409549.81,1897879.19],[409585.44,1897878.63],[409585.65,1897891.78],[409550.02,1897892.33]]]]}},{"type":"Feature","properties":{"building":"yes","height":11,"heightSource":"tag"},"geometry":{"type":"MultiPolygon","coordinates":[[[[409567.87,1897873.61],[409567.86,1897860.91],[409583.2,1897860.91],[409583.2,1897873.61],[409567.87,1897873.61]]]]}},{"type":"Feature","properties":{"building":"yes","height":5,"heightSource":"tag"},"geometry":{"type":"MultiPolygon","coordinates":[[[[409556.14,1897863.22],[409565.26,1897862.25],[409566.45,1897873.41],[409557.33,1897874.38],[409556.14,1897863.22]]]]}},{"type":"Feature","properties":{"building":"yes","height":5,"heightSource":"tag"},"geometry":{"type":"MultiPolygon","coordinates":[[[[409531.98,1897875.59],[409530.94,1897865.81],[409546.04,1897864.2],[409547.09,1897873.99],[409531.98,1897875.59]]]]}},{"type":"Feature","properties":{"building":"yes","height":5,"heightSource":"tag"},"geometry":{"type":"MultiPolygon","coordinates":[[[[409494.46,1897884.82],[409493.48,1897875.59],[409507.54,1897874.09],[409508.53,1897883.32],[409494.46,1897884.82]]]]}},{"type":"Feature","properties":{"building":"yes","height":5,"heightSource":"tag"},"geometry":{"type":"MultiPolygon","coordinates":[[[[409509.47,1897862.74],[409515.25,1897862.12],[409517.37,1897882.05],[409511.59,1897882.68],[409509.47,1897862.74]]]]}},{"type":"Feature","properties":{"building":"yes","height":5,"heightSource":"tag"},"geometry":{"type":"MultiPolygon","coordinates":[[[[409501.52,1897962.46],[409501.52,1897949.77],[409549.87,1897949.77],[409549.88,1897962.46],[409501.52,1897962.46]]]]}},{"type":"Feature","properties":{"building":"yes","height":6,"heightSource":"tag"},"geometry":{"type":"MultiPolygon","coordinates":[[[[409521.63,1898013.88],[409521.63,1898003.88],[409536.1,1898003.88],[409536.09,1898013.87],[409521.63,1898013.88]]]]}},{"type":"Feature","properties":{"building":"yes","height":5,"heightSource":"tag"},"geometry":{"type":"MultiPolygon","coordinates":[[[[409534.73,1898015.05],[409534.73,1898024.71],[409520.25,1898024.71],[409520.25,1898015.05],[409534.73,1898015.05]]]]}},{"type":"Feature","properties":{"building":"yes","height":10,"heightSource":"tag"},"geometry":{"type":"MultiPolygon","coordinates":[[[[409558.89,1898023.08],[409566.3,1898037.79],[409548.13,1898046.95],[409540.72,1898032.22],[409558.89,1898023.08]]]]}},{"type":"Feature","properties":{"building":"yes","height":5,"heightSource":"tag"},"geometry":{"type":"MultiPolygon","coordinates":[[[[409532.65,1898026.3],[409533.93,1898034.7],[409525.54,1898035.97],[409524.27,1898027.59],[409532.65,1898026.3]]]]}},{"type":"Feature","properties":{"building":"yes","height":4,"heightSource":"tag"},"geometry":{"type":"MultiPolygon","coordinates":[[[[409531.69,1897995.23],[409531.7,1897976.55],[409538.17,1897976.56],[409538.18,1897995.22],[409531.69,1897995.23]]]]}},{"type":"Feature","properties":{"building":"yes","height":5,"heightSource":"tag"},"geometry":{"type":"MultiPolygon","coordinates":[[[[409602.13,1897922.96],[409601.83,1897915.96],[409619.17,1897915.22],[409619.38,1897920.12],[409613.7,1897922.46],[409602.13,1897922.96]]]]}},{"type":"Feature","properties":{"building":"yes","height":5,"heightSource":"tag"},"geometry":{"type":"MultiPolygon","coordinates":[[[[409606.49,1897914.5],[409606.26,1897909.22],[409614.79,1897908.87],[409615.01,1897914.13],[409606.49,1897914.5]]]]}},{"type":"Feature","properties":{"building":"yes","height":5.5,"heightSource":"tag"},"geometry":{"type":"MultiPolygon","coordinates":[[[[409616.96,1897895.42],[409599.6,1897896.17],[409599.22,1897887.29],[409616.58,1897886.55],[409616.96,1897895.42]]]]}},{"type":"Feature","properties":{"building":"yes","height":5,"heightSource":"tag"},"geometry":{"type":"MultiPolygon","coordinates":[[[[409625.23,1897937.24],[409636.1,1897937.24],[409636.11,1897945.74],[409625.22,1897945.74],[409625.23,1897937.24]]]]}},{"type":"Feature","properties":{"building":"yes","height":7,"heightSource":"tag"},"geometry":{"type":"MultiPolygon","coordinates":[[[[409601.02,1897936.72],[409617.18,1897936.02],[409617.99,1897954.8],[409601.84,1897955.5],[409601.02,1897936.72]]]]}},{"type":"Feature","properties":{"building":"yes","height":5,"heightSource":"tag"},"geometry":{"type":"MultiPolygon","coordinates":[[[[409650.66,1897942.25],[409656.06,1897953.02],[409646.09,1897958.02],[409640.7,1897947.25],[409650.66,1897942.25]]]]}},{"type":"Feature","properties":{"building":"yes","height":7,"heightSource":"tag"},"geometry":{"type":"MultiPolygon","coordinates":[[[[409682.55,1897923.12],[409670.2,1897922.32],[409670.63,1897915.7],[409682.98,1897916.5],[409682.55,1897923.12]]]]}},{"type":"Feature","properties":{"building":"yes","height":5,"heightSource":"tag"},"geometry":{"type":"MultiPolygon","coordinates":[[[[409657.6,1897910.54],[409665.26,1897911.07],[409664.59,1897920.73],[409656.93,1897920.2],[409657.6,1897910.54]]]]}},{"type":"Feature","properties":{"building":"yes","height":4,"heightSource":"tag"},"geometry":{"type":"MultiPolygon","coordinates":[[[[409655.6,1897888.51],[409668.72,1897892.46],[409664.76,1897905.58],[409651.64,1897901.62],[409655.6,1897888.51]]]]}},{"type":"Feature","properties":{"building":"yes","height":10,"heightSource":"tag"},"geometry":{"type":"MultiPolygon","coordinates":[[[[409604.73,1897995.33],[409604.81,1897979.82],[409618.44,1897980.69],[409618.02,1897994.21],[409604.73,1897995.33]]]]}},{"type":"Feature","properties":{"building":"yes","height":5,"heightSource":"tag"},"geometry":{"type":"MultiPolygon","coordinates":[[[[409620.85,1897996.55],[409617.99,1898006.36],[409612.38,1898004.72],[409615.24,1897994.92],[409620.85,1897996.55]]]]}},{"type":"Feature","properties":{"building":"yes","height":8,"heightSource":"tag"},"geometry":{"type":"MultiPolygon","coordinates":[[[[409621.96,1897987.23],[409629.01,1897986.02],[409632.17,1898004.25],[409620.78,1898006.22],[409621.96,1897987.23]]]]}},{"type":"Feature","properties":{"building":"yes","height":8,"heightSource":"tag"},"geometry":{"type":"MultiPolygon","coordinates":[[[[409653.38,1897973.56],[409658.29,1897991.34],[409635.59,1898003.34],[409630.69,1897981.96],[409634.24,1897979.99],[409634.98,1897983.19],[409653.38,1897973.56]]]]}},{"type":"Feature","properties":{"building":"yes","height":6,"heightSource":"tag"},"geometry":{"type":"MultiPolygon","coordinates":[[[[409663.83,1897988.17],[409658.94,1897990.73],[409653.28,1897968.44],[409658.55,1897967.38],[409663.83,1897988.17]]]]}},{"type":"Feature","properties":{"building":"yes","height":5,"heightSource":"tag"},"geometry":{"type":"MultiPolygon","coordinates":[[[[409651.02,1897968.64],[409648.4,1897960.41],[409656.63,1897957.78],[409659.25,1897966.01],[409651.02,1897968.64]]]]}},{"type":"Feature","properties":{"building":"yes","height":6,"heightSource":"tag"},"geometry":{"type":"MultiPolygon","coordinates":[[[[409665.26,1897988.03],[409663.01,1897979.79],[409667.14,1897978.67],[409669.39,1897986.9],[409665.26,1897988.03]]]]}},{"type":"Feature","properties":{"building":"yes","height":5,"heightSource":"tag"},"geometry":{"type":"MultiPolygon","coordinates":[[[[409668.23,1897982.05],[409672.55,1897980.15],[409674.64,1897984.92],[409670.32,1897986.82],[409668.23,1897982.05]]]]}},{"type":"Feature","properties":{"building":"yes","height":6,"heightSource":"tag"},"geometry":{"type":"MultiPolygon","coordinates":[[[[409684.7,1897962.43],[409692.1,1897958.54],[409697.8,1897969.38],[409690.41,1897973.27],[409684.7,1897962.43]]]]}},{"type":"Feature","properties":{"building":"yes","height":5,"heightSource":"tag"},"geometry":{"type":"MultiPolygon","coordinates":[[[[409690.51,1897976.19],[409686.61,1897978.24],[409682.08,1897969.63],[409685.99,1897967.58],[409690.51,1897976.19]]]]}},{"type":"Feature","properties":{"building":"yes","height":6,"heightSource":"tag"},"geometry":{"type":"MultiPolygon","coordinates":[[[[409707.37,1897967.59],[409701.45,1897970.73],[409693.41,1897955.61],[409699.33,1897952.46],[409707.37,1897967.59]]]]}},{"type":"Feature","properties":{"building":"yes","height":6,"heightSource":"default"},"geometry":{"type":"MultiPolygon","coordinates":[[[[409715.16,1897962.87],[409707.76,1897966.8],[409704.4,1897960.48],[409710.66,1897954.39],[409715.16,1897962.87]]]]}},{"type":"Feature","properties":{"building":"yes","height":5,"heightSource":"tag"},"geometry":{"type":"MultiPolygon","coordinates":[[[[409623.45,1897977.11],[409628.5,1897978.03],[409629.01,1897984.05],[409622.96,1897984.04],[409623.45,1897977.11]]]]}},{"type":"Feature","properties":{"building":"yes","height":6,"heightSource":"default"},"geometry":{"type":"MultiPolygon","coordinates":[[[[409583.79,1897952.27],[409583.8,1897962.46],[409570.78,1897962.46],[409570.79,1897952.27],[409583.79,1897952.27]]]]}},{"type":"Feature","properties":{"building":"yes","height":6,"heightSource":"default"},"geometry":{"type":"MultiPolygon","coordinates":[[[[409622.45,1897910.19],[409640.48,1897909.27],[409640.71,1897913.93],[409622.88,1897918.7],[409622.45,1897910.19]]]]}},{"type":"Feature","properties":{"building":"yes","height":6,"heightSource":"default"},"geometry":{"type":"MultiPolygon","coordinates":[[[[409618.62,1897934.64],[409607.64,1897935.57],[409602.62,1897935.57],[409601.84,1897926.64],[409616.02,1897925.33],[409643.23,1897917.03],[409646.05,1897926.26],[409618.62,1897934.64]]]]}},{"type":"Feature","properties":{"building":"yes","height":6,"heightSource":"default"},"geometry":{"type":"MultiPolygon","coordinates":[[[[409533.94,1897893.46],[409583.58,1897893.46],[409583.58,1897906.11],[409566.37,1897906.11],[409546.41,1897903.88],[409546.4,1897905.43],[409533.94,1897905.42],[409533.94,1897893.46]]]]}},{"type":"Feature","properties":{"building":"yes","height":6,"heightSource":"default"},"geometry":{"type":"MultiPolygon","coordinates":[[[[409582.9,1897916.43],[409583.66,1897944.35],[409568.25,1897944.77],[409568.2,1897942.76],[409503.38,1897942.77],[409503.38,1897908.69],[409546.41,1897908.69],[409571.01,1897912.95],[409571.01,1897916.76],[409582.9,1897916.43]]]]}},{"type":"Feature","properties":{"building":"yes","height":6,"heightSource":"default"},"geometry":{"type":"MultiPolygon","coordinates":[[[[409567.24,1897974.04],[409582.13,1897974.04],[409586.7,1897977.74],[409586.71,1897983.37],[409570.89,1897983.37],[409571.17,1897986.77],[409586.57,1897985.5],[409587.57,1897997.64],[409572.17,1897998.9],[409572.11,1897998.29],[409559.02,1897998.57],[409554.48,1897977.26],[409567.24,1897976.21],[409567.24,1897974.04]]]]}},{"type":"Feature","properties":{"building":"yes","height":6,"heightSource":"default"},"geometry":{"type":"MultiPolygon","coordinates":[[[[409615.38,1897895.94],[409624.38,1897895.55],[409624.91,1897907.89],[409620.41,1897908.09],[409620.37,1897907.23],[409614.52,1897907.47],[409614.18,1897899.76],[409615.54,1897899.7],[409615.38,1897895.94]]]]}},{"type":"Feature","properties":{"building":"yes","height":6,"heightSource":"default"},"geometry":{"type":"MultiPolygon","coordinates":[[[[409632.25,1897894.59],[409629.12,1897894.6],[409629.11,1897893.16],[409620.87,1897893.16],[409620.86,1897880.34],[409629.85,1897880.34],[409629.86,1897884.62],[409632.25,1897884.63],[409632.25,1897894.59]]]]}},{"type":"Feature","properties":{"building":"yes","height":6.5,"heightSource":"tag"},"geometry":{"type":"MultiPolygon","coordinates":[[[[409604.75,1898003.02],[409604.74,1897995.34],[409614.68,1897994.49],[409614.05,1897996.66],[409611.31,1898006.04],[409607.2,1898004.98],[409604.75,1898003.02]]]]}},{"type":"Feature","properties":{"building":"yes","height":6,"heightSource":"tag"},"geometry":{"type":"MultiPolygon","coordinates":[[[[409558.13,1897862.06],[409556.73,1897853.2],[409568.69,1897851.3],[409570.09,1897860.16],[409558.13,1897862.06]]]]}},{"type":"Feature","properties":{"building":"yes","height":4,"heightSource":"tag"},"geometry":{"type":"MultiPolygon","coordinates":[[[[409637.23,1897907.85],[409637.23,1897901.03],[409646.24,1897901.04],[409644.04,1897907.85],[409637.23,1897907.85]]]]}},{"type":"Feature","properties":{"building":"yes","height":5,"heightSource":"tag"},"geometry":{"type":"MultiPolygon","coordinates":[[[[409626.27,1897898.55],[409630.18,1897898.39],[409630.48,1897905.69],[409626.58,1897905.85],[409626.27,1897898.55]]]]}},{"type":"Feature","properties":{"building":"yes","height":6,"heightSource":"default"},"geometry":{"type":"MultiPolygon","coordinates":[[[[409633.15,1897893.93],[409633.15,1897885.24],[409642.98,1897885.24],[409642.98,1897885.84],[409647.89,1897885.83],[409647.89,1897894.4],[409642.99,1897894.4],[409642.98,1897894.08],[409640.81,1897894.08],[409640.82,1897895.05],[409637.61,1897895.06],[409637.61,1897893.92],[409633.15,1897893.93]]]]}},{"type":"Feature","properties":{"building":"yes","height":6,"heightSource":"default"},"geometry":{"type":"MultiPolygon","coordinates":[[[[409629.51,1897850.79],[409629.51,1897864.93],[409616.77,1897864.92],[409616.77,1897850.79],[409629.51,1897850.79]]]]}},{"type":"Feature","properties":{"building":"yes","height":6,"heightSource":"default"},"geometry":{"type":"MultiPolygon","coordinates":[[[[409639.03,1897872.46],[409650.15,1897872.47],[409650.15,1897876.92],[409646.09,1897876.92],[409646.09,1897881.82],[409632.32,1897881.83],[409632.32,1897874.39],[409639.04,1897874.39],[409639.03,1897872.46]]]]}},{"type":"Feature","properties":{"building":"yes","height":6,"heightSource":"default"},"geometry":{"type":"MultiPolygon","coordinates":[[[[409639.73,1897865.16],[409634.83,1897865.16],[409634.83,1897861.78],[409631.06,1897861.77],[409631.06,1897852.58],[409642.31,1897852.58],[409642.31,1897861.78],[409639.73,1897861.78],[409639.73,1897865.16]]]]}},{"type":"Feature","properties":{"building":"yes","height":6,"heightSource":"default"},"geometry":{"type":"MultiPolygon","coordinates":[[[[409357.36,1898442.32],[409357.41,1898451.96],[409376.94,1898451.87],[409376.9,1898442.24],[409357.36,1898442.32]]]]}},{"type":"Feature","properties":{"building":"yes","height":6,"heightSource":"default"},"geometry":{"type":"MultiPolygon","coordinates":[[[[409665.42,1898563.32],[409706.78,1898562.84],[409706.32,1898523.99],[409664.96,1898524.47],[409665.42,1898563.32]]]]}},{"type":"Feature","properties":{"building":"yes","height":6,"heightSource":"default"},"geometry":{"type":"MultiPolygon","coordinates":[[[[409377.41,1898557.78],[409377.94,1898516.66],[409392.79,1898516.85],[409392.53,1898536.85],[409403.13,1898536.99],[409402.91,1898553.99],[409392.31,1898553.86],[409392.26,1898557.96],[409377.41,1898557.78]]]]}},{"type":"Feature","properties":{"building":"yes","height":6,"heightSource":"default"},"geometry":{"type":"MultiPolygon","coordinates":[[[[408433.88,1898433.21],[408495.5,1898399.49],[408448.34,1898314.35],[408386.71,1898348.08],[408433.88,1898433.21]]]]}},{"type":"Feature","properties":{"building":"yes","height":6,"heightSource":"default"},"geometry":{"type":"MultiPolygon","coordinates":[[[[408184.42,1898663.13],[408308.53,1898603.05],[408276.48,1898537.64],[408152.36,1898597.73],[408184.42,1898663.13]]]]}},{"type":"Feature","properties":{"building":"yes","height":6,"heightSource":"default"},"geometry":{"type":"MultiPolygon","coordinates":[[[[407523.57,1898789.66],[407510.56,1898687.36],[407637.01,1898639.44],[407658.36,1898693.5],[407622.77,1898708.69],[407618.44,1898696.52],[407589.1,1898706.57],[407593.16,1898719.87],[407618.5,1898711.26],[407654.85,1898802.96],[407638.06,1898810.97],[407685.42,1898938.64],[407645.27,1898955.26],[407584.68,1898802.99],[407568.43,1898806.75],[407565.23,1898792.03],[407523.57,1898789.66]]]]}},{"type":"Feature","properties":{"building":"yes","height":6,"heightSource":"default"},"geometry":{"type":"MultiPolygon","coordinates":[[[[409707.5,1898287.07],[409739.56,1898290.52],[409742.17,1898266.72],[409710.1,1898263.27],[409707.5,1898287.07]]]]}},{"type":"Feature","properties":{"building":"commercial","height":6,"heightSource":"default"},"geometry":{"type":"MultiPolygon","coordinates":[[[[408725.88,1898716.84],[408793.43,1898718.51],[408796.04,1898633.59],[408733.46,1898633.87],[408725.88,1898716.84]]]]}},{"type":"Feature","properties":{"building":"commercial","height":6,"heightSource":"default"},"geometry":{"type":"MultiPolygon","coordinates":[[[[408814.31,1898723.36],[408866.97,1898723.13],[408866.58,1898635.26],[408813.91,1898632.53],[408814.31,1898723.36]]]]}},{"type":"Feature","properties":{"building":"yes","height":6,"heightSource":"default"},"geometry":{"type":"MultiPolygon","coordinates":[[[[408646.72,1898628.39],[408679.45,1898625.63],[408679.7,1898596.82],[408645.08,1898599.22],[408646.72,1898628.39]]]]}},{"type":"Feature","properties":{"building":"house","height":6,"heightSource":"default"},"geometry":{"type":"MultiPolygon","coordinates":[[[[408886.07,1898728.2],[408896.9,1898728.58],[408896.86,1898719.54],[408886.03,1898719.16],[408886.07,1898728.2]]]]}},{"type":"Feature","properties":{"building":"house","height":6,"heightSource":"default"},"geometry":{"type":"MultiPolygon","coordinates":[[[[408902.53,1898729.42],[408913.79,1898728.94],[408913.31,1898719.9],[408902.49,1898719.95],[408902.53,1898729.42]]]]}},{"type":"Feature","properties":{"building":"house","height":6,"heightSource":"default"},"geometry":{"type":"MultiPolygon","coordinates":[[[[408929.37,1898728.44],[408941.49,1898728.39],[408941.45,1898718.91],[408928.9,1898719.83],[408929.37,1898728.44]]]]}},{"type":"Feature","properties":{"building":"house","height":6,"heightSource":"default"},"geometry":{"type":"MultiPolygon","coordinates":[[[[408951.88,1898727.91],[408968.34,1898727.84],[408967.4,1898714.08],[408951.82,1898714.57],[408951.88,1898727.91]]]]}},{"type":"Feature","properties":{"building":"house","height":6,"heightSource":"default"},"geometry":{"type":"MultiPolygon","coordinates":[[[[408886.42,1898709.27],[408896.81,1898707.49],[408896.76,1898695.88],[408885.07,1898696.79],[408886.42,1898709.27]]]]}},{"type":"Feature","properties":{"building":"house","height":6,"heightSource":"default"},"geometry":{"type":"MultiPolygon","coordinates":[[[[408902.01,1898708.33],[408916.3,1898710],[408916.68,1898696.65],[408902.39,1898697.15],[408902.01,1898708.33]]]]}},{"type":"Feature","properties":{"building":"house","height":6,"heightSource":"default"},"geometry":{"type":"MultiPolygon","coordinates":[[[[408927.11,1898709.09],[408942.27,1898709.02],[408942.22,1898696.54],[408927.05,1898695.31],[408927.11,1898709.09]]]]}},{"type":"Feature","properties":{"building":"house","height":6,"heightSource":"default"},"geometry":{"type":"MultiPolygon","coordinates":[[[[408951.36,1898708.98],[408967.38,1898708.91],[408968.2,1898697.72],[408951.75,1898696.5],[408951.36,1898708.98]]]]}},{"type":"Feature","properties":{"building":"house","height":6,"heightSource":"default"},"geometry":{"type":"MultiPolygon","coordinates":[[[[408954.71,1898681.86],[408969.43,1898680.5],[408970.25,1898672.75],[408955.09,1898671.09],[408954.71,1898681.86]]]]}},{"type":"Feature","properties":{"building":"house","height":6,"heightSource":"default"},"geometry":{"type":"MultiPolygon","coordinates":[[[[408934.54,1898629.94],[408934.49,1898617.45],[408957.62,1898617.34],[408955.4,1898630.12],[408947.99,1898635.26],[408940.56,1898635.59],[408934.54,1898629.94]]]]}},{"type":"Feature","properties":{"building":"house","height":6,"heightSource":"default"},"geometry":{"type":"MultiPolygon","coordinates":[[[[408921.43,1898634.53],[408930.85,1898635.34],[408930.53,1898627.67],[408920.25,1898628.3],[408921.43,1898634.53]]]]}},{"type":"Feature","properties":{"building":"house","height":6,"heightSource":"default"},"geometry":{"type":"MultiPolygon","coordinates":[[[[408884.8,1898621.06],[408884.49,1898616.53],[408892.49,1898616.49],[408892.51,1898621.6],[408884.8,1898621.06]]]]}},{"type":"Feature","properties":{"building":"house","height":6,"heightSource":"default"},"geometry":{"type":"MultiPolygon","coordinates":[[[[408885.48,1898644.35],[408884.58,1898636.68],[408890.02,1898636.37],[408889.76,1898644.61],[408885.48,1898644.35]]]]}},{"type":"Feature","properties":{"building":"house","height":6,"heightSource":"default"},"geometry":{"type":"MultiPolygon","coordinates":[[[[408892.27,1898646.67],[408897.45,1898646.65],[408897.32,1898636.35],[408892.23,1898636.27],[408892.27,1898646.67]]]]}},{"type":"Feature","properties":{"building":"house","height":6,"heightSource":"default"},"geometry":{"type":"MultiPolygon","coordinates":[[[[408863.11,1898600.66],[408864.78,1898586.87],[408876.04,1898587.69],[408875.24,1898601.46],[408863.11,1898600.66]]]]}},{"type":"Feature","properties":{"building":"yes","height":6,"heightSource":"default"},"geometry":{"type":"MultiPolygon","coordinates":[[[[407991.97,1896804.56],[407996.83,1896811.23],[408002.98,1896806.8],[408012.08,1896819.26],[408005.52,1896823.99],[408007.79,1896827.12],[407997.63,1896834.45],[407994.8,1896830.58],[407969.4,1896848.91],[407971.71,1896852.07],[407962.73,1896858.56],[407960.46,1896855.45],[407936.22,1896872.93],[407938.89,1896876.58],[407929.5,1896883.34],[407927.02,1896879.93],[407921.53,1896883.89],[407913.62,1896873.05],[407919.48,1896868.82],[407914.63,1896862.16],[407924.27,1896855.21],[407928.96,1896861.64],[407952.96,1896844.35],[407947.95,1896837.46],[407957.89,1896830.3],[407962.47,1896836.58],[407986.48,1896819.29],[407981.33,1896812.23],[407991.97,1896804.56]]]]}},{"type":"Feature","properties":{"building":"yes","height":6,"heightSource":"default"},"geometry":{"type":"MultiPolygon","coordinates":[[[[408313.2,1896530.16],[408350.74,1896511.8],[408361.06,1896532.1],[408324.4,1896551.31],[408313.2,1896530.16]]]]}},{"type":"Feature","properties":{"building":"yes","height":6,"heightSource":"default"},"geometry":{"type":"MultiPolygon","coordinates":[[[[408548.69,1896779.11],[408558.59,1896766.5],[408573.88,1896778.67],[408564.66,1896791.25],[408548.69,1896779.11]]]]}},{"type":"Feature","properties":{"building":"yes","height":3.2,"heightSource":"inferred"},"geometry":{"type":"MultiPolygon","coordinates":[[[[408573.88,1896778.67],[408578.22,1896772.51],[408563.01,1896760.54],[408558.59,1896766.5],[408573.88,1896778.67]]]]}},{"type":"Feature","properties":{"building":"yes","height":6,"heightSource":"default"},"geometry":{"type":"MultiPolygon","coordinates":[[[[409356.34,1897532.34],[409358.61,1897527.32],[409420.44,1897523.75],[409419.94,1897541.51],[409391.69,1897542.64],[409421.26,1897580.76],[409421.61,1897596.09],[409414.44,1897601.28],[409356.34,1897532.34]]]]}},{"type":"Feature","properties":{"building":"yes","height":12.8,"heightSource":"inferred"},"geometry":{"type":"MultiPolygon","coordinates":[[[[408493.12,1897534.4],[408480.13,1897538.59],[408492.09,1897573.5],[408505.07,1897569.42],[408493.12,1897534.4]]]]}},{"type":"Feature","properties":{"building":"yes","height":3.2,"heightSource":"inferred"},"geometry":{"type":"MultiPolygon","coordinates":[[[[408474.31,1897528.72],[408485.66,1897529.64],[408488.97,1897494.88],[408477.69,1897493.7],[408474.31,1897528.72]]]]}},{"type":"Feature","properties":{"building":"yes","height":3.2,"heightSource":"inferred"},"geometry":{"type":"MultiPolygon","coordinates":[[[[408443.04,1897489.87],[408427.24,1897488.71],[408423.25,1897527.8],[408438.95,1897529.22],[408443.04,1897489.87]]]]}},{"type":"Feature","properties":{"building":"yes","height":9.6,"heightSource":"inferred"},"geometry":{"type":"MultiPolygon","coordinates":[[[[408421.06,1897536.09],[408432.34,1897537.27],[408429.04,1897573.89],[408418.03,1897572.97],[408421.06,1897536.09]]]]}},{"type":"Feature","properties":{"building":"yes","height":6,"heightSource":"default"},"geometry":{"type":"MultiPolygon","coordinates":[[[[408441.23,1897592.29],[408453.68,1897636.18],[408429.7,1897643.52],[408416.76,1897599.14],[408441.23,1897592.29]]]]}},{"type":"Feature","properties":{"building":"yes","height":6,"heightSource":"default"},"geometry":{"type":"MultiPolygon","coordinates":[[[[409916.7,1897955.52],[409922.36,1897956.39],[409921.32,1897962.02],[409929.61,1897963.53],[409930.37,1897959.41],[409940.43,1897961.23],[409942.2,1897951.67],[409932.96,1897949.99],[409933.74,1897945.77],[409924.07,1897944.01],[409923.34,1897947.91],[409918.14,1897946.9],[409916.7,1897955.52]]]]}},{"type":"Feature","properties":{"building":"yes","height":6,"heightSource":"default"},"geometry":{"type":"MultiPolygon","coordinates":[[[[410039.07,1897938.38],[410038.78,1897919.59],[410031.13,1897919.7],[410030.95,1897908.44],[410038.85,1897908.32],[410038.55,1897887.98],[410052.76,1897887.77],[410053.52,1897938.16],[410039.07,1897938.38]]]]}},{"type":"Feature","properties":{"building":"yes","height":6,"heightSource":"default"},"geometry":{"type":"MultiPolygon","coordinates":[[[[410467.33,1897871.69],[410543.43,1897836.98],[410563.74,1897880.96],[410487.64,1897915.68],[410467.33,1897871.69]]]]}},{"type":"Feature","properties":{"building":"yes","height":6,"heightSource":"default"},"geometry":{"type":"MultiPolygon","coordinates":[[[[410381.36,1897683.57],[410378.47,1897677.29],[410386.89,1897673.46],[410398.29,1897698.21],[410381.55,1897705.84],[410373.04,1897687.36],[410381.36,1897683.57]]]]}},{"type":"Feature","properties":{"building":"yes","height":6,"heightSource":"default"},"geometry":{"type":"MultiPolygon","coordinates":[[[[410470.73,1897592.78],[410491.14,1897583.67],[410506.19,1897617.01],[410514.52,1897613.3],[410535.29,1897604.04],[410546.23,1897628.29],[410509.05,1897644.86],[410498.37,1897621.15],[410486.01,1897626.66],[410470.73,1897592.78]]]]}},{"type":"Feature","properties":{"building":"yes","height":6,"heightSource":"default"},"geometry":{"type":"MultiPolygon","coordinates":[[[[410255.35,1897537.77],[410260.9,1897549.57],[410297.86,1897532.41],[410292.32,1897520.62],[410255.35,1897537.77]]]]}},{"type":"Feature","properties":{"building":"yes","height":6,"heightSource":"default"},"geometry":{"type":"MultiPolygon","coordinates":[[[[410211.21,1897558.88],[410216.54,1897570.37],[410249.76,1897555.18],[410244.44,1897543.69],[410211.21,1897558.88]]]]}},{"type":"Feature","properties":{"building":"yes","height":6,"heightSource":"default"},"geometry":{"type":"MultiPolygon","coordinates":[[[[410248.47,1897571.55],[410271.71,1897559.49],[410292.87,1897599.75],[410269.64,1897611.82],[410248.47,1897571.55]]]]}},{"type":"Feature","properties":{"building":"yes","height":6,"heightSource":"default"},"geometry":{"type":"MultiPolygon","coordinates":[[[[410283.09,1897578.51],[410274.63,1897560.34],[410280.16,1897557.79],[410279.65,1897556.68],[410283.51,1897554.9],[410282.97,1897553.74],[410299.7,1897546.05],[410300.38,1897547.48],[410305.17,1897545.28],[410306.05,1897547.17],[410311.42,1897544.69],[410319.56,1897562.15],[410315.35,1897564.08],[410315.97,1897565.39],[410310.54,1897567.9],[410310.87,1897568.6],[410294.43,1897576.16],[410293.72,1897574.63],[410290.17,1897576.26],[410289.79,1897575.44],[410283.09,1897578.51]]]]}},{"type":"Feature","properties":{"building":"yes","height":6,"heightSource":"default"},"geometry":{"type":"MultiPolygon","coordinates":[[[[409396.45,1897664.76],[409412.17,1897664],[409411.75,1897655.44],[409396.04,1897656.19],[409396.45,1897664.76]]]]}},{"type":"Feature","properties":{"building":"yes","height":6,"heightSource":"default"},"geometry":{"type":"MultiPolygon","coordinates":[[[[409427.35,1897811.25],[409426.84,1897796.27],[409443.02,1897795.73],[409443.53,1897810.69],[409427.35,1897811.25]]]]}},{"type":"Feature","properties":{"building":"yes","height":6,"heightSource":"default"},"geometry":{"type":"MultiPolygon","coordinates":[[[[409430.35,1897838.75],[409430.82,1897826.36],[409449.73,1897827.1],[409449.44,1897834.23],[409430.35,1897838.75]]]]}},{"type":"Feature","properties":{"building":"yes","height":6,"heightSource":"default"},"geometry":{"type":"MultiPolygon","coordinates":[[[[409430.62,1897825.4],[409452.45,1897826.77],[409453.14,1897816.06],[409430.92,1897814.12],[409430.62,1897825.4]]]]}},{"type":"Feature","properties":{"building":"yes","height":6,"heightSource":"default"},"geometry":{"type":"MultiPolygon","coordinates":[[[[409451.63,1897959.29],[409452.29,1897941.02],[409498.73,1897940.57],[409498.33,1897960.57],[409451.63,1897959.29]]]]}},{"type":"Feature","properties":{"building":"yes","height":6,"heightSource":"default"},"geometry":{"type":"MultiPolygon","coordinates":[[[[409433.29,1897951.45],[409433.31,1897955.58],[409437.65,1897959.48],[409445.97,1897959.45],[409445.95,1897954.04],[409450.07,1897954.02],[409450.06,1897951.38],[409433.29,1897951.45]]]]}},{"type":"Feature","properties":{"building":"yes","height":6,"heightSource":"default"},"geometry":{"type":"MultiPolygon","coordinates":[[[[409979,1897783.1],[409991.96,1897780.69],[409998.96,1897797.42],[409986.23,1897804.78],[409979,1897783.1]]]]}},{"type":"Feature","properties":{"building":"yes","height":6,"heightSource":"default"},"geometry":{"type":"MultiPolygon","coordinates":[[[[410000.72,1897772.94],[410010.38,1897788.34],[410017.41,1897784],[410007.74,1897768.58],[410000.72,1897772.94]]]]}},{"type":"Feature","properties":{"building":"yes","height":6,"heightSource":"default"},"geometry":{"type":"MultiPolygon","coordinates":[[[[410020.89,1897767.51],[410027.16,1897777.83],[410036.07,1897772.48],[410029.8,1897762.16],[410020.89,1897767.51]]]]}},{"type":"Feature","properties":{"building":"yes","height":6,"heightSource":"default"},"geometry":{"type":"MultiPolygon","coordinates":[[[[410012.6,1897773.96],[410021.03,1897769.05],[410026.64,1897778.55],[410018.19,1897783.46],[410012.6,1897773.96]]]]}},{"type":"Feature","properties":{"building":"yes","height":6,"heightSource":"default"},"geometry":{"type":"MultiPolygon","coordinates":[[[[410817.59,1898194.63],[410817.99,1898184.04],[410827.82,1898184.4],[410827.91,1898182.09],[410835.63,1898182.38],[410835.53,1898184.75],[410840.74,1898184.93],[410840.33,1898195.6],[410833.31,1898195.33],[410833.27,1898196.56],[410827.39,1898196.34],[410827.45,1898194.99],[410817.59,1898194.63]]]]}},{"type":"Feature","properties":{"building":"yes","height":6,"heightSource":"default"},"geometry":{"type":"MultiPolygon","coordinates":[[[[408476.83,1897644.67],[408482.52,1897663.9],[408488.08,1897662.28],[408488.59,1897664.02],[408492.33,1897662.92],[408492.57,1897663.74],[408509.93,1897658.64],[408509.64,1897657.69],[408514.17,1897656.35],[408513.81,1897655.12],[408519.54,1897653.42],[408513.92,1897634.57],[408507.93,1897636.33],[408507.38,1897634.51],[408503.18,1897635.75],[408502.79,1897634.45],[408485.68,1897639.49],[408486.02,1897640.65],[408482.38,1897641.71],[408482.74,1897642.93],[408476.83,1897644.67]]]]}},{"type":"Feature","properties":{"building":"yes","height":6,"heightSource":"default"},"geometry":{"type":"MultiPolygon","coordinates":[[[[409617.17,1897595.51],[409612.11,1897567.74],[409622.7,1897565.84],[409627.77,1897593.61],[409617.17,1897595.51]]]]}},{"type":"Feature","properties":{"building":"yes","height":6,"heightSource":"default"},"geometry":{"type":"MultiPolygon","coordinates":[[[[409625.79,1897609.33],[409624.69,1897601.15],[409638.67,1897599.29],[409639.77,1897607.47],[409625.79,1897609.33]]]]}},{"type":"Feature","properties":{"building":"yes","height":6,"heightSource":"default"},"geometry":{"type":"MultiPolygon","coordinates":[[[[409595.36,1897636.78],[409593.94,1897625.86],[409613.7,1897623.33],[409615.12,1897634.25],[409595.36,1897636.78]]]]}},{"type":"Feature","properties":{"building":"yes","height":6,"heightSource":"default"},"geometry":{"type":"MultiPolygon","coordinates":[[[[409592.25,1897605.41],[409593.78,1897614.65],[409606.93,1897612.5],[409605.4,1897603.25],[409592.25,1897605.41]]]]}},{"type":"Feature","properties":{"building":"yes","height":6,"heightSource":"default"},"geometry":{"type":"MultiPolygon","coordinates":[[[[409607.61,1897601.8],[409610,1897612.1],[409622.09,1897609.32],[409619.7,1897599.02],[409607.61,1897601.8]]]]}},{"type":"Feature","properties":{"building":"yes","height":6,"heightSource":"default"},"geometry":{"type":"MultiPolygon","coordinates":[[[[409594.28,1897624.6],[409593.19,1897615.28],[409606.36,1897613.74],[409607.46,1897623.07],[409594.28,1897624.6]]]]}},{"type":"Feature","properties":{"building":"yes","height":6,"heightSource":"default"},"geometry":{"type":"MultiPolygon","coordinates":[[[[409466.76,1897537.06],[409483.78,1897536.72],[409483.84,1897539.68],[409495.12,1897539.46],[409495.05,1897536.29],[409506.45,1897536.07],[409506.19,1897523.1],[409466.5,1897523.89],[409466.76,1897537.06]]]]}},{"type":"Feature","properties":{"building":"yes","height":6,"heightSource":"default"},"geometry":{"type":"MultiPolygon","coordinates":[[[[409428.39,1897572.22],[409428.16,1897535.06],[409454.22,1897534.9],[409454.44,1897572.06],[409428.39,1897572.22]]]]}},{"type":"Feature","properties":{"building":"yes","height":6,"heightSource":"default"},"geometry":{"type":"MultiPolygon","coordinates":[[[[409423.79,1897530.24],[409464.24,1897530.44],[409464.28,1897522.34],[409423.83,1897522.16],[409423.79,1897530.24]]]]}},{"type":"Feature","properties":{"building":"yes","height":6,"heightSource":"default"},"geometry":{"type":"MultiPolygon","coordinates":[[[[409456.91,1897611.33],[409456.96,1897620.82],[409480.68,1897620.68],[409480.62,1897611.19],[409456.91,1897611.33]]]]}},{"type":"Feature","properties":{"building":"yes","height":6,"heightSource":"default"},"geometry":{"type":"MultiPolygon","coordinates":[[[[409468.87,1897594.03],[409468.97,1897584.69],[409474.46,1897584.74],[409477.89,1897584.78],[409477.8,1897594.12],[409468.87,1897594.03]]]]}},{"type":"Feature","properties":{"building":"yes","height":6,"heightSource":"default"},"geometry":{"type":"MultiPolygon","coordinates":[[[[409492.89,1897585.03],[409493.01,1897560.92],[409513.7,1897561.03],[409513.57,1897585.13],[409492.89,1897585.03]]]]}},{"type":"Feature","properties":{"building":"yes","height":6,"heightSource":"default"},"geometry":{"type":"MultiPolygon","coordinates":[[[[409496.23,1897586.69],[409496.1,1897598.88],[409507.72,1897599],[409507.86,1897586.81],[409496.23,1897586.69]]]]}},{"type":"Feature","properties":{"building":"yes","height":6,"heightSource":"default"},"geometry":{"type":"MultiPolygon","coordinates":[[[[409513.02,1897523.99],[409513.94,1897559.23],[409524.34,1897558.97],[409523.43,1897523.72],[409513.02,1897523.99]]]]}},{"type":"Feature","properties":{"building":"yes","height":6,"heightSource":"default"},"geometry":{"type":"MultiPolygon","coordinates":[[[[407109.05,1895684.49],[407109.07,1895677.16],[407111.25,1895677.17],[407111.27,1895671.63],[407124.84,1895671.66],[407124.8,1895684.53],[407109.05,1895684.49]]]]}},{"type":"Feature","properties":{"building":"yes","height":6,"heightSource":"default"},"geometry":{"type":"MultiPolygon","coordinates":[[[[407106.93,1895669.12],[407106.95,1895661.8],[407109.13,1895661.8],[407109.15,1895656.26],[407122.72,1895656.31],[407122.68,1895669.17],[407106.93,1895669.12]]]]}},{"type":"Feature","properties":{"building":"yes","height":6,"heightSource":"default"},"geometry":{"type":"MultiPolygon","coordinates":[[[[407105.35,1895654.51],[407105.37,1895647.19],[407107.55,1895647.19],[407107.57,1895641.65],[407121.14,1895641.7],[407121.11,1895654.56],[407105.35,1895654.51]]]]}},{"type":"Feature","properties":{"building":"yes","height":6,"heightSource":"default"},"geometry":{"type":"MultiPolygon","coordinates":[[[[407101.81,1895639.06],[407101.84,1895631.73],[407104.02,1895631.74],[407104.03,1895626.2],[407117.62,1895626.23],[407117.58,1895639.1],[407101.81,1895639.06]]]]}},{"type":"Feature","properties":{"building":"yes","height":6,"heightSource":"default"},"geometry":{"type":"MultiPolygon","coordinates":[[[[407098.55,1895611.37],[407098.52,1895618.7],[407100.7,1895618.71],[407100.68,1895624.25],[407114.27,1895624.29],[407114.31,1895611.42],[407098.55,1895611.37]]]]}},{"type":"Feature","properties":{"building":"yes","height":6,"heightSource":"default"},"geometry":{"type":"MultiPolygon","coordinates":[[[[407095.85,1895592.06],[407095.82,1895599.38],[407098,1895599.38],[407097.98,1895604.92],[407111.57,1895604.97],[407111.6,1895592.11],[407095.85,1895592.06]]]]}},{"type":"Feature","properties":{"building":"yes","height":6,"heightSource":"default"},"geometry":{"type":"MultiPolygon","coordinates":[[[[407084.45,1895611.78],[407084.43,1895619.1],[407082.25,1895619.1],[407082.23,1895624.65],[407068.65,1895624.61],[407068.68,1895611.73],[407084.45,1895611.78]]]]}},{"type":"Feature","properties":{"building":"yes","height":6,"heightSource":"default"},"geometry":{"type":"MultiPolygon","coordinates":[[[[407084.92,1895638.84],[407084.95,1895631.51],[407082.77,1895631.5],[407082.79,1895625.96],[407069.21,1895625.92],[407069.17,1895638.79],[407084.92,1895638.84]]]]}},{"type":"Feature","properties":{"building":"yes","height":6,"heightSource":"default"},"geometry":{"type":"MultiPolygon","coordinates":[[[[407084.59,1895654.31],[407084.61,1895646.98],[407082.43,1895646.97],[407082.44,1895641.43],[407068.86,1895641.39],[407068.82,1895654.26],[407084.59,1895654.31]]]]}},{"type":"Feature","properties":{"building":"yes","height":6,"heightSource":"default"},"geometry":{"type":"MultiPolygon","coordinates":[[[[407085.3,1895668.92],[407085.32,1895661.58],[407083.14,1895661.58],[407083.16,1895656.04],[407069.57,1895656],[407069.54,1895668.87],[407085.3,1895668.92]]]]}},{"type":"Feature","properties":{"building":"yes","height":6,"heightSource":"default"},"geometry":{"type":"MultiPolygon","coordinates":[[[[407085.58,1895683.1],[407085.6,1895675.77],[407083.42,1895675.77],[407083.44,1895670.22],[407069.86,1895670.18],[407069.81,1895683.05],[407085.58,1895683.1]]]]}},{"type":"Feature","properties":{"building":"yes","height":6,"heightSource":"default"},"geometry":{"type":"MultiPolygon","coordinates":[[[[407086.08,1895699.22],[407086.11,1895691.89],[407083.93,1895691.88],[407083.94,1895686.34],[407070.36,1895686.29],[407070.32,1895699.17],[407086.08,1895699.22]]]]}},{"type":"Feature","properties":{"building":"yes","height":6,"heightSource":"default"},"geometry":{"type":"MultiPolygon","coordinates":[[[[407086.14,1895714.05],[407086.17,1895706.71],[407083.99,1895706.71],[407084.01,1895701.17],[407070.43,1895701.13],[407070.39,1895714],[407086.14,1895714.05]]]]}},{"type":"Feature","properties":{"building":"yes","height":6,"heightSource":"default"},"geometry":{"type":"MultiPolygon","coordinates":[[[[407116.81,1895708.62],[407114.29,1895701.73],[407112.24,1895702.47],[407110.33,1895697.26],[407097.57,1895701.88],[407102,1895713.98],[407116.81,1895708.62]]]]}},{"type":"Feature","properties":{"building":"yes","height":6,"heightSource":"default"},"geometry":{"type":"MultiPolygon","coordinates":[[[[407150.69,1895597.18],[407151.17,1895579.39],[407166.09,1895579.79],[407165.61,1895597.57],[407150.69,1895597.18]]]]}},{"type":"Feature","properties":{"building":"yes","height":6,"heightSource":"default"},"geometry":{"type":"MultiPolygon","coordinates":[[[[407116.47,1895580.9],[407130.5,1895581.62],[407129.79,1895595.34],[407115.75,1895594.62],[407116.47,1895580.9]]]]}},{"type":"Feature","properties":{"building":"yes","height":6,"heightSource":"default"},"geometry":{"type":"MultiPolygon","coordinates":[[[[407133.52,1895596.92],[407142.54,1895596.78],[407142.46,1895591.74],[407133.43,1895591.88],[407133.52,1895596.92]]]]}},{"type":"Feature","properties":{"building":"yes","height":6,"heightSource":"default"},"geometry":{"type":"MultiPolygon","coordinates":[[[[407092.93,1895575.85],[407093.37,1895588.67],[407113.57,1895587.97],[407113.13,1895575.16],[407092.93,1895575.85]]]]}},{"type":"Feature","properties":{"building":"yes","height":6,"heightSource":"default"},"geometry":{"type":"MultiPolygon","coordinates":[[[[407062.92,1895575.76],[407063.28,1895583.77],[407067.21,1895583.6],[407067.32,1895586.19],[407076.07,1895585.79],[407075.88,1895581.57],[407079.72,1895581.4],[407079.43,1895575.02],[407062.92,1895575.76]]]]}},{"type":"Feature","properties":{"building":"yes","height":6,"heightSource":"default"},"geometry":{"type":"MultiPolygon","coordinates":[[[[407074.65,1895562],[407074.77,1895554.52],[407074.87,1895548.17],[407074.89,1895546.73],[407086.86,1895546.91],[407086.67,1895559.07],[407083.61,1895559.02],[407083.56,1895562.14],[407074.65,1895562]]]]}},{"type":"Feature","properties":{"building":"yes","height":6,"heightSource":"default"},"geometry":{"type":"MultiPolygon","coordinates":[[[[407074.87,1895548.17],[407074.77,1895554.52],[407063.67,1895554.43],[407063.72,1895548.08],[407074.87,1895548.17]]]]}},{"type":"Feature","properties":{"building":"yes","height":6,"heightSource":"default"},"geometry":{"type":"MultiPolygon","coordinates":[[[[409225.93,1898617.81],[409224.56,1898693.27],[409239.62,1898693.54],[409240.98,1898618.09],[409225.93,1898617.81]]]]}},{"type":"Feature","properties":{"building":"yes","height":6,"heightSource":"default"},"geometry":{"type":"MultiPolygon","coordinates":[[[[409166.37,1898618.64],[409180.61,1898618.72],[409180.27,1898676.48],[409166.02,1898676.4],[409166.37,1898618.64]]]]}},{"type":"Feature","properties":{"building":"yes","height":6,"heightSource":"default"},"geometry":{"type":"MultiPolygon","coordinates":[[[[409626.3,1898669.89],[409626.06,1898658.31],[409697.63,1898656.87],[409697.86,1898668.46],[409626.3,1898669.89]]]]}},{"type":"Feature","properties":{"building":"yes","height":6,"heightSource":"default"},"geometry":{"type":"MultiPolygon","coordinates":[[[[409626.62,1898631.13],[409626.38,1898619.55],[409697.94,1898618.11],[409698.18,1898629.7],[409626.62,1898631.13]]]]}},{"type":"Feature","properties":{"building":"yes","height":6,"heightSource":"default"},"geometry":{"type":"MultiPolygon","coordinates":[[[[409626.96,1898708.31],[409626.72,1898696.74],[409698.28,1898695.3],[409698.52,1898706.89],[409626.96,1898708.31]]]]}},{"type":"Feature","properties":{"building":"yes","height":6,"heightSource":"default"},"geometry":{"type":"MultiPolygon","coordinates":[[[[409631.84,1898750.43],[409631.61,1898738.75],[409696.62,1898737.45],[409696.84,1898747.08],[409696.92,1898749.13],[409631.84,1898750.43]]]]}},{"type":"Feature","properties":{"building":"yes","height":6,"heightSource":"default"},"geometry":{"type":"MultiPolygon","coordinates":[[[[409631.84,1898750.43],[409631.93,1898757.37],[409607.38,1898757.83],[409606.62,1898718.28],[409631.18,1898717.82],[409631.61,1898738.75],[409631.84,1898750.43]]]]}},{"type":"Feature","properties":{"building":"yes","height":6,"heightSource":"default"},"geometry":{"type":"MultiPolygon","coordinates":[[[[409501.65,1898838.4],[409501.72,1898852.3],[409580.43,1898851.87],[409580.34,1898837.94],[409501.65,1898838.4]]]]}},{"type":"Feature","properties":{"building":"yes","height":6,"heightSource":"default"},"geometry":{"type":"MultiPolygon","coordinates":[[[[409589,1898899.49],[409591.06,1898855.43],[409621.44,1898856.82],[409619.4,1898900.88],[409589,1898899.49]]]]}},{"type":"Feature","properties":{"building":"yes","height":6,"heightSource":"default"},"geometry":{"type":"MultiPolygon","coordinates":[[[[409641.55,1898795.15],[409641.31,1898783.47],[409706.33,1898782.17],[409706.57,1898793.85],[409641.55,1898795.15]]]]}},{"type":"Feature","properties":{"building":"yes","height":6,"heightSource":"default"},"geometry":{"type":"MultiPolygon","coordinates":[[[[409596.17,1898796.48],[409629.57,1898796.45],[409629.56,1898783.71],[409596.16,1898783.74],[409596.17,1898796.48]]]]}},{"type":"Feature","properties":{"building":"yes","height":6,"heightSource":"default"},"geometry":{"type":"MultiPolygon","coordinates":[[[[409530.97,1898807.85],[409530.98,1898783.99],[409490.61,1898783.96],[409490.59,1898807.82],[409530.97,1898807.85]]]]}},{"type":"Feature","properties":{"building":"yes","height":6,"heightSource":"default"},"geometry":{"type":"MultiPolygon","coordinates":[[[[409584.63,1898808.02],[409584.64,1898784.16],[409544.26,1898784.13],[409544.24,1898807.99],[409584.63,1898808.02]]]]}},{"type":"Feature","properties":{"building":"yes","height":6,"heightSource":"default"},"geometry":{"type":"MultiPolygon","coordinates":[[[[409568.6,1898757.01],[409568.89,1898717.09],[409584.13,1898717.2],[409583.83,1898757.12],[409568.6,1898757.01]]]]}},{"type":"Feature","properties":{"building":"yes","height":6,"heightSource":"default"},"geometry":{"type":"MultiPolygon","coordinates":[[[[409696.84,1898747.08],[409696.92,1898749.13],[409697.87,1898778.79],[409708.44,1898778.44],[409707.41,1898746.75],[409696.84,1898747.08]]]]}},{"type":"Feature","properties":{"building":"yes","height":6,"heightSource":"default"},"geometry":{"type":"MultiPolygon","coordinates":[[[[409524.22,1898551.03],[409522.43,1898517.57],[409534.83,1898516.92],[409536.64,1898550.38],[409524.22,1898551.03]]]]}},{"type":"Feature","properties":{"building":"yes","height":6,"heightSource":"default"},"geometry":{"type":"MultiPolygon","coordinates":[[[[406769.66,1895754.18],[406810.98,1895653.05],[406822.03,1895657.5],[406780.72,1895758.65],[406769.66,1895754.18]]]]}},{"type":"Feature","properties":{"building":"yes","height":6,"heightSource":"default"},"geometry":{"type":"MultiPolygon","coordinates":[[[[406693.98,1895732.75],[406717.26,1895632.88],[406729.77,1895635.76],[406706.46,1895735.63],[406693.98,1895732.75]]]]}},{"type":"Feature","properties":{"building":"yes","height":6,"heightSource":"default"},"geometry":{"type":"MultiPolygon","coordinates":[[[[406583.18,1895811.19],[406591.96,1895785.92],[406604.93,1895790.38],[406596.15,1895815.64],[406583.18,1895811.19]]]]}},{"type":"Feature","properties":{"building":"yes","height":6,"heightSource":"default"},"geometry":{"type":"MultiPolygon","coordinates":[[[[406593.98,1895776.97],[406597.34,1895768.58],[406605.16,1895771.68],[406601.79,1895780.07],[406593.98,1895776.97]]]]}},{"type":"Feature","properties":{"building":"yes","height":6,"heightSource":"default"},"geometry":{"type":"MultiPolygon","coordinates":[[[[408131.3,1896767.1],[408139.74,1896779.06],[408121.15,1896792.04],[408125.49,1896798.18],[408142.63,1896786.22],[408151.4,1896798.65],[408107.86,1896829.04],[408099.47,1896817.16],[408116.34,1896805.38],[408111.93,1896799.14],[408091.11,1896813.69],[408082.33,1896801.28],[408131.3,1896767.1]]]]}},{"type":"Feature","properties":{"building":"yes","height":6,"heightSource":"default"},"geometry":{"type":"MultiPolygon","coordinates":[[[[406542.13,1895936.43],[406553.35,1895897.94],[406532.22,1895891.85],[406521,1895930.34],[406542.13,1895936.43]]]]}},{"type":"Feature","properties":{"building":"yes","height":6,"heightSource":"default"},"geometry":{"type":"MultiPolygon","coordinates":[[[[406581.77,1895959.58],[406615.94,1895970.3],[406620.15,1895957.04],[406586,1895946.31],[406581.77,1895959.58]]]]}},{"type":"Feature","properties":{"building":"yes","height":6,"heightSource":"default"},"geometry":{"type":"MultiPolygon","coordinates":[[[[406575.49,1895979.65],[406580.84,1895963.11],[406594.56,1895967.48],[406589.21,1895984.03],[406575.49,1895979.65]]]]}},{"type":"Feature","properties":{"building":"yes","height":6,"heightSource":"default"},"geometry":{"type":"MultiPolygon","coordinates":[[[[406539.46,1896037.35],[406549.25,1896001.71],[406558.82,1896004.3],[406549.01,1896039.96],[406539.46,1896037.35]]]]}},{"type":"Feature","properties":{"building":"yes","height":6,"heightSource":"default"},"geometry":{"type":"MultiPolygon","coordinates":[[[[406554.52,1896041.85],[406566.2,1896000.39],[406575.41,1896002.96],[406563.72,1896044.41],[406554.52,1896041.85]]]]}},{"type":"Feature","properties":{"building":"yes","height":6,"heightSource":"default"},"geometry":{"type":"MultiPolygon","coordinates":[[[[406570.06,1896045.47],[406581.74,1896004.03],[406590.94,1896006.59],[406579.26,1896048.04],[406570.06,1896045.47]]]]}},{"type":"Feature","properties":{"building":"yes","height":6,"heightSource":"default"},"geometry":{"type":"MultiPolygon","coordinates":[[[[406585.31,1896050.13],[406597,1896008.68],[406606.21,1896011.24],[406594.52,1896052.69],[406585.31,1896050.13]]]]}},{"type":"Feature","properties":{"building":"yes","height":6,"heightSource":"default"},"geometry":{"type":"MultiPolygon","coordinates":[[[[406600.37,1896055.16],[406612.06,1896013.71],[406621.26,1896016.27],[406609.58,1896057.73],[406600.37,1896055.16]]]]}},{"type":"Feature","properties":{"building":"yes","height":6,"heightSource":"default"},"geometry":{"type":"MultiPolygon","coordinates":[[[[406486.5,1895875.85],[406436.41,1895858.45],[406439.33,1895850.16],[406489.42,1895867.55],[406486.5,1895875.85]]]]}},{"type":"Feature","properties":{"building":"yes","height":6,"heightSource":"default"},"geometry":{"type":"MultiPolygon","coordinates":[[[[406422.71,1895960],[406435.29,1895917.98],[406482.43,1895931.93],[406469.85,1895973.95],[406422.71,1895960]]]]}},{"type":"Feature","properties":{"building":"yes","height":6,"heightSource":"default"},"geometry":{"type":"MultiPolygon","coordinates":[[[[406011.3,1895761.01],[406029.54,1895766.95],[406049.66,1895773.51],[406054.61,1895758.51],[406046.39,1895755.82],[406048.2,1895750.29],[406036.65,1895746.54],[406034.64,1895752.67],[406016.05,1895746.61],[406011.3,1895761.01]]]]}},{"type":"Feature","properties":{"building":"yes","height":6,"heightSource":"default"},"geometry":{"type":"MultiPolygon","coordinates":[[[[406011.3,1895761.01],[406005.65,1895777.97],[406019.37,1895782.48],[406023.89,1895783.96],[406029.54,1895766.95],[406011.3,1895761.01]]]]}},{"type":"Feature","properties":{"building":"yes","height":6,"heightSource":"default"},"geometry":{"type":"MultiPolygon","coordinates":[[[[406047.14,1895804.2],[406061.6,1895759.03],[406108.28,1895773.78],[406093.83,1895818.96],[406047.14,1895804.2]]]]}},{"type":"Feature","properties":{"building":"yes","height":6,"heightSource":"default"},"geometry":{"type":"MultiPolygon","coordinates":[[[[406023.38,1895795.46],[406029.8,1895775.8],[406038.25,1895778.53],[406034.17,1895791.02],[406045.13,1895794.55],[406042.79,1895801.72],[406023.38,1895795.46]]]]}},{"type":"Feature","properties":{"building":"yes","height":6,"heightSource":"default"},"geometry":{"type":"MultiPolygon","coordinates":[[[[406005.65,1895777.97],[406001.61,1895789.62],[406015.27,1895794.3],[406019.37,1895782.48],[406005.65,1895777.97]]]]}},{"type":"Feature","properties":{"building":"yes","height":6,"heightSource":"default"},"geometry":{"type":"MultiPolygon","coordinates":[[[[405502.18,1895458.58],[405519.06,1895447.29],[405519.66,1895442.41],[405503.88,1895414.83],[405521.65,1895372.71],[405498.32,1895362.99],[405477.54,1895412.24],[405477.99,1895422],[405502.18,1895458.58]]]]}},{"type":"Feature","properties":{"building":"yes","height":6,"heightSource":"default"},"geometry":{"type":"MultiPolygon","coordinates":[[[[405515.17,1895414.55],[405531,1895375.84],[405550.37,1895383.67],[405534.54,1895422.37],[405515.17,1895414.55]]]]}},{"type":"Feature","properties":{"building":"yes","height":6,"heightSource":"default"},"geometry":{"type":"MultiPolygon","coordinates":[[[[405400.69,1895197.35],[405414.24,1895157.15],[405440.36,1895165.84],[405453.96,1895125.5],[405388.14,1895103.59],[405360.99,1895184.13],[405400.69,1895197.35]]]]}},{"type":"Feature","properties":{"building":"yes","height":6,"heightSource":"default"},"geometry":{"type":"MultiPolygon","coordinates":[[[[408369.23,1894076.77],[408358.65,1893935.88],[408405.29,1893932.43],[408396.73,1893818.59],[408340.98,1893822.72],[408340.64,1893818.26],[408257.32,1893824.39],[408257.66,1893829.01],[408246.8,1893829.8],[408255.26,1893944.04],[408248.55,1893944.53],[408250.93,1893976.31],[408243.01,1893976.9],[408245.79,1894013.94],[408262.2,1894012.73],[408267.58,1894084.32],[408369.23,1894076.77]]]]}},{"type":"Feature","properties":{"building":"yes","height":6,"heightSource":"default"},"geometry":{"type":"MultiPolygon","coordinates":[[[[407030,1897787.98],[407039.06,1897800.37],[407051.27,1897790.9],[407041.72,1897778.69],[407030,1897787.98]]]]}},{"type":"Feature","properties":{"building":"yes","height":6,"heightSource":"default"},"geometry":{"type":"MultiPolygon","coordinates":[[[[408297.44,1896736.23],[408287.71,1896722.88],[408264.56,1896739.55],[408274.29,1896752.9],[408297.44,1896736.23]]]]}},{"type":"Feature","properties":{"building":"yes","height":6,"heightSource":"default"},"geometry":{"type":"MultiPolygon","coordinates":[[[[407907.34,1896855.91],[407919.28,1896847.54],[407916.33,1896843.39],[407939.53,1896827.1],[407942.14,1896830.78],[407954.12,1896822.38],[407951.47,1896818.63],[407975.19,1896801.98],[407977.38,1896805.06],[407987.82,1896797.74],[407971.22,1896774.36],[407961.33,1896781.3],[407963.78,1896784.75],[407939.78,1896801.58],[407937.9,1896798.95],[407925.78,1896807.46],[407928.14,1896810.78],[407905.04,1896826.98],[407902,1896822.69],[407889.81,1896831.25],[407907.34,1896855.91]]]]}},{"type":"Feature","properties":{"building":"yes","height":6,"heightSource":"default"},"geometry":{"type":"MultiPolygon","coordinates":[[[[408855.13,1898183.01],[408874.9,1898182.17],[408872.84,1898145.7],[408853.6,1898147.08],[408855.13,1898183.01]]]]}},{"type":"Feature","properties":{"building":"yes","height":6,"heightSource":"default"},"geometry":{"type":"MultiPolygon","coordinates":[[[[407649.63,1896610.83],[407687.84,1896623.44],[407683.55,1896636.29],[407645.34,1896623.67],[407649.63,1896610.83]]]]}},{"type":"Feature","properties":{"building":"yes","height":6,"heightSource":"default"},"geometry":{"type":"MultiPolygon","coordinates":[[[[407692.68,1896625.1],[407730.89,1896637.71],[407726.6,1896650.56],[407688.39,1896637.94],[407692.68,1896625.1]]]]}},{"type":"Feature","properties":{"building":"yes","height":6,"heightSource":"default"},"geometry":{"type":"MultiPolygon","coordinates":[[[[407735.63,1896639.37],[407773.85,1896651.98],[407769.55,1896664.83],[407731.34,1896652.22],[407735.63,1896639.37]]]]}},{"type":"Feature","properties":{"building":"yes","height":6,"heightSource":"default"},"geometry":{"type":"MultiPolygon","coordinates":[[[[407777.73,1896653.18],[407815.94,1896665.78],[407811.65,1896678.64],[407773.44,1896666.02],[407777.73,1896653.18]]]]}},{"type":"Feature","properties":{"building":"yes","height":6,"heightSource":"default"},"geometry":{"type":"MultiPolygon","coordinates":[[[[407680.36,1896617.84],[407683.27,1896609.4],[407686.73,1896610.58],[407688.24,1896606.21],[407693.68,1896608.07],[407689.26,1896620.87],[407680.36,1896617.84]]]]}},{"type":"Feature","properties":{"building":"yes","height":6,"heightSource":"default"},"geometry":{"type":"MultiPolygon","coordinates":[[[[407695.8,1896622.95],[407698.71,1896614.51],[407702.17,1896615.69],[407703.67,1896611.32],[407709.12,1896613.18],[407704.69,1896625.98],[407695.8,1896622.95]]]]}},{"type":"Feature","properties":{"building":"yes","height":6,"heightSource":"default"},"geometry":{"type":"MultiPolygon","coordinates":[[[[407710.5,1896627.33],[407713.41,1896618.9],[407716.87,1896620.08],[407718.37,1896615.71],[407723.81,1896617.57],[407719.39,1896630.37],[407710.5,1896627.33]]]]}},{"type":"Feature","properties":{"building":"yes","height":6,"heightSource":"default"},"geometry":{"type":"MultiPolygon","coordinates":[[[[407726.13,1896632.79],[407729.03,1896624.36],[407732.5,1896625.54],[407734,1896621.16],[407739.44,1896623.02],[407735.02,1896635.82],[407726.13,1896632.79]]]]}},{"type":"Feature","properties":{"building":"yes","height":6,"heightSource":"default"},"geometry":{"type":"MultiPolygon","coordinates":[[[[407741.28,1896637.79],[407744.19,1896629.36],[407747.66,1896630.54],[407749.17,1896626.16],[407754.6,1896628.02],[407750.19,1896640.82],[407741.28,1896637.79]]]]}},{"type":"Feature","properties":{"building":"yes","height":6,"heightSource":"default"},"geometry":{"type":"MultiPolygon","coordinates":[[[[407756.14,1896642.95],[407759.06,1896634.51],[407762.51,1896635.69],[407764.02,1896631.32],[407769.45,1896633.18],[407765.04,1896645.98],[407756.14,1896642.95]]]]}},{"type":"Feature","properties":{"building":"yes","height":6,"heightSource":"default"},"geometry":{"type":"MultiPolygon","coordinates":[[[[407771.3,1896647.79],[407774.21,1896639.36],[407777.68,1896640.54],[407779.18,1896636.16],[407784.62,1896638.02],[407780.2,1896650.82],[407771.3,1896647.79]]]]}},{"type":"Feature","properties":{"building":"yes","height":6,"heightSource":"default"},"geometry":{"type":"MultiPolygon","coordinates":[[[[407694.6,1896572.13],[407697.51,1896563.7],[407700.97,1896564.87],[407702.49,1896560.51],[407707.92,1896562.35],[407703.51,1896575.15],[407694.6,1896572.13]]]]}},{"type":"Feature","properties":{"building":"yes","height":6,"heightSource":"default"},"geometry":{"type":"MultiPolygon","coordinates":[[[[407709.16,1896577.4],[407712.07,1896568.96],[407715.53,1896570.14],[407717.03,1896565.78],[407722.47,1896567.63],[407718.05,1896580.43],[407709.16,1896577.4]]]]}},{"type":"Feature","properties":{"building":"yes","height":6,"heightSource":"default"},"geometry":{"type":"MultiPolygon","coordinates":[[[[407798.58,1896354.8],[407804.51,1896403.91],[407851.44,1896397.25],[407847.26,1896359.2],[407836.55,1896350.03],[407798.58,1896354.8]]]]}},{"type":"Feature","properties":{"building":"yes","height":6,"heightSource":"default"},"geometry":{"type":"MultiPolygon","coordinates":[[[[408890.47,1898169.36],[408933.26,1898156.07],[408929.4,1898143.79],[408886.61,1898157.09],[408890.47,1898169.36]]]]}},{"type":"Feature","properties":{"building":"yes","height":6,"heightSource":"default"},"geometry":{"type":"MultiPolygon","coordinates":[[[[408888.53,1898190.39],[408889.47,1898202.65],[408857.7,1898205.09],[408856.76,1898192.84],[408888.53,1898190.39]]]]}},{"type":"Feature","properties":{"building":"yes","height":6,"heightSource":"default"},"geometry":{"type":"MultiPolygon","coordinates":[[[[408895.77,1898192.68],[408896.99,1898203.68],[408938.61,1898199.14],[408937.39,1898188.14],[408895.77,1898192.68]]]]}},{"type":"Feature","properties":{"building":"yes","height":6,"heightSource":"default"},"geometry":{"type":"MultiPolygon","coordinates":[[[[408948.34,1898163.45],[408963,1898161.84],[408960,1898135.05],[408945.35,1898136.66],[408948.34,1898163.45]]]]}},{"type":"Feature","properties":{"building":"yes","height":6,"heightSource":"default"},"geometry":{"type":"MultiPolygon","coordinates":[[[[408935.74,1898168.61],[408946.95,1898167.41],[408943.82,1898138.51],[408932.6,1898139.71],[408935.74,1898168.61]]]]}},{"type":"Feature","properties":{"building":"yes","height":6,"heightSource":"default"},"geometry":{"type":"MultiPolygon","coordinates":[[[[408950.19,1898166.62],[408961.7,1898168.43],[408956.01,1898204.11],[408944.51,1898202.3],[408950.19,1898166.62]]]]}},{"type":"Feature","properties":{"building":"yes","height":6,"heightSource":"default"},"geometry":{"type":"MultiPolygon","coordinates":[[[[407485.36,1899049.49],[407477.89,1899004.5],[407496.94,1899001.38],[407500.71,1899024.09],[407496.93,1899024.71],[407500.62,1899046.99],[407485.36,1899049.49]]]]}},{"type":"Feature","properties":{"building":"commercial","height":6,"heightSource":"default"},"geometry":{"type":"MultiPolygon","coordinates":[[[[409626.93,1898155.05],[409640.78,1898148.98],[409639.6,1898145.77],[409638.07,1898142.54],[409624.22,1898148.61],[409626.93,1898155.05]]]]}},{"type":"Feature","properties":{"building":"yes","height":6,"heightSource":"default"},"geometry":{"type":"MultiPolygon","coordinates":[[[[410448.79,1897450.98],[410450.62,1897335.74],[410371.52,1897326],[410392.39,1897459.73],[410448.79,1897450.98]]]]}},{"type":"Feature","properties":{"building":"residential","height":6,"heightSource":"default"},"geometry":{"type":"MultiPolygon","coordinates":[[[[410257.29,1897512.79],[410252.17,1897492.24],[410251.79,1897490.74],[410275.76,1897488.76],[410278.28,1897506.74],[410257.29,1897512.79]]]]}},{"type":"Feature","properties":{"building":"residential","height":6,"heightSource":"default"},"geometry":{"type":"MultiPolygon","coordinates":[[[[410278.28,1897506.74],[410301.8,1897505.49],[410300.71,1897487.28],[410275.76,1897488.76],[410278.28,1897506.74]]]]}},{"type":"Feature","properties":{"building":"house","height":6,"heightSource":"default"},"geometry":{"type":"MultiPolygon","coordinates":[[[[410234.09,1897523.03],[410257.51,1897514.4],[410252.17,1897492.24],[410226.97,1897496.08],[410234.09,1897523.03]]]]}},{"type":"Feature","properties":{"building":"house","height":6,"heightSource":"default"},"geometry":{"type":"MultiPolygon","coordinates":[[[[410234.09,1897523.03],[410216.98,1897529.36],[410208.79,1897498.54],[410226.97,1897496.08],[410234.09,1897523.03]]]]}},{"type":"Feature","properties":{"building":"yes","height":6,"heightSource":"default"},"geometry":{"type":"MultiPolygon","coordinates":[[[[410194.89,1897537.5],[410189.74,1897519.8],[410201.96,1897516.15],[410197.5,1897499.82],[410208.79,1897498.54],[410216.98,1897529.36],[410194.89,1897537.5]]]]}},{"type":"Feature","properties":{"building":"house","height":6,"heightSource":"default"},"geometry":{"type":"MultiPolygon","coordinates":[[[[410189.74,1897519.8],[410201.96,1897516.15],[410197.5,1897499.82],[410185.21,1897502.75],[410189.74,1897519.8]]]]}},{"type":"Feature","properties":{"building":"residential","height":6,"heightSource":"default"},"geometry":{"type":"MultiPolygon","coordinates":[[[[410360.41,1897571.76],[410378.72,1897563.85],[410386.01,1897560.71],[410397.09,1897555.93],[410388.71,1897538.91],[410377.54,1897543.98],[410370.74,1897547.07],[410353.51,1897554.88],[410360.41,1897571.76]]]]}},{"type":"Feature","properties":{"building":"house","height":6,"heightSource":"default"},"geometry":{"type":"MultiPolygon","coordinates":[[[[410301.8,1897505.49],[410312.14,1897504.54],[410312.06,1897485.84],[410300.71,1897487.28],[410301.8,1897505.49]]]]}},{"type":"Feature","properties":{"building":"house","height":6,"heightSource":"default"},"geometry":{"type":"MultiPolygon","coordinates":[[[[410311.76,1897507.77],[410323.15,1897509.05],[410322.83,1897484.04],[410312.06,1897485.84],[410311.76,1897507.77]]]]}},{"type":"Feature","properties":{"building":"house","height":6,"heightSource":"default"},"geometry":{"type":"MultiPolygon","coordinates":[[[[410346.38,1897500.27],[410346.18,1897484.56],[410356.09,1897483.9],[410355.04,1897499.99],[410346.38,1897500.27]]]]}},{"type":"Feature","properties":{"building":"residential","height":6,"heightSource":"default"},"geometry":{"type":"MultiPolygon","coordinates":[[[[410370.02,1897484.46],[410380.19,1897483.92],[410390.89,1897521.53],[410374.97,1897525.1],[410371.91,1897514.63],[410366.81,1897494.08],[410370.02,1897484.46]]]]}},{"type":"Feature","properties":{"building":"residential","height":6,"heightSource":"default"},"geometry":{"type":"MultiPolygon","coordinates":[[[[410414.75,1897556.89],[410426.55,1897552.45],[410427.06,1897555.57],[410434.02,1897554.89],[410432.82,1897547.65],[410431.8,1897542.39],[410412.32,1897548.87],[410414.75,1897556.89]]]]}},{"type":"Feature","properties":{"building":"residential","height":6,"heightSource":"default"},"geometry":{"type":"MultiPolygon","coordinates":[[[[409979.4,1897444.58],[409999.33,1897454.69],[410004.82,1897443.08],[410013.62,1897424.45],[410014.88,1897414.24],[410000.65,1897406.7],[409979.4,1897444.58]]]]}},{"type":"Feature","properties":{"building":"house","height":6,"heightSource":"default"},"geometry":{"type":"MultiPolygon","coordinates":[[[[410034.76,1897451.63],[410022.96,1897452.56],[410004.82,1897443.08],[410013.62,1897424.45],[410034.16,1897429.93],[410034.76,1897451.63]]]]}},{"type":"Feature","properties":{"building":"residential","height":6,"heightSource":"default"},"geometry":{"type":"MultiPolygon","coordinates":[[[[409961.2,1897471.54],[409986.53,1897470.69],[409987.41,1897500.36],[409944.24,1897501.67],[409961.2,1897471.54]]]]}},{"type":"Feature","properties":{"building":"house","height":6,"heightSource":"default"},"geometry":{"type":"MultiPolygon","coordinates":[[[[410322.83,1897484.04],[410330.05,1897483.98],[410327.26,1897509.51],[410323.15,1897509.05],[410322.83,1897484.04]]]]}},{"type":"Feature","properties":{"building":"residential","height":6,"heightSource":"default"},"geometry":{"type":"MultiPolygon","coordinates":[[[[410280.78,1897650.03],[410290.51,1897645.13],[410285.3,1897623.32],[410268.5,1897630.11],[410280.78,1897650.03]]]]}},{"type":"Feature","properties":{"building":"residential","height":6,"heightSource":"default"},"geometry":{"type":"MultiPolygon","coordinates":[[[[410267.26,1897658.08],[410280.78,1897650.03],[410268.5,1897630.11],[410255,1897639.17],[410267.26,1897658.08]]]]}},{"type":"Feature","properties":{"building":"residential","height":6,"heightSource":"default"},"geometry":{"type":"MultiPolygon","coordinates":[[[[410259.62,1897662.85],[410267.26,1897658.08],[410255,1897639.17],[410247.7,1897644.07],[410259.62,1897662.85]]]]}},{"type":"Feature","properties":{"building":"commercial","height":6,"heightSource":"default"},"geometry":{"type":"MultiPolygon","coordinates":[[[[409091.85,1897335.51],[409111.69,1897339.04],[409116.73,1897313.42],[409105.62,1897304.99],[409096.48,1897306.06],[409091.85,1897335.51]]]]}},{"type":"Feature","properties":{"building":"residential","height":6,"heightSource":"default"},"geometry":{"type":"MultiPolygon","coordinates":[[[[410078.54,1897525.41],[410076.41,1897502.5],[410111.82,1897501.5],[410115.01,1897525.4],[410078.54,1897525.41]]]]}},{"type":"Feature","properties":{"building":"house","height":6,"heightSource":"default"},"geometry":{"type":"MultiPolygon","coordinates":[[[[410072.79,1897528.88],[410060.54,1897529.35],[410059,1897505.3],[410071.82,1897504.81],[410072.79,1897528.88]]]]}},{"type":"Feature","properties":{"building":"house","height":6,"heightSource":"default"},"geometry":{"type":"MultiPolygon","coordinates":[[[[410397.45,1897020.65],[410400.09,1897020.82],[410424.12,1897022.4],[410425.2,1897006.78],[410399.83,1897001.47],[410397.45,1897020.65]]]]}},{"type":"Feature","properties":{"building":"house","height":6,"heightSource":"default"},"geometry":{"type":"MultiPolygon","coordinates":[[[[410398.95,1897036.11],[410400.09,1897020.82],[410424.12,1897022.4],[410422.32,1897037.88],[410398.95,1897036.11]]]]}},{"type":"Feature","properties":{"building":"house","height":6,"heightSource":"default"},"geometry":{"type":"MultiPolygon","coordinates":[[[[410398.16,1897051.74],[410398.95,1897036.11],[410422.32,1897037.88],[410420.5,1897053.65],[410398.16,1897051.74]]]]}},{"type":"Feature","properties":{"building":"house","height":6,"heightSource":"default"},"geometry":{"type":"MultiPolygon","coordinates":[[[[410396.92,1897065.5],[410398.16,1897051.74],[410420.5,1897053.65],[410418.84,1897067.55],[410396.92,1897065.5]]]]}},{"type":"Feature","properties":{"building":"house","height":6,"heightSource":"default"},"geometry":{"type":"MultiPolygon","coordinates":[[[[410418.84,1897067.55],[410420.5,1897053.65],[410440.7,1897055.99],[410438.74,1897070.76],[410418.84,1897067.55]]]]}},{"type":"Feature","properties":{"building":"house","height":6,"heightSource":"default"},"geometry":{"type":"MultiPolygon","coordinates":[[[[410420.5,1897053.65],[410422.32,1897037.88],[410442.94,1897041.25],[410440.7,1897055.99],[410420.5,1897053.65]]]]}},{"type":"Feature","properties":{"building":"house","height":6,"heightSource":"default"},"geometry":{"type":"MultiPolygon","coordinates":[[[[410395.83,1897080.97],[410396.92,1897065.5],[410418.84,1897067.55],[410417.32,1897082.74],[410416.16,1897082.64],[410395.83,1897080.97]]]]}},{"type":"Feature","properties":{"building":"house","height":6,"heightSource":"default"},"geometry":{"type":"MultiPolygon","coordinates":[[[[410417.32,1897082.74],[410435.78,1897085.66],[410438.74,1897070.76],[410418.84,1897067.55],[410417.32,1897082.74]]]]}},{"type":"Feature","properties":{"building":"house","height":6,"heightSource":"default"},"geometry":{"type":"MultiPolygon","coordinates":[[[[410442.94,1897041.25],[410445.72,1897026.6],[410424.12,1897022.4],[410422.32,1897037.88],[410442.94,1897041.25]]]]}},{"type":"Feature","properties":{"building":"house","height":6,"heightSource":"default"},"geometry":{"type":"MultiPolygon","coordinates":[[[[410424.12,1897022.4],[410425.2,1897006.78],[410448.7,1897012.31],[410445.72,1897026.6],[410424.12,1897022.4]]]]}},{"type":"Feature","properties":{"building":"house","height":6,"heightSource":"default"},"geometry":{"type":"MultiPolygon","coordinates":[[[[410414.41,1896998.36],[410418.6,1896979.56],[410441.01,1896983.8],[410436.38,1897005.25],[410414.41,1896998.36]]]]}},{"type":"Feature","properties":{"building":"yes","height":6,"heightSource":"default"},"geometry":{"type":"MultiPolygon","coordinates":[[[[410436.38,1897005.25],[410451.38,1897010.15],[410459.26,1896987.42],[410441.01,1896983.8],[410436.38,1897005.25]]]]}},{"type":"Feature","properties":{"building":"house","height":6,"heightSource":"default"},"geometry":{"type":"MultiPolygon","coordinates":[[[[410414.41,1896998.36],[410398.24,1896995.51],[410403.94,1896975.56],[410418.6,1896979.56],[410414.41,1896998.36]]]]}},{"type":"Feature","properties":{"building":"house","height":6,"heightSource":"default"},"geometry":{"type":"MultiPolygon","coordinates":[[[[410398.24,1896995.51],[410384.79,1896991.5],[410388.97,1896972.7],[410403.94,1896975.56],[410398.24,1896995.51]]]]}},{"type":"Feature","properties":{"building":"house","height":6,"heightSource":"default"},"geometry":{"type":"MultiPolygon","coordinates":[[[[410384.79,1896991.5],[410370.08,1896989.26],[410375.62,1896968.42],[410388.97,1896972.7],[410384.79,1896991.5]]]]}},{"type":"Feature","properties":{"building":"house","height":6,"heightSource":"default"},"geometry":{"type":"MultiPolygon","coordinates":[[[[410370.08,1896989.26],[410354.78,1896985.88],[410360.2,1896963.92],[410375.62,1896968.42],[410370.08,1896989.26]]]]}},{"type":"Feature","properties":{"building":"house","height":6,"heightSource":"default"},"geometry":{"type":"MultiPolygon","coordinates":[[[[410394.7,1897096.07],[410413.33,1897097.95],[410416.16,1897082.64],[410395.83,1897080.97],[410394.7,1897096.07]]]]}},{"type":"Feature","properties":{"building":"house","height":6,"heightSource":"default"},"geometry":{"type":"MultiPolygon","coordinates":[[[[410413.33,1897097.95],[410433.3,1897101.41],[410435.78,1897085.66],[410416.16,1897082.64],[410413.33,1897097.95]]]]}},{"type":"Feature","properties":{"building":"house","height":6,"heightSource":"default"},"geometry":{"type":"MultiPolygon","coordinates":[[[[410393.61,1897111.66],[410412.69,1897112.95],[410413.33,1897097.95],[410394.7,1897096.07],[410393.61,1897111.66]]]]}},{"type":"Feature","properties":{"building":"house","height":6,"heightSource":"default"},"geometry":{"type":"MultiPolygon","coordinates":[[[[410412.69,1897112.95],[410431.27,1897116.24],[410433.3,1897101.41],[410413.33,1897097.95],[410412.69,1897112.95]]]]}},{"type":"Feature","properties":{"building":"house","height":6,"heightSource":"default"},"geometry":{"type":"MultiPolygon","coordinates":[[[[410408.77,1897136.54],[410412.69,1897112.95],[410431.27,1897116.24],[410428.55,1897139.5],[410408.77,1897136.54]]]]}},{"type":"Feature","properties":{"building":"house","height":6,"heightSource":"default"},"geometry":{"type":"MultiPolygon","coordinates":[[[[410408.77,1897136.54],[410392.83,1897134.99],[410391.19,1897133.12],[410393.61,1897111.66],[410412.69,1897112.95],[410408.77,1897136.54]]]]}},{"type":"Feature","properties":{"building":"roof","height":6,"heightSource":"default"},"geometry":{"type":"MultiPolygon","coordinates":[[[[404921.62,1895366.32],[404932.56,1895369.78],[404941.37,1895342.24],[404930.44,1895338.79],[404921.62,1895366.32]]]]}},{"type":"Feature","properties":{"building":"yes","height":6,"heightSource":"default"},"geometry":{"type":"MultiPolygon","coordinates":[[[[409855.62,1898624.94],[409850.14,1898623.83],[409844.41,1898615.69],[409845.98,1898610.69],[409854.4,1898604.75],[409865.59,1898607.21],[409864.71,1898613.33],[409870.41,1898613.76],[409875.46,1898621.23],[409874.35,1898627.58],[409866.39,1898633.28],[409854.51,1898629.7],[409855.62,1898624.94]]]]}},{"type":"Feature","properties":{"building":"yes","height":6,"heightSource":"default"},"geometry":{"type":"MultiPolygon","coordinates":[[[[408303.55,1896512.16],[408292.31,1896489.95],[408313.92,1896479.16],[408325.16,1896501.36],[408303.55,1896512.16]]]]}},{"type":"Feature","properties":{"building":"yes","height":6,"heightSource":"default"},"geometry":{"type":"MultiPolygon","coordinates":[[[[409044,1898923.47],[409044.15,1898906.6],[409044.51,1898892.57],[409075.67,1898892.55],[409075.68,1898922.83],[409044,1898923.47]]]]}},{"type":"Feature","properties":{"building":"yes","height":6,"heightSource":"default"},"geometry":{"type":"MultiPolygon","coordinates":[[[[409075.91,1898859.14],[409059.48,1898859.55],[409059.05,1898841.41],[409075.47,1898841.01],[409075.91,1898859.14]]]]}},{"type":"Feature","properties":{"building":"yes","height":6,"heightSource":"default"},"geometry":{"type":"MultiPolygon","coordinates":[[[[409026.41,1898915.73],[409015.14,1898915.64],[409015.28,1898899.03],[409030.9,1898899.16],[409030.83,1898906.5],[409044.15,1898906.6],[409044,1898923.47],[409026.34,1898923.31],[409026.41,1898915.73]]]]}},{"type":"Feature","properties":{"building":"yes","height":6,"heightSource":"default"},"geometry":{"type":"MultiPolygon","coordinates":[[[[403850.79,1900466.12],[403850.67,1900450.8],[403877.09,1900450.58],[403877.21,1900465.91],[403850.79,1900466.12]]]]}},{"type":"Feature","properties":{"building":"yes","height":6,"heightSource":"default"},"geometry":{"type":"MultiPolygon","coordinates":[[[[405948.09,1901442.33],[405958.49,1901431.63],[405928.29,1901402.63],[405917.88,1901413.33],[405948.09,1901442.33]]]]}},{"type":"Feature","properties":{"building":"stadium","height":6,"heightSource":"default"},"geometry":{"type":"MultiPolygon","coordinates":[[[[410297.26,1895928.04],[410330.61,1895875.32],[410321.62,1895869.72],[410288.28,1895922.44],[410297.26,1895928.04]]]]}},{"type":"Feature","properties":{"building":"yes","height":6,"heightSource":"default"},"geometry":{"type":"MultiPolygon","coordinates":[[[[410474.8,1895834.31],[410476.7,1895831.22],[410464.26,1895823.65],[410456.78,1895835.79],[410465.08,1895840.84],[410463.46,1895843.45],[410466.76,1895845.45],[410466.08,1895846.55],[410471,1895849.55],[410468.59,1895853.45],[410475.49,1895857.66],[410477.66,1895854.15],[410480.63,1895855.97],[410482.2,1895853.44],[410499.14,1895863.75],[410507.92,1895849.51],[410490.99,1895839.19],[410488.76,1895842.81],[410474.8,1895834.31]]]]}},{"type":"Feature","properties":{"building":"yes","height":6,"heightSource":"default"},"geometry":{"type":"MultiPolygon","coordinates":[[[[410472.01,1895866.11],[410493.69,1895879.28],[410482.57,1895897.37],[410478.98,1895895.19],[410477.03,1895898.37],[410462.65,1895889.63],[410464.52,1895886.59],[410460.8,1895884.34],[410472.01,1895866.11]]]]}},{"type":"Feature","properties":{"building":"stadium","height":6,"heightSource":"default"},"geometry":{"type":"MultiPolygon","coordinates":[[[[410394.85,1896003.69],[410386.07,1895997.89],[410397.02,1895981.5],[410400.72,1895983.94],[410403.08,1895980.43],[410399.42,1895978.02],[410417.09,1895951.57],[410420.81,1895954.03],[410423.19,1895950.47],[410419.51,1895948.04],[410430.42,1895931.72],[410439.02,1895937.39],[410420.93,1895964.45],[410422.32,1895965.36],[410414.36,1895977.27],[410413.07,1895976.41],[410394.85,1896003.69]]]]}},{"type":"Feature","properties":{"building":"yes","height":6,"heightSource":"default"},"geometry":{"type":"MultiPolygon","coordinates":[[[[411124.87,1895690.41],[411127.38,1895675.26],[411148.63,1895678.73],[411146.12,1895693.89],[411124.87,1895690.41]]]]}},{"type":"Feature","properties":{"building":"ruins","height":6,"heightSource":"default"},"geometry":{"type":"MultiPolygon","coordinates":[[[[411121.14,1895684.43],[411121.87,1895678.7],[411116.5,1895678.03],[411115.75,1895683.75],[411121.14,1895684.43]]]]}},{"type":"Feature","properties":{"building":"yes","height":24,"heightSource":"tag"},"geometry":{"type":"MultiPolygon","coordinates":[[[[409908.9,1897952.79],[409910.4,1897945.74],[409916.52,1897947.02],[409915.03,1897954.08],[409908.9,1897952.79]]]]}},{"type":"Feature","properties":{"building":"yes","height":6,"heightSource":"default"},"geometry":{"type":"MultiPolygon","coordinates":[[[[408461.31,1896407],[408461.93,1896407.9],[408462.81,1896408.56],[408463.87,1896408.89],[408464.97,1896408.88],[408466.01,1896408.51],[408466.88,1896407.83],[408467.5,1896406.88],[408467.76,1896405.79],[408467.65,1896404.68],[408467.17,1896403.65],[408466.38,1896402.85],[408465.37,1896402.33],[408464.25,1896402.19],[408463.15,1896402.42],[408462.17,1896402.99],[408461.46,1896403.83],[408461.05,1896404.85],[408461,1896405.95],[408461.31,1896407]]]]}},{"type":"Feature","properties":{"building":"yes","height":6,"heightSource":"default"},"geometry":{"type":"MultiPolygon","coordinates":[[[[409320.38,1896713.43],[409338.29,1896710.96],[409334.13,1896681.21],[409323.48,1896682.67],[409324.04,1896686.65],[409316.78,1896687.65],[409320.38,1896713.43]]]]}},{"type":"Feature","properties":{"building":"yes","height":6,"heightSource":"default"},"geometry":{"type":"MultiPolygon","coordinates":[[[[410137.94,1897065.2],[410136.68,1897075.83],[410156.72,1897078.2],[410157.99,1897067.56],[410137.94,1897065.2]]]]}},{"type":"Feature","properties":{"building":"roof","height":6,"heightSource":"default"},"geometry":{"type":"MultiPolygon","coordinates":[[[[408905.55,1897366.74],[408905.58,1897365.13],[408905.84,1897350.45],[408905.86,1897348.85],[408964.02,1897349.84],[408963.69,1897367.76],[408905.55,1897366.74]]]]}},{"type":"Feature","properties":{"building":"yes","height":6,"heightSource":"default"},"geometry":{"type":"MultiPolygon","coordinates":[[[[408905.58,1897365.13],[408890.63,1897364.79],[408890.98,1897350.12],[408905.84,1897350.45],[408905.58,1897365.13]]]]}},{"type":"Feature","properties":{"building":"yes","height":6,"heightSource":"default"},"geometry":{"type":"MultiPolygon","coordinates":[[[[405325.64,1899736.44],[405331.83,1899733.17],[405329.18,1899728.22],[405320.18,1899711.39],[405318.04,1899707.37],[405311.84,1899710.64],[405325.64,1899736.44]]]]}},{"type":"Feature","properties":{"building":"roof","height":6,"heightSource":"default"},"geometry":{"type":"MultiPolygon","coordinates":[[[[405329.18,1899728.22],[405320.18,1899711.39],[405363.84,1899688.9],[405372.47,1899705.91],[405329.18,1899728.22]]]]}},{"type":"Feature","properties":{"building":"yes","height":6,"heightSource":"default"},"geometry":{"type":"MultiPolygon","coordinates":[[[[405372.47,1899705.91],[405374.7,1899710.28],[405390.95,1899702.13],[405377.44,1899675.5],[405361.18,1899683.64],[405363.84,1899688.9],[405372.47,1899705.91]]]]}}]}