{"type":"FeatureCollection","features":[{"type":"Feature","properties":{"id":"TH-LAO-3470102","nameTh":"สกลนคร","type":"city_municipality"},"geometry":{"type":"Polygon","coordinates":[[[104.1341686,17.1445632],[104.1082478,17.1360897],[104.0901911,17.1805343],[104.0779817,17.1857977],[104.0902448,17.2050022],[104.0994286,17.2006337],[104.1008032,17.2049058],[104.104169,17.2036318],[104.106711,17.2038645],[104.1091597,17.2027859],[104.1096961,17.2019319],[104.1123602,17.1994621],[104.1149962,17.1979587],[104.1154253,17.1983379],[104.116466,17.1978664],[104.1203499,17.1946174],[104.119513,17.192547],[104.1197061,17.1913171],[104.1187942,17.1908559],[104.1182148,17.1898719],[104.1391468,17.1805189],[104.1862357,17.1914708],[104.1868257,17.1912454],[104.1863644,17.1882525],[104.1879094,17.1873403],[104.1872978,17.184952],[104.1881132,17.1838348],[104.1898727,17.1829533],[104.1903019,17.1817951],[104.190259,17.1802883],[104.1886496,17.1789455],[104.1639197,17.1378992],[104.1445139,17.1371662],[104.144066,17.1346697],[104.1446373,17.1302238],[104.1352951,17.1290358],[104.1346192,17.134762],[104.1378271,17.1467674],[104.1341686,17.1445632]]]}},{"type":"Feature","properties":{"id":"TH-LAO-5471202","nameTh":"สว่างแดนดิน","type":"subdistrict_municipality"},"geometry":{"type":"Polygon","coordinates":[[[103.4535803,17.4880893],[103.4538426,17.4889275],[103.4542837,17.4885181],[103.4548746,17.4886269],[103.4553685,17.4881494],[103.4557415,17.4881932],[103.4556853,17.4888202],[103.4561172,17.4890777],[103.4556508,17.4895625],[103.4561185,17.489507],[103.456497,17.4899325],[103.4574202,17.4899454],[103.457992,17.4894529],[103.4587166,17.4897352],[103.4596696,17.4894091],[103.4603279,17.4898384],[103.4613595,17.4896737],[103.4619257,17.4903718],[103.4623428,17.4899373],[103.4631883,17.4903962],[103.4641206,17.4899061],[103.464082,17.4885698],[103.463434,17.4878178],[103.464108,17.4861535],[103.4637902,17.4856991],[103.4647642,17.4847846],[103.466213,17.4841393],[103.4666711,17.4842435],[103.4669487,17.4837993],[103.4666833,17.48341],[103.4677376,17.4826778],[103.468396,17.4809545],[103.4691257,17.4809226],[103.4693351,17.479587],[103.4710757,17.4783079],[103.4718539,17.47825],[103.472529,17.4776278],[103.4732208,17.4775135],[103.4739976,17.4766134],[103.4745993,17.4765396],[103.4746834,17.4759772],[103.4763957,17.4744568],[103.4768009,17.4749235],[103.4796641,17.4735051],[103.4780099,17.4719671],[103.4778447,17.471484],[103.485435,17.4696803],[103.4881395,17.4693229],[103.4874472,17.4665653],[103.4848796,17.4634305],[103.4838472,17.4636443],[103.4821362,17.4651177],[103.4794607,17.4659289],[103.4775074,17.4657729],[103.4756717,17.4664563],[103.4701254,17.4661032],[103.4696655,17.4665516],[103.4695616,17.4673866],[103.4682247,17.4675393],[103.4675193,17.4687533],[103.4665601,17.4691831],[103.4642126,17.4693346],[103.4627273,17.4701932],[103.4605554,17.4696662],[103.4569114,17.470235],[103.4566796,17.4715407],[103.4556564,17.472188],[103.4541253,17.4725879],[103.4508973,17.4722578],[103.4491184,17.4725157],[103.4491401,17.4715615],[103.448694,17.4713243],[103.4482885,17.4698131],[103.4470824,17.4696922],[103.4461916,17.4699978],[103.4459781,17.4705869],[103.4447464,17.4709635],[103.4443259,17.471467],[103.4449177,17.4721505],[103.4458233,17.4724754],[103.4454807,17.4735137],[103.4425005,17.4730127],[103.4423997,17.473901],[103.4429747,17.4746235],[103.4424469,17.4751987],[103.4417752,17.4752928],[103.4420083,17.4761447],[103.4417495,17.4768724],[103.4422757,17.4773483],[103.4419621,17.4777016],[103.4407212,17.477895],[103.4412943,17.4788155],[103.4408293,17.4791327],[103.4408131,17.4795144],[103.4418404,17.4799269],[103.4418756,17.4803292],[103.4406806,17.4802544],[103.4401078,17.4797782],[103.4398131,17.4799634],[103.4400192,17.4805499],[103.43936,17.4812586],[103.4405428,17.4819781],[103.4396803,17.4822579],[103.4402251,17.4830959],[103.4396105,17.4849365],[103.4405109,17.4855449],[103.4409957,17.4878075],[103.4417702,17.4879068],[103.4424718,17.4884135],[103.4426698,17.4876176],[103.4417194,17.4873122],[103.4417382,17.4864707],[103.4420822,17.4862238],[103.4430035,17.486371],[103.4440685,17.4853042],[103.444547,17.4860758],[103.4453066,17.4864298],[103.4459654,17.4857851],[103.4463258,17.4858793],[103.4463816,17.4863173],[103.4472593,17.4863377],[103.4473043,17.4872423],[103.4475103,17.4865833],[103.447991,17.4862681],[103.4488192,17.4862395],[103.4492355,17.4872116],[103.449705,17.487184],[103.4496671,17.4865574],[103.4505225,17.4864136],[103.451928,17.4866817],[103.4522306,17.4870501],[103.4520611,17.4876682],[103.4535803,17.4880893]]]}}]}