{"type":"FeatureCollection","features":[{"type":"Feature","properties":{"provinceCode":"11","nameTh":"สมุทรปราการ","nameEn":"Samut Prakan"},"geometry":{"type":"Polygon","coordinates":[[[100.5163755,13.6127399],[100.5210167,13.6051441],[100.5138239,13.6026235],[100.5114855,13.5968504],[100.5088895,13.5973663],[100.5099061,13.6002853],[100.5075672,13.6022327],[100.5082485,13.6032755],[100.5015349,13.609527],[100.495457,13.6057443],[100.4854408,13.6063131],[100.4852266,13.6032334],[100.482105,13.6029679],[100.4818261,13.6012082],[100.4773772,13.6009381],[100.4769265,13.6029681],[100.4731028,13.5991051],[100.4735909,13.5938618],[100.4697165,13.5926804],[100.4639644,13.6058258],[100.4575671,13.6044008],[100.4537407,13.6059901],[100.4507196,13.5942644],[100.4465737,13.5870449],[100.4444351,13.553714],[100.4542534,13.4976619],[100.4540891,13.2191019],[100.7462755,13.2189544],[100.8495555,13.4823222],[100.8501778,13.4834808],[100.8599988,13.4844013],[100.8631122,13.4896215],[100.8696145,13.48821],[100.871571,13.4906174],[100.8727668,13.5014853],[100.87156,13.5129052],[100.874094,13.5205991],[100.872049,13.5238062],[100.8794476,13.5480772],[100.8840181,13.5516182],[100.8863034,13.5570523],[100.8896079,13.5580379],[100.8900816,13.5646306],[100.9040752,13.5541119],[100.9151749,13.5718357],[100.913264,13.5777463],[100.9069142,13.5805703],[100.9071653,13.5920521],[100.9144866,13.5925221],[100.9186297,13.5947159],[100.9233871,13.5935314],[100.9444758,13.6184062],[100.9594134,13.6323244],[100.9638955,13.6445846],[100.9539601,13.6470862],[100.9525598,13.6549227],[100.9530587,13.6586348],[100.9557835,13.6623709],[100.860782,13.6969942],[100.859334,13.6894423],[100.7883713,13.7166451],[100.7666556,13.7154346],[100.7644992,13.7166493],[100.7307354,13.7168447],[100.7303846,13.7184898],[100.7164352,13.7184283],[100.7163618,13.7165284],[100.7100381,13.71644],[100.712403,13.7012578],[100.7110868,13.7011816],[100.7064487,13.6785618],[100.6997246,13.6636643],[100.6982986,13.6561557],[100.6783581,13.6613993],[100.6664669,13.6671248],[100.6669111,13.6681972],[100.6622326,13.6713718],[100.6598887,13.6701727],[100.655385,13.6723394],[100.6501664,13.6591442],[100.650325,13.6520539],[100.6405549,13.6538842],[100.6350566,13.6475079],[100.6300568,13.6490679],[100.6298215,13.6512364],[100.6186358,13.6551878],[100.6181566,13.6571465],[100.6160883,13.6535135],[100.6137938,13.6539103],[100.6082669,13.6560037],[100.6078115,13.6585247],[100.6012883,13.6580339],[100.6008317,13.6608037],[100.5964163,13.6605385],[100.5793424,13.6691978],[100.588784,13.6830743],[100.5878575,13.6914392],[100.5801808,13.6991088],[100.5623509,13.7060344],[100.5577342,13.7063477],[100.5540967,13.7051267],[100.5516593,13.7015581],[100.552336,13.6840699],[100.5506403,13.6771639],[100.5466857,13.6716664],[100.5379164,13.669147],[100.5310736,13.6716106],[100.5228322,13.6781679],[100.5203733,13.6756166],[100.5219926,13.6735156],[100.5204134,13.6709706],[100.5210885,13.669125],[100.5175952,13.6672985],[100.5171188,13.6566392],[100.5182815,13.655381],[100.5156519,13.6509834],[100.5172623,13.6493234],[100.5153403,13.6449703],[100.5170103,13.6418774],[100.5160371,13.638497],[100.518043,13.6349196],[100.5142207,13.6286216],[100.5163755,13.6127399]]]}}]}