{"type":"FeatureCollection","features":[{"type":"Feature","properties":{"provinceCode":"14","nameTh":"พระนครศรีอยุธยา","nameEn":"Phra Nakhon Si Ayutthaya"},"geometry":{"type":"Polygon","coordinates":[[[100.3750082,14.5069922],[100.375101,14.5057998],[100.3712694,14.5048559],[100.3710079,14.4992353],[100.3595353,14.499443],[100.3599599,14.5020891],[100.359394,14.5033303],[100.359461,14.5022034],[100.3556362,14.5025695],[100.3538311,14.5007128],[100.3482923,14.500261],[100.3461331,14.4970929],[100.3424048,14.4955945],[100.3396475,14.4961347],[100.3391191,14.4933457],[100.3331619,14.491237],[100.3356119,14.4859313],[100.3307475,14.4850331],[100.3311812,14.4834869],[100.3294945,14.4846564],[100.3282317,14.4835986],[100.3259962,14.4858876],[100.3273294,14.4874513],[100.3263752,14.488691],[100.3200728,14.4916149],[100.3147388,14.4868741],[100.3085151,14.4939793],[100.3035437,14.4921472],[100.3028219,14.4938516],[100.2957559,14.4922372],[100.2934137,14.4936556],[100.292733,14.4864613],[100.2753664,14.4918043],[100.2747077,14.4897508],[100.271093,14.4894192],[100.2683544,14.4849603],[100.267244,14.489092],[100.2616782,14.4860596],[100.2573469,14.486705],[100.2531189,14.482934],[100.2530361,14.4762256],[100.2489407,14.4685712],[100.2460223,14.4686639],[100.2445831,14.4573512],[100.25114,14.4431039],[100.2454543,14.4367703],[100.2539952,14.4330098],[100.2559354,14.433772],[100.259331,14.4291702],[100.2613663,14.4286494],[100.262357,14.4300046],[100.2673775,14.4279263],[100.2630498,14.4196423],[100.2675456,14.4161592],[100.2689659,14.4125726],[100.2734348,14.4116563],[100.2742328,14.4050354],[100.2758225,14.4040309],[100.2783089,14.4063403],[100.2866203,14.4046662],[100.2900073,14.4011844],[100.2885688,14.3984029],[100.2819605,14.3980529],[100.2795368,14.3922419],[100.2780316,14.3926001],[100.2740112,14.3855268],[100.273565,14.3781916],[100.2692696,14.3783195],[100.2689759,14.3764938],[100.27105,14.3751835],[100.2672463,14.3747593],[100.2669608,14.3681638],[100.2708462,14.3668612],[100.2702735,14.3653254],[100.2713994,14.3652829],[100.2709213,14.3619893],[100.2675412,14.3619099],[100.2733567,14.359487],[100.2735531,14.3535334],[100.2754569,14.3529519],[100.2746349,14.3480267],[100.2784018,14.3459373],[100.2764453,14.3428098],[100.279786,14.3417365],[100.2775142,14.3390313],[100.2771789,14.3325008],[100.2794842,14.3323007],[100.2811274,14.3258791],[100.278512,14.3200586],[100.2700953,14.31784],[100.2683831,14.3124063],[100.2603582,14.3052425],[100.2510241,14.2917066],[100.2512036,14.2869509],[100.2481927,14.2757197],[100.250998,14.2639514],[100.2489348,14.2535496],[100.238849,14.2346718],[100.2317347,14.2275222],[100.2324771,14.2172593],[100.2313506,14.2132656],[100.2355134,14.2107123],[100.2366828,14.2001763],[100.2386354,14.1976072],[100.2322947,14.1942217],[100.2286952,14.195371],[100.2270054,14.1935248],[100.2247899,14.1940084],[100.2232986,14.1909764],[100.2174014,14.1880889],[100.217945,14.1870889],[100.2148024,14.184936],[100.2126196,14.1789749],[100.2841927,14.1698345],[100.2796465,14.1275708],[100.2817588,14.1270038],[100.2819908,14.1241192],[100.2904691,14.1237525],[100.2892238,14.1402967],[100.3016918,14.1405625],[100.3075534,14.1396044],[100.3089456,14.1321686],[100.3181613,14.1312525],[100.3184018,14.1326106],[100.3305931,14.133328],[100.329276,14.1209486],[100.3446515,14.1164652],[100.3534776,14.1191081],[100.3697752,14.1162569],[100.4057778,14.1159658],[100.4172228,14.1131657],[100.4282462,14.1156576],[100.4467264,14.1162195],[100.4516995,14.1105748],[100.4702242,14.1125742],[100.4758308,14.1105641],[100.488891,14.1126714],[100.4908054,14.1082424],[100.4963636,14.1088059],[100.4967804,14.1075305],[100.4992282,14.108244],[100.5001599,14.1158183],[100.5215145,14.1314918],[100.5251727,14.124259],[100.5297303,14.1203033],[100.5456712,14.1145443],[100.5493849,14.1103576],[100.553483,14.1111848],[100.5540843,14.1149889],[100.5519109,14.117897],[100.5549921,14.119738],[100.560321,14.1179772],[100.5629535,14.1223389],[100.5734222,14.1224423],[100.5818085,14.1285273],[100.5974635,14.1323162],[100.6022448,14.1351126],[100.6073883,14.1356887],[100.6130343,14.130765],[100.6198515,14.1297766],[100.6197289,14.1431055],[100.6208181,14.1437291],[100.6933331,14.1817468],[100.8225367,14.2439885],[100.8232291,14.3307129],[100.8080585,14.3306812],[100.8080375,14.3259156],[100.8065739,14.3275644],[100.7980111,14.3266046],[100.7962659,14.3248615],[100.7931737,14.3263188],[100.791144,14.3234312],[100.7882738,14.3246235],[100.7828469,14.3231567],[100.7779411,14.3328945],[100.7764847,14.3322795],[100.7732933,14.3369528],[100.7812341,14.3409766],[100.7812464,14.3466348],[100.7836977,14.3491997],[100.783258,14.354885],[100.7884061,14.3570428],[100.7931956,14.364168],[100.7870936,14.3663987],[100.7858488,14.3708721],[100.7870113,14.3733044],[100.7851562,14.374281],[100.7838236,14.3792038],[100.786488,14.3794188],[100.7869625,14.3817499],[100.7897296,14.3827503],[100.7912108,14.3892992],[100.7968408,14.3896292],[100.7967027,14.3918974],[100.7930907,14.3951432],[100.7793728,14.3980915],[100.7831937,14.4023229],[100.7807663,14.4094126],[100.775536,14.4106491],[100.7744087,14.4074629],[100.7698631,14.4059392],[100.7591665,14.4101113],[100.7584927,14.4120429],[100.759711,14.414977],[100.7662998,14.4184398],[100.7683151,14.4225478],[100.7664058,14.4321398],[100.772383,14.4346268],[100.7609319,14.4519958],[100.7617226,14.4543012],[100.7639301,14.4526519],[100.7663145,14.453948],[100.7666096,14.4607541],[100.7700499,14.4645177],[100.7703003,14.4667705],[100.7675569,14.4692297],[100.769287,14.4753628],[100.766792,14.4770446],[100.7676315,14.4785768],[100.7736442,14.4794584],[100.772081,14.4880491],[100.7700384,14.4901653],[100.7663975,14.4915219],[100.7645432,14.4903874],[100.7645148,14.4921979],[100.7604915,14.4933145],[100.7616459,14.4960209],[100.7603842,14.4962879],[100.7589197,14.5021255],[100.7564414,14.5036705],[100.7567444,14.5053272],[100.7514724,14.5060397],[100.7474271,14.5128894],[100.748465,14.5166051],[100.7474667,14.5187103],[100.7495454,14.5188557],[100.7508409,14.5164577],[100.753727,14.518165],[100.7532629,14.5206291],[100.755349,14.5188329],[100.7592224,14.5188316],[100.7637225,14.5239981],[100.7751951,14.5269514],[100.7784859,14.5303149],[100.7773898,14.5333859],[100.7792818,14.5373414],[100.7754137,14.5472689],[100.7751919,14.5517708],[100.7764506,14.5538389],[100.7779044,14.5534443],[100.7773816,14.557352],[100.7810699,14.5604565],[100.7823421,14.5664193],[100.7716559,14.5657427],[100.7698309,14.567058],[100.7668215,14.5651318],[100.7622456,14.5695865],[100.7603239,14.5678256],[100.760065,14.5695138],[100.7530442,14.5689867],[100.7529722,14.5702553],[100.7492691,14.5706093],[100.749555,14.5682812],[100.7401228,14.5693558],[100.7387291,14.5661606],[100.7382943,14.5676623],[100.735524,14.5673834],[100.7354055,14.5690929],[100.7259711,14.5701779],[100.7234234,14.5719358],[100.716455,14.5706093],[100.7162404,14.5720449],[100.7133892,14.5720994],[100.7101357,14.5768914],[100.7114527,14.5808397],[100.7086739,14.5827372],[100.7047579,14.5820364],[100.7057905,14.5851617],[100.7035696,14.59637],[100.7010537,14.5956925],[100.7010537,14.5969877],[100.698342,14.5971642],[100.6983018,14.5936393],[100.6960595,14.5930216],[100.6930447,14.5946413],[100.6918189,14.5929489],[100.6933451,14.5915316],[100.6905475,14.590762],[100.6818974,14.5929333],[100.6829596,14.5968112],[100.6803873,14.5996716],[100.675503,14.5988955],[100.6768656,14.6013042],[100.6591496,14.6030458],[100.6607254,14.5971188],[100.6623588,14.5998961],[100.666586,14.5995794],[100.6649579,14.5962077],[100.6674617,14.5957055],[100.6671238,14.5947243],[100.6648439,14.59515],[100.6626633,14.593385],[100.6637254,14.5915965],[100.6624782,14.5901974],[100.6646991,14.5903065],[100.6632587,14.5873577],[100.6686419,14.5867451],[100.6681538,14.5817223],[100.6686312,14.5838223],[100.6737274,14.5830202],[100.6711069,14.5826464],[100.6695324,14.5800376],[100.6712852,14.5755247],[100.6678104,14.5724368],[100.6678319,14.5651409],[100.670447,14.5648177],[100.6709459,14.5626266],[100.6727564,14.5620321],[100.6717613,14.5592362],[100.6708816,14.5605472],[100.6689531,14.5599657],[100.6691274,14.5542101],[100.666641,14.5551499],[100.662159,14.5532885],[100.6559738,14.5574371],[100.6555554,14.5558015],[100.6579721,14.5555393],[100.6570306,14.5525979],[100.6561697,14.5544957],[100.653289,14.5551136],[100.6547883,14.552938],[100.6517842,14.55306],[100.646106,14.5554744],[100.6434962,14.5543166],[100.6432924,14.5526317],[100.641844,14.5530029],[100.6425574,14.5555653],[100.6403339,14.5562688],[100.6403983,14.5581225],[100.6361389,14.5592024],[100.6355059,14.5621827],[100.6325635,14.5648125],[100.6296131,14.5618556],[100.621309,14.5640493],[100.6218106,14.5663052],[100.6248039,14.5672657],[100.6234011,14.5699993],[100.6216523,14.5672605],[100.6227493,14.5700616],[100.6191015,14.5683716],[100.6182057,14.5637611],[100.6115565,14.562907],[100.6082547,14.5569283],[100.6056637,14.5563623],[100.6086358,14.5600048],[100.6065118,14.560573],[100.6058939,14.5581514],[100.6040486,14.562191],[100.602209,14.562759],[100.6009591,14.560433],[100.6001705,14.5612897],[100.6015009,14.5633769],[100.5984914,14.5706249],[100.5999398,14.5733143],[100.598191,14.5723642],[100.5968338,14.5748926],[100.5985748,14.5795004],[100.5957985,14.5808111],[100.5965672,14.5828894],[100.5913623,14.5864765],[100.5913085,14.5893564],[100.5884496,14.5884689],[100.5876017,14.5903324],[100.5857778,14.5889878],[100.5835301,14.5923623],[100.5816203,14.5923363],[100.5819612,14.5940851],[100.5753311,14.5962973],[100.5750596,14.5987112],[100.5789112,14.5990331],[100.5769909,14.6048368],[100.5747518,14.605684],[100.5769389,14.608801],[100.5753386,14.6091557],[100.5758265,14.611056],[100.5771794,14.6102505],[100.5783416,14.6126392],[100.5728496,14.6147742],[100.5774507,14.6226461],[100.57899,14.6218404],[100.5816042,14.6256417],[100.5840182,14.6260361],[100.584086,14.6285615],[100.586341,14.6305778],[100.5878404,14.6293477],[100.5904233,14.6333807],[100.5928534,14.6321869],[100.5952124,14.6338193],[100.5963255,14.6377354],[100.5998111,14.6415282],[100.5985547,14.6427642],[100.6002241,14.6487463],[100.6032917,14.653512],[100.6001061,14.6552831],[100.5997054,14.6540224],[100.5976197,14.6547278],[100.5955088,14.6566818],[100.5948061,14.6556075],[100.5927593,14.6592399],[100.5807459,14.6643133],[100.5783228,14.6634362],[100.5754432,14.6651696],[100.5703577,14.6618327],[100.5635476,14.6631508],[100.5619259,14.6677619],[100.5591649,14.6655537],[100.559535,14.6617444],[100.5576789,14.6621129],[100.5530682,14.6660519],[100.5535698,14.6678267],[100.5506315,14.6692549],[100.5486854,14.6737524],[100.5433667,14.6746405],[100.5430824,14.67312],[100.539061,14.6735425],[100.538416,14.671824],[100.5358597,14.6718762],[100.53685,14.6669707],[100.5332386,14.6642978],[100.5342954,14.6610698],[100.5360818,14.6615576],[100.53473,14.6589575],[100.5371976,14.6585371],[100.5353576,14.6572111],[100.5353549,14.6548472],[100.5326083,14.6556775],[100.5305082,14.6515827],[100.5305658,14.6556094],[100.5279922,14.6552675],[100.5279359,14.6577535],[100.5230784,14.6595907],[100.5211312,14.6587032],[100.5264687,14.6558799],[100.5139371,14.6587583],[100.5130899,14.6652734],[100.5094842,14.6650574],[100.5142378,14.6687933],[100.5118292,14.6682964],[100.5102682,14.6741501],[100.5090201,14.6747794],[100.5083498,14.6731869],[100.5032053,14.6713341],[100.5012834,14.6733333],[100.5027532,14.6754873],[100.500623,14.6741086],[100.4968187,14.6785056],[100.4964581,14.676071],[100.5032515,14.67001],[100.5028278,14.6638826],[100.5046946,14.6584489],[100.5037747,14.6554938],[100.5065361,14.6551909],[100.5082834,14.6514529],[100.5027213,14.649054],[100.5030316,14.6428115],[100.5011221,14.6428286],[100.5018544,14.6380854],[100.4987508,14.6354516],[100.5020606,14.6331212],[100.5014867,14.6288702],[100.5010629,14.6298356],[100.4927802,14.6277231],[100.4928969,14.6257143],[100.4893389,14.6249669],[100.4935138,14.6207819],[100.4876625,14.6148657],[100.4873836,14.6128465],[100.4916322,14.6105002],[100.4928902,14.6063889],[100.4919675,14.5974809],[100.4958728,14.5956172],[100.4922276,14.5883748],[100.4926428,14.5784735],[100.4888023,14.5750462],[100.4880931,14.5716052],[100.4852861,14.571087],[100.4847875,14.5680832],[100.4807193,14.5681487],[100.4788456,14.5660562],[100.4798838,14.5631428],[100.4866165,14.5622866],[100.4892772,14.5602409],[100.4909,14.5499498],[100.4890303,14.5448253],[100.4934136,14.5411329],[100.4919953,14.5367574],[100.494992,14.5281585],[100.4934038,14.5223039],[100.491187,14.5204863],[100.492554,14.5162214],[100.491207,14.5135874],[100.4929882,14.5103202],[100.4920391,14.5076638],[100.4961756,14.5049437],[100.495221,14.5026734],[100.4977852,14.5020553],[100.4960847,14.4970436],[100.4902214,14.4944467],[100.4913104,14.487778],[100.487684,14.47886],[100.4904681,14.4782678],[100.4898512,14.4730218],[100.4853666,14.4743359],[100.4866218,14.4702117],[100.4898244,14.468721],[100.4895776,14.4666276],[100.4925173,14.466851],[100.492748,14.4657134],[100.4879254,14.4633708],[100.4878717,14.4559089],[100.4857076,14.4541472],[100.4837464,14.4556145],[100.4831296,14.4530701],[100.477497,14.4515272],[100.4783606,14.4441273],[100.469386,14.4434312],[100.4622672,14.4389369],[100.4593759,14.4389652],[100.4585686,14.4412311],[100.4433724,14.4374267],[100.4424977,14.4392038],[100.4361172,14.4412883],[100.4278976,14.4393142],[100.4278493,14.4432467],[100.4260656,14.443774],[100.4189375,14.4432331],[100.4191489,14.4549782],[100.416157,14.4550144],[100.4162647,14.4565079],[100.4183826,14.4624038],[100.4179895,14.4681162],[100.4215997,14.4714453],[100.4182041,14.4740139],[100.4192287,14.4793742],[100.4162836,14.4798416],[100.4166216,14.4835761],[100.4217312,14.4876377],[100.4229045,14.4923024],[100.4288498,14.4945961],[100.4228684,14.4958075],[100.4229167,14.4979239],[100.4211706,14.496867],[100.4203176,14.4992742],[100.4166001,14.4998039],[100.4108173,14.5082927],[100.406912,14.5072072],[100.4042485,14.5087756],[100.4034255,14.5067421],[100.4014993,14.5068463],[100.4011694,14.5084978],[100.4000388,14.5072033],[100.3983933,14.5089989],[100.3960651,14.5060024],[100.3910333,14.5079992],[100.3891772,14.5071839],[100.3857279,14.5119903],[100.3750082,14.5069922]]]}}]}