{"type":"FeatureCollection","features":[{"type":"Feature","properties":{"provinceCode":"84","nameTh":"สุราษฎร์ธานี","nameEn":"Surat Thani"},"geometry":{"type":"Polygon","coordinates":[[[99.6440717,8.9284612],[99.6328103,8.9220535],[99.6374613,8.9198913],[99.638616,8.9167325],[99.6334755,8.9156305],[99.6307719,8.912827],[99.6243238,8.9122281],[99.6201856,8.9140744],[99.6165991,8.9198224],[99.6171677,8.9254876],[99.6115002,8.9288196],[99.6105662,8.9272522],[99.6034564,8.9277457],[99.598264,8.924022],[99.595852,8.9253629],[99.5932504,8.922499],[99.5934146,8.9199751],[99.5823649,8.9179661],[99.582639,8.9157463],[99.5804488,8.9150648],[99.5813644,8.9133272],[99.5799838,8.9113808],[99.5758723,8.9107468],[99.5757291,8.8984805],[99.573214,8.8906493],[99.5578211,8.8771958],[99.5558592,8.877727],[99.5533201,8.8759697],[99.5560227,8.8662838],[99.5594774,8.8607335],[99.5593679,8.8506586],[99.5453215,8.8477319],[99.540547,8.8516821],[99.5322978,8.8500807],[99.5214365,8.8451245],[99.5176035,8.8361352],[99.519962,8.8321151],[99.5204722,8.8247686],[99.5267072,8.8169339],[99.5277197,8.8127756],[99.5221298,8.7932666],[99.5236323,8.7768686],[99.5213506,8.7674863],[99.5234004,8.7622347],[99.5307535,8.759167],[99.5288908,8.7549764],[99.5304107,8.7519961],[99.529324,8.746102],[99.5267395,8.7435228],[99.521881,8.7192875],[99.5095233,8.7145],[99.5070096,8.7122216],[99.5071795,8.7065696],[99.4920304,8.6969077],[99.496005,8.694151],[99.498529,8.6852194],[99.4929928,8.6809178],[99.4962274,8.6753179],[99.4963347,8.6719718],[99.4952568,8.6704908],[99.4922631,8.672193],[99.4884429,8.6706251],[99.4839607,8.6615671],[99.4791492,8.6579641],[99.4786479,8.6551375],[99.4817328,8.650984],[99.4809461,8.6481564],[99.4709882,8.6458724],[99.4675898,8.6475488],[99.4662634,8.6502768],[99.4632555,8.6504993],[99.4546556,8.6426058],[99.4543722,8.6392813],[99.4487202,8.6317797],[99.4498077,8.6277111],[99.4481318,8.6210021],[99.455053,8.6115264],[99.4562782,8.6041275],[99.4523928,8.5984265],[99.4424437,8.5991089],[99.440048,8.594285],[99.4416922,8.5935018],[99.4404655,8.590331],[99.4355247,8.5876009],[99.4342207,8.5831429],[99.4291704,8.5834361],[99.4283813,8.5793641],[99.4237646,8.5770882],[99.4207156,8.5706842],[99.4158689,8.5690921],[99.4136948,8.5641433],[99.4178019,8.552169],[99.4132165,8.5527751],[99.4125022,8.5511057],[99.407801,8.5506532],[99.404911,8.5480054],[99.4045572,8.5451689],[99.4009058,8.5441611],[99.4006337,8.5388208],[99.4022625,8.5360048],[99.3970472,8.533737],[99.397835,8.5315207],[99.3958221,8.5314548],[99.3959539,8.5294424],[99.3935383,8.5287505],[99.3934761,8.5251976],[99.3952191,8.5227009],[99.3954345,8.5172208],[99.3936591,8.5148079],[99.3948192,8.5130795],[99.3896414,8.5121657],[99.3888489,8.5168584],[99.3836664,8.5150698],[99.3777152,8.516082],[99.3744731,8.5129633],[99.3745923,8.510287],[99.3697833,8.5084592],[99.3677065,8.5058991],[99.3640912,8.505449],[99.3645832,8.5017237],[99.3501828,8.4991162],[99.3505031,8.4934635],[99.3457244,8.4963575],[99.3451961,8.4948487],[99.3361928,8.4949179],[99.3294999,8.4928635],[99.3315628,8.4887324],[99.3208028,8.4813534],[99.3187749,8.4753768],[99.3099257,8.4736661],[99.3036234,8.4744214],[99.2974434,8.472641],[99.2958951,8.4705079],[99.2917564,8.4711906],[99.2865329,8.4695975],[99.2858496,8.4664501],[99.2886918,8.4664599],[99.2879367,8.4637966],[99.2822437,8.4649129],[99.2778301,8.4616082],[99.2786558,8.4580714],[99.2771608,8.4555722],[99.2743719,8.4549142],[99.273827,8.4571601],[99.2709181,8.4581431],[99.2719697,8.4539185],[99.2666193,8.4545487],[99.2658066,8.4514268],[99.2638316,8.4512194],[99.2645786,8.4497512],[99.259545,8.4483055],[99.2591641,8.4449465],[99.2613809,8.4445109],[99.2600473,8.4436504],[99.2620019,8.4367016],[99.2594621,8.4370787],[99.2594917,8.4343436],[99.2566366,8.4330496],[99.2572553,8.4301551],[99.2558337,8.4305549],[99.2540412,8.428392],[99.2539776,8.4235333],[99.251252,8.4238829],[99.2496334,8.4210442],[99.2488834,8.4157718],[99.2501907,8.413993],[99.2481854,8.4121779],[99.2490457,8.4102846],[99.2456534,8.4079999],[99.2456385,8.404405],[99.2397845,8.3996494],[99.2377669,8.4007379],[99.2348579,8.3992398],[99.2374466,8.3918909],[99.2367598,8.3878902],[99.234464,8.3856904],[99.2371736,8.3849547],[99.2370022,8.3815826],[99.2396336,8.3805081],[99.2375119,8.3759537],[99.2409235,8.3742877],[99.2399799,8.370017],[99.2412466,8.3680893],[99.2427969,8.368581],[99.2407191,8.3669085],[99.2423719,8.366378],[99.2419587,8.3651813],[99.2466518,8.3674247],[99.2496661,8.364448],[99.2489401,8.3623467],[99.2504306,8.3630007],[99.2510681,8.3609804],[99.2526176,8.3612532],[99.2520024,8.3589493],[99.2577638,8.3573737],[99.2615874,8.3504231],[99.2624091,8.3522936],[99.2664197,8.3491877],[99.2672982,8.3514402],[99.2690581,8.3503265],[99.2692453,8.3532726],[99.2725509,8.3509965],[99.2714227,8.3491301],[99.2756373,8.3511382],[99.2752626,8.3476681],[99.2776223,8.3472092],[99.2736628,8.34391],[99.2766446,8.3431018],[99.2766171,8.3409248],[99.2792072,8.3415886],[99.2788322,8.3389222],[99.2822946,8.3367102],[99.280228,8.3341003],[99.2831142,8.3230472],[99.2828334,8.3161104],[99.2886497,8.3172422],[99.288706,8.3137556],[99.2912508,8.3122181],[99.2907696,8.3086866],[99.2824122,8.3109281],[99.2809784,8.3043343],[99.2768488,8.3029022],[99.2693304,8.3029315],[99.2629848,8.3007892],[99.2568478,8.3026985],[99.222134,8.3245586],[99.2096472,8.3359854],[99.209824,8.3425057],[99.2061619,8.354158],[99.2013808,8.3615651],[99.2050262,8.3660492],[99.1955808,8.3654277],[99.1946292,8.3631527],[99.1914934,8.3643702],[99.1863874,8.3626582],[99.1845234,8.363658],[99.185717,8.3688569],[99.1803568,8.3721088],[99.1776005,8.3717204],[99.1722091,8.3674421],[99.1678684,8.3696792],[99.1604801,8.3678068],[99.1573395,8.3630243],[99.1507492,8.3594983],[99.1468933,8.3609327],[99.1443476,8.3598031],[99.1370628,8.3605368],[99.1350521,8.3630584],[99.129159,8.3638218],[99.1260874,8.3677915],[99.1242207,8.368074],[99.1230396,8.3664235],[99.1116794,8.3669807],[99.1110079,8.3655048],[99.1066809,8.364891],[99.1037411,8.3662961],[99.0955757,8.3639616],[99.0907369,8.364442],[99.0890099,8.3619398],[99.0800773,8.3634573],[99.0783124,8.3616732],[99.0746394,8.3641263],[99.072522,8.3617026],[99.0641863,8.3619723],[99.0618051,8.3595698],[99.0476416,8.3608466],[99.0420339,8.3631996],[99.0361164,8.3622809],[99.0351331,8.3664803],[99.0281587,8.3665539],[99.0272689,8.3710757],[99.0240938,8.3708998],[99.023115,8.3749346],[99.0197764,8.37633],[99.0181439,8.3797087],[99.0148002,8.381878],[99.0090407,8.3826408],[99.008146,8.3853402],[99.0047647,8.3850851],[99.0053977,8.3873423],[99.0007066,8.3902104],[99.0016332,8.3926537],[98.9935103,8.3945085],[98.9924233,8.4007679],[98.9902229,8.4011318],[98.9887717,8.40367],[98.9819646,8.4064895],[98.981214,8.4086055],[98.9745721,8.4099337],[98.9732393,8.4180133],[98.9657347,8.4181875],[98.9656286,8.4199419],[98.9481217,8.4225636],[98.9458866,8.4253838],[98.9425254,8.4366348],[98.9394921,8.4376019],[98.9388194,8.4434507],[98.9428735,8.4515701],[98.9411292,8.4584264],[98.9445587,8.4601089],[98.9455335,8.4671628],[98.9485227,8.4720625],[98.9470301,8.4809419],[98.9495513,8.4850176],[98.950794,8.4920508],[98.9459225,8.496607],[98.9434857,8.506305],[98.9420646,8.532313],[98.9349314,8.5394522],[98.9324393,8.5451603],[98.9319149,8.5508483],[98.9383652,8.5640255],[98.9377813,8.5780387],[98.9331252,8.5837567],[98.9343186,8.5866018],[98.9305636,8.5879079],[98.9292209,8.5931933],[98.9189278,8.59597],[98.9192013,8.5982062],[98.9166911,8.6016423],[98.9186911,8.6088298],[98.9175474,8.610607],[98.9198102,8.6120953],[98.9197326,8.6147903],[98.9093296,8.6205229],[98.9080173,8.62515],[98.9024351,8.6313819],[98.9036379,8.6348851],[98.899743,8.642721],[98.902636,8.647546],[98.8977565,8.6576914],[98.8926097,8.6622482],[98.8910741,8.6700759],[98.8930115,8.6744687],[98.889744,8.6771563],[98.8879765,8.681337],[98.8617348,8.6810505],[98.8546221,8.6787373],[98.8410968,8.6779609],[98.8014934,8.6590811],[98.7993241,8.65681],[98.7979514,8.6509498],[98.786655,8.6509303],[98.7834126,8.6551702],[98.7824328,8.660556],[98.777305,8.662354],[98.7760356,8.6653469],[98.7736,8.6660397],[98.7729085,8.6709171],[98.7707458,8.6732387],[98.747643,8.6751097],[98.7422563,8.6651618],[98.7368141,8.6589305],[98.7322755,8.6457804],[98.7231891,8.6308119],[98.7153013,8.6337312],[98.7057967,8.6282299],[98.7043742,8.6317007],[98.6989275,8.6329793],[98.6973651,8.6436483],[98.6879634,8.647861],[98.68514,8.6558557],[98.6776587,8.6587783],[98.6748911,8.6616506],[98.6700586,8.6613105],[98.6629855,8.656396],[98.6483174,8.6593099],[98.6381206,8.6437112],[98.6346253,8.6425647],[98.629829,8.6439352],[98.6225743,8.6395872],[98.6204795,8.6366194],[98.6114112,8.6374895],[98.6092929,8.6351501],[98.6091666,8.631134],[98.6043179,8.6256862],[98.6031727,8.6288975],[98.6008388,8.6302014],[98.5953805,8.6297399],[98.5927173,8.6312323],[98.5892472,8.6282654],[98.5867909,8.6281357],[98.5782255,8.6336018],[98.5644029,8.6381094],[98.5639198,8.6423926],[98.5536469,8.649005],[98.553217,8.6523341],[98.5501724,8.6549102],[98.5446991,8.6559127],[98.5398639,8.6600533],[98.5372469,8.6602437],[98.5391631,8.6669766],[98.5462532,8.6740367],[98.5520222,8.6732539],[98.5593963,8.6748725],[98.5622066,8.6768625],[98.563244,8.6806299],[98.5702918,8.6817177],[98.5726325,8.6844931],[98.5727642,8.6908941],[98.5810399,8.696544],[98.5822656,8.7028599],[98.5890923,8.7054849],[98.594652,8.7121816],[98.5959914,8.7226062],[98.5935703,8.7312001],[98.5949555,8.7396752],[98.5939439,8.7437652],[98.5966294,8.7461591],[98.5957917,8.759162],[98.5986336,8.7713127],[98.5975748,8.7750415],[98.6015209,8.7823015],[98.5997777,8.7850466],[98.5987685,8.7966591],[98.5954276,8.8005622],[98.5875784,8.8023773],[98.5855068,8.8059707],[98.5792088,8.8035263],[98.5747473,8.8041056],[98.5704669,8.8066429],[98.5644726,8.8072718],[98.5548347,8.8140546],[98.5558575,8.8217026],[98.5528925,8.8295222],[98.5484058,8.8309933],[98.5470669,8.8353539],[98.5429283,8.8402433],[98.5355511,8.842366],[98.532687,8.8449277],[98.5360226,8.8538443],[98.5356514,8.8583713],[98.5256286,8.8610056],[98.5226174,8.8590017],[98.514367,8.8605236],[98.5107915,8.8658519],[98.5054486,8.8809651],[98.4999098,8.8808205],[98.4746003,8.8901352],[98.4723178,8.8888494],[98.4589313,8.889693],[98.4555187,8.8908645],[98.4530897,8.8942117],[98.445996,8.8952552],[98.4476127,8.9029941],[98.454563,8.9142447],[98.4544746,8.9245886],[98.4571167,8.9335799],[98.452383,8.9385875],[98.4475084,8.9399611],[98.4430989,8.945222],[98.4498832,8.9507577],[98.4489257,8.9568382],[98.4513939,8.9656939],[98.4656466,8.9703189],[98.478609,8.977405],[98.4849042,8.9785158],[98.4942245,8.9850519],[98.5053882,8.9825172],[98.511019,8.9954572],[98.510363,8.9982326],[98.5052005,8.9999696],[98.4936054,9.0158277],[98.4887965,9.0159405],[98.4897138,9.0206359],[98.4852401,9.0276409],[98.4853411,9.0336073],[98.4796669,9.0368648],[98.4751626,9.0444999],[98.4729811,9.0637192],[98.4815162,9.0698316],[98.4855152,9.0701216],[98.4945694,9.0809764],[98.4915214,9.0861848],[98.4892813,9.1087763],[98.4853374,9.1126258],[98.4859964,9.1163939],[98.4805775,9.1238832],[98.4851833,9.1312281],[98.4836765,9.1401067],[98.4945308,9.1492081],[98.4961566,9.1525414],[98.5032635,9.1541123],[98.5029084,9.1592245],[98.4969912,9.1647759],[98.4947639,9.1706727],[98.4962657,9.1772289],[98.4930923,9.1873071],[98.494886,9.19196],[98.4986681,9.1941442],[98.4971733,9.2004149],[98.5002822,9.2131886],[98.5026509,9.2159018],[98.506502,9.2166441],[98.5124107,9.2230932],[98.5118572,9.2257656],[98.5178378,9.2278245],[98.5174477,9.2314559],[98.5199966,9.2340587],[98.5249996,9.2353264],[98.5257741,9.2385201],[98.5241786,9.2411111],[98.5279843,9.2435869],[98.5274765,9.2475566],[98.5311449,9.2542261],[98.5266669,9.2647691],[98.5276649,9.2700959],[98.5264268,9.279638],[98.5245322,9.2825819],[98.5276147,9.2965525],[98.5182809,9.2994333],[98.516133,9.304172],[98.5060601,9.308902],[98.5062439,9.3156637],[98.512312,9.3220923],[98.511959,9.3263751],[98.5144632,9.3273151],[98.515564,9.3308632],[98.5262053,9.3383429],[98.5307487,9.3453023],[98.5391792,9.3499382],[98.540666,9.3545754],[98.547725,9.36117],[98.5624294,9.3605142],[98.5660572,9.358936],[98.5697098,9.3619068],[98.5725598,9.3617782],[98.5749497,9.3655219],[98.5829908,9.3637577],[98.5876021,9.3678608],[98.5903366,9.3641927],[98.5907748,9.3557568],[98.5971617,9.3494218],[98.6110274,9.3423008],[98.6148563,9.3442841],[98.6161929,9.3434574],[98.6189849,9.3468553],[98.6345035,9.3565127],[98.6383097,9.3563325],[98.6408872,9.3526201],[98.6584048,9.3477521],[98.6607266,9.3486697],[98.6631584,9.354345],[98.6682268,9.3576946],[98.6720322,9.3673343],[98.6709308,9.3724814],[98.6750692,9.3808805],[98.6745847,9.3876533],[98.6694097,9.3891862],[98.6647378,9.3861941],[98.6613386,9.3872711],[98.6579648,9.3858305],[98.6551433,9.3877974],[98.6484211,9.3878424],[98.6529248,9.3950169],[98.6543935,9.4018494],[98.6479212,9.4136638],[98.6474112,9.4249891],[98.6482635,9.4277076],[98.6511482,9.4284736],[98.6601973,9.420705],[98.6667375,9.4216937],[98.6721971,9.425211],[98.6739438,9.4291283],[98.6813006,9.4352978],[98.6812168,9.4378304],[98.6763503,9.4405998],[98.6734229,9.4469307],[98.6681262,9.4486918],[98.6657007,9.4595888],[98.6680674,9.4634036],[98.6669853,9.465248],[98.6688774,9.4669227],[98.6777983,9.4650164],[98.6837634,9.4694401],[98.6891207,9.4685859],[98.694647,9.4700386],[98.697013,9.4755012],[98.702528,9.4805209],[98.7047966,9.4864059],[98.7102806,9.4853524],[98.7127193,9.4869833],[98.7158103,9.4867074],[98.7169482,9.4991012],[98.7239109,9.5031559],[98.7250679,9.5113982],[98.7342848,9.5166937],[98.7355581,9.5234996],[98.7412565,9.5261225],[98.748181,9.5355858],[98.7549491,9.5379008],[98.7636056,9.5367449],[98.7684514,9.5445614],[98.75759,9.5604176],[98.7578295,9.564722],[98.7603587,9.5689],[98.7586186,9.574565],[98.7566158,9.5764372],[98.7512035,9.5752821],[98.7460542,9.5772423],[98.739397,9.582121],[98.7375291,9.5858218],[98.7405729,9.5910688],[98.7387592,9.5933324],[98.7401293,9.5961628],[98.7385875,9.5996832],[98.7433764,9.6031835],[98.7472652,9.6026093],[98.7503838,9.6115196],[98.7556146,9.6145527],[98.7627302,9.6247279],[98.7675984,9.6271115],[98.7663601,9.6310057],[98.76843,9.6333513],[98.7685356,9.6383689],[98.7642265,9.6418552],[98.7656387,9.6493486],[98.7679545,9.6510272],[98.7671572,9.6608993],[98.7686708,9.6680053],[98.766503,9.6724675],[98.767922,9.6748178],[98.7677121,9.6849533],[98.769487,9.6870633],[98.7778394,9.6879467],[98.7790026,9.6910222],[98.7880877,9.6935875],[98.7899698,9.6919117],[98.7879572,9.6858941],[98.7920939,9.6841656],[98.7955169,9.6871169],[98.804999,9.6883005],[98.8146393,9.6959516],[98.8160058,9.7008511],[98.81913,9.704315],[98.8250918,9.7035968],[98.8304703,9.7063043],[98.8333063,9.7048631],[98.834076,9.7013213],[98.8388929,9.7058544],[98.8408032,9.7036073],[98.8444378,9.7032553],[98.8580182,9.7128877],[98.8621935,9.7196617],[98.8628601,9.726891],[98.8751428,9.7313815],[98.8808477,9.7291863],[98.8824786,9.7260574],[98.8869467,9.7265767],[98.8881485,9.7229299],[98.8916196,9.7217515],[98.8948956,9.7226947],[98.8969414,9.7193143],[98.8992587,9.7197748],[98.903974,9.7245232],[98.9078645,9.7219276],[98.9104902,9.723167],[98.9118621,9.7222345],[98.9208152,9.7070426],[98.9328543,9.6961867],[98.9330877,9.6918223],[98.931807,9.6904662],[98.9352178,9.6881053],[98.9354775,9.684656],[98.937414,9.6850368],[98.939303,9.6814408],[98.941196,9.6825816],[98.9482278,9.6819896],[98.9512571,9.6783811],[98.9556784,9.6803239],[98.9554521,9.6825731],[98.9587923,9.6807412],[98.9619488,9.6824199],[98.9653996,9.6758288],[98.9655114,9.6771594],[98.969711,9.6776994],[98.9700833,9.6791788],[98.9781881,9.681419],[98.9802445,9.6792041],[98.9797499,9.6763949],[98.9818665,9.6755067],[98.9796833,9.6730987],[98.9824141,9.6715734],[98.9872581,9.6746757],[98.9886773,9.6778012],[98.9937439,9.6803925],[98.9978892,9.6905927],[99.0025465,9.6917895],[99.0102607,9.6990471],[99.0141919,9.6982237],[99.0200815,9.6933525],[99.0199779,9.695616],[99.0227107,9.6981943],[99.025684,9.6981911],[99.0276237,9.6950038],[99.0319218,9.6956327],[99.0345557,9.693742],[99.0356584,9.6903166],[99.0392151,9.6884772],[99.0408032,9.6831553],[99.0424718,9.6863269],[99.0462781,9.6882064],[99.0584459,9.6886621],[99.0668696,9.7021113],[99.0714381,9.6980707],[99.0752005,9.6993521],[99.080526,9.6964107],[99.0828567,9.6984561],[99.0843699,9.6978196],[99.0849635,9.70152],[99.0888532,9.7036996],[99.0890499,9.7062561],[99.1102678,9.7055258],[99.1136636,9.7036941],[99.1216564,9.7035285],[99.1346016,9.707536],[99.1416384,9.7043836],[99.1461902,9.6987549],[99.1506261,9.6969258],[99.1518168,9.6943189],[99.1531969,9.696031],[99.1565374,9.6961442],[99.1544101,9.6991312],[99.1562,9.6992214],[99.1561894,9.7022074],[99.1583946,9.7038873],[99.758628,9.8124405],[99.7582379,10.1765519],[100.062095,10.1769302],[100.1520593,10.0690888],[100.1788226,10.0259111],[100.2621559,9.8459563],[100.2734942,9.8159839],[100.2818275,9.7859887],[100.2881904,9.7482041],[100.2950086,9.6584404],[100.4801723,9.3135137],[99.9219442,9.2552576],[99.8492027,9.3304572],[99.7587973,9.3302538],[99.7588491,9.3215513],[99.7691654,9.3227361],[99.764561,9.3137418],[99.7639946,9.3022158],[99.7658327,9.2977734],[99.7632588,9.2914757],[99.7640005,9.287514],[99.7672643,9.284726],[99.7671136,9.2823458],[99.7714767,9.2804676],[99.7729045,9.2669957],[99.7715945,9.2608898],[99.7678313,9.2613719],[99.7621631,9.2682005],[99.7481111,9.2630291],[99.7508455,9.2434671],[99.7508957,9.2266344],[99.7539966,9.221323],[99.7472837,9.2139998],[99.7471342,9.2041238],[99.7390491,9.1996166],[99.7418227,9.1910528],[99.7422218,9.1819895],[99.7387496,9.1703534],[99.7333173,9.1634675],[99.7323691,9.1598392],[99.7275846,9.1616198],[99.72054,9.1554364],[99.7221574,9.1508543],[99.7198809,9.1450073],[99.7240679,9.142041],[99.7242524,9.137295],[99.7298898,9.1349045],[99.7336849,9.1284662],[99.7326044,9.1197946],[99.7279188,9.1171998],[99.7251133,9.1133541],[99.7222104,9.1140489],[99.7224098,9.1127681],[99.7276458,9.1104247],[99.7292492,9.112353],[99.7325499,9.1113643],[99.7405156,9.1144679],[99.7442889,9.1096965],[99.7536229,9.1092541],[99.7551196,9.1071351],[99.7582532,9.1071882],[99.7618319,9.1035077],[99.7646809,9.1032413],[99.7636862,9.1026791],[99.7662647,9.1010189],[99.7672554,9.1022538],[99.768004,9.1000495],[99.7718557,9.0989725],[99.771765,9.0964302],[99.7698332,9.0948545],[99.7702398,9.0920356],[99.7643187,9.0877528],[99.7668299,9.0819452],[99.7665057,9.0775724],[99.7626312,9.0704202],[99.7486275,9.0683916],[99.7407741,9.0584408],[99.7450012,9.0478736],[99.7438881,9.041847],[99.7399156,9.0369532],[99.742697,9.0332456],[99.7421995,9.0291432],[99.7444759,9.0255825],[99.7408247,9.023318],[99.7369832,9.0143155],[99.7331933,9.012616],[99.7341516,9.007493],[99.7307873,9.0057488],[99.731206,8.9950097],[99.7278186,8.988976],[99.7255878,8.9882893],[99.7245162,8.9797622],[99.7224417,8.977348],[99.7174517,8.9771397],[99.7131826,8.9709727],[99.6953994,8.9752163],[99.6936377,8.9736312],[99.6927326,8.9639413],[99.6884999,8.9597096],[99.6952916,8.9517321],[99.6980759,8.9431882],[99.6958463,8.9343736],[99.6864455,8.9307693],[99.677731,8.9314323],[99.6757375,8.9283909],[99.6705816,8.9287328],[99.6688831,8.9262243],[99.665026,8.9264287],[99.6612546,8.9234925],[99.652735,8.924753],[99.6507012,8.9206994],[99.647176,8.9238647],[99.6479039,8.9294834],[99.6449352,8.9264097],[99.6440717,8.9284612]]]}}]}