{"type":"FeatureCollection","features":[{"type":"Feature","properties":{"id":"TH-LAO-3840102","nameTh":"สุราษฎร์ธานี","type":"city_municipality"},"geometry":{"type":"Polygon","coordinates":[[[99.3661344,9.1224573],[99.3651949,9.1244473],[99.3651789,9.1253098],[99.3672285,9.1276407],[99.3676792,9.1286799],[99.3678669,9.1341395],[99.3687789,9.1348132],[99.3699107,9.1346532],[99.3716703,9.1321967],[99.3729792,9.1312052],[99.3744276,9.1316353],[99.3753342,9.1329266],[99.3754415,9.1337899],[99.3744535,9.1392738],[99.3732063,9.1416501],[99.3720116,9.1426478],[99.3684144,9.1438031],[99.367666,9.144499],[99.3677186,9.1456805],[99.3685325,9.1465995],[99.3717753,9.1473085],[99.3734164,9.1469278],[99.3766066,9.1448141],[99.3788779,9.1419783],[99.3797181,9.14144],[99.3805846,9.1414269],[99.3826983,9.1430154],[99.3845363,9.1428973],[99.3852978,9.1420308],[99.3853634,9.1410724],[99.3843788,9.1395889],[99.3836436,9.1371338],[99.3837486,9.1358866],[99.3843,9.1345343],[99.3855735,9.1336285],[99.3873852,9.1337466],[99.3892495,9.1345212],[99.3909562,9.1368975],[99.3918096,9.1392344],[99.3916389,9.1406785],[99.3909431,9.1414137],[99.3871095,9.1427135],[99.3863743,9.1438688],[99.3864662,9.1454705],[99.3878054,9.1495535],[99.3879892,9.1514834],[99.3864269,9.1604109],[99.3867551,9.1625114],[99.3880417,9.1647696],[99.3886981,9.1666601],[99.3885799,9.1677366],[99.3883174,9.1682749],[99.3873169,9.168506],[99.3835678,9.1681147],[99.3821573,9.1683877],[99.3809015,9.1693159],[99.3780714,9.17625],[99.3766518,9.1779335],[99.3726962,9.1814427],[99.3723293,9.1821463],[99.3718831,9.1832346],[99.3717764,9.1847598],[99.3723373,9.1875753],[99.3714559,9.1881605],[99.3664884,9.1851208],[99.3642998,9.1841888],[99.3638277,9.1829178],[99.3612742,9.1795498],[99.3589568,9.1782788],[99.3561244,9.1749319],[99.3517685,9.1720298],[99.3490004,9.1708223],[99.345417,9.1704622],[99.3418765,9.1706105],[99.339838,9.1710341],[99.3346023,9.1682803],[99.3326926,9.1666703],[99.3319148,9.165537],[99.3219745,9.1713307],[99.3050229,9.1372345],[99.3075335,9.1366413],[99.3084776,9.1360798],[99.3096095,9.1346631],[99.3052912,9.1287072],[99.3044919,9.1245442],[99.3034136,9.1230823],[99.3024373,9.1208895],[99.3026626,9.1195442],[99.3043685,9.1165781],[99.3063533,9.1148302],[99.3069005,9.1128916],[99.3068039,9.1117157],[99.3058598,9.1096182],[99.3045616,9.1079021],[99.303596,9.1072241],[99.3012035,9.1063978],[99.3007207,9.1056244],[99.3001199,9.1028913],[99.3005168,9.0997555],[99.3007421,9.0987385],[99.3027055,9.0968528],[99.3039179,9.0961748],[99.3066752,9.0955286],[99.3087459,9.0960371],[99.3115461,9.0987703],[99.3125439,9.0990457],[99.3156767,9.0985372],[99.3197858,9.0946916],[99.322629,9.0900091],[99.3229723,9.088759],[99.3228221,9.0871381],[99.3215668,9.0845425],[99.3193674,9.0830275],[99.3136597,9.0816926],[99.3131339,9.0810676],[99.3125868,9.0791182],[99.3136865,9.0767212],[99.3157867,9.0748195],[99.3202579,9.0722159],[99.3237233,9.071612],[99.3252361,9.0704148],[99.3255687,9.0684495],[99.3251073,9.0661822],[99.3255257,9.0646565],[99.3249893,9.0619866],[99.3229937,9.0597193],[99.3217224,9.0558521],[99.3228275,9.0555607],[99.3233585,9.0585485],[99.3248659,9.0595921],[99.3257618,9.0609695],[99.326899,9.062919],[99.3273497,9.0655359],[99.3278754,9.0661504],[99.3299246,9.0680151],[99.3335724,9.069403],[99.33501,9.070473],[99.3376386,9.070971],[99.3386364,9.0708015],[99.3406963,9.0689156],[99.3427884,9.0661504],[99.343282,9.0644128],[99.3433678,9.0623574],[99.3444085,9.0604186],[99.3457389,9.0602278],[99.3470263,9.0607894],[99.3477344,9.0624634],[99.3446338,9.0636129],[99.3449557,9.0664576],[99.3439874,9.0669927],[99.3413615,9.0696943],[99.3397897,9.0724542],[99.3387383,9.0728674],[99.3384889,9.0734687],[99.3353856,9.0750949],[99.3341839,9.0761411],[99.3343985,9.0770947],[99.3361795,9.0778469],[99.3373275,9.0791712],[99.3376601,9.0798386],[99.3374884,9.0815019],[99.335922,9.0844418],[99.3350422,9.0846908],[99.3332559,9.0843518],[99.3321991,9.0874453],[99.3331754,9.0880492],[99.3451488,9.0861316],[99.344666,9.0870215],[99.3457174,9.0878479],[99.3463826,9.0967257],[99.3448806,9.0971494],[99.347434,9.0989822],[99.3474555,9.1000945],[99.3453634,9.1003276],[99.3455887,9.1037494],[99.3443656,9.1070864],[99.3483245,9.1074889],[99.3476057,9.1087813],[99.349848,9.1121395],[99.352659,9.1123619],[99.3551588,9.1114827],[99.3630981,9.1146819],[99.3653619,9.1172455],[99.3662417,9.1209425],[99.3661344,9.1224573]]]}},{"type":"Feature","properties":{"id":"TH-LAO-3840401","nameTh":"เกาะสมุย","type":"city_municipality"},"geometry":{"type":"MultiPolygon","coordinates":[[[[99.700503,9.5126609],[99.7007532,9.5132855],[99.7005356,9.515576],[99.6993774,9.5172537],[99.6984869,9.5178992],[99.6986264,9.5197773],[99.6994847,9.521994],[99.7000618,9.5228224],[99.7010117,9.52328],[99.7022796,9.5232743],[99.703846,9.5221368],[99.7044254,9.5221315],[99.7047901,9.5225601],[99.7049508,9.5233139],[99.7042108,9.5243959],[99.7042309,9.5258967],[99.7037482,9.5262701],[99.7028196,9.5262352],[99.7022853,9.5254702],[99.7018504,9.5257291],[99.7014882,9.526183],[99.7014023,9.5284512],[99.7022581,9.5288187],[99.7030672,9.5285739],[99.7040584,9.5299154],[99.7069118,9.5301777],[99.7074294,9.530829],[99.7075153,9.5313157],[99.7062296,9.5328098],[99.7052837,9.5320987],[99.7030071,9.5333388],[99.7029256,9.534439],[99.7052943,9.5354462],[99.7048388,9.5361757],[99.7041414,9.536618],[99.7032015,9.5366],[99.703024,9.5370672],[99.70347,9.537241],[99.7037918,9.5383067],[99.7044112,9.538376],[99.7048591,9.5388251],[99.7047755,9.539097],[99.7032255,9.5394957],[99.7033971,9.540541],[99.7050277,9.5409429],[99.7039799,9.5418358],[99.7041566,9.5429274],[99.7045326,9.543695],[99.7052808,9.5440403],[99.7054124,9.54488],[99.7062922,9.5457899],[99.7077953,9.5463931],[99.7065338,9.5474003],[99.7063707,9.5490674],[99.7052165,9.5490294],[99.7046185,9.5480752],[99.702553,9.5476079],[99.7005844,9.5485831],[99.6991253,9.5484138],[99.699136,9.5504346],[99.6987498,9.5505721],[99.6984279,9.5497257],[99.6976018,9.549038],[99.6967757,9.5494083],[99.6950805,9.549239],[99.6941579,9.549567],[99.6926773,9.5491332],[99.6926451,9.550022],[99.6921838,9.5506462],[99.6916701,9.5510076],[99.6908212,9.5507837],[99.6909285,9.5512598],[99.6903813,9.5524871],[99.689523,9.5533653],[99.6887076,9.5530267],[99.6882463,9.5532806],[99.685989,9.5514297],[99.6837187,9.5511382],[99.6832144,9.5506515],[99.6833286,9.5493382],[99.6864653,9.5473399],[99.6859342,9.5460861],[99.6845193,9.5452781],[99.6837884,9.54634],[99.6824688,9.5473822],[99.6813905,9.5467156],[99.6812895,9.5457375],[99.6822918,9.5445573],[99.6830154,9.5430585],[99.681986,9.5419333],[99.6782041,9.5401294],[99.6763237,9.5400641],[99.6742818,9.5404612],[99.673852,9.5386801],[99.6722442,9.5371351],[99.6706281,9.5368965],[99.6693796,9.5372197],[99.6688473,9.5380814],[99.6681404,9.5378281],[99.6682316,9.5373732],[99.6667618,9.5358125],[99.6668315,9.5354898],[99.6685106,9.5356697],[99.6692967,9.5352852],[99.6701092,9.5346804],[99.6712572,9.5328182],[99.6705705,9.5306492],[99.6698867,9.5297905],[99.6684448,9.5294911],[99.6675279,9.5288257],[99.6671266,9.528004],[99.6662736,9.5276283],[99.6635485,9.5299826],[99.66254,9.5299402],[99.6623683,9.5287552],[99.6631837,9.5285013],[99.6635485,9.5272739],[99.6633238,9.5221005],[99.6625182,9.520541],[99.6628302,9.5196325],[99.6637148,9.5185975],[99.6637792,9.5179256],[99.663385,9.5161749],[99.6622342,9.5153438],[99.6619016,9.5144073],[99.6620414,9.5141126],[99.6625829,9.5141322],[99.6639401,9.5145026],[99.6642566,9.5149946],[99.665216,9.5151278],[99.6669646,9.5146038],[99.6694869,9.5128572],[99.6714878,9.5103917],[99.6723676,9.5101219],[99.6733976,9.5092331],[99.6748727,9.5090991],[99.6806599,9.507052],[99.6818572,9.5070691],[99.6857572,9.508249],[99.6866208,9.5079421],[99.6874519,9.5086948],[99.6885145,9.5089526],[99.689818,9.5091219],[99.6907085,9.5088839],[99.6973175,9.5136402],[99.6981912,9.5130426],[99.700503,9.5126609]]],[[[99.6656674,9.5580152],[99.6649969,9.5572058],[99.6651363,9.5561637],[99.664734,9.5558516],[99.6637738,9.5559257],[99.6626097,9.5552062],[99.6624098,9.5540411],[99.6625882,9.553487],[99.6631247,9.5532013],[99.6631622,9.5523179],[99.6621054,9.5514027],[99.6622127,9.5503976],[99.661628,9.5492814],[99.6605927,9.5482022],[99.6596754,9.5478531],[99.6599554,9.54678],[99.6596432,9.545937],[99.6590531,9.5456841],[99.6590906,9.54488],[99.6609026,9.5453159],[99.6623683,9.5444727],[99.6630979,9.5446367],[99.6652651,9.5440336],[99.6650183,9.5469167],[99.6656352,9.548673],[99.666692,9.5497363],[99.6667028,9.5503711],[99.6660751,9.5517942],[99.6664184,9.5538943],[99.6659142,9.5564705],[99.6660429,9.5571741],[99.6656674,9.5580152]]],[[[99.6828866,9.5571313],[99.6827906,9.5566557],[99.6835685,9.5562007],[99.6836007,9.5554601],[99.6845019,9.5544392],[99.6852797,9.5541376],[99.6859878,9.5544974],[99.6863839,9.5555395],[99.6851614,9.5571002],[99.6847983,9.5569408],[99.6835631,9.5573275],[99.6828866,9.5571313]]],[[[99.711215,9.5227214],[99.7108872,9.5222848],[99.7113153,9.5214502],[99.711308,9.5205717],[99.7102053,9.5202965],[99.711137,9.5198417],[99.7117378,9.52006],[99.7126354,9.5216588],[99.7122331,9.5223741],[99.711215,9.5227214]]],[[[99.7033896,9.5097683],[99.704947,9.5091011],[99.7050905,9.5084183],[99.7057274,9.5081544],[99.7065834,9.5087391],[99.7067585,9.5096948],[99.7054789,9.5111172],[99.7032948,9.5105792],[99.7033896,9.5097683]]],[[[99.9584172,9.3688492],[99.9587948,9.3696467],[99.9586657,9.3704127],[99.9580136,9.3700385],[99.9585091,9.3699254],[99.9580822,9.3683227],[99.9567628,9.3683227],[99.9541572,9.3704055],[99.9535106,9.371366],[99.9520174,9.3718266],[99.9500134,9.3749263],[99.9487289,9.3782384],[99.9483825,9.3822754],[99.9493594,9.3862949],[99.9500608,9.3863158],[99.9519226,9.3876003],[99.9527142,9.3893402],[99.9517652,9.3936659],[99.9519767,9.3942452],[99.9514306,9.3950019],[99.9506101,9.3948963],[99.9466418,9.3922341],[99.9447715,9.3901756],[99.9444195,9.3902596],[99.9442065,9.3895247],[99.942947,9.3879815],[99.9400139,9.3858781],[99.9379009,9.3834922],[99.9361344,9.3808376],[99.935841,9.3780964],[99.9361108,9.3772953],[99.9357108,9.3756821],[99.9349374,9.3747336],[99.9349093,9.3726822],[99.9352556,9.3718401],[99.9360827,9.3713104],[99.9364801,9.3715473],[99.9363193,9.3722022],[99.9367173,9.3716645],[99.9375603,9.3722957],[99.9379643,9.373093],[99.9385011,9.3731355],[99.939908,9.3715145],[99.9395348,9.3706175],[99.9396806,9.369875],[99.9389515,9.3690127],[99.9382199,9.3666804],[99.9378334,9.366374],[99.937419,9.3666082],[99.9364641,9.3658343],[99.9354724,9.3656542],[99.9350139,9.3659069],[99.9340004,9.367682],[99.9333514,9.3674481],[99.9295465,9.3604036],[99.9292979,9.3590385],[99.9311781,9.358575],[99.9336779,9.3587126],[99.9345159,9.3581449],[99.9375188,9.3573999],[99.9407911,9.3560343],[99.9430334,9.3560767],[99.9455976,9.3572835],[99.9497187,9.3583672],[99.954567,9.3604275],[99.9556964,9.3604693],[99.9572706,9.3616238],[99.9577029,9.3620582],[99.9573726,9.3633338],[99.9575447,9.3638475],[99.9593859,9.366332],[99.959385,9.3667119],[99.9584528,9.3678284],[99.9584172,9.3688492]]],[[[99.971674,9.3685195],[99.9722351,9.3674858],[99.9736568,9.3675033],[99.9759909,9.3667142],[99.9773428,9.3673917],[99.9780575,9.3682541],[99.9782118,9.3707553],[99.9796109,9.3717372],[99.980009,9.3728663],[99.9796517,9.3735205],[99.980328,9.3746538],[99.9808523,9.3749114],[99.981138,9.3765342],[99.9821198,9.3778238],[99.9821962,9.3784985],[99.9813227,9.3790009],[99.980904,9.3786757],[99.9810944,9.3779854],[99.9802841,9.3772415],[99.978106,9.3773935],[99.9783864,9.3760591],[99.978134,9.3743101],[99.9765397,9.37148],[99.9753416,9.3702349],[99.9729361,9.3689455],[99.9718683,9.3688437],[99.971674,9.3685195]]],[[[100.0827955,9.5376894],[100.0833835,9.5384215],[100.0836005,9.5394011],[100.0843639,9.5394193],[100.0842999,9.5399259],[100.0818769,9.5416157],[100.0812574,9.5415824],[100.081226,9.5409243],[100.0801404,9.5397397],[100.0803056,9.5382481],[100.0809682,9.537566],[100.0819868,9.5372791],[100.0825882,9.5354811],[100.0832605,9.5348136],[100.0865803,9.5337361],[100.0866226,9.5341529],[100.0855179,9.5354905],[100.0831491,9.5365383],[100.0827956,9.536993],[100.0827955,9.5376894]]],[[[100.0891612,9.573946],[100.0884291,9.5745041],[100.0882177,9.5740737],[100.0871655,9.573918],[100.0869431,9.5731793],[100.087755,9.5723856],[100.0876473,9.5719923],[100.0878548,9.5723677],[100.0892528,9.5726137],[100.0895928,9.5740977],[100.0891612,9.573946]]],[[[100.0876541,9.5751991],[100.086723,9.5747375],[100.0872972,9.5739646],[100.0880719,9.5748952],[100.0876541,9.5751991]]],[[[100.0547138,9.5927022],[100.0574121,9.5911458],[100.0590563,9.5923716],[100.0602499,9.5914936],[100.0612584,9.5923716],[100.0597014,9.5942771],[100.0592532,9.5933836],[100.0586703,9.5930329],[100.0582275,9.5932735],[100.0578573,9.5943088],[100.0570406,9.5943538],[100.0560267,9.5939055],[100.0550035,9.5926731],[100.0547138,9.5927022]]],[[[100.052855,9.5919088],[100.0535229,9.5931439],[100.0530213,9.593284],[100.0528818,9.592726],[100.0514013,9.5916972],[100.0513576,9.5909689],[100.0529891,9.5913798],[100.052855,9.5919088]]],[[[99.8977565,9.4292289],[99.8967224,9.428129],[99.8968265,9.4267016],[99.8965565,9.4263178],[99.8969075,9.4258999],[99.8980036,9.4283725],[99.8977565,9.4292289]]],[[[99.893121,9.4358508],[99.8928512,9.43388],[99.8936511,9.434151],[99.894949,9.4355443],[99.893121,9.4358508]]],[[[99.8929818,9.4365866],[99.8933461,9.4373471],[99.893164,9.437946],[99.8927512,9.437407],[99.8929818,9.4365866]]],[[[99.8998368,9.4398468],[99.9000968,9.4382479],[99.9003484,9.4381306],[99.9008382,9.439444],[99.9007363,9.4397226],[99.8998368,9.4398468]]],[[[99.9008195,9.4442031],[99.9007963,9.443647],[99.9002634,9.4435936],[99.9003561,9.4431518],[99.9011593,9.4433194],[99.9011825,9.4438222],[99.9008195,9.4442031]]],[[[100.0696876,9.5934087],[100.0683448,9.5935233],[100.0669721,9.5925686],[100.0652019,9.5900984],[100.065372,9.5890791],[100.0681154,9.5878932],[100.0682469,9.5854609],[100.0689429,9.5845154],[100.0689965,9.5839322],[100.0658771,9.5753049],[100.0654292,9.5750906],[100.0641686,9.575334],[100.0611484,9.5763734],[100.0654936,9.5745326],[100.065169,9.5739877],[100.0646728,9.5741147],[100.0611135,9.5759066],[100.0645226,9.5740432],[100.0647763,9.5734336],[100.0619048,9.5698538],[100.061489,9.5685102],[100.0607836,9.570037],[100.0610114,9.570296],[100.0615515,9.5701449],[100.0616446,9.5706734],[100.05959,9.5715796],[100.0593272,9.5713415],[100.0591972,9.5706121],[100.0604443,9.5701712],[100.0613683,9.5681373],[100.0612222,9.5675938],[100.0619289,9.5660269],[100.0614925,9.5637963],[100.0606781,9.5626113],[100.0563176,9.5588511],[100.0521785,9.5571358],[100.0505645,9.557203],[100.0435496,9.5601057],[100.0426619,9.5616374],[100.0426472,9.5628478],[100.0420726,9.5643787],[100.041164,9.5650627],[100.0408667,9.5648975],[100.0406613,9.5622006],[100.0403869,9.5619124],[100.0365443,9.5604412],[100.0344876,9.5600928],[100.031156,9.5600858],[100.0244715,9.5629273],[100.0207572,9.5650675],[100.0186254,9.5667416],[100.017847,9.5695462],[100.0183304,9.5701968],[100.0196096,9.5705862],[100.0196644,9.5709915],[100.0189829,9.5715281],[100.018882,9.5725313],[100.0174969,9.5739138],[100.0169308,9.5750332],[100.0157091,9.573189],[100.0143672,9.5720383],[100.0117811,9.5706794],[100.0094984,9.569973],[100.0050286,9.5696634],[100.0022348,9.5698139],[99.9976474,9.5712679],[99.995592,9.5724138],[99.9930133,9.5745117],[99.9866248,9.5807443],[99.982906,9.5861263],[99.9826908,9.5868688],[99.9829662,9.5874024],[99.9766427,9.5859522],[99.9728335,9.5843783],[99.967842,9.5835913],[99.96543,9.5820092],[99.9626054,9.5809203],[99.9581667,9.5801076],[99.9564038,9.5800689],[99.9519814,9.5789989],[99.9462,9.5784411],[99.9405849,9.5784551],[99.935711,9.5777191],[99.935168,9.5778616],[99.9349977,9.578313],[99.9342431,9.5782867],[99.9337036,9.5778914],[99.933429,9.5781166],[99.9326527,9.5778338],[99.9330042,9.5772602],[99.932926,9.5766371],[99.9321421,9.5762373],[99.9298517,9.5756973],[99.9271672,9.5755195],[99.9233335,9.5743914],[99.9225276,9.5744976],[99.9220724,9.575105],[99.9206631,9.5756831],[99.9199882,9.5766793],[99.9184682,9.5768576],[99.917262,9.5756103],[99.9160202,9.5735386],[99.9153781,9.5720364],[99.9156308,9.5711483],[99.9153798,9.5708068],[99.9142109,9.5705259],[99.9136553,9.5712629],[99.9122395,9.5704673],[99.9121122,9.5699721],[99.9125123,9.5694406],[99.9140485,9.5691996],[99.9157677,9.5699887],[99.9175911,9.5686206],[99.9196446,9.5665487],[99.9213216,9.5642426],[99.9225071,9.5642103],[99.9245702,9.5620792],[99.9276876,9.5578163],[99.9295419,9.5536594],[99.9315194,9.5445717],[99.9326518,9.5413593],[99.9334753,9.5401055],[99.9337327,9.5386031],[99.9334083,9.5379043],[99.9342479,9.5375384],[99.9344025,9.5354],[99.9348298,9.5351935],[99.9341525,9.5305407],[99.9347221,9.5285113],[99.9343271,9.5274034],[99.9345597,9.5249913],[99.9343648,9.5240496],[99.9340711,9.5239179],[99.934882,9.5237292],[99.9324861,9.5166494],[99.9334761,9.5129424],[99.9346179,9.5106985],[99.935098,9.507372],[99.9349666,9.5040587],[99.9343443,9.5003022],[99.9324641,9.4963305],[99.9303495,9.4939208],[99.9274458,9.4916753],[99.9239272,9.4909991],[99.9214239,9.4917491],[99.9211794,9.4937723],[99.9214023,9.4940585],[99.9228576,9.4940267],[99.9226743,9.494438],[99.9203427,9.4939567],[99.9193185,9.4926118],[99.9188682,9.4913759],[99.9194339,9.4889915],[99.9199435,9.4889677],[99.9207591,9.4900492],[99.9216596,9.4898965],[99.9233048,9.4885995],[99.9256613,9.4855093],[99.9271475,9.4793797],[99.9268983,9.4783208],[99.9264508,9.4778181],[99.9264883,9.4770634],[99.9277313,9.4765943],[99.9288144,9.4771574],[99.9297202,9.4761848],[99.9298518,9.4754796],[99.9297577,9.4750454],[99.9284941,9.4739905],[99.9295887,9.47473],[99.9298664,9.4751457],[99.9303585,9.474495],[99.9291407,9.4736828],[99.9304463,9.4743124],[99.9312078,9.4732284],[99.9330112,9.467164],[99.9330996,9.4608119],[99.9331855,9.4604016],[99.9337112,9.4602268],[99.9340475,9.4583054],[99.9336262,9.4578302],[99.9346906,9.4556414],[99.9343935,9.4524302],[99.9354559,9.4479954],[99.9354775,9.4467021],[99.9342158,9.4425856],[99.9344515,9.4419437],[99.9340724,9.4390645],[99.9343671,9.4389673],[99.9340283,9.4376337],[99.9345555,9.436918],[99.9345727,9.4332016],[99.935004,9.4317705],[99.9370393,9.4303767],[99.9373082,9.429178],[99.936007,9.4266119],[99.9349184,9.425463],[99.9344595,9.4256571],[99.9343381,9.4261152],[99.9329266,9.4266363],[99.9323785,9.4273213],[99.9326798,9.4276574],[99.9324984,9.4277644],[99.9323467,9.4273405],[99.9303032,9.4282747],[99.9290049,9.4277891],[99.9281993,9.4232046],[99.9287944,9.4212494],[99.928802,9.4182583],[99.9293212,9.4171372],[99.9308467,9.4168441],[99.9358429,9.4177751],[99.9372352,9.4185302],[99.9396196,9.4210449],[99.940661,9.4217269],[99.9418437,9.4219491],[99.9454054,9.4215621],[99.9457156,9.4203423],[99.9453502,9.4189092],[99.946172,9.418821],[99.9459198,9.4195999],[99.9460512,9.4209397],[99.9482701,9.420219],[99.9494115,9.4212561],[99.9496203,9.4220153],[99.9510711,9.4220345],[99.9541865,9.4205883],[99.9564977,9.4203252],[99.958598,9.4190418],[99.9601683,9.4170609],[99.9600848,9.4155904],[99.9614863,9.414803],[99.962235,9.4138177],[99.962365,9.411177],[99.9630063,9.4104966],[99.9642885,9.410136],[99.9649562,9.4094482],[99.9647864,9.4090687],[99.965413,9.4086697],[99.9664646,9.4090333],[99.9663678,9.4097289],[99.9669358,9.4103447],[99.9681795,9.4104573],[99.9688362,9.411382],[99.970847,9.4125213],[99.9767914,9.41724],[99.9802079,9.4192573],[99.9813467,9.4194647],[99.983359,9.4210425],[99.9869783,9.4221413],[99.991696,9.4225372],[99.9959012,9.4232425],[99.9966643,9.4236296],[99.9977258,9.4233536],[100.0001912,9.4242079],[100.0007093,9.4240919],[100.0006267,9.4236746],[100.0012918,9.4230668],[100.0028392,9.422845],[100.0034223,9.42156],[100.0065085,9.4216499],[100.0080441,9.4200518],[100.0092417,9.4195635],[100.0096221,9.4196079],[100.0104056,9.4205042],[100.0118107,9.4203616],[100.0124035,9.4210324],[100.0128788,9.4207312],[100.0129036,9.4212148],[100.014323,9.4223846],[100.0142097,9.4227251],[100.0146896,9.4232132],[100.0159602,9.4238743],[100.0164255,9.423741],[100.0164866,9.4232964],[100.0168781,9.4233833],[100.0175766,9.4240974],[100.0165977,9.424536],[100.0167846,9.4266173],[100.0184371,9.4299604],[100.0212779,9.4338724],[100.0216725,9.4354949],[100.0231406,9.4383308],[100.023574,9.4415149],[100.0243877,9.4421241],[100.0244028,9.4436839],[100.0246818,9.4442748],[100.0256252,9.4448444],[100.0272989,9.4471833],[100.027771,9.449972],[100.0284067,9.4506758],[100.0293936,9.4508668],[100.0298379,9.4504612],[100.0307603,9.4505858],[100.0315945,9.4501149],[100.0322986,9.4508451],[100.0333979,9.4503724],[100.0373026,9.4528846],[100.0377145,9.4528487],[100.0389473,9.4516793],[100.0394495,9.4519799],[100.0398841,9.4517262],[100.0398155,9.4522824],[100.0402062,9.4523365],[100.039769,9.4526459],[100.0401318,9.4524588],[100.0400348,9.453228],[100.0420927,9.4565289],[100.0424306,9.4577248],[100.0442575,9.4610435],[100.0474986,9.4659563],[100.0493719,9.4680025],[100.0525224,9.4701087],[100.0541506,9.4707913],[100.0566638,9.4713997],[100.0572846,9.4698037],[100.0569761,9.471294],[100.0574094,9.4710968],[100.0623568,9.4715096],[100.0645105,9.4712956],[100.0659952,9.4695385],[100.0672082,9.4693665],[100.0683367,9.4687885],[100.0689308,9.4666547],[100.0696175,9.4668532],[100.0699943,9.4665529],[100.0710055,9.467381],[100.0711839,9.4689485],[100.0719718,9.4695041],[100.0729589,9.4693982],[100.0741175,9.4706365],[100.0741692,9.4712608],[100.0731788,9.4725254],[100.0700728,9.4734249],[100.0698636,9.4739328],[100.0710706,9.4755044],[100.0707937,9.4775283],[100.0697831,9.4776315],[100.069114,9.477153],[100.0680203,9.4770839],[100.0662138,9.478353],[100.066822,9.4791976],[100.066779,9.4808062],[100.0671224,9.481875],[100.066777,9.4824359],[100.0673316,9.4836475],[100.066718,9.486719],[100.063732,9.4892719],[100.0628221,9.4896053],[100.0625164,9.4901238],[100.061878,9.4901357],[100.0615105,9.4909478],[100.0620711,9.4916264],[100.0620765,9.492182],[100.061715,9.4924465],[100.0619135,9.493838],[100.0614522,9.4942507],[100.061583,9.4948274],[100.0606421,9.4984146],[100.0599984,9.4995575],[100.0589685,9.5004649],[100.0569623,9.5009388],[100.05618,9.5021937],[100.0562293,9.5068535],[100.0568749,9.5094548],[100.0573747,9.510318],[100.0579295,9.5104389],[100.057976,9.5108645],[100.056518,9.5115854],[100.0565546,9.5127996],[100.0574041,9.5164217],[100.0592432,9.5216015],[100.0607568,9.525532],[100.0628919,9.529267],[100.0657986,9.530544],[100.0694415,9.5333013],[100.0701231,9.536651],[100.0708374,9.5379774],[100.0716359,9.5386296],[100.0728267,9.5394096],[100.0745291,9.5394588],[100.0766916,9.540386],[100.07788,9.540177],[100.0766421,9.5416732],[100.0757879,9.5439885],[100.0755236,9.5473973],[100.0758224,9.548431],[100.0767354,9.5497957],[100.0773362,9.549965],[100.0780872,9.5524461],[100.0789261,9.5535557],[100.0793552,9.5534075],[100.0799239,9.5549549],[100.0805173,9.5553926],[100.0809646,9.5552723],[100.0821662,9.5557907],[100.0835422,9.5570418],[100.0832907,9.557863],[100.0841564,9.5589938],[100.0854419,9.5593336],[100.0874206,9.5592192],[100.0884077,9.5599076],[100.0883225,9.5611798],[100.0885579,9.5612876],[100.0881736,9.562086],[100.0886544,9.5628084],[100.0880275,9.5643696],[100.0884781,9.5651736],[100.0890943,9.5651657],[100.089449,9.5660041],[100.0890467,9.5664485],[100.0894222,9.5667024],[100.0894759,9.5684269],[100.0905327,9.5693791],[100.0906824,9.5698775],[100.0885239,9.5702296],[100.0881573,9.5705906],[100.088308,9.571266],[100.0871209,9.571844],[100.0863018,9.5716871],[100.0859141,9.572839],[100.0836448,9.572098],[100.0817565,9.5726904],[100.0802115,9.5749756],[100.0810745,9.5757505],[100.0805978,9.5766259],[100.080876,9.576946],[100.0808016,9.5782658],[100.0804583,9.5783715],[100.0804369,9.579292],[100.0812952,9.5799161],[100.0818102,9.5811115],[100.0813642,9.5824789],[100.0799004,9.5833332],[100.0798729,9.5843646],[100.0800238,9.5845682],[100.0803725,9.5843594],[100.0805871,9.5850152],[100.0801257,9.5858721],[100.0809619,9.5876071],[100.080579,9.5874405],[100.080351,9.5882525],[100.0793874,9.5886875],[100.0783816,9.588029],[100.0781482,9.5873466],[100.0764987,9.5872329],[100.0756055,9.5866167],[100.0743073,9.5869314],[100.0733846,9.5878888],[100.0729287,9.5894836],[100.0724432,9.5900654],[100.0714588,9.5902135],[100.070459,9.5895113],[100.0698234,9.5897255],[100.0690803,9.5906115],[100.0690716,9.5918374],[100.0696876,9.5934087]]]]}},{"type":"Feature","properties":{"id":"TH-LAO-5840502","nameTh":"เกาะพะงัน","type":"subdistrict_municipality"},"geometry":{"type":"Polygon","coordinates":[[[99.9972077,9.7645588],[100.0075081,9.7625757],[100.0168763,9.7665942],[100.0254687,9.7722072],[100.0322302,9.7682769],[100.0131187,9.725963],[100.0177717,9.7151156],[100.0266722,9.7015093],[100.0261042,9.7008611],[100.0254581,9.7007465],[100.0247317,9.6991575],[100.024009,9.6989046],[100.0241881,9.6972941],[99.9722131,9.7053201],[99.9719412,9.7062754],[99.9721191,9.7081294],[99.9715727,9.7100043],[99.9722412,9.7103134],[99.972944,9.7112493],[99.9778404,9.720669],[99.9887524,9.7198244],[99.9907646,9.7214792],[99.9919042,9.7229027],[99.9915252,9.7260197],[99.9952859,9.7264958],[99.99627,9.7418414],[99.9996544,9.7501975],[99.9972077,9.7645588]]]}},{"type":"Feature","properties":{"id":"TH-LAO-5840501","nameTh":"บ้านใต้","type":"subdistrict_municipality"},"geometry":{"type":"Polygon","coordinates":[[[100.0266722,9.7015093],[100.0261042,9.7008611],[100.0254581,9.7007465],[100.0247317,9.6991575],[100.024009,9.6989046],[100.0241881,9.6972941],[100.0308528,9.6960176],[100.0394677,9.6934355],[100.0399491,9.6919313],[100.04199,9.6907327],[100.0425622,9.6894085],[100.0434819,9.6888594],[100.0446048,9.6875408],[100.0478178,9.686127],[100.048959,9.6853165],[100.0490841,9.6846118],[100.0506846,9.683877],[100.0524486,9.6836383],[100.0525268,9.683349],[100.0532,9.6832007],[100.05331,9.6828195],[100.0573769,9.6812316],[100.0595034,9.6797744],[100.0631958,9.6747114],[100.0624666,9.6740749],[100.0627643,9.6735381],[100.0626168,9.6740854],[100.0631559,9.6745587],[100.0631478,9.6739136],[100.0635337,9.6742477],[100.0644501,9.6732994],[100.0646174,9.6722483],[100.0650912,9.6719441],[100.0660218,9.6722757],[100.0667714,9.6720618],[100.0691982,9.6697424],[100.0700914,9.6683039],[100.069761,9.6672006],[100.0702143,9.6666899],[100.0699736,9.6665292],[100.0717764,9.6665276],[100.072873,9.6658742],[100.074063,9.6660375],[100.0754307,9.6656703],[100.0764001,9.6663529],[100.0769212,9.6662668],[100.0771601,9.666615],[100.076893,9.666997],[100.0770907,9.6672493],[100.0768182,9.6673065],[100.0771751,9.6674677],[100.0770104,9.6677547],[100.0773889,9.6679042],[100.0773666,9.6682102],[100.0768838,9.6684814],[100.0757933,9.668249],[100.0740942,9.6692474],[100.0732452,9.669181],[100.0726832,9.6697631],[100.0727443,9.6708226],[100.0720905,9.6717696],[100.0686305,9.6737503],[100.0682298,9.6765899],[100.068613,9.678393],[100.0692577,9.6795298],[100.069555,9.6792114],[100.0719336,9.67967],[100.0724723,9.6804912],[100.0723734,9.6805016],[100.0722286,9.6805981],[100.0731231,9.6807157],[100.074103,9.6819597],[100.075426,9.6819734],[100.0755599,9.6810859],[100.0758188,9.6809766],[100.0761928,9.6811905],[100.0761122,9.6815237],[100.0774096,9.6819144],[100.0775179,9.6823326],[100.0781734,9.6825252],[100.0783885,9.6835935],[100.0780235,9.683648],[100.0773744,9.6848761],[100.0771178,9.6847869],[100.0769284,9.6852461],[100.0757839,9.6860077],[100.0751013,9.6874275],[100.0752459,9.6881354],[100.0739966,9.6892016],[100.0735389,9.6902998],[100.0747187,9.6928945],[100.0765711,9.6930512],[100.0775422,9.6938836],[100.0774405,9.694521],[100.0767819,9.69522],[100.0777914,9.696478],[100.0785128,9.696945],[100.079197,9.6963798],[100.0796261,9.6965015],[100.0803415,9.6960404],[100.081772,9.6968378],[100.0805676,9.6980904],[100.0796019,9.6980624],[100.0787505,9.6985317],[100.0788079,9.6990612],[100.0802207,9.7002379],[100.0801761,9.7012522],[100.0795966,9.7023799],[100.0789787,9.7025037],[100.0791369,9.7033371],[100.0786669,9.7050478],[100.0781038,9.706453],[100.0776466,9.7068019],[100.0780573,9.7069643],[100.0780473,9.7073373],[100.0774884,9.7075742],[100.076596,9.7091755],[100.076606,9.710059],[100.0762358,9.710223],[100.0763498,9.710683],[100.0759489,9.7114311],[100.0762305,9.7115171],[100.0758496,9.7118211],[100.0758885,9.713065],[100.0751838,9.713967],[100.0757443,9.7154431],[100.0764753,9.7161835],[100.0771702,9.7164769],[100.0778344,9.7158013],[100.0786173,9.7165332],[100.07983,9.7169328],[100.079639,9.7174393],[100.0802404,9.7177524],[100.0796878,9.7178925],[100.0796637,9.7189447],[100.0781375,9.7194285],[100.0767422,9.7193003],[100.0762647,9.7206275],[100.0763556,9.721523],[100.0769906,9.7219139],[100.0773017,9.7226752],[100.077055,9.7230771],[100.0774394,9.7252202],[100.0784175,9.7266407],[100.0776075,9.7296862],[100.0796031,9.7303947],[100.0806903,9.7328193],[100.0806169,9.733382],[100.0811045,9.7337393],[100.0812982,9.7344711],[100.0809279,9.7355768],[100.0812044,9.7364029],[100.0811677,9.7384523],[100.0807593,9.7396924],[100.0801206,9.7395394],[100.0797289,9.7403823],[100.0798888,9.7411859],[100.0792813,9.7425172],[100.0795369,9.7434908],[100.0798673,9.7434201],[100.0794811,9.7447781],[100.0773302,9.7465598],[100.0768501,9.7475564],[100.0760964,9.7474268],[100.0752939,9.7477209],[100.0758148,9.74859],[100.0755224,9.7487909],[100.0757933,9.7488517],[100.0755787,9.7489283],[100.0757182,9.7495073],[100.0748418,9.7494864],[100.0743663,9.7500941],[100.0744227,9.7506915],[100.0751444,9.7513004],[100.0761091,9.7543118],[100.075729,9.7547739],[100.0750186,9.7548899],[100.0751903,9.7554238],[100.0745197,9.7566557],[100.0747926,9.7571799],[100.0727811,9.7589338],[100.0730279,9.7591426],[100.0729737,9.7599979],[100.0718826,9.7616247],[100.0723442,9.7633452],[100.0727324,9.7632041],[100.0730628,9.7639139],[100.0727114,9.7664251],[100.0705149,9.7672791],[100.0698817,9.7679635],[100.0688463,9.7681882],[100.0680283,9.7692904],[100.0679424,9.7699195],[100.0675642,9.7701099],[100.067701,9.7717989],[100.0663303,9.7731598],[100.064123,9.7727003],[100.0634095,9.772021],[100.0631263,9.7698832],[100.0610395,9.7691559],[100.0602233,9.7692508],[100.0584208,9.7704037],[100.0563749,9.7727433],[100.0570151,9.773217],[100.0571278,9.7740616],[100.057465,9.7742717],[100.0570486,9.7741884],[100.0568166,9.7756158],[100.0572337,9.7761722],[100.0575837,9.7760493],[100.0575985,9.7763453],[100.0568944,9.7774198],[100.0559235,9.7777674],[100.0563113,9.7822663],[100.0565946,9.782563],[100.0572967,9.7822741],[100.0570989,9.7827884],[100.0575631,9.7832999],[100.0586995,9.7832812],[100.0604959,9.7843583],[100.0622374,9.7842803],[100.0622213,9.7850098],[100.0627469,9.7858399],[100.0625485,9.7862627],[100.0613657,9.7872407],[100.0607997,9.7869394],[100.0595444,9.7871826],[100.0583461,9.7881318],[100.058045,9.7880257],[100.0576974,9.7886108],[100.0567545,9.7886379],[100.0565885,9.7891852],[100.0559154,9.7889984],[100.0551241,9.7908539],[100.0544911,9.7915332],[100.0529676,9.7915464],[100.0529703,9.7918371],[100.0520881,9.7923884],[100.0509184,9.7922812],[100.0509265,9.7924874],[100.0500011,9.7920935],[100.0492581,9.7926803],[100.0322302,9.7682769],[100.0131187,9.725963],[100.0177717,9.7151156],[100.0266722,9.7015093]]]}},{"type":"Feature","properties":{"id":"TH-LAO-5840504","nameTh":"เพชรพะงัน","type":"subdistrict_municipality"},"geometry":{"type":"Polygon","coordinates":[[[100.0492581,9.7926803],[100.0482255,9.7922944],[100.0476917,9.7929604],[100.0473269,9.79272],[100.0472706,9.7929763],[100.0470416,9.7925645],[100.0466832,9.7927173],[100.0467798,9.7929948],[100.0461763,9.7928679],[100.0456962,9.7935156],[100.0445991,9.7931375],[100.0440251,9.7923579],[100.0434251,9.7921082],[100.0419518,9.792971],[100.0413161,9.7937402],[100.0388807,9.7942397],[100.0381964,9.7940071],[100.0380234,9.7926836],[100.0377721,9.7925796],[100.0360251,9.7922637],[100.0340463,9.793053],[100.0334375,9.7934895],[100.0336507,9.7942312],[100.0328566,9.7990003],[100.0323495,9.7993911],[100.0322932,9.8003294],[100.0314684,9.8013311],[100.0311412,9.8026368],[100.0290218,9.8037241],[100.0279829,9.8034773],[100.0271572,9.8040211],[100.0246413,9.8038675],[100.0233559,9.8031753],[100.0230233,9.8034053],[100.0229618,9.8029672],[100.0226988,9.8030643],[100.0222939,9.8025073],[100.0213154,9.8026361],[100.0206041,9.8018333],[100.0203686,9.8022739],[100.0198746,9.8022033],[100.0193685,9.8026946],[100.0193247,9.8023989],[100.018194,9.8018432],[100.0169241,9.8025734],[100.0161087,9.8013391],[100.0165262,9.8008744],[100.0160234,9.8000433],[100.0166388,9.799402],[100.0161226,9.7985631],[100.0143679,9.7974353],[100.0134721,9.7983208],[100.0127854,9.7981437],[100.0131694,9.7972826],[100.0130843,9.7955448],[100.0120774,9.7938459],[100.0121341,9.7930353],[100.0114337,9.7926036],[100.0114298,9.792173],[100.0105645,9.7910733],[100.0095319,9.791964],[100.0092925,9.7917621],[100.008982,9.7908883],[100.0094534,9.7916192],[100.0098879,9.7911197],[100.0098688,9.7895206],[100.0086746,9.7881877],[100.0054978,9.7868627],[100.0043311,9.7868416],[100.0023316,9.7878724],[100.0017636,9.7903153],[100.0014793,9.790514],[100.0008443,9.7903411],[100.0004957,9.7892917],[99.998964,9.7905579],[99.995622,9.7920381],[99.9953895,9.7928215],[99.9958661,9.7928653],[99.9961893,9.7940177],[99.9967029,9.7947208],[99.997462,9.7948186],[99.9976847,9.7955507],[99.9972018,9.7960873],[99.9966051,9.7958679],[99.995166,9.7963901],[99.9940984,9.7986141],[99.9938785,9.7985357],[99.9940932,9.8009664],[99.9931638,9.8012928],[99.9932121,9.8019747],[99.9921969,9.8031416],[99.9912056,9.8032038],[99.990955,9.8027544],[99.9903327,9.8030676],[99.9900605,9.8027742],[99.9897748,9.8009703],[99.9891512,9.800903],[99.9894431,9.7983199],[99.9888345,9.7980471],[99.9872467,9.7981304],[99.9859487,9.798848],[99.9857896,9.7986859],[99.9854135,9.7991202],[99.9848463,9.7991387],[99.9848972,9.7988757],[99.9838833,9.7993277],[99.9837627,9.7990184],[99.9824381,9.7993631],[99.982455,9.7990369],[99.9819562,9.7990845],[99.9820796,9.797644],[99.9812024,9.797095],[99.9800572,9.7973375],[99.9796763,9.7952573],[99.9784826,9.7930623],[99.9778823,9.7930337],[99.9765006,9.7913667],[99.9748912,9.7916574],[99.9738626,9.7911513],[99.9737231,9.7907891],[99.9722863,9.7919329],[99.9710506,9.7918055],[99.9720212,9.789075],[99.9732448,9.787955],[99.9729084,9.7866947],[99.9718349,9.785216],[99.9702635,9.784208],[99.9690748,9.7850958],[99.9684874,9.7851864],[99.968364,9.7855293],[99.9667613,9.7854316],[99.9667333,9.7839249],[99.965831,9.7826514],[99.9666524,9.7814239],[99.9664721,9.7807726],[99.9657819,9.7802512],[99.9663636,9.7796428],[99.9662813,9.7788525],[99.9666567,9.7781697],[99.9663082,9.7761656],[99.9656885,9.7749945],[99.9639535,9.7733177],[99.9633499,9.7728994],[99.9625355,9.7729553],[99.961776,9.771999],[99.9614321,9.7721487],[99.9622973,9.7714066],[99.9622099,9.7706107],[99.9612683,9.7696102],[99.9607458,9.7678768],[99.9620886,9.7655862],[99.9614644,9.7618138],[99.9620638,9.7608912],[99.960815,9.7572538],[99.9617402,9.7562969],[99.9630426,9.7559617],[99.9642932,9.753892],[99.965317,9.7541319],[99.9654136,9.7533791],[99.9644867,9.753269],[99.9645742,9.7529956],[99.9659273,9.7526953],[99.966002,9.7521907],[99.9655555,9.7516539],[99.9644521,9.7519762],[99.9643312,9.751203],[99.9638957,9.7510367],[99.9653929,9.7495509],[99.9661173,9.7494052],[99.9666908,9.7497154],[99.9669969,9.7502984],[99.9674936,9.7503332],[99.9674309,9.7507252],[99.9682251,9.7516057],[99.9702269,9.7511409],[99.9705165,9.7515612],[99.9715303,9.7515585],[99.9735898,9.7499959],[99.9755107,9.7469404],[99.9762424,9.7441716],[99.9780937,9.7397606],[99.9783485,9.7380635],[99.9798988,9.7355071],[99.9803238,9.7333792],[99.9802342,9.7313594],[99.979931,9.7311029],[99.9790085,9.7314942],[99.9784987,9.7307698],[99.9778658,9.730368],[99.977198,9.7305213],[99.9764962,9.7295048],[99.9758783,9.729407],[99.9758917,9.7255618],[99.9762833,9.7251347],[99.9765746,9.7228543],[99.9778404,9.720669],[99.9887524,9.7198244],[99.9907646,9.7214792],[99.9919042,9.7229027],[99.9915252,9.7260197],[99.9952859,9.7264958],[99.99627,9.7418414],[99.9996544,9.7501975],[99.9972077,9.7645588],[100.0075081,9.7625757],[100.0168763,9.7665942],[100.0254687,9.7722072],[100.0322302,9.7682769],[100.0492581,9.7926803]]]}},{"type":"Feature","properties":{"id":"TH-LAO-5840503","nameTh":"เกาะเต่า","type":"subdistrict_municipality"},"geometry":{"type":"MultiPolygon","coordinates":[[[[99.8383346,10.1255495],[99.8374642,10.1262155],[99.836809,10.1252581],[99.8364759,10.1215479],[99.8348183,10.1208522],[99.8333618,10.1220944],[99.8306394,10.1225883],[99.8296534,10.12365],[99.8290182,10.1230829],[99.8285446,10.1231612],[99.8267425,10.1249098],[99.8245626,10.126103],[99.8235832,10.1261605],[99.8225284,10.1242412],[99.822743,10.1225619],[99.8216781,10.1214133],[99.8202619,10.1186302],[99.8200523,10.1148505],[99.8203263,10.1141308],[99.8198408,10.1132911],[99.820119,10.1127685],[99.8197442,10.1127181],[99.8199052,10.1119259],[99.8203129,10.1116355],[99.8204255,10.1090741],[99.8216057,10.1086464],[99.8216003,10.1079756],[99.8213053,10.107907],[99.8214555,10.1075162],[99.8228905,10.1059807],[99.8233277,10.1047277],[99.8237354,10.1048439],[99.8244987,10.1040925],[99.8257122,10.1047277],[99.8265464,10.1040359],[99.8278576,10.0985634],[99.827469,10.0924909],[99.826713,10.0905322],[99.8260045,10.090146],[99.8254091,10.0892851],[99.8255962,10.0883669],[99.8237569,10.0833751],[99.8217894,10.0816139],[99.8210746,10.0816744],[99.8204792,10.082192],[99.8195013,10.0817634],[99.8189577,10.0823958],[99.8184778,10.0813318],[99.8177943,10.0813522],[99.8177675,10.0808927],[99.8173526,10.0807625],[99.8172622,10.0797936],[99.8164345,10.0800054],[99.8155022,10.0795517],[99.8156479,10.0789099],[99.8162487,10.0786142],[99.816059,10.0752203],[99.816364,10.0741983],[99.815943,10.073894],[99.8160517,10.0731502],[99.815839,10.073089],[99.8161413,10.0721569],[99.8159882,10.06959],[99.8152724,10.0694979],[99.8150957,10.0688512],[99.8152509,10.0682937],[99.8158355,10.0683173],[99.8163501,10.0690522],[99.8167318,10.0690035],[99.8181038,10.0676895],[99.8194227,10.0673318],[99.8202868,10.0666589],[99.8214361,10.0643323],[99.822275,10.063788],[99.8228757,10.064922],[99.8235358,10.0649514],[99.8238319,10.0653011],[99.8234885,10.065956],[99.8242892,10.0663635],[99.8248108,10.067073],[99.8263449,10.066523],[99.8280768,10.0652692],[99.8287185,10.0647052],[99.8283192,10.0641761],[99.828565,10.0636562],[99.8282757,10.0625048],[99.8273745,10.0622988],[99.8282489,10.0607142],[99.8280323,10.0600262],[99.8273155,10.0596631],[99.8271333,10.0589041],[99.8281617,10.0580454],[99.8303452,10.058776],[99.8310438,10.0594941],[99.8309203,10.0603348],[99.8303842,10.060775],[99.8303035,10.0618181],[99.8308882,10.0626896],[99.8310362,10.0648582],[99.8322454,10.0656897],[99.8334202,10.0661017],[99.8343194,10.0649683],[99.8359361,10.0649767],[99.83778,10.0638183],[99.8385031,10.0641173],[99.8388159,10.0651692],[99.839482,10.0655102],[99.8402204,10.0655378],[99.8411342,10.0648235],[99.8420703,10.0646994],[99.8421052,10.0652566],[99.8417219,10.0657551],[99.8399326,10.0669151],[99.8399863,10.0681881],[99.8403131,10.068315],[99.8399326,10.069836],[99.8389566,10.0717068],[99.8393425,10.0724399],[99.8397341,10.0726881],[99.842529,10.0726406],[99.8464966,10.0741343],[99.8465449,10.0753101],[99.8462391,10.075553],[99.8479127,10.0770571],[99.8475233,10.0774575],[99.8476069,10.0787062],[99.8464483,10.0796885],[99.8470893,10.0795512],[99.8475748,10.079847],[99.8485413,10.0814763],[99.8484248,10.0825501],[99.8475072,10.0836687],[99.8481817,10.084865],[99.8489395,10.0854829],[99.849897,10.0848227],[99.8499292,10.085166],[99.8504656,10.085372],[99.8503423,10.0857839],[99.8509594,10.0859567],[99.8510772,10.0866026],[99.8521018,10.0878331],[99.8532828,10.088316],[99.8535555,10.0888525],[99.8545172,10.0888459],[99.8546623,10.0879675],[99.855776,10.0879729],[99.8554331,10.0892961],[99.855427,10.0898603],[99.8557486,10.089981],[99.8554599,10.0911605],[99.8544884,10.0916763],[99.852668,10.0915286],[99.8513776,10.09256],[99.8519301,10.0930565],[99.8524554,10.095168],[99.8517531,10.0960986],[99.8514151,10.0973819],[99.8517746,10.0987498],[99.8523076,10.0997439],[99.8533682,10.1000343],[99.8535587,10.1006019],[99.8534819,10.1013355],[99.8526549,10.1015537],[99.8528153,10.1024127],[99.8518188,10.1023001],[99.851973,10.1013271],[99.848928,10.1006115],[99.847633,10.1019865],[99.8473745,10.1027316],[99.8464436,10.102813],[99.8457564,10.1039678],[99.8461763,10.1046523],[99.8462563,10.1058079],[99.8470116,10.1061167],[99.8475485,10.1058484],[99.8483043,10.1067927],[99.8478377,10.1071307],[99.8476768,10.1077591],[99.849663,10.1095835],[99.8500773,10.1115827],[99.8487389,10.1129874],[99.8455548,10.1154209],[99.8440006,10.1181163],[99.8424832,10.1196386],[99.8423767,10.1203993],[99.8430216,10.120481],[99.8426743,10.1210778],[99.8443704,10.1211494],[99.8446915,10.1218398],[99.8434862,10.1241953],[99.8421593,10.1244017],[99.8417115,10.1247904],[99.8404884,10.1246268],[99.8400016,10.1252319],[99.839598,10.1250597],[99.8383346,10.1255495]]],[[[99.8141589,10.116191],[99.8133507,10.1159418],[99.8127565,10.1151822],[99.8140338,10.1139618],[99.8149028,10.1141097],[99.8152006,10.1144714],[99.8151576,10.1151183],[99.8141589,10.116191]]],[[[99.8143235,10.118044],[99.813988,10.1168745],[99.8146252,10.1172175],[99.81521,10.1170248],[99.8152046,10.1176136],[99.815552,10.1172756],[99.8162064,10.1173865],[99.815788,10.1177245],[99.8157585,10.1184665],[99.8151214,10.1179797],[99.8143235,10.118044]]],[[[99.8121078,10.1253865],[99.8103854,10.1217728],[99.8110452,10.1210599],[99.8111901,10.1193383],[99.8118791,10.1181888],[99.8123359,10.1180217],[99.8137789,10.118737],[99.8153484,10.1208416],[99.8143852,10.1221288],[99.8138884,10.1235525],[99.8139002,10.1245695],[99.8135933,10.12454],[99.8131239,10.1252881],[99.8125334,10.1255763],[99.8121078,10.1253865]]]]}}]}