{"type":"FeatureCollection","features":[{"type":"Feature","properties":{"provinceCode":"18","nameTh":"ชัยนาท","nameEn":"Chai Nat"},"geometry":{"type":"Polygon","coordinates":[[[100.0629188,15.2856376],[100.055846,15.2701737],[100.0544691,15.2714971],[100.0546504,15.2757691],[100.0496674,15.2759958],[100.047546,15.2662618],[100.0407829,15.2788282],[100.0386205,15.2907812],[100.0365434,15.293],[100.03123,15.2917773],[100.0287666,15.2932841],[100.0262695,15.2920919],[100.026012,15.2903036],[100.0202699,15.2913716],[100.0163389,15.2940126],[100.0161243,15.297051],[100.0121742,15.2982719],[100.0117212,15.3002384],[100.0069402,15.2994561],[100.0054555,15.3020598],[100.0042024,15.3002633],[100.0030094,15.301875],[99.9987865,15.3020018],[99.9962974,15.3000397],[99.9903751,15.302631],[99.9673298,15.2984842],[99.960158,15.3016099],[99.9585996,15.3060933],[99.9507456,15.302694],[99.9461669,15.3041341],[99.9409724,15.3012686],[99.9375958,15.3025781],[99.937027,15.2993601],[99.9335006,15.3017416],[99.9326994,15.297604],[99.9308806,15.2990123],[99.9294551,15.2975389],[99.9286458,15.2995569],[99.9226985,15.2981127],[99.9177275,15.2993642],[99.9125824,15.2972576],[99.9120671,15.2950741],[99.9108537,15.2963441],[99.9068463,15.2941065],[99.900409,15.2937322],[99.8952591,15.2905395],[99.8898357,15.2914968],[99.8856273,15.2871916],[99.8832589,15.2869846],[99.877755,15.2908914],[99.8778838,15.2935174],[99.8796862,15.2940918],[99.8778516,15.2976647],[99.8793161,15.2989143],[99.8720178,15.3049449],[99.8585612,15.3051001],[99.851684,15.3111176],[99.8443411,15.3089427],[99.8317658,15.3097985],[99.8261294,15.313083],[99.8214382,15.3132051],[99.8201119,15.3153825],[99.8180334,15.3139305],[99.8089997,15.3177452],[99.7959084,15.3183076],[99.7945062,15.3165474],[99.7927139,15.3176717],[99.7898498,15.3137832],[99.7809139,15.3159682],[99.7788087,15.3125043],[99.776337,15.3123105],[99.7735587,15.305985],[99.7705301,15.3075274],[99.7681305,15.2999468],[99.7535212,15.29457],[99.7492501,15.279796],[99.7451271,15.28199],[99.7433384,15.2753157],[99.7406615,15.2751166],[99.7381368,15.2664237],[99.7360004,15.2681965],[99.733597,15.2671967],[99.7337572,15.2590855],[99.7307276,15.2581713],[99.7291847,15.2506835],[99.7273663,15.2490331],[99.7348537,15.2415404],[99.7347553,15.232394],[99.7410634,15.2260151],[99.7378308,15.2127122],[99.7410319,15.2068995],[99.7442183,15.1951302],[99.7454372,15.1717245],[99.750079,15.1607789],[99.7500026,15.1527846],[99.7558297,15.1510834],[99.7617179,15.141955],[99.7716654,15.1406128],[99.7679793,15.1347276],[99.7675411,15.1298155],[99.7710836,15.1264964],[99.777546,15.1139086],[99.7859293,15.1031284],[99.7908225,15.100254],[99.791292,15.0927054],[99.7927307,15.0919039],[99.7910333,15.0836729],[99.7846376,15.0808016],[99.781065,15.0669674],[99.7762951,15.0637488],[99.7724996,15.0583848],[99.7725879,15.0558734],[99.7769846,15.0535008],[99.7720109,15.0468299],[99.77119,15.0383532],[99.7611919,15.0308278],[99.7440905,15.0286691],[99.7374405,15.0253655],[99.7347476,15.0115041],[99.7304668,15.0090567],[99.7285466,15.0024578],[99.7214895,14.9974301],[99.722198,14.9846434],[99.7197325,14.9814599],[99.7199297,14.9773359],[99.7237731,14.9726668],[99.7240439,14.9674311],[99.7226515,14.9651269],[99.7237701,14.9620322],[99.7401578,14.9633879],[99.7456176,14.9583008],[99.7522935,14.9609417],[99.752248,14.9584723],[99.7792301,14.9506529],[99.7813652,14.9480613],[99.7882807,14.945538],[99.796606,14.9452013],[99.7966854,14.9411686],[99.8010682,14.938792],[99.8020967,14.9414051],[99.8073159,14.9401657],[99.8199685,14.9427751],[99.8212267,14.9376597],[99.8240164,14.9377652],[99.8260648,14.9400781],[99.8268615,14.9356779],[99.8327209,14.9349327],[99.8377864,14.9358808],[99.8392321,14.9378071],[99.8422468,14.9373833],[99.842593,14.9308592],[99.847559,14.9292596],[99.8588242,14.9301892],[99.8592216,14.9279621],[99.8664514,14.9273302],[99.8773835,14.9227527],[99.8882572,14.9263475],[99.8915867,14.9221292],[99.8952917,14.9220173],[99.899084,14.9184611],[99.9106612,14.9154496],[99.9143283,14.912997],[99.9204046,14.9128706],[99.9320052,14.9068854],[99.9496289,14.9106683],[99.9556698,14.9067801],[99.9652751,14.9051436],[99.9764488,14.9058628],[99.9763063,14.9075111],[99.9831935,14.907382],[99.9834177,14.9087769],[99.988902,14.9078958],[99.9987682,14.9098794],[100.0058439,14.907967],[100.012673,14.9112844],[100.0273429,14.9116856],[100.0417302,14.9149298],[100.0412866,14.9205353],[100.0450059,14.9300734],[100.0430292,14.931661],[100.0456852,14.9409755],[100.0388615,14.9473036],[100.0360401,14.9546996],[100.037395,14.9568552],[100.040856,14.9555459],[100.0476194,14.9571215],[100.0488078,14.9593],[100.0465304,14.9620416],[100.0504891,14.962777],[100.0575249,14.9614187],[100.062492,14.9561246],[100.0649954,14.9580719],[100.0696772,14.9572512],[100.0744836,14.954335],[100.0762844,14.9510016],[100.0842032,14.9525856],[100.0851939,14.9548413],[100.0872171,14.9550085],[100.0875417,14.9536266],[100.0932885,14.9558016],[100.0962476,14.9526124],[100.0988101,14.9531447],[100.101886,14.9485948],[100.1043386,14.9496449],[100.1061204,14.9456015],[100.1151832,14.9479844],[100.1227183,14.9445591],[100.1249726,14.9449332],[100.1256484,14.9476813],[100.1268827,14.945962],[100.1326493,14.9458744],[100.1339778,14.9416398],[100.1366403,14.9433549],[100.1381497,14.9369175],[100.1361737,14.9339431],[100.13276,14.935812],[100.1300467,14.9317156],[100.1275724,14.9314171],[100.1263032,14.9229585],[100.1287991,14.9235131],[100.1293242,14.9257128],[100.1355769,14.924134],[100.1494624,14.9258985],[100.1508746,14.9286732],[100.1557889,14.9272589],[100.1671786,14.9352165],[100.1670736,14.9391653],[100.1729645,14.9408092],[100.1746611,14.944046],[100.1770789,14.9447642],[100.1771646,14.9475159],[100.1802614,14.9500972],[100.1817465,14.9539327],[100.1855827,14.9564829],[100.2017559,14.9591183],[100.2026951,14.9534561],[100.2076822,14.9533171],[100.2080166,14.951464],[100.2124867,14.9528229],[100.2240978,14.9507208],[100.2243452,14.9475709],[100.2276397,14.9489443],[100.2289629,14.945943],[100.2379266,14.9505821],[100.2445093,14.945938],[100.2503597,14.947969],[100.2518003,14.9458455],[100.2577848,14.9473825],[100.2600292,14.9446992],[100.2634561,14.9479413],[100.2655031,14.9476713],[100.2658265,14.9499405],[100.2720848,14.951009],[100.2732593,14.9534317],[100.2724329,14.9580021],[100.2745313,14.960595],[100.2781362,14.9612243],[100.278846,14.959651],[100.2830255,14.9599905],[100.2836666,14.9581665],[100.285868,14.9588251],[100.2872757,14.9574919],[100.2921444,14.9598853],[100.2889019,14.9627777],[100.2893186,14.96803],[100.2868104,14.9676289],[100.2863485,14.972458],[100.2891355,14.9731866],[100.2859221,14.9828469],[100.2829126,14.9832622],[100.2815709,14.9863048],[100.280454,14.9860284],[100.2815254,14.9883706],[100.2801857,14.99132],[100.2767101,14.9897767],[100.2750498,14.9908253],[100.2752789,14.9957684],[100.2709109,15.000772],[100.2680719,15.0104347],[100.2634138,15.0115361],[100.2558366,15.0076138],[100.2499759,15.0125567],[100.2506492,15.0187323],[100.2472454,15.0169815],[100.2426495,15.0180673],[100.245899,15.0210177],[100.2449709,15.0236393],[100.2404648,15.0245978],[100.2399636,15.0216186],[100.2372748,15.0209912],[100.2319019,15.0258007],[100.2293037,15.0261365],[100.2275274,15.0231967],[100.2237527,15.024757],[100.2214786,15.0291352],[100.2230128,15.0302928],[100.221972,15.0333282],[100.2188351,15.0333934],[100.2187079,15.0454022],[100.221463,15.0477901],[100.2323614,15.0475161],[100.2356077,15.0493215],[100.2385049,15.0479734],[100.2394688,15.0498363],[100.2416762,15.048773],[100.242697,15.0507567],[100.2435755,15.0428054],[100.2461529,15.0445598],[100.2472643,15.0416255],[100.2504978,15.0419207],[100.250997,15.0370627],[100.2550004,15.0375112],[100.2547956,15.0395693],[100.2586662,15.0412665],[100.2553532,15.0459839],[100.256114,15.0486349],[100.2594603,15.0499015],[100.2623079,15.0566664],[100.2651986,15.0567495],[100.2651618,15.0606141],[100.2732708,15.0630604],[100.2774916,15.0662555],[100.2800763,15.0637512],[100.2885473,15.0659152],[100.2935069,15.0643175],[100.2949313,15.0705556],[100.2934502,15.0743317],[100.3004845,15.0761746],[100.2998678,15.0792686],[100.302664,15.080021],[100.3034491,15.0829313],[100.3081389,15.0829212],[100.3114714,15.0848584],[100.3121654,15.0828341],[100.3139322,15.0831849],[100.3145097,15.0869896],[100.3191062,15.087349],[100.3188267,15.0889237],[100.332238,15.0924497],[100.3319718,15.0963426],[100.3341905,15.0971139],[100.3340483,15.099199],[100.3392616,15.0998618],[100.3388405,15.1032544],[100.3418683,15.1037109],[100.3418839,15.1075703],[100.3474323,15.1080126],[100.3467405,15.1136457],[100.3518458,15.1157389],[100.3511344,15.1178787],[100.3547993,15.1201397],[100.3537978,15.1226562],[100.3512502,15.1215611],[100.3502723,15.1249644],[100.3533349,15.1261566],[100.3527444,15.1352686],[100.3495121,15.1357981],[100.3473145,15.1434164],[100.3428481,15.1433459],[100.3446318,15.1445578],[100.3420688,15.1453943],[100.3416072,15.1482297],[100.3431857,15.1487443],[100.3420887,15.1518837],[100.3401199,15.1512212],[100.3404571,15.1547382],[100.3386035,15.1556137],[100.3401555,15.1573341],[100.3379726,15.157387],[100.3399378,15.1580463],[100.3392146,15.1600752],[100.3347277,15.1597064],[100.3350221,15.1647131],[100.3331454,15.1641055],[100.3323533,15.1663526],[100.3259799,15.1663465],[100.3253588,15.1681842],[100.327185,15.1694507],[100.3251455,15.1687877],[100.3245819,15.1704585],[100.3127139,15.1666234],[100.3130425,15.1718486],[100.3146653,15.1731909],[100.3053588,15.1703287],[100.302716,15.17864],[100.3008554,15.1780988],[100.299833,15.1813526],[100.3016745,15.1819096],[100.300864,15.1844212],[100.2965446,15.1853229],[100.29596,15.1871441],[100.2978141,15.1876976],[100.297324,15.1892792],[100.3010376,15.1903554],[100.3000331,15.1933989],[100.3018474,15.1939073],[100.2992872,15.1949988],[100.2988307,15.1984923],[100.3007238,15.1987044],[100.3000454,15.20391],[100.2959343,15.2052753],[100.2955966,15.2077725],[100.2975488,15.2079729],[100.2964431,15.2183548],[100.2891954,15.2212543],[100.2905186,15.2243019],[100.2832013,15.2253492],[100.2844704,15.228172],[100.2810758,15.2309277],[100.2818093,15.2325506],[100.2773728,15.2338311],[100.2806929,15.2415353],[100.2830509,15.241402],[100.2809909,15.2422284],[100.2807984,15.2486361],[100.268663,15.2535615],[100.2693806,15.2921135],[100.2640252,15.2926528],[100.2648788,15.2963886],[100.2590811,15.2980626],[100.2586714,15.2999901],[100.2526453,15.2995956],[100.2507937,15.3025633],[100.2515037,15.3057887],[100.2561175,15.3101077],[100.2628004,15.3132376],[100.2631232,15.3166196],[100.2647059,15.3177108],[100.2650482,15.3232774],[100.2623776,15.3295696],[100.2637716,15.3309983],[100.262798,15.3380607],[100.2564169,15.3434958],[100.2510832,15.3440529],[100.2512707,15.3467792],[100.2363349,15.3510074],[100.2366575,15.3523532],[100.2330207,15.3531997],[100.2333359,15.3556697],[100.2280018,15.3583301],[100.2154623,15.3590377],[100.1923511,15.3713923],[100.1759131,15.374168],[100.1753001,15.3783929],[100.1734961,15.3794348],[100.1619172,15.3809279],[100.1581203,15.386552],[100.1501484,15.3886398],[100.146767,15.3909456],[100.1461436,15.3937585],[100.1402267,15.3957122],[100.1351652,15.400393],[100.1335061,15.4040673],[100.1294761,15.4054363],[100.1252295,15.4127781],[100.1175451,15.4127529],[100.1003221,15.4176379],[100.0959642,15.4173056],[100.089657,15.4126806],[100.0875939,15.4091792],[100.0883884,15.398833],[100.0938367,15.3910802],[100.1049522,15.3829297],[100.1063728,15.3756739],[100.1022094,15.3729742],[100.0800652,15.3803733],[100.0746751,15.3774119],[100.0737066,15.3710827],[100.0790887,15.364086],[100.0990376,15.3495803],[100.1012386,15.3453394],[100.1010082,15.3375006],[100.0990919,15.3318983],[100.0958262,15.3280185],[100.0785189,15.3183665],[100.0778318,15.3149282],[100.0820131,15.3045873],[100.0804595,15.2989722],[100.0715668,15.2884609],[100.0629188,15.2856376]]]}}]}