{"type":"FeatureCollection","features":[{"type":"Feature","properties":{"id":"TH-LAO-4180102","nameTh":"ชัยนาท","type":"town_municipality"},"geometry":{"type":"Polygon","coordinates":[[[100.124384,15.1702312],[100.1301427,15.1707645],[100.1307435,15.1712201],[100.1333774,15.1762319],[100.1426364,15.1880462],[100.1389028,15.1908211],[100.1366926,15.1938341],[100.1247783,15.1979807],[100.1196982,15.2080028],[100.1153423,15.2042911],[100.1133038,15.2017494],[100.1161496,15.201035],[100.1167504,15.1999479],[100.1166646,15.1990886],[100.115066,15.1958996],[100.1148407,15.193715],[100.1151196,15.1924415],[100.1162247,15.1894802],[100.1200764,15.1831953],[100.123295,15.1762474],[100.1240353,15.1735034],[100.124384,15.1702312]]]}}]}