{"type":"FeatureCollection","features":[{"type":"Feature","properties":{"provinceCode":"16","nameTh":"ลพบุรี","nameEn":"Lop Buri"},"geometry":{"type":"Polygon","coordinates":[[[100.6290654,14.6609864],[100.6312571,14.6584764],[100.6255048,14.6595494],[100.6233743,14.6521724],[100.6200706,14.6530331],[100.6179243,14.6508095],[100.6152605,14.6522718],[100.6142306,14.6507414],[100.6038001,14.6555826],[100.6022894,14.6543956],[100.6001061,14.6552831],[100.5997054,14.6540224],[100.5955088,14.6566818],[100.5948061,14.6556075],[100.5927593,14.6592399],[100.5807459,14.6643133],[100.5783228,14.6634362],[100.5754432,14.6651696],[100.5703577,14.6618327],[100.5635476,14.6631508],[100.5619259,14.6677619],[100.5591649,14.6655537],[100.559535,14.6617444],[100.5576789,14.6621129],[100.5530682,14.6660519],[100.5535698,14.6678267],[100.5506315,14.6692549],[100.5486854,14.6737524],[100.5433667,14.6746405],[100.5430824,14.67312],[100.539061,14.6735425],[100.538416,14.671824],[100.5358597,14.6718762],[100.53685,14.6669707],[100.5332386,14.6642978],[100.5342954,14.6610698],[100.5360818,14.6615576],[100.53473,14.6589575],[100.5371976,14.6585371],[100.5353576,14.6572111],[100.5353549,14.6548472],[100.5326083,14.6556775],[100.5305082,14.6515827],[100.5305658,14.6556094],[100.5279922,14.6552675],[100.5279359,14.6577535],[100.5230784,14.6595907],[100.5211312,14.6587032],[100.5264687,14.6558799],[100.5139371,14.6587583],[100.5130899,14.6652734],[100.5094842,14.6650574],[100.5142378,14.6687933],[100.5118292,14.6682964],[100.5102682,14.6741501],[100.5090201,14.6747794],[100.5083498,14.6731869],[100.5032053,14.6713341],[100.5012834,14.6733333],[100.5027532,14.6754873],[100.500623,14.6741086],[100.4972193,14.6767786],[100.4980959,14.6812757],[100.5042553,14.684898],[100.5000789,14.6893077],[100.4953576,14.7005252],[100.4890089,14.6986348],[100.484991,14.699789],[100.475102,14.7033835],[100.4746254,14.7074798],[100.4686965,14.7090687],[100.4679641,14.7149955],[100.4700189,14.7184193],[100.4695209,14.7216056],[100.4753455,14.7236433],[100.4734671,14.7306875],[100.4774024,14.7328834],[100.4779057,14.7384945],[100.4830193,14.7380579],[100.4846948,14.7394582],[100.4831924,14.7447307],[100.4880727,14.7480936],[100.4892258,14.7542713],[100.4869876,14.7580426],[100.4842392,14.7576348],[100.4834001,14.7601055],[100.4795369,14.7596159],[100.4793504,14.7629224],[100.4767764,14.7634068],[100.4775172,14.7665891],[100.4751908,14.7674062],[100.4758765,14.7716795],[100.4733955,14.7757715],[100.4748056,14.7884723],[100.4729276,14.7903982],[100.4738669,14.7928064],[100.4727193,14.7949102],[100.4758689,14.7975735],[100.4719393,14.8078231],[100.4731729,14.8078276],[100.472543,14.8111993],[100.4740268,14.8117965],[100.4727031,14.8148759],[100.4742933,14.8155556],[100.4713236,14.8229159],[100.4652874,14.8225119],[100.4664786,14.8272339],[100.4627164,14.8311292],[100.4563948,14.8339687],[100.4565873,14.8373109],[100.4550721,14.8373335],[100.4601966,14.8428841],[100.4582975,14.8457267],[100.4589575,14.8555285],[100.4569068,14.8575793],[100.4463058,14.8581575],[100.4460872,14.8647819],[100.4485515,14.8648649],[100.4495876,14.862623],[100.4510536,14.8640015],[100.4474525,14.8695644],[100.4501547,14.8747793],[100.4394247,14.87573],[100.4395656,14.8802651],[100.434492,14.8794909],[100.4328854,14.8815852],[100.430453,14.8805205],[100.4276547,14.8842001],[100.427159,14.8876075],[100.4288119,14.8889764],[100.4279087,14.8934693],[100.425892,14.8935824],[100.4271567,14.8951045],[100.4249283,14.8972073],[100.4249598,14.9024303],[100.4222906,14.9050026],[100.4247095,14.9155133],[100.4273581,14.9161647],[100.4252382,14.9177716],[100.4250108,14.9209096],[100.421994,14.9226178],[100.4205881,14.9267578],[100.4225025,14.9274387],[100.421041,14.9285094],[100.4214282,14.9313115],[100.423659,14.9327309],[100.4242834,14.9311524],[100.4261731,14.9319846],[100.4270064,14.930653],[100.4291829,14.9317983],[100.4315024,14.9288216],[100.4385467,14.9323158],[100.4387521,14.9361817],[100.4437343,14.9396356],[100.4448163,14.9374495],[100.4470991,14.938101],[100.4475414,14.9399884],[100.4498788,14.9406094],[100.4490704,14.9424652],[100.455881,14.9488377],[100.4557816,14.9513371],[100.4529411,14.9518243],[100.4532191,14.9473917],[100.4526959,14.9491495],[100.4509006,14.9493158],[100.4495455,14.9467168],[100.4469488,14.9514829],[100.4470077,14.9637201],[100.4524332,14.963178],[100.4527975,14.9684216],[100.4506302,14.9686729],[100.4502601,14.9714986],[100.4503727,14.9736494],[100.4517674,14.9738168],[100.4505089,14.9799724],[100.4517134,14.9803267],[100.4479711,14.9858449],[100.4489213,14.988657],[100.4518617,14.9891352],[100.4511161,14.9930164],[100.4524733,14.9930682],[100.4527502,14.9965715],[100.4499142,14.9986043],[100.4504882,15.0005993],[100.4535182,14.9999001],[100.4542269,15.001525],[100.4508097,15.0020667],[100.4526031,15.0131051],[100.45549,15.0134355],[100.4544296,15.0182025],[100.4619812,15.0182645],[100.4621028,15.0222097],[100.4634195,15.0222833],[100.4655093,15.0273049],[100.4657551,15.0326822],[100.4629751,15.0326751],[100.4620527,15.041582],[100.4573078,15.0419582],[100.4573126,15.0465894],[100.4562167,15.0460851],[100.4543916,15.049463],[100.4599824,15.0518869],[100.4568536,15.0531409],[100.4576517,15.0552469],[100.451392,15.0556393],[100.448392,15.0523197],[100.4494412,15.0495968],[100.4439008,15.0458261],[100.439673,15.0457575],[100.4393154,15.0470326],[100.4415044,15.0476547],[100.440314,15.0532044],[100.4380907,15.052815],[100.4324136,15.0561329],[100.4334951,15.0671758],[100.4351723,15.0704127],[100.4275314,15.0705145],[100.4297054,15.0779664],[100.4302345,15.0879287],[100.4347863,15.0884197],[100.4375538,15.096585],[100.4408035,15.09382],[100.4413918,15.0956154],[100.4454248,15.0952973],[100.4460426,15.0978234],[100.4490111,15.0977748],[100.4471569,15.0942155],[100.4552048,15.096044],[100.4523952,15.0977612],[100.4526283,15.0996232],[100.4572101,15.1016301],[100.458632,15.1041393],[100.4593108,15.1163626],[100.4666792,15.1152609],[100.4732658,15.1084615],[100.4767535,15.1106429],[100.4780754,15.1092829],[100.4820036,15.1097244],[100.4813028,15.1138235],[100.4859947,15.1156339],[100.4854281,15.1180261],[100.4945178,15.1224695],[100.4935777,15.1245085],[100.4989827,15.1281539],[100.499461,15.1352428],[100.504106,15.1356379],[100.5052662,15.145446],[100.5103576,15.1445743],[100.5103328,15.1486822],[100.5179628,15.1515592],[100.5274393,15.1785249],[100.5276207,15.1833353],[100.5303484,15.1826594],[100.5307671,15.1787342],[100.5367197,15.179264],[100.5368106,15.1814453],[100.5405306,15.1808133],[100.541897,15.1790371],[100.5442365,15.1818265],[100.5472553,15.1810401],[100.5482808,15.1856992],[100.5552612,15.184668],[100.555603,15.1865051],[100.5533706,15.1878097],[100.56293,15.1888172],[100.5644481,15.1936236],[100.5608029,15.194177],[100.5617111,15.204271],[100.5755859,15.2358151],[100.5806754,15.2347576],[100.5839839,15.2426347],[100.595456,15.2492805],[100.5980138,15.2541704],[100.6018196,15.2548235],[100.6012504,15.2615424],[100.5954846,15.2670715],[100.589959,15.2684387],[100.5991738,15.2821041],[100.5953692,15.2882594],[100.5981402,15.2901382],[100.600509,15.2889026],[100.6049409,15.2932685],[100.6112113,15.2947372],[100.6110505,15.2962953],[100.6124889,15.2959864],[100.6132179,15.297712],[100.6146258,15.3085635],[100.6230557,15.3136337],[100.6220003,15.3190264],[100.633654,15.324015],[100.6344302,15.3285556],[100.631146,15.3310442],[100.6298798,15.3350254],[100.6298823,15.3403941],[100.6315681,15.3416976],[100.6334851,15.3405407],[100.6352891,15.3462666],[100.6342484,15.3563819],[100.6320187,15.3612428],[100.6408236,15.3728259],[100.6422068,15.3726314],[100.6426226,15.3813221],[100.6453214,15.3895709],[100.6429677,15.3963037],[100.6444864,15.3964563],[100.6436579,15.3991339],[100.645729,15.4005692],[100.6461866,15.4033522],[100.643632,15.4076688],[100.6459662,15.412105],[100.6437768,15.4140507],[100.6438182,15.4175574],[100.6488905,15.4193639],[100.6530108,15.4252318],[100.6563908,15.4252991],[100.6586342,15.4274577],[100.6601555,15.4307575],[100.6585946,15.432082],[100.6588879,15.4353752],[100.6667747,15.4330798],[100.6738012,15.4478616],[100.6759602,15.451239],[100.6788721,15.4525553],[100.6872407,15.4501175],[100.6879505,15.4468273],[100.6925434,15.4457693],[100.6935039,15.4441443],[100.6968558,15.4447306],[100.7018762,15.4400928],[100.7052887,15.4394228],[100.7078201,15.4411898],[100.7096761,15.4400774],[100.7149186,15.4435119],[100.7147021,15.4456146],[100.7167125,15.4458078],[100.717261,15.4475971],[100.7214776,15.4483674],[100.7214694,15.4464733],[100.7237016,15.4463455],[100.7235452,15.4487956],[100.7256023,15.4499013],[100.728495,15.4473502],[100.7337245,15.4471007],[100.7351245,15.4499971],[100.7426301,15.4517009],[100.7489212,15.4585793],[100.7575266,15.4578216],[100.7616471,15.4619077],[100.7622393,15.4607485],[100.7682609,15.4625514],[100.7715079,15.4601466],[100.7793714,15.4622736],[100.7897846,15.4730328],[100.7892294,15.4791046],[100.7915618,15.4789175],[100.7931639,15.48258],[100.8021298,15.4894079],[100.8048549,15.4901523],[100.8142319,15.4881465],[100.8196772,15.4905837],[100.8202137,15.4926975],[100.8232502,15.4909471],[100.8261499,15.4922467],[100.827638,15.4911007],[100.832369,15.4939605],[100.8334897,15.5029422],[100.8287905,15.5086697],[100.8255718,15.5201861],[100.8277605,15.524135],[100.8188556,15.5332731],[100.8074878,15.5496227],[100.8083728,15.5521723],[100.8169364,15.5561877],[100.8264589,15.5561258],[100.8316313,15.5524896],[100.8495787,15.5491267],[100.8522661,15.5504047],[100.8546833,15.5473235],[100.8535763,15.541853],[100.8565089,15.5327927],[100.8543344,15.530795],[100.854832,15.5284272],[100.8529356,15.5253758],[100.8673225,15.5295357],[100.8798198,15.5278261],[100.8851165,15.5287941],[100.8896786,15.5243551],[100.8878109,15.5180184],[100.8924545,15.517173],[100.8920884,15.5153529],[100.900252,15.5127598],[100.8988634,15.5038529],[100.9008622,15.5036848],[100.9039823,15.4963529],[100.9069665,15.4948607],[100.9155719,15.4950134],[100.9165626,15.4888393],[100.9231491,15.4904499],[100.928699,15.487688],[100.9260941,15.4791618],[100.9281105,15.4722596],[100.9321696,15.4662049],[100.9272274,15.4617593],[100.9282246,15.4503264],[100.9267783,15.4498133],[100.9271514,15.4460887],[100.9246836,15.4429203],[100.9257423,15.4375972],[100.9241705,15.4326744],[100.9257582,15.4329703],[100.930994,15.4269657],[100.930189,15.4172173],[100.9344511,15.4121289],[100.9385708,15.4120214],[100.9467238,15.4074573],[100.9537312,15.4124182],[100.955944,15.4113175],[100.9674652,15.4125502],[100.9686896,15.4158202],[100.9718557,15.4165423],[100.980684,15.4142827],[100.9794993,15.4120444],[100.9767306,15.4113961],[100.9746112,15.4024371],[100.9772027,15.4010771],[100.9753211,15.3957503],[100.9754051,15.3890013],[100.9781918,15.3849869],[100.976991,15.3805682],[100.9779113,15.3771863],[100.9761604,15.373521],[100.9787401,15.3697038],[100.9788153,15.3621407],[100.9771691,15.3587548],[100.9840913,15.3464889],[100.9809619,15.3438478],[100.9770414,15.3365007],[100.9789163,15.3327144],[100.984609,15.32974],[100.9860305,15.3247863],[100.9955987,15.3185435],[101.0016747,15.3185686],[101.0128337,15.3340312],[101.0222828,15.3377599],[101.0269844,15.3374562],[101.0347013,15.3267903],[101.0557713,15.3301256],[101.0599322,15.3249727],[101.0628221,15.3259752],[101.0661595,15.3279918],[101.0703742,15.3384223],[101.0750039,15.3429639],[101.0767265,15.3484614],[101.0822767,15.3563819],[101.0856062,15.3440443],[101.0942955,15.3427474],[101.1005727,15.3448578],[101.1009348,15.3432481],[101.1060446,15.3463098],[101.1071997,15.3434604],[101.1148037,15.3393979],[101.1176511,15.3394102],[101.1179179,15.3375024],[101.1298111,15.3374682],[101.1478806,15.340494],[101.1507673,15.3449662],[101.1576803,15.3453405],[101.1579745,15.3476339],[101.1623805,15.3468715],[101.1626804,15.3496839],[101.1888267,15.3465986],[101.1916533,15.3436061],[101.1938412,15.3441549],[101.1941466,15.3419177],[101.2078999,15.3418301],[101.2110125,15.3492412],[101.2213199,15.3496289],[101.2241813,15.3485732],[101.222606,15.3444882],[101.22594,15.3400895],[101.2275984,15.3402088],[101.2288067,15.3430523],[101.2334799,15.3430438],[101.237417,15.345373],[101.2373702,15.3480321],[101.2397935,15.3484947],[101.2413065,15.3511636],[101.2442945,15.3497678],[101.2477368,15.3515018],[101.2471029,15.3537255],[101.2532159,15.351627],[101.2603745,15.3564359],[101.2642487,15.3563747],[101.2640887,15.3579135],[101.2668656,15.359953],[101.2689373,15.3593302],[101.2701801,15.3614819],[101.2716578,15.3601485],[101.2769861,15.3619522],[101.2809749,15.36566],[101.2852124,15.3744357],[101.2897434,15.3749526],[101.2910318,15.3772861],[101.2936258,15.376259],[101.2944254,15.3786318],[101.2990173,15.3802356],[101.2990286,15.3842084],[101.3022918,15.3860123],[101.3051912,15.39141],[101.3022545,15.3942446],[101.3047131,15.4149546],[101.3020081,15.4259145],[101.3027707,15.4307353],[101.3065436,15.4316748],[101.3073062,15.4347494],[101.301392,15.4376801],[101.3025749,15.4426859],[101.2994721,15.4469791],[101.2976364,15.4558085],[101.3025878,15.4604109],[101.3035242,15.4670705],[101.3073044,15.4719422],[101.3032588,15.4826719],[101.3044565,15.4863567],[101.3029108,15.4886302],[101.3048683,15.4908959],[101.3010373,15.5059418],[101.3021889,15.5172527],[101.3043909,15.5196826],[101.2969026,15.5286824],[101.2886036,15.5247016],[101.2875498,15.5301356],[101.2902952,15.5369703],[101.3017644,15.5414087],[101.3072561,15.5509587],[101.3069145,15.5560374],[101.3091717,15.5596083],[101.308941,15.5653794],[101.3116046,15.5737836],[101.3097352,15.5790041],[101.3118607,15.584383],[101.3156655,15.5881003],[101.3177417,15.596479],[101.3168055,15.6019116],[101.3216203,15.6041237],[101.3229381,15.6066283],[101.3289159,15.6052544],[101.3292028,15.6088853],[101.3320791,15.6104633],[101.3326105,15.6139725],[101.3312214,15.6161617],[101.33327,15.6179272],[101.3322679,15.6217208],[101.3364449,15.6241486],[101.3356307,15.6282381],[101.3402741,15.6313608],[101.3437515,15.6377514],[101.3436218,15.6504868],[101.3394086,15.6537605],[101.3408315,15.658906],[101.346966,15.661823],[101.3515997,15.6678458],[101.3510159,15.6738193],[101.3600329,15.6860427],[101.359135,15.6898784],[101.3530707,15.6950335],[101.3520494,15.700766],[101.3531533,15.7039608],[101.3463528,15.7112157],[101.3434064,15.7119519],[101.3412398,15.7172813],[101.3381194,15.7187238],[101.3353403,15.7280025],[101.3367833,15.7326851],[101.333857,15.7376853],[101.3377469,15.740519],[101.3389327,15.7445521],[101.3385062,15.7473416],[101.3359689,15.7486626],[101.3363233,15.7530215],[101.34093,15.7561286],[101.3457011,15.7522442],[101.3501284,15.7521484],[101.3510295,15.7486435],[101.3550747,15.7463335],[101.3603552,15.7459758],[101.3631917,15.7428443],[101.3814274,15.7367759],[101.3863667,15.7380978],[101.3883404,15.7438387],[101.3910128,15.7455828],[101.404429,15.7392873],[101.3969444,15.7212482],[101.4002523,15.7131856],[101.4005575,15.7057994],[101.3952773,15.6911645],[101.3947558,15.678352],[101.388977,15.6565669],[101.3793269,15.6370544],[101.3746304,15.6186906],[101.3699801,15.593275],[101.3697991,15.5737857],[101.3714432,15.5686722],[101.3699707,15.5657386],[101.3731803,15.556391],[101.3736854,15.5275856],[101.3857071,15.4865448],[101.3847517,15.4677754],[101.3776702,15.4305384],[101.3775542,15.3904463],[101.3822308,15.3878337],[101.3764516,15.3801921],[101.375809,15.3746154],[101.3792566,15.3460779],[101.381072,15.3440013],[101.3825363,15.3460332],[101.3858006,15.3461943],[101.382291,15.3370716],[101.3804244,15.2896973],[101.3852286,15.2479939],[101.3870011,15.2432297],[101.3903661,15.2406618],[101.3872882,15.2351162],[101.3888147,15.2201546],[101.3911184,15.2134122],[101.3954877,15.1839837],[101.4001215,15.1677785],[101.399673,15.1593241],[101.4019503,15.1523363],[101.4007677,15.1433484],[101.4017864,15.1362649],[101.3990972,15.1246655],[101.4006976,15.1109152],[101.3990708,15.1042002],[101.4006938,15.102299],[101.3960066,15.0989958],[101.3987672,15.0979002],[101.3970396,15.0967059],[101.3993801,15.0881113],[101.3978607,15.0889233],[101.3973894,15.0874959],[101.3994844,15.0857909],[101.398303,15.0844624],[101.4003532,15.0694045],[101.402922,15.0622443],[101.409093,15.057026],[101.4141486,15.0452597],[101.4122626,15.0449962],[101.4102559,15.0412014],[101.4045738,15.0405305],[101.4000942,15.0370195],[101.395553,15.0369622],[101.3743472,15.0425755],[101.3713584,15.046092],[101.3658377,15.0450558],[101.3630789,15.0469713],[101.3620898,15.0333927],[101.3578558,15.0307057],[101.3492094,15.012318],[101.3495081,15.0003601],[101.3476764,14.9930618],[101.3434589,14.9907534],[101.3364396,14.9901653],[101.3345211,14.9843602],[101.3315811,14.9827862],[101.333856,14.978157],[101.3299564,14.9723468],[101.3291691,14.9654894],[101.3265426,14.964177],[101.3202286,14.9648643],[101.3108934,14.9604617],[101.3041347,14.9538448],[101.2971278,14.9510066],[101.2926134,14.946647],[101.2842551,14.9439535],[101.2795964,14.9372208],[101.2729485,14.9332267],[101.271854,14.9265651],[101.2678776,14.9241927],[101.2666437,14.9185458],[101.2579522,14.9126029],[101.2534092,14.9133307],[101.2520822,14.9160964],[101.2512244,14.9145211],[101.2491161,14.9162366],[101.2478475,14.9150684],[101.2423151,14.9184194],[101.2384813,14.9177651],[101.2329977,14.9206667],[101.2316848,14.9187161],[101.2258145,14.920793],[101.2233777,14.9187275],[101.2216879,14.9200234],[101.2213768,14.9184942],[101.2131551,14.9205007],[101.2085774,14.9172479],[101.2060613,14.9176229],[101.2061594,14.9190597],[101.2029032,14.9185828],[101.2005371,14.9203975],[101.1925387,14.9214038],[101.1846854,14.9155688],[101.1797255,14.9159038],[101.1652019,14.9026781],[101.1568461,14.9005974],[101.1526348,14.8973557],[101.1402911,14.8974044],[101.1370956,14.8996281],[101.1369574,14.901396],[101.1281353,14.9034468],[101.1225333,14.9020166],[101.1226195,14.9038031],[101.1206045,14.9028324],[101.1197467,14.9059406],[101.1143392,14.9038184],[101.1106699,14.9054721],[101.1107129,14.9070895],[101.1088997,14.9060838],[101.1073225,14.9083854],[101.1047237,14.9062577],[101.1023498,14.9062032],[101.102644,14.908049],[101.099603,14.9085821],[101.091067,14.9056062],[101.089366,14.8471826],[101.0823716,14.8435025],[101.0815385,14.8449914],[101.0835245,14.8494019],[101.0793104,14.8510874],[101.0753097,14.8470705],[101.0776387,14.8436671],[101.0689528,14.8443954],[101.0653488,14.8398588],[101.0677214,14.8311257],[101.0713639,14.8313368],[101.0787271,14.8355958],[101.0855206,14.8342159],[101.089148,14.8311444],[101.078513,14.8187793],[101.079241,14.8133889],[101.0818272,14.8124165],[101.0817424,14.811051],[101.0763925,14.8106252],[101.0744195,14.8147596],[101.0720945,14.8158435],[101.0689837,14.8139936],[101.0686028,14.8053699],[101.0725827,14.7911294],[101.066553,14.7925794],[101.062166,14.7912252],[101.0657392,14.7762202],[101.0735219,14.7654984],[101.0697116,14.759964],[101.0629186,14.7593804],[101.0630436,14.7620457],[101.0609617,14.7599018],[101.0595814,14.7604059],[101.0612762,14.7630455],[101.0598589,14.7646543],[101.0625579,14.7659116],[101.061726,14.7676276],[101.0605121,14.7667041],[101.0598774,14.7694271],[101.0593166,14.7680805],[101.0579979,14.7686227],[101.058048,14.7715637],[101.0556877,14.7718542],[101.0569554,14.7739907],[101.0542561,14.7745416],[101.0557225,14.7752686],[101.0545286,14.7761226],[101.0557266,14.7784616],[101.057454,14.7765061],[101.0590418,14.7781192],[101.0585335,14.7811489],[101.0564573,14.7818025],[101.0585279,14.783955],[101.0553316,14.7840605],[101.0547017,14.787633],[101.0525286,14.788995],[101.0543548,14.7903501],[101.0519385,14.7901241],[101.0504441,14.7930319],[101.0444928,14.7948853],[101.0412318,14.7994552],[101.0381322,14.8010399],[101.0329137,14.8006999],[101.0329544,14.8035735],[101.0316941,14.8025555],[101.028645,14.808408],[101.0276552,14.8071971],[101.0263803,14.8075447],[101.0256585,14.8103074],[101.0237469,14.8095168],[101.0197907,14.8020071],[101.0164735,14.8004285],[101.0152419,14.7950427],[101.0104896,14.7890062],[101.000292,14.7786341],[100.9957259,14.7774367],[100.9959496,14.7720396],[100.9925081,14.7685734],[100.9909078,14.7629459],[100.9922802,14.7550174],[100.9904372,14.7505632],[100.9918636,14.7404511],[100.9842014,14.7449892],[100.9802745,14.7452703],[100.9761919,14.7494178],[100.9706369,14.7488674],[100.966271,14.7515165],[100.961205,14.744326],[100.9594745,14.7437687],[100.9559339,14.7466744],[100.9511528,14.7456644],[100.9486861,14.7428231],[100.9435566,14.740742],[100.940585,14.7508193],[100.934112,14.7526183],[100.9275732,14.7506178],[100.9171762,14.7561445],[100.9123667,14.757006],[100.906396,14.7610097],[100.9053258,14.7662858],[100.9014831,14.7699786],[100.8940715,14.7693626],[100.8888333,14.7729149],[100.8795069,14.7705117],[100.8669072,14.7712073],[100.8646535,14.7822826],[100.8454398,14.7896824],[100.8485322,14.7947582],[100.847455,14.8014242],[100.8417626,14.8041889],[100.8198915,14.8035846],[100.8142082,14.7951873],[100.8049198,14.7942681],[100.7981647,14.7904749],[100.7924515,14.7917011],[100.7914532,14.7947999],[100.7749567,14.7944594],[100.7673107,14.7960811],[100.765455,14.7893254],[100.7557259,14.7869483],[100.7525293,14.7812008],[100.744702,14.7815165],[100.7446085,14.7799659],[100.7389916,14.7804075],[100.7327409,14.7778036],[100.7315728,14.7731587],[100.7285016,14.7717783],[100.726086,14.7657147],[100.7257971,14.7597923],[100.7230473,14.7579148],[100.7159737,14.7602386],[100.7146996,14.75668],[100.7114621,14.7592292],[100.7042772,14.7580953],[100.7039588,14.7564777],[100.7002032,14.7565995],[100.7016028,14.7553306],[100.6990457,14.7493442],[100.694991,14.7524884],[100.6937076,14.7506201],[100.6902412,14.7512674],[100.6887898,14.7490202],[100.6862218,14.7498725],[100.6818147,14.7473011],[100.6793634,14.7477821],[100.6776689,14.7414037],[100.6752552,14.7394178],[100.6736297,14.7397596],[100.6738631,14.7428359],[100.6719051,14.7420505],[100.670454,14.7435721],[100.66073,14.7392559],[100.6647342,14.7342007],[100.662817,14.7347951],[100.6614529,14.7324064],[100.6597756,14.7332685],[100.6589708,14.7318103],[100.6618343,14.7291185],[100.6601305,14.7260788],[100.6584378,14.7269935],[100.6552705,14.7213503],[100.6569668,14.720451],[100.6563926,14.719449],[100.6523785,14.7201131],[100.6557049,14.718228],[100.6527796,14.7130133],[100.6545019,14.7121539],[100.6514904,14.7097371],[100.6535831,14.7092114],[100.6531375,14.7070156],[100.6569241,14.7069024],[100.6603721,14.704358],[100.6574439,14.7003828],[100.6556606,14.7008431],[100.6554466,14.6968428],[100.6572455,14.6955038],[100.6556701,14.6933264],[100.6501126,14.6928313],[100.6452291,14.6849636],[100.6434537,14.6858959],[100.6381435,14.6802184],[100.6422867,14.6760951],[100.6361177,14.6704633],[100.6329956,14.6719845],[100.6357709,14.6667025],[100.6342967,14.664808],[100.6318129,14.6655715],[100.6312215,14.6618366],[100.6290654,14.6609864]]]}}]}