{"type":"FeatureCollection","features":[{"type":"Feature","properties":{"provinceCode":"92","nameTh":"ตรัง","nameEn":"Trang"},"geometry":{"type":"Polygon","coordinates":[[[99.9485621,7.2036988],[99.944053,7.2137865],[99.9446008,7.2147661],[99.9486218,7.2132487],[99.9491024,7.2171945],[99.9465501,7.2196946],[99.9470777,7.2230091],[99.9430973,7.2261916],[99.9413578,7.2314803],[99.938433,7.2325323],[99.9396939,7.2358234],[99.9356503,7.2387455],[99.9358801,7.2401676],[99.9333729,7.2400376],[99.932106,7.2446442],[99.9359656,7.2534885],[99.9382363,7.2557312],[99.9408506,7.2557621],[99.9447401,7.2641261],[99.9471344,7.2657492],[99.9469806,7.2693679],[99.9447104,7.2705951],[99.9407737,7.2807598],[99.9420495,7.2865039],[99.9395034,7.3033815],[99.9373501,7.3070077],[99.9398319,7.3103013],[99.9394731,7.31651],[99.9371668,7.3178614],[99.9129678,7.3193152],[99.909157,7.3262723],[99.9090623,7.3309339],[99.9037649,7.3361671],[99.9047603,7.3385545],[99.9026411,7.3436197],[99.9052424,7.3523935],[99.9038858,7.355609],[99.897546,7.3605398],[99.8959566,7.3666293],[99.9003138,7.37253],[99.9016376,7.3797704],[99.8953973,7.387286],[99.8928625,7.3936508],[99.8941851,7.3978574],[99.8912797,7.4033323],[99.8871974,7.4052833],[99.8854905,7.4079556],[99.8853161,7.4129389],[99.8769758,7.4174305],[99.8757402,7.422268],[99.8721068,7.4252255],[99.872084,7.4303992],[99.8679378,7.4371631],[99.8649228,7.4399371],[99.8609068,7.4406933],[99.862135,7.443675],[99.8596475,7.4468853],[99.86294,7.4506196],[99.8594934,7.4527077],[99.8574891,7.4606933],[99.84877,7.465294],[99.8475319,7.4706358],[99.8501334,7.4730736],[99.8500833,7.4768251],[99.8537459,7.4795758],[99.8523526,7.4844789],[99.8432454,7.4941033],[99.8425771,7.4990192],[99.8348434,7.5007456],[99.8330206,7.5040512],[99.822914,7.5081933],[99.8204822,7.5123315],[99.8215215,7.5174513],[99.8186958,7.5214468],[99.8250138,7.5234694],[99.8294544,7.5270628],[99.8292807,7.532753],[99.8372611,7.5413067],[99.8358114,7.5445136],[99.8363409,7.549494],[99.8273554,7.5524353],[99.8125452,7.5732817],[99.8066154,7.5772889],[99.8032844,7.5831807],[99.798989,7.5841993],[99.7988678,7.5876264],[99.7969984,7.5897785],[99.7983527,7.5952582],[99.8006779,7.597412],[99.8004914,7.6043632],[99.8025996,7.609068],[99.8062584,7.6116912],[99.8068851,7.6201383],[99.8095753,7.6221358],[99.7984317,7.6296224],[99.7959718,7.6384698],[99.7900516,7.6411489],[99.7877086,7.6445691],[99.7947537,7.645745],[99.8089241,7.6447882],[99.8090038,7.6477653],[99.8140886,7.6492681],[99.8173912,7.6590138],[99.816781,7.6655031],[99.8195642,7.669023],[99.8165782,7.6738381],[99.8182146,7.6804154],[99.8155198,7.6836016],[99.801551,7.6870525],[99.8026261,7.6904918],[99.7988226,7.6948047],[99.7985332,7.6975415],[99.791724,7.7003026],[99.7888505,7.7122144],[99.7890224,7.7186602],[99.7849929,7.7253195],[99.7858873,7.7289725],[99.78373,7.7343998],[99.7882076,7.7427336],[99.7830002,7.7478134],[99.7832062,7.7501847],[99.7807942,7.7534441],[99.783841,7.7590313],[99.7769361,7.760196],[99.7738326,7.7652212],[99.7673032,7.7685724],[99.7689215,7.7730577],[99.7656007,7.7783274],[99.7671888,7.7813578],[99.7708533,7.7834649],[99.770668,7.7893167],[99.766621,7.7956696],[99.7636393,7.7971141],[99.7637749,7.7998109],[99.7581072,7.8040588],[99.7586618,7.8122112],[99.7562104,7.8224077],[99.7522074,7.8248779],[99.751724,7.8321229],[99.7457309,7.836899],[99.7381084,7.8400931],[99.7378274,7.8441845],[99.7327731,7.849018],[99.7331343,7.8542297],[99.7382474,7.8588963],[99.7366325,7.8661415],[99.7346814,7.8680718],[99.7390657,7.8749849],[99.7378641,7.8776966],[99.7351812,7.8788459],[99.7315876,7.8881289],[99.7333063,7.8953334],[99.7315388,7.900587],[99.734507,7.9083963],[99.7340219,7.9119142],[99.7369683,7.9128984],[99.7387976,7.9166459],[99.7404462,7.9266314],[99.7325729,7.9322043],[99.7324812,7.9344678],[99.7264986,7.9405361],[99.7304833,7.9529169],[99.7376623,7.9491306],[99.7415041,7.9526136],[99.7434583,7.9607877],[99.7464131,7.9635831],[99.7475205,7.9679641],[99.751982,7.9690656],[99.7536036,7.9713995],[99.7527935,7.9782091],[99.7569887,7.9831322],[99.7569066,7.9864269],[99.7524113,7.9861056],[99.7480013,7.9825086],[99.7447536,7.9843496],[99.7444071,7.9877082],[99.7464882,7.9904962],[99.7539378,7.9944654],[99.7552441,7.9982706],[99.7541772,8.0057569],[99.7530822,8.0078329],[99.7460784,8.0060504],[99.7400139,8.0089289],[99.7367847,8.0030051],[99.7326786,8.0021757],[99.7324377,8.000492],[99.7307283,8.0021242],[99.7275219,7.9978864],[99.7251698,7.9990271],[99.7255152,7.9972072],[99.7227053,7.9953696],[99.7217615,7.9973989],[99.7212192,7.9952523],[99.7186267,7.9949983],[99.7178156,7.9928852],[99.71403,7.9926397],[99.7132059,7.9901422],[99.7093044,7.9905116],[99.7075037,7.9924598],[99.7051675,7.9909328],[99.7040512,7.9923895],[99.7026872,7.9909733],[99.698584,7.9910272],[99.6930321,7.9972276],[99.6889951,7.9952133],[99.6851815,7.9987713],[99.6825216,7.9981694],[99.6769815,8.0013468],[99.6776525,8.0041569],[99.6756968,8.0038614],[99.6765687,8.0063265],[99.6737918,8.0064987],[99.6729543,8.0081727],[99.6720413,8.0058888],[99.6711034,8.008332],[99.6703962,8.0069922],[99.6665175,8.0067689],[99.6625055,8.0111673],[99.6591409,8.0106318],[99.6575356,8.0128764],[99.6558976,8.010922],[99.6524702,8.0117774],[99.6511069,8.0102847],[99.6450015,8.0118256],[99.6381162,8.0082508],[99.6344721,8.0106545],[99.6333562,8.0088309],[99.6309974,8.0094708],[99.6270489,8.0036877],[99.6238692,8.0025536],[99.6244227,8.000949],[99.6222255,8.0001222],[99.6199815,7.9934324],[99.6161252,7.992173],[99.6171115,7.9901049],[99.6157182,7.9876604],[99.6138964,7.989301],[99.6100024,7.9856422],[99.6023945,7.9854703],[99.6066161,7.9787382],[99.601939,7.9782026],[99.598111,7.9703496],[99.5998635,7.9678626],[99.5964257,7.9683283],[99.5977431,7.9639659],[99.5935919,7.9640769],[99.5919,7.9629047],[99.594988,7.9635388],[99.5969288,7.9595956],[99.5962522,7.9573446],[99.5858502,7.9568505],[99.583711,7.9518195],[99.5854245,7.9503904],[99.5826256,7.9488909],[99.5816278,7.9498305],[99.5810218,7.9482576],[99.5831168,7.9463815],[99.580681,7.9469909],[99.5803018,7.9447341],[99.5772856,7.9456391],[99.5759446,7.9444099],[99.5710145,7.946276],[99.5675087,7.9391167],[99.5684837,7.9360837],[99.5663523,7.9364903],[99.5652811,7.9345111],[99.5616625,7.9364592],[99.5607744,7.932757],[99.5636174,7.9327356],[99.5645208,7.9305393],[99.5618918,7.9293753],[99.5626997,7.9241945],[99.5589313,7.9195096],[99.5562361,7.9175677],[99.5546504,7.9202767],[99.5507361,7.9174829],[99.5477065,7.9184347],[99.5443914,7.9107385],[99.5428805,7.9099859],[99.5407045,7.9117243],[99.5425429,7.9073733],[99.5406482,7.9044628],[99.5415045,7.9020792],[99.5349858,7.8980964],[99.5364139,7.8960558],[99.5335715,7.8910145],[99.53759,7.8887975],[99.5346699,7.8858683],[99.534728,7.883416],[99.5388511,7.8832502],[99.5392261,7.8820548],[99.5332524,7.8775247],[99.5313658,7.8775727],[99.5313557,7.8795812],[99.5276816,7.8791251],[99.5238044,7.8746645],[99.5216828,7.8765665],[99.5171548,7.8761086],[99.5110919,7.8833098],[99.505528,7.8862445],[99.4987103,7.8858066],[99.4955411,7.8823835],[99.4891657,7.8873253],[99.4841498,7.8819021],[99.4793641,7.8820769],[99.4754983,7.8883269],[99.4738857,7.8992516],[99.4715781,7.9045005],[99.4623086,7.8986192],[99.4591827,7.891637],[99.4555561,7.8888886],[99.4514153,7.8897789],[99.4495885,7.8870813],[99.4464622,7.8881488],[99.4431462,7.8861876],[99.4432099,7.8802641],[99.4381617,7.8786179],[99.4359689,7.8746589],[99.4340001,7.8768746],[99.4271277,7.8754195],[99.4252014,7.8763823],[99.4236998,7.882859],[99.4197626,7.8839909],[99.419144,7.8938087],[99.4142698,7.8978594],[99.4198597,7.9204856],[99.4249284,7.926953],[99.424524,7.9283018],[99.4166076,7.9240917],[99.397962,7.9245732],[99.3920987,7.9282852],[99.389256,7.9320522],[99.383797,7.933563],[99.3790369,7.9369843],[99.3764265,7.9409247],[99.3652246,7.9449666],[99.3650434,7.9377761],[99.3553089,7.9322096],[99.3337746,7.9287921],[99.3351695,7.919757],[99.3385366,7.911202],[99.3302225,7.8923515],[99.3320441,7.8830308],[99.3311462,7.8811626],[99.3262441,7.8769345],[99.3224587,7.8708996],[99.3152479,7.8659401],[99.2973472,7.8639473],[99.2875168,7.8591157],[99.2847792,7.8533451],[99.279933,7.8505239],[99.2781671,7.8463651],[99.2842473,7.8357093],[99.2880355,7.8334375],[99.2904894,7.8279704],[99.2942019,7.8250977],[99.2933699,7.8192407],[99.2873489,7.8181783],[99.2871473,7.8100549],[99.2967553,7.8102739],[99.3033091,7.8078686],[99.3026584,7.8012097],[99.2997286,7.7939877],[99.3016967,7.7907082],[99.2884854,7.7753874],[99.2880254,7.7715602],[99.2897188,7.7682545],[99.2890098,7.7624413],[99.3063464,7.7549687],[99.3085806,7.7419428],[99.3078253,7.7384636],[99.3111603,7.7376317],[99.3124954,7.7344327],[99.312817,7.7275881],[99.3072011,7.7189589],[99.3106985,7.7108308],[99.3087609,7.7088056],[99.3097408,7.7054079],[99.3079635,7.7036269],[99.3083964,7.7011024],[99.3041252,7.6996938],[99.3042877,7.6974748],[99.2991008,7.6912673],[99.3006216,7.689284],[99.2983511,7.6878838],[99.2949312,7.6904849],[99.2938658,7.6881982],[99.2916716,7.6901541],[99.2906052,7.686662],[99.2866162,7.6882253],[99.285319,7.6845679],[99.286329,7.6796495],[99.2788108,7.6809782],[99.2741374,7.678074],[99.2598105,7.6574354],[99.1801609,7.612902],[99.2472217,7.4284101],[99.0963351,7.2772426],[99.1205808,7.1859439],[99.0923933,7.1580274],[99.0052559,7.1861246],[98.8953064,7.0760849],[98.9170348,7.0522565],[98.9504083,7.0259237],[98.9651036,7.0162056],[99.016805,6.9991467],[99.0369406,6.996087],[99.0842185,6.9951294],[99.1088937,7.0004234],[99.149257,7.0133286],[99.1880123,7.0386317],[99.2093165,6.9922358],[99.2385473,6.9528688],[99.3023333,6.8760212],[99.305104,6.8299485],[99.7341475,7.1291644],[99.7393356,7.1318643],[99.7534265,7.1251908],[99.7635856,7.1238535],[99.7668597,7.1257351],[99.7711433,7.1250318],[99.780197,7.1278925],[99.7847107,7.1271924],[99.7845948,7.1293434],[99.7880198,7.1320453],[99.7875907,7.1381091],[99.789373,7.1395677],[99.7914852,7.1348858],[99.7988307,7.1287166],[99.8034435,7.128834],[99.8055646,7.1311925],[99.8147414,7.1317907],[99.8266138,7.1377971],[99.8312693,7.138032],[99.8310357,7.1423708],[99.8383325,7.1502356],[99.8410302,7.1510708],[99.8444248,7.1615358],[99.8543131,7.1643745],[99.8598614,7.1726389],[99.8634764,7.1733961],[99.8679101,7.1708298],[99.8713745,7.1709197],[99.8761947,7.1778504],[99.8905299,7.1867767],[99.8966801,7.1867207],[99.8998964,7.1887206],[99.9075675,7.1891567],[99.9174839,7.1923953],[99.9247231,7.1900626],[99.9294011,7.1920844],[99.9349363,7.1904047],[99.9419679,7.1961232],[99.9460578,7.2034989],[99.9485621,7.2036988]]]}}]}