{"type":"FeatureCollection","features":[{"type":"Feature","properties":{"id":"TH-LAO-3920102","nameTh":"ตรัง","type":"city_municipality"},"geometry":{"type":"Polygon","coordinates":[[[99.6012352,7.5897295],[99.6024842,7.5892659],[99.6047652,7.5897069],[99.6051758,7.5883722],[99.6042221,7.58193],[99.6032512,7.579715],[99.6226282,7.5806754],[99.6270651,7.5822896],[99.6303524,7.5840253],[99.632747,7.5859651],[99.6369469,7.587984],[99.638354,7.5892835],[99.6390325,7.5886771],[99.6377488,7.5872937],[99.6333616,7.5850518],[99.6317607,7.5837755],[99.6271834,7.5812605],[99.6272509,7.5789545],[99.628178,7.5762086],[99.6280266,7.5747829],[99.6276157,7.573936],[99.6262487,7.5731281],[99.6259009,7.5702418],[99.6244921,7.5685773],[99.6244298,7.5680543],[99.6255208,7.5653976],[99.632216,7.5663202],[99.6338111,7.5618178],[99.6355211,7.5624338],[99.6364906,7.5587982],[99.6352258,7.5588252],[99.6342993,7.5584504],[99.6331582,7.5576163],[99.6325995,7.5567666],[99.6316634,7.5574402],[99.6300518,7.5560581],[99.628361,7.5537592],[99.62668,7.5543898],[99.6245543,7.5573829],[99.6236081,7.5575357],[99.6229241,7.5570506],[99.6200757,7.5602732],[99.6191406,7.559875],[99.6185479,7.5591457],[99.6188591,7.5583077],[99.6175803,7.5576524],[99.6177263,7.5545208],[99.6180534,7.5541871],[99.6189348,7.5543989],[99.6192254,7.5540598],[99.6211983,7.5536348],[99.6217476,7.5527456],[99.6209965,7.5518565],[99.621121,7.5513694],[99.6207155,7.5508971],[99.6208699,7.5503185],[99.6205416,7.5496464],[99.6198142,7.549089],[99.6198979,7.5481254],[99.6162037,7.5458967],[99.616291,7.5428702],[99.616633,7.5422444],[99.6099904,7.5410863],[99.6070936,7.5400695],[99.6041785,7.5399837],[99.6040932,7.5395163],[99.6034967,7.5392185],[99.6024238,7.5393164],[99.5986472,7.540665],[99.5913001,7.5416478],[99.5894192,7.5438288],[99.5911107,7.546087],[99.592203,7.5492271],[99.5955853,7.5543356],[99.5951038,7.5603303],[99.5930729,7.56092],[99.5923746,7.5608423],[99.5822897,7.557162],[99.5790146,7.5555743],[99.5782862,7.5562907],[99.5814709,7.5578135],[99.5918963,7.5617943],[99.5934211,7.5619283],[99.5954433,7.5613762],[99.5976115,7.5619229],[99.6000191,7.5614011],[99.5992321,7.5648518],[99.5980876,7.5663611],[99.5964186,7.5676104],[99.5959758,7.5695452],[99.5945111,7.5701563],[99.5941456,7.5707705],[99.6013462,7.5707354],[99.6012352,7.5897295]]]}}]}