{"type":"FeatureCollection","features":[{"type":"Feature","properties":{"provinceCode":"12","nameTh":"นนทบุรี","nameEn":"Nonthaburi"},"geometry":{"type":"Polygon","coordinates":[[[100.4622653,13.9716732],[100.4672101,13.9728995],[100.4668741,13.9687231],[100.4861783,13.9501754],[100.4891012,13.9424207],[100.501809,13.9362612],[100.5083692,13.9430848],[100.5309633,13.9448831],[100.5376685,13.9506984],[100.5393757,13.9557869],[100.542022,13.9555827],[100.5421022,13.9536213],[100.5442558,13.954464],[100.5446404,13.9529257],[100.5540567,13.9504494],[100.555053,13.9515508],[100.5570819,13.9498491],[100.5628276,13.9496337],[100.567605,13.9513734],[100.5437118,13.8497263],[100.5362243,13.846156],[100.5131346,13.8246989],[100.5117935,13.8260394],[100.5093908,13.8255606],[100.5101692,13.8242016],[100.5076916,13.8227974],[100.5063515,13.8192714],[100.5072248,13.8162227],[100.5150455,13.8132151],[100.5011544,13.8008026],[100.4664722,13.789068],[100.4699096,13.7946891],[100.458854,13.7982595],[100.3278772,13.8041844],[100.2760257,13.9130113],[100.2654043,13.920624],[100.2732666,13.9331573],[100.2869469,13.9470234],[100.298274,13.963374],[100.2858654,13.9716517],[100.2727323,13.9843462],[100.2679255,13.9937585],[100.2640671,13.996968],[100.2652122,13.9978521],[100.2637823,13.9993397],[100.2655795,14.0012454],[100.2632891,14.0043555],[100.2665029,14.0079553],[100.2640663,14.0101681],[100.2691236,14.0189072],[100.270152,14.0247108],[100.2738797,14.0253045],[100.2776841,14.0314088],[100.272684,14.0334775],[100.2710503,14.0371924],[100.2644919,14.0407818],[100.2671141,14.0451521],[100.2641202,14.06013],[100.2720776,14.0679335],[100.2719227,14.072364],[100.2739339,14.073857],[100.2761021,14.0800931],[100.2796326,14.1266164],[100.2817588,14.1270038],[100.2819908,14.1241192],[100.2904691,14.1237525],[100.2892238,14.1402967],[100.3075534,14.1396044],[100.3089456,14.1321686],[100.3181613,14.1312525],[100.3184018,14.1326106],[100.3305931,14.133328],[100.329276,14.1209486],[100.3446515,14.1164652],[100.3406585,14.0938638],[100.3323873,14.0668355],[100.3317111,14.0557907],[100.3366743,14.0377492],[100.3451803,14.0192244],[100.3545116,14.0027264],[100.3612185,13.9944441],[100.3647655,13.9922324],[100.3851272,13.9878442],[100.3855605,13.9901696],[100.3810888,13.9948071],[100.4347991,13.9811654],[100.4526227,13.9679382],[100.4565855,13.9710078],[100.4577587,13.9773017],[100.4606471,13.976436],[100.4622653,13.9716732]]]}}]}