{"type":"FeatureCollection","features":[{"type":"Feature","properties":{"id":"TH-LAO-3120102","nameTh":"นนทบุรี","type":"city_municipality"},"geometry":{"type":"Polygon","coordinates":[[[100.4906579,13.8943223],[100.4880166,13.8891719],[100.4849925,13.885673],[100.4803347,13.8813083],[100.477759,13.8776555],[100.4768046,13.8754645],[100.4763524,13.8711801],[100.4786752,13.8565447],[100.4794807,13.8547143],[100.4806477,13.8532739],[100.4822704,13.851913],[100.4867908,13.8493436],[100.4887193,13.8476742],[100.4894506,13.8459822],[100.4909243,13.8396367],[100.4918939,13.837249],[100.4987929,13.8273068],[100.5021369,13.819527],[100.5043914,13.817347],[100.5072248,13.8162227],[100.5063515,13.8192714],[100.5075645,13.8214863],[100.5076916,13.8227974],[100.509704,13.8236337],[100.5101692,13.8242016],[100.5100901,13.8246286],[100.5092671,13.8248961],[100.5094108,13.8255808],[100.5106802,13.8251665],[100.5110407,13.8261606],[100.5117935,13.8260394],[100.512584,13.8248494],[100.5131346,13.8246989],[100.5132492,13.8261269],[100.515349,13.8269678],[100.5160767,13.8286276],[100.5187487,13.8305719],[100.5362243,13.846156],[100.5437118,13.8497263],[100.5502927,13.877657],[100.5487349,13.8779843],[100.5479875,13.8791179],[100.5465296,13.8802769],[100.5407368,13.8813359],[100.5356728,13.8832523],[100.5299516,13.8849162],[100.5281385,13.8849578],[100.51872,13.8877929],[100.5135833,13.8889232],[100.5131799,13.8892898],[100.5051891,13.8913311],[100.5043136,13.8923393],[100.502995,13.8925271],[100.501052,13.8942057],[100.5003509,13.8941279],[100.4994813,13.8946473],[100.4973699,13.8951972],[100.4960223,13.8947056],[100.4906579,13.8943223]]]}},{"type":"Feature","properties":{"id":"TH-LAO-4120103","nameTh":"บางศรีเมือง","type":"town_municipality"},"geometry":{"type":"Polygon","coordinates":[[[100.4729477,13.8316457],[100.4699772,13.8292825],[100.4659441,13.8253827],[100.4592191,13.8300283],[100.4614624,13.834914],[100.4613462,13.8352558],[100.4618787,13.8360099],[100.4617107,13.8362516],[100.4641556,13.8426141],[100.465802,13.8457446],[100.4659259,13.8466169],[100.4655522,13.8473601],[100.4655525,13.8485463],[100.4687907,13.848357],[100.4706823,13.8486465],[100.4745441,13.850693],[100.4777751,13.8536941],[100.4794807,13.8547143],[100.4822704,13.851913],[100.4867908,13.8493436],[100.4887193,13.8476742],[100.4894506,13.8459822],[100.4909243,13.8396367],[100.4887142,13.8394863],[100.4881671,13.8390904],[100.4874697,13.8396009],[100.4869225,13.8394967],[100.4852059,13.8351734],[100.4827061,13.8269955],[100.4824409,13.8241701],[100.4812682,13.8241397],[100.4813647,13.8244093],[100.480223,13.8247577],[100.4805788,13.8257623],[100.4792176,13.8259889],[100.4796616,13.8281363],[100.4794005,13.8281901],[100.4793829,13.8311096],[100.4778215,13.8310767],[100.4779268,13.8300642],[100.4776192,13.830049],[100.4772981,13.8322136],[100.4748476,13.8337091],[100.4744332,13.8329793],[100.4738492,13.8329246],[100.4729477,13.8316457]]]}},{"type":"Feature","properties":{"id":"TH-LAO-4120105","nameTh":"บางกร่าง","type":"town_municipality"},"geometry":{"type":"Polygon","coordinates":[[[100.4655525,13.8485463],[100.4623045,13.8493927],[100.4575716,13.8513355],[100.4532509,13.8541186],[100.4509914,13.8571905],[100.4492385,13.8610699],[100.4483102,13.8645214],[100.4473273,13.8642092],[100.44538,13.8629911],[100.4458236,13.862324],[100.4411374,13.8585738],[100.4412014,13.8578541],[100.4435828,13.853735],[100.4428697,13.8538436],[100.4429817,13.8531653],[100.4421294,13.8529998],[100.4420153,13.85237],[100.4425967,13.852249],[100.4423934,13.8499325],[100.4429591,13.8495571],[100.4429082,13.8492422],[100.4425688,13.8492685],[100.4424395,13.8485911],[100.4421388,13.8486599],[100.4420999,13.8476429],[100.4418023,13.8473178],[100.4419538,13.8467966],[100.4445774,13.8465212],[100.444566,13.8456598],[100.4437052,13.8457379],[100.4435965,13.845359],[100.443092,13.8454049],[100.4429675,13.8446858],[100.4414128,13.8444686],[100.4416808,13.8442017],[100.4401445,13.843385],[100.4384665,13.8434132],[100.4383246,13.8427346],[100.4376744,13.8427087],[100.4339801,13.8402616],[100.4337459,13.8403812],[100.4272105,13.8343094],[100.429034,13.8327467],[100.4355957,13.8293052],[100.4401342,13.8278566],[100.4434959,13.8282676],[100.4471719,13.8297834],[100.4547135,13.8309971],[100.4561484,13.8310192],[100.4592191,13.8300283],[100.4614624,13.834914],[100.4613462,13.8352558],[100.4618787,13.8360099],[100.4617107,13.8362516],[100.4641556,13.8426141],[100.465802,13.8457446],[100.4659259,13.8466169],[100.4655522,13.8473601],[100.4655525,13.8485463]]]}},{"type":"Feature","properties":{"id":"TH-LAO-6120603","nameTh":"คลองข่อย","type":"subdistrict_admin_org"},"geometry":{"type":"Polygon","coordinates":[[[100.4473503,13.9418936],[100.4481139,13.9416545],[100.4485573,13.9409007],[100.4491789,13.9411415],[100.4491992,13.9407146],[100.44969,13.9408909],[100.4496418,13.9400631],[100.450632,13.937894],[100.454055,13.9400968],[100.4546791,13.9392032],[100.4542843,13.9389091],[100.4547926,13.9386753],[100.4560859,13.9359556],[100.4558046,13.9353402],[100.4567447,13.9341636],[100.4587778,13.9355667],[100.4590157,13.9351347],[100.4592796,13.935359],[100.4602845,13.9348747],[100.4607467,13.9351735],[100.4619185,13.9340925],[100.4644878,13.9334963],[100.4649885,13.9327681],[100.4658133,13.9327681],[100.466358,13.9329477],[100.4660269,13.933794],[100.4664053,13.9348265],[100.466011,13.9363386],[100.4669142,13.9371182],[100.4679208,13.9394116],[100.4710881,13.9388703],[100.4722407,13.9404402],[100.4787042,13.9432445],[100.4756366,13.9521713],[100.4760724,13.9526862],[100.4753687,13.9565215],[100.4732681,13.9595492],[100.4751533,13.9611472],[100.4668741,13.9687231],[100.4672101,13.9728995],[100.4649362,13.9717998],[100.4645209,13.9725898],[100.4622653,13.9716732],[100.4616507,13.9750132],[100.4610926,13.974857],[100.4606471,13.976436],[100.4584211,13.9762833],[100.4580885,13.9773388],[100.4577587,13.9773017],[100.4567011,13.9750446],[100.4565855,13.9710078],[100.4553235,13.9693907],[100.4538824,13.9697405],[100.4526227,13.9679382],[100.4370815,13.9797249],[100.4347991,13.9811654],[100.3810888,13.9948071],[100.3810321,13.9942119],[100.3855605,13.9901696],[100.3856662,13.9896015],[100.3851272,13.9878442],[100.3953361,13.9856032],[100.3989531,13.9833643],[100.4031543,13.9831238],[100.4077437,13.9849434],[100.410398,13.985235],[100.4144091,13.9844265],[100.4179421,13.9823059],[100.4199851,13.9803178],[100.4200281,13.9799534],[100.4195345,13.9794329],[100.4200495,13.978652],[100.4225815,13.977486],[100.4245663,13.9751331],[100.4268409,13.9730924],[100.4282034,13.9711455],[100.4284931,13.9697712],[100.4297484,13.9696671],[100.4308964,13.9687092],[100.432613,13.9661063],[100.4356707,13.9637116],[100.4364861,13.9614835],[100.4377521,13.9597655],[100.4403807,13.9574749],[100.4413892,13.9560692],[100.4428338,13.9547875],[100.4457155,13.9570973],[100.448053,13.9549147],[100.4460981,13.9525984],[100.4475831,13.9516937],[100.4474902,13.9513885],[100.4479862,13.9513705],[100.4509184,13.9485258],[100.4473503,13.9418936]]]}},{"type":"Feature","properties":{"id":"TH-LAO-6120608","nameTh":"อ้อมเกร็ด","type":"subdistrict_admin_org"},"geometry":{"type":"Polygon","coordinates":[[[100.4442034,13.914347],[100.4393616,13.8994169],[100.4435884,13.8979778],[100.4502137,13.8978171],[100.4552616,13.8999938],[100.4576914,13.9028831],[100.4601966,13.903862],[100.4620154,13.9049824],[100.4620902,13.9061428],[100.4636566,13.9075435],[100.4638229,13.9087359],[100.4650731,13.9094032],[100.4665373,13.9090275],[100.4672538,13.909273],[100.4663062,13.9131706],[100.4653349,13.9133063],[100.4652099,13.9128381],[100.4647473,13.9128083],[100.4644031,13.9135276],[100.4635919,13.912936],[100.4632192,13.9135148],[100.4627479,13.9134872],[100.4625286,13.9131595],[100.463057,13.9126977],[100.4628553,13.9124168],[100.4618468,13.9126913],[100.4612746,13.9121061],[100.4613623,13.9117337],[100.4607112,13.9116209],[100.4604919,13.9112272],[100.4592774,13.9111907],[100.4575608,13.9130752],[100.4559063,13.9123162],[100.4557749,13.9126748],[100.4527948,13.9120419],[100.4529987,13.9136545],[100.4526398,13.9139886],[100.4511737,13.9140301],[100.4512749,13.9145931],[100.450345,13.9152629],[100.4501921,13.9150416],[100.449661,13.9151822],[100.4482441,13.9162184],[100.4476035,13.9134867],[100.4442034,13.914347]]]}},{"type":"Feature","properties":{"id":"TH-LAO-6120606","nameTh":"บางตะไนย์","type":"subdistrict_admin_org"},"geometry":{"type":"Polygon","coordinates":[[[100.4852108,13.9347335],[100.4830304,13.934696],[100.4826466,13.9350871],[100.4815176,13.9351085],[100.4802713,13.9368828],[100.4807635,13.9390478],[100.4805764,13.940564],[100.4801039,13.9416405],[100.4788055,13.9429979],[100.4762334,13.9498953],[100.4756366,13.9521713],[100.4760683,13.9525278],[100.4758583,13.954319],[100.4751533,13.9570941],[100.4746678,13.9578513],[100.4743655,13.9577148],[100.4732681,13.9595492],[100.4751533,13.9611472],[100.4762597,13.9604557],[100.4785855,13.958023],[100.4846211,13.9511438],[100.4861783,13.9501754],[100.4873328,13.9475517],[100.4887527,13.9460656],[100.4874806,13.9451629],[100.4879092,13.9439389],[100.4891012,13.9424207],[100.4904778,13.9419684],[100.4915464,13.9408567],[100.4924047,13.9411014],[100.4929143,13.9404974],[100.4935259,13.9403569],[100.4941589,13.9406901],[100.4951835,13.9402423],[100.495441,13.9395811],[100.4963208,13.939503],[100.497222,13.9389251],[100.4978067,13.9390657],[100.4983476,13.9382779],[100.501809,13.9362612],[100.5007625,13.9331196],[100.4985568,13.9213998],[100.4978781,13.919785],[100.4968868,13.9182132],[100.4949507,13.9163343],[100.4929441,13.915095],[100.4908858,13.9143518],[100.4902964,13.9157229],[100.4907802,13.917592],[100.4890619,13.9253019],[100.488398,13.9271856],[100.4871381,13.9284842],[100.4868535,13.9299339],[100.4856613,13.9314494],[100.4852108,13.9347335]]]}},{"type":"Feature","properties":{"id":"TH-LAO-3120601","nameTh":"ปากเกร็ด","type":"city_municipality"},"geometry":{"type":"Polygon","coordinates":[[[100.5502927,13.877657],[100.567605,13.9513734],[100.5667884,13.951105],[100.5665666,13.9503692],[100.5658367,13.9507508],[100.5628276,13.9496337],[100.5619851,13.9500073],[100.5617094,13.9494753],[100.5613711,13.9494589],[100.5601236,13.950734],[100.5582442,13.9505647],[100.5570819,13.9498491],[100.5559633,13.9502667],[100.555053,13.9515508],[100.5544648,13.9513988],[100.5540567,13.9504494],[100.5532834,13.9514463],[100.5524242,13.9511831],[100.5513574,13.9517214],[100.5490612,13.9522004],[100.5482847,13.9527262],[100.545812,13.9525884],[100.5455184,13.9534003],[100.5446404,13.9529257],[100.5439269,13.9535811],[100.5442558,13.954464],[100.5421022,13.9536213],[100.5415182,13.9545073],[100.5422415,13.9553696],[100.542022,13.9555827],[100.5393757,13.9557869],[100.5383164,13.9517445],[100.5365146,13.9492272],[100.5340306,13.9467905],[100.5293807,13.9442069],[100.5242225,13.9434858],[100.5158345,13.9439755],[100.512296,13.9438866],[100.5098585,13.9435247],[100.506835,13.9423351],[100.503906,13.9397527],[100.501809,13.9362612],[100.5007625,13.9331196],[100.4985568,13.9213998],[100.4978781,13.919785],[100.4968868,13.9182132],[100.4949507,13.9163343],[100.4929441,13.915095],[100.4908858,13.9143518],[100.491666,13.9105665],[100.4909533,13.9064324],[100.4909516,13.9040853],[100.488825,13.8991792],[100.4899947,13.8979001],[100.4906579,13.8943223],[100.4960223,13.8947056],[100.4973699,13.8951972],[100.4994813,13.8946473],[100.5003509,13.8941279],[100.501052,13.8942057],[100.502995,13.8925271],[100.5043136,13.8923393],[100.5051891,13.8913311],[100.5131799,13.8892898],[100.5135833,13.8889232],[100.51872,13.8877929],[100.5281385,13.8849578],[100.5299516,13.8849162],[100.5356728,13.8832523],[100.5407368,13.8813359],[100.5465296,13.8802769],[100.5479875,13.8791179],[100.5487349,13.8779843],[100.5502927,13.877657]]]}},{"type":"Feature","properties":{"id":"TH-LAO-6120602","nameTh":"เกาะเกร็ด","type":"subdistrict_admin_org"},"geometry":{"type":"Polygon","coordinates":[[[100.4743773,13.9184062],[100.4724274,13.9187562],[100.4702685,13.918462],[100.4679778,13.9172103],[100.4668486,13.9159685],[100.4663014,13.9140835],[100.4664616,13.9121664],[100.4672538,13.909273],[100.4683409,13.9073912],[100.4718697,13.903638],[100.4749353,13.9018573],[100.4776542,13.9010604],[100.4851991,13.9004102],[100.488825,13.8991792],[100.4909516,13.9040853],[100.4909533,13.9064324],[100.491666,13.9105665],[100.4908858,13.9143518],[100.4869722,13.9143426],[100.4844364,13.9148589],[100.4743773,13.9184062]]]}},{"type":"Feature","properties":{"id":"TH-LAO-4120104","nameTh":"ไทรม้า","type":"town_municipality"},"geometry":{"type":"Polygon","coordinates":[[[100.4623045,13.8493927],[100.4633695,13.8527224],[100.4638137,13.8526053],[100.464817,13.8564862],[100.4648044,13.8578487],[100.4658547,13.8579582],[100.4656976,13.8596842],[100.4659175,13.8597114],[100.4651847,13.8623211],[100.4619993,13.8687631],[100.4627242,13.8693142],[100.4602391,13.8715834],[100.4593547,13.8735003],[100.4591614,13.8757502],[100.4594578,13.8770431],[100.4589897,13.8805818],[100.4582059,13.8816871],[100.458283,13.8826115],[100.4585315,13.8837497],[100.460694,13.8875958],[100.4607902,13.8884872],[100.460694,13.8892876],[100.4588367,13.8893893],[100.4588267,13.8903205],[100.4614877,13.8920293],[100.4621091,13.8920054],[100.4629543,13.8933089],[100.4631016,13.893028],[100.4649657,13.8926297],[100.4649312,13.8923368],[100.4660778,13.8922374],[100.4662032,13.8927641],[100.4683115,13.8924677],[100.4682955,13.892103],[100.4703066,13.8916081],[100.4727366,13.8915825],[100.4745051,13.8921286],[100.4749324,13.8917987],[100.4764167,13.8916535],[100.4781243,13.8905213],[100.4789362,13.8893768],[100.4794444,13.8895465],[100.4801537,13.8887602],[100.4798964,13.8882141],[100.4814635,13.8877064],[100.4830916,13.8863259],[100.4849925,13.885673],[100.4795086,13.8802876],[100.477759,13.8776555],[100.4765406,13.8741258],[100.4763524,13.8711801],[100.4780235,13.8596745],[100.4786752,13.8565447],[100.4794807,13.8547143],[100.4777751,13.8536941],[100.4745441,13.850693],[100.4706823,13.8486465],[100.4687907,13.848357],[100.4661117,13.8484461],[100.4623045,13.8493927]]]}},{"type":"Feature","properties":{"id":"TH-LAO-6120207","nameTh":"มหาสวัสดิ์","type":"subdistrict_admin_org"},"geometry":{"type":"Polygon","coordinates":[[[100.4450394,13.8085965],[100.4497667,13.8058773],[100.4524012,13.8088948],[100.4531036,13.8082022],[100.4539636,13.809134],[100.45467,13.8083662],[100.4515458,13.8048624],[100.4553968,13.8025934],[100.4577676,13.8048083],[100.4583328,13.8044202],[100.4578173,13.8037337],[100.4584211,13.8033691],[100.4591113,13.8042048],[100.4593994,13.8039838],[100.459675,13.8043172],[100.4615214,13.8025468],[100.4631668,13.8048328],[100.4686582,13.8016596],[100.4668151,13.7986075],[100.4663558,13.7988218],[100.4653263,13.7966926],[100.458854,13.7982595],[100.4391806,13.7995798],[100.4450149,13.807977],[100.4450394,13.8085965]]]}},{"type":"Feature","properties":{"id":"TH-LAO-6120205","nameTh":"บางขุนกอง","type":"subdistrict_admin_org"},"geometry":{"type":"Polygon","coordinates":[[[100.4592191,13.8300283],[100.4616027,13.8284425],[100.4587601,13.8239454],[100.4591413,13.8238858],[100.4561461,13.8201892],[100.4556317,13.8205935],[100.4552172,13.8201051],[100.4554898,13.8199626],[100.4540684,13.818326],[100.4545185,13.817976],[100.4492389,13.8121154],[100.4492748,13.8111181],[100.4465838,13.807705],[100.4373765,13.8129747],[100.4266364,13.8164631],[100.4246575,13.817562],[100.4260952,13.8196561],[100.4265458,13.8214272],[100.4262561,13.8220262],[100.4264707,13.8228962],[100.4275436,13.8237713],[100.427962,13.8246256],[100.4276401,13.8256205],[100.4287441,13.826008],[100.4289115,13.8271259],[100.429743,13.8283083],[100.4307032,13.8281885],[100.431083,13.8288834],[100.4310573,13.8306784],[100.4302687,13.8311419],[100.4303601,13.8321363],[100.4355957,13.8293052],[100.4401342,13.8278566],[100.4434959,13.8282676],[100.4471719,13.8297834],[100.4547135,13.8309971],[100.4561484,13.8310192],[100.4592191,13.8300283]]]}},{"type":"Feature","properties":{"id":"TH-LAO-6120204","nameTh":"บางขนุน","type":"subdistrict_admin_org"},"geometry":{"type":"Polygon","coordinates":[[[100.4616027,13.8284425],[100.4587601,13.8239454],[100.4591413,13.8238858],[100.4561461,13.8201892],[100.4556317,13.8205935],[100.4552172,13.8201051],[100.4554898,13.8199626],[100.4540684,13.818326],[100.4545185,13.817976],[100.4492389,13.8121154],[100.4492748,13.8111181],[100.4465838,13.807705],[100.4497667,13.8058773],[100.4524012,13.8088948],[100.4531036,13.8082022],[100.4539636,13.809134],[100.45467,13.8083662],[100.4515458,13.8048624],[100.4553968,13.8025934],[100.4577676,13.8048083],[100.4583328,13.8044202],[100.4578173,13.8037337],[100.4584211,13.8033691],[100.4591113,13.8042048],[100.4593994,13.8039838],[100.459675,13.8043172],[100.4615214,13.8025468],[100.4631668,13.8048328],[100.4667928,13.8027621],[100.4700999,13.8067835],[100.4706117,13.8065937],[100.4702632,13.807002],[100.4716364,13.8087348],[100.4712561,13.809039],[100.471002,13.8087725],[100.4704356,13.8092742],[100.470942,13.8097909],[100.4681372,13.8135934],[100.4683561,13.8140932],[100.4695635,13.8140182],[100.4702654,13.8144113],[100.47142,13.8160227],[100.4677348,13.8235009],[100.464724,13.8263668],[100.4616027,13.8284425]]]}},{"type":"Feature","properties":{"id":"TH-LAO-4120201","nameTh":"บางกรวย","type":"town_municipality"},"geometry":{"type":"Polygon","coordinates":[[[100.4898923,13.8079554],[100.4979114,13.8164915],[100.5021369,13.819527],[100.503568,13.8178849],[100.5050352,13.8169941],[100.5119915,13.8148659],[100.5150455,13.8132151],[100.5011544,13.8008026],[100.4751875,13.7912581],[100.4664722,13.789068],[100.4699096,13.7946891],[100.4653263,13.7966926],[100.4663558,13.7988218],[100.4668151,13.7986075],[100.4686582,13.8016596],[100.4667928,13.8027621],[100.4700999,13.8067835],[100.4706117,13.8065937],[100.4702632,13.807002],[100.4716364,13.8087348],[100.4712561,13.809039],[100.471002,13.8087725],[100.4704356,13.8092742],[100.470942,13.8097909],[100.469276,13.8123368],[100.4689783,13.812199],[100.4685438,13.8127811],[100.4681372,13.8135934],[100.4683561,13.8140932],[100.4698389,13.8141077],[100.47142,13.8160227],[100.4721383,13.8146918],[100.4757131,13.8166721],[100.4754376,13.8171618],[100.4764013,13.8180463],[100.4768845,13.8175862],[100.4757542,13.8166554],[100.4762685,13.8158796],[100.4774313,13.8167695],[100.478048,13.8161615],[100.4771201,13.8151455],[100.4781133,13.8139539],[100.4779497,13.8126674],[100.4797794,13.8122242],[100.4794221,13.8112146],[100.4797128,13.8111269],[100.4798144,13.8114645],[100.4808176,13.8112955],[100.4806157,13.8103026],[100.4809383,13.8102273],[100.4809771,13.8104565],[100.481586,13.8103653],[100.4816517,13.8108289],[100.4827857,13.8106803],[100.4828399,13.8112014],[100.483382,13.8111914],[100.4833593,13.8106534],[100.4846796,13.8107273],[100.4851284,13.8062622],[100.4885813,13.8070767],[100.4898923,13.8079554]]]}},{"type":"Feature","properties":{"id":"TH-LAO-5120206","nameTh":"บางสีทอง","type":"subdistrict_municipality"},"geometry":{"type":"Polygon","coordinates":[[[100.4729477,13.8316457],[100.4699772,13.8292825],[100.4659441,13.8253827],[100.4677348,13.8235009],[100.4690137,13.8213339],[100.4721383,13.8146918],[100.4757131,13.8166721],[100.4754376,13.8171618],[100.4764013,13.8180463],[100.4768845,13.8175862],[100.4757542,13.8166554],[100.4762685,13.8158796],[100.4774313,13.8167695],[100.478048,13.8161615],[100.4771201,13.8151455],[100.4781133,13.8139539],[100.4779497,13.8126674],[100.4797794,13.8122242],[100.4794221,13.8112146],[100.4797128,13.8111269],[100.4798144,13.8114645],[100.4808176,13.8112955],[100.4806157,13.8103026],[100.4809383,13.8102273],[100.4809771,13.8104565],[100.481586,13.8103653],[100.4816517,13.8108289],[100.4827857,13.8106803],[100.4828399,13.8112014],[100.483382,13.8111914],[100.4833593,13.8106534],[100.4846796,13.8107273],[100.4851284,13.8062622],[100.4878435,13.806773],[100.4895646,13.8076824],[100.4913413,13.8096052],[100.4900589,13.8114762],[100.4897213,13.8115102],[100.4886928,13.8137021],[100.4881765,13.8152424],[100.4876943,13.8192687],[100.4855139,13.8191131],[100.4856027,13.8203494],[100.4840034,13.8207423],[100.4841122,13.8211007],[100.4832893,13.8213146],[100.4833466,13.8216411],[100.4825529,13.8217813],[100.4821546,13.8207277],[100.4817252,13.8208716],[100.4824409,13.8241701],[100.4812682,13.8241397],[100.4813647,13.8244093],[100.480223,13.8247577],[100.4805788,13.8257623],[100.4792176,13.8259889],[100.4796616,13.8281363],[100.4794005,13.8281901],[100.4793829,13.8311096],[100.4778215,13.8310767],[100.4779268,13.8300642],[100.4776192,13.830049],[100.4772981,13.8322136],[100.4748476,13.8337091],[100.4744332,13.8329793],[100.4738492,13.8329246],[100.4729477,13.8316457]]]}},{"type":"Feature","properties":{"id":"TH-LAO-4120306","nameTh":"บางแม่นาง","type":"town_municipality"},"geometry":{"type":"Polygon","coordinates":[[[100.3977318,13.8533296],[100.3924131,13.8532742],[100.377491,13.8502609],[100.3610034,13.8480689],[100.3647207,13.8732466],[100.3644578,13.8762149],[100.3636961,13.8762982],[100.3631685,13.8797079],[100.3638114,13.8797243],[100.3638929,13.8802615],[100.3649824,13.880253],[100.3650177,13.8805582],[100.3655787,13.8803306],[100.3656267,13.8810075],[100.3683688,13.8808297],[100.3685768,13.8819612],[100.3684919,13.8833629],[100.3677685,13.8834512],[100.3677616,13.8838184],[100.3655151,13.8839549],[100.3656316,13.8847595],[100.3653104,13.8847576],[100.3653629,13.8867283],[100.3656243,13.8867256],[100.3652186,13.891278],[100.3642434,13.8913903],[100.3641322,13.8947223],[100.3645942,13.8948308],[100.3643958,13.8960831],[100.3646713,13.8994363],[100.3645657,13.9016696],[100.3642648,13.9016961],[100.3642785,13.9023842],[100.3640297,13.9023828],[100.3638998,13.9054222],[100.3678578,13.9055842],[100.3679763,13.9083891],[100.3694784,13.9082322],[100.369711,13.9104095],[100.3693312,13.9104075],[100.369178,13.9140221],[100.3698395,13.9140459],[100.369839,13.914509],[100.3719399,13.9144884],[100.3718361,13.9155102],[100.3738671,13.9154842],[100.3738564,13.9137724],[100.372121,13.9135641],[100.3720264,13.9120409],[100.3720768,13.9115021],[100.3735386,13.9112123],[100.3735741,13.9116356],[100.3747199,13.9112829],[100.3745243,13.9103579],[100.3739423,13.9104126],[100.3743417,13.907172],[100.3749307,13.9072556],[100.3749032,13.9025625],[100.377584,13.9024866],[100.3773838,13.9010273],[100.3781883,13.9007674],[100.3817031,13.9006041],[100.3812698,13.8983709],[100.3814091,13.8961887],[100.3808317,13.8962064],[100.3810632,13.8945885],[100.3807427,13.8919201],[100.3817366,13.8916807],[100.3804359,13.8886381],[100.3803581,13.8875887],[100.380378,13.8834684],[100.3808127,13.8824605],[100.3807617,13.880674],[100.3814238,13.8801857],[100.3815302,13.8792616],[100.3829625,13.8793007],[100.3832522,13.8776212],[100.3862133,13.8779414],[100.3889908,13.8771056],[100.3890458,13.8754052],[100.3882988,13.8716125],[100.3890806,13.8711139],[100.3902466,13.8709679],[100.390451,13.8698506],[100.3909988,13.8699355],[100.3916669,13.8668972],[100.396858,13.8677497],[100.4005861,13.8674912],[100.4034366,13.8658427],[100.4073025,13.8644739],[100.4092029,13.8627188],[100.4133459,13.8606885],[100.4136343,13.8594899],[100.4142613,13.858718],[100.4143001,13.8579702],[100.4150542,13.857757],[100.4158805,13.8566545],[100.4158545,13.8557204],[100.4164344,13.8548689],[100.4161157,13.8544642],[100.4163241,13.8533414],[100.4167245,13.8526234],[100.4164124,13.8515072],[100.4152108,13.8512572],[100.4116059,13.8514864],[100.4091855,13.8511296],[100.4071642,13.8502364],[100.405748,13.8505489],[100.403055,13.8493197],[100.400994,13.8491764],[100.3992328,13.849656],[100.3987233,13.8490275],[100.3978059,13.8504555],[100.3973526,13.8506326],[100.3981009,13.8519634],[100.3977318,13.8533296]]]}},{"type":"Feature","properties":{"id":"TH-LAO-6120308","nameTh":"บ้านใหม่","type":"subdistrict_admin_org"},"geometry":{"type":"Polygon","coordinates":[[[100.3448038,13.8829881],[100.3473656,13.8834087],[100.3488338,13.8829638],[100.3488445,13.883291],[100.3492591,13.88345],[100.3566085,13.8833589],[100.3565062,13.880721],[100.3596555,13.8810661],[100.3608193,13.8809061],[100.3608475,13.8803328],[100.3613132,13.8803397],[100.361267,13.8806863],[100.3628056,13.8808466],[100.3636961,13.8762982],[100.3644578,13.8762149],[100.3647207,13.8732466],[100.3610034,13.8480689],[100.3511124,13.8457562],[100.3363656,13.8434086],[100.3372335,13.840627],[100.3366114,13.8384672],[100.3134426,13.8347658],[100.2948191,13.8738312],[100.2977666,13.8752692],[100.3017622,13.8764346],[100.2994469,13.8833484],[100.3023514,13.884179],[100.3025623,13.8821505],[100.3041856,13.8821864],[100.3042065,13.8804088],[100.3051989,13.8805404],[100.3054048,13.8795675],[100.3056969,13.8796241],[100.3057715,13.8791664],[100.3055553,13.8791432],[100.3065786,13.8753323],[100.3099988,13.8760276],[100.310131,13.8771789],[100.3103918,13.8771896],[100.3106578,13.8782256],[100.3134495,13.8785615],[100.3137598,13.8754578],[100.3178719,13.8759801],[100.3179353,13.8755613],[100.3228864,13.876083],[100.3207539,13.8864284],[100.3235912,13.8873935],[100.324378,13.8840862],[100.32436,13.8812427],[100.3298067,13.8823138],[100.3292942,13.8838392],[100.3319418,13.8845241],[100.3322011,13.8827975],[100.3331318,13.8828493],[100.3339883,13.8791289],[100.3379852,13.8798704],[100.3376626,13.8817961],[100.3403147,13.8820392],[100.3429823,13.882112],[100.3433931,13.8795583],[100.3460693,13.8800572],[100.3458371,13.8807938],[100.3452093,13.8813147],[100.3448038,13.8829881]]]}},{"type":"Feature","properties":{"id":"TH-LAO-5120305","nameTh":"บางใหญ่","type":"subdistrict_municipality"},"geometry":{"type":"Polygon","coordinates":[[[100.3528574,13.8236571],[100.3491399,13.8234195],[100.3489641,13.8247181],[100.3437006,13.8247983],[100.3422239,13.8252451],[100.3399816,13.8253813],[100.3325906,13.8252388],[100.3283503,13.8255332],[100.3191745,13.822545],[100.3134426,13.8347658],[100.3366114,13.8384672],[100.3358241,13.8330527],[100.3376304,13.8332118],[100.3464389,13.8351943],[100.3556088,13.835981],[100.3660584,13.8377626],[100.370499,13.8381329],[100.3840842,13.8406935],[100.3934527,13.8420665],[100.3934688,13.8413407],[100.396269,13.8363612],[100.3816302,13.8276224],[100.3805861,13.8298996],[100.3799823,13.8296963],[100.379406,13.8314518],[100.376733,13.8307403],[100.3768898,13.8297157],[100.3752162,13.8288332],[100.3744144,13.8307284],[100.3737199,13.8304719],[100.3732261,13.8320221],[100.370914,13.8320325],[100.3684652,13.8312684],[100.3685411,13.8307668],[100.3674715,13.8305582],[100.367395,13.8310376],[100.3669122,13.8309725],[100.3636171,13.8300872],[100.3638354,13.8293974],[100.3612457,13.8286611],[100.3613506,13.8283921],[100.3595369,13.8277158],[100.3592196,13.8281519],[100.3564229,13.8273979],[100.3555646,13.8268163],[100.3550772,13.8267983],[100.3550448,13.8271473],[100.3541388,13.8271163],[100.3541476,13.826778],[100.3530196,13.8266626],[100.3531449,13.8252406],[100.3528574,13.8236571]]]}},{"type":"Feature","properties":{"id":"TH-LAO-5120304","nameTh":"บางม่วง","type":"subdistrict_municipality"},"geometry":{"type":"Polygon","coordinates":[[[100.426065,13.8585513],[100.4307246,13.8568202],[100.4291153,13.8521352],[100.4299839,13.8518035],[100.4297402,13.8502381],[100.4307828,13.8499152],[100.4290241,13.8436246],[100.4268703,13.8430099],[100.4232109,13.8433683],[100.4201218,13.8418041],[100.4196082,13.8418013],[100.4193199,13.8463361],[100.4203788,13.851788],[100.4205758,13.8553795],[100.4211035,13.8573254],[100.426065,13.8585513]]]}},{"type":"Feature","properties":{"id":"TH-LAO-4120406","nameTh":"พิมลราช","type":"town_municipality"},"geometry":{"type":"MultiPolygon","coordinates":[[[[100.4030266,13.9087227],[100.4048813,13.9128465],[100.4064778,13.918992],[100.4004158,13.9219041],[100.3954215,13.9247845],[100.3562492,13.9498812],[100.3448002,13.9350726],[100.3414486,13.93109],[100.3384233,13.9280924],[100.3395821,13.9273661],[100.3415733,13.9268775],[100.3439403,13.925469],[100.3439406,13.9259216],[100.3465677,13.9258708],[100.3451758,13.9264882],[100.3455257,13.9272169],[100.3463839,13.9266916],[100.3477091,13.9280712],[100.3433339,13.9308232],[100.3437444,13.9314482],[100.344315,13.9310858],[100.3447216,13.9316899],[100.3504077,13.9281303],[100.3508618,13.929432],[100.3515335,13.9290234],[100.3521846,13.9301014],[100.3587606,13.92582],[100.3598275,13.9269702],[100.3615789,13.9263103],[100.3618732,13.9268239],[100.3636764,13.9264319],[100.3640315,13.9273079],[100.3652777,13.9267696],[100.3663057,13.9281977],[100.3702303,13.9271663],[100.3701756,13.926833],[100.3712425,13.9284735],[100.3717794,13.9281179],[100.3704681,13.9262117],[100.3719826,13.9257871],[100.3730474,13.9273282],[100.3738379,13.9268071],[100.3728716,13.9254643],[100.3726765,13.9244716],[100.3795401,13.9232853],[100.3802098,13.9227837],[100.3799903,13.9217781],[100.3818046,13.921202],[100.3847146,13.9194126],[100.3880079,13.9179223],[100.3872889,13.9155649],[100.3879005,13.9155155],[100.3878562,13.9150091],[100.3895977,13.914323],[100.3890794,13.9130541],[100.390451,13.9121878],[100.3905746,13.912511],[100.3911325,13.9123053],[100.3912656,13.9103895],[100.3946413,13.9107227],[100.3946417,13.9102399],[100.3985353,13.9101982],[100.3991648,13.9103137],[100.399173,13.9111427],[100.3995331,13.9111673],[100.3995493,13.9103009],[100.399941,13.9103293],[100.3999003,13.9098579],[100.4001403,13.9098632],[100.4000051,13.9093767],[100.4022154,13.9084911],[100.4030266,13.9087227]]],[[[100.4276292,13.9258848],[100.4268848,13.9241887],[100.4279261,13.9239359],[100.4256285,13.9187871],[100.4264733,13.9146622],[100.4275752,13.9117601],[100.4290423,13.9092097],[100.4281401,13.9086353],[100.4314758,13.9034983],[100.4393616,13.8994169],[100.4439814,13.9136418],[100.442261,13.913496],[100.442157,13.9131534],[100.4398491,13.9139324],[100.4407384,13.9161638],[100.4406366,13.9166856],[100.4388897,13.917058],[100.4392463,13.9186103],[100.4376339,13.9188518],[100.437755,13.9221417],[100.4331692,13.9233695],[100.4332252,13.9236989],[100.4315481,13.9240391],[100.4276292,13.9258848]]]]}},{"type":"Feature","properties":{"id":"TH-LAO-4120404","nameTh":"บางรักพัฒนา","type":"town_municipality"},"geometry":{"type":"Polygon","coordinates":[[[100.3880079,13.9179223],[100.3872889,13.9155649],[100.3879005,13.9155155],[100.3878562,13.9150091],[100.3895977,13.914323],[100.3890794,13.9130541],[100.390451,13.9121878],[100.3905746,13.912511],[100.3911325,13.9123053],[100.3912656,13.9103895],[100.3946413,13.9107227],[100.3946417,13.9102399],[100.3985353,13.9101982],[100.3991648,13.9103137],[100.399173,13.9111427],[100.3995331,13.9111673],[100.3995493,13.9103009],[100.399941,13.9103293],[100.3999003,13.9098579],[100.4001403,13.9098632],[100.4000051,13.9093767],[100.4022154,13.9084911],[100.4030266,13.9087227],[100.402177,13.9070103],[100.4029128,13.9068795],[100.4031917,13.9061635],[100.403779,13.9059196],[100.4033744,13.9050584],[100.4036514,13.904943],[100.401658,13.9012648],[100.4096035,13.8983997],[100.4105625,13.8982994],[100.4133925,13.8969759],[100.4139921,13.8962962],[100.4151341,13.8962482],[100.4161379,13.8954001],[100.4171029,13.8952847],[100.4180062,13.8946735],[100.4183773,13.8941265],[100.4173624,13.8930434],[100.4171936,13.8913791],[100.4189796,13.8901833],[100.4211289,13.8875695],[100.4237549,13.8851889],[100.4245616,13.8837906],[100.4259918,13.8839258],[100.426505,13.8835982],[100.4268584,13.8830309],[100.4261376,13.8824333],[100.4271946,13.8821257],[100.4273615,13.8814396],[100.4282535,13.8808722],[100.4280099,13.8802616],[100.4288761,13.8803398],[100.4290837,13.8793547],[100.4302741,13.8789072],[100.4309871,13.8791834],[100.431341,13.8786881],[100.4299557,13.8785992],[100.4298501,13.8782738],[100.4282315,13.8784713],[100.4279794,13.8770991],[100.427333,13.8770887],[100.4271219,13.876497],[100.4276293,13.8762774],[100.4274357,13.8758965],[100.4278152,13.8759017],[100.4278439,13.874736],[100.4282463,13.8746188],[100.4288766,13.8735174],[100.42821,13.873063],[100.42879,13.8722874],[100.4295923,13.8725302],[100.4297157,13.8719076],[100.4275597,13.8716894],[100.4275387,13.8712808],[100.4262105,13.8710462],[100.4260985,13.871297],[100.4245377,13.8714137],[100.4245159,13.8723976],[100.4233519,13.8725331],[100.4231635,13.8746971],[100.422505,13.8746501],[100.422566,13.8739714],[100.4218173,13.8737395],[100.4209064,13.8740316],[100.4208407,13.8750735],[100.4194318,13.874971],[100.4186077,13.8762137],[100.4196283,13.8769988],[100.4194553,13.8772801],[100.4165182,13.8781076],[100.416429,13.8779052],[100.4158705,13.8782969],[100.4157174,13.8779485],[100.4122513,13.8794804],[100.4119869,13.8808717],[100.4102492,13.8811788],[100.4101883,13.8821331],[100.4098379,13.8820992],[100.4096324,13.880917],[100.4089209,13.88085],[100.4087892,13.8823882],[100.4059786,13.8830425],[100.4061046,13.8833718],[100.4044776,13.8839339],[100.4045094,13.8843517],[100.4010454,13.8854528],[100.3996348,13.8866914],[100.3972105,13.8874484],[100.396809,13.8878513],[100.3976718,13.8892265],[100.3968389,13.8905045],[100.3970595,13.8911642],[100.3955695,13.8927974],[100.3971623,13.8949062],[100.394628,13.896345],[100.3944772,13.8960171],[100.3931913,13.8963252],[100.3937373,13.8975571],[100.3916509,13.8984691],[100.3918149,13.8987845],[100.3908128,13.8991113],[100.3906833,13.8986293],[100.3899043,13.8990709],[100.387572,13.8988774],[100.3875283,13.8993002],[100.3869662,13.8992799],[100.3869303,13.8997466],[100.3854114,13.8999161],[100.3854824,13.9004027],[100.3781883,13.9007674],[100.3773838,13.9010273],[100.377584,13.9024866],[100.3749032,13.9025625],[100.3749307,13.9072556],[100.3743417,13.907172],[100.3739423,13.9104126],[100.3745243,13.9103579],[100.3747199,13.9112829],[100.3735741,13.9116356],[100.3735386,13.9112123],[100.3720768,13.9115021],[100.3720264,13.9120409],[100.372121,13.9135641],[100.3738564,13.9137724],[100.3738671,13.9154842],[100.3733508,13.9154946],[100.3732073,13.9174056],[100.3715859,13.9171127],[100.3713481,13.9182099],[100.3715993,13.9184925],[100.3731886,13.9184782],[100.3731886,13.9187828],[100.3739691,13.9188635],[100.3739798,13.9196992],[100.3721961,13.9195639],[100.3726765,13.9244716],[100.3795401,13.9232853],[100.3802098,13.9227837],[100.3799903,13.9217781],[100.3818046,13.921202],[100.3847146,13.9194126],[100.3880079,13.9179223]]]}},{"type":"Feature","properties":{"id":"TH-LAO-6120405","nameTh":"บางรักใหญ่","type":"subdistrict_admin_org"},"geometry":{"type":"Polygon","coordinates":[[[100.4315447,13.8784408],[100.431341,13.8786881],[100.4299557,13.8785992],[100.4298501,13.8782738],[100.4282315,13.8784713],[100.4279794,13.8770991],[100.427333,13.8770887],[100.4271219,13.876497],[100.4276293,13.8762774],[100.4274357,13.8758965],[100.4278152,13.8759017],[100.4278439,13.874736],[100.4282463,13.8746188],[100.4288766,13.8735174],[100.42821,13.873063],[100.42879,13.8722874],[100.4295923,13.8725302],[100.4297157,13.8719076],[100.4275597,13.8716894],[100.4275387,13.8712808],[100.4262105,13.8710462],[100.4260985,13.871297],[100.4245377,13.8714137],[100.4245159,13.8723976],[100.4233519,13.8725331],[100.4231635,13.8746971],[100.422505,13.8746501],[100.422566,13.8739714],[100.4218173,13.8737395],[100.4209064,13.8740316],[100.4210177,13.8735642],[100.4202452,13.8732283],[100.4202908,13.8729341],[100.4211349,13.8729504],[100.4212698,13.8721373],[100.4212671,13.871774],[100.4201463,13.8717522],[100.4202804,13.8701746],[100.4207259,13.8701843],[100.4208447,13.8691596],[100.4229369,13.8683935],[100.4228856,13.8664281],[100.4236176,13.8662929],[100.4237126,13.8657897],[100.4250838,13.8652185],[100.4271693,13.8634243],[100.4286881,13.863016],[100.430756,13.8668754],[100.4334103,13.8694278],[100.4354024,13.8705528],[100.439758,13.8719532],[100.4422841,13.8718904],[100.445864,13.8705986],[100.4473194,13.868931],[100.4479336,13.8674402],[100.450463,13.868338],[100.4485854,13.8698483],[100.4489127,13.8703379],[100.4482958,13.8707103],[100.4491031,13.8716399],[100.4481831,13.8720357],[100.4489261,13.8727362],[100.4483977,13.8731736],[100.4491057,13.8742986],[100.4481267,13.8752595],[100.4484149,13.8771055],[100.4481987,13.8777185],[100.4489933,13.8776025],[100.4490355,13.8790373],[100.4483663,13.8809809],[100.4478995,13.8811557],[100.4479473,13.8819656],[100.4473483,13.8823295],[100.4470506,13.8842738],[100.4462789,13.8852977],[100.4462128,13.8863429],[100.4454851,13.8871064],[100.4447207,13.8892148],[100.445136,13.8901387],[100.4445474,13.8925779],[100.4435896,13.8920838],[100.4436443,13.8886554],[100.4388306,13.8805373],[100.437611,13.8770936],[100.4377585,13.8749813],[100.4368156,13.8743185],[100.4369771,13.8733189],[100.4311938,13.8726053],[100.4297466,13.8727405],[100.4294631,13.8732551],[100.4301514,13.8738895],[100.4304825,13.8749678],[100.4302594,13.8755241],[100.4305647,13.8761589],[100.4301397,13.8767977],[100.4306116,13.8778551],[100.4315447,13.8784408]]]}},{"type":"Feature","properties":{"id":"TH-LAO-4120403","nameTh":"ใหม่บางบัวทอง","type":"town_municipality"},"geometry":{"type":"Polygon","coordinates":[[[100.4104833,13.9320743],[100.4064778,13.918992],[100.4004158,13.9219041],[100.3954215,13.9247845],[100.3500224,13.9538667],[100.3550727,13.962109],[100.3560764,13.9747176],[100.3553704,13.984979],[100.3510305,13.9939191],[100.3520983,13.9947729],[100.3533348,13.9935159],[100.3535736,13.9937163],[100.3543541,13.9924774],[100.3573447,13.993417],[100.358201,13.9916413],[100.3579107,13.9915821],[100.3581601,13.9901533],[100.3586,13.9903328],[100.358946,13.9893647],[100.3774979,13.9801721],[100.3865257,13.965779],[100.3894843,13.9619208],[100.3914568,13.9576438],[100.4045776,13.9433891],[100.415354,13.9363036],[100.4298383,13.9291073],[100.4278599,13.9264028],[100.4268848,13.9241887],[100.4222059,13.9254963],[100.4185368,13.9271431],[100.4168205,13.9283312],[100.4129497,13.929533],[100.4124869,13.9309217],[100.4104833,13.9320743]]]}},{"type":"Feature","properties":{"id":"TH-LAO-4120402","nameTh":"บางคูรัด","type":"town_municipality"},"geometry":{"type":"Polygon","coordinates":[[[100.3261158,13.928418],[100.3278887,13.9245416],[100.3300525,13.921141],[100.333007,13.9234448],[100.3350356,13.9202398],[100.3358577,13.9168225],[100.3364705,13.9169566],[100.3370284,13.911272],[100.3356262,13.9110316],[100.335548,13.9115222],[100.334285,13.9113495],[100.3347531,13.9060108],[100.3351288,13.9060182],[100.335185,13.9054545],[100.3374067,13.9054799],[100.3375031,13.902124],[100.3380693,13.9021605],[100.3384713,13.8990523],[100.3390264,13.8970095],[100.3395093,13.897179],[100.3400614,13.8945213],[100.3438626,13.8947081],[100.3440291,13.8955773],[100.3473624,13.8954738],[100.3472125,13.8919539],[100.3428111,13.8904497],[100.3429903,13.888596],[100.3421587,13.8885243],[100.3426731,13.8852349],[100.3449007,13.8861178],[100.3445747,13.8871643],[100.3455511,13.8873179],[100.3460486,13.8833705],[100.3473656,13.8834087],[100.3488338,13.8829638],[100.3488445,13.883291],[100.3492591,13.88345],[100.3566085,13.8833589],[100.3565062,13.880721],[100.3596555,13.8810661],[100.3608193,13.8809061],[100.3608475,13.8803328],[100.3613132,13.8803397],[100.361267,13.8806863],[100.3628056,13.8808466],[100.3631685,13.8797079],[100.3638114,13.8797243],[100.3638929,13.8802615],[100.3649824,13.880253],[100.3650177,13.8805582],[100.3655787,13.8803306],[100.3656267,13.8810075],[100.3683688,13.8808297],[100.3684919,13.8833629],[100.3677685,13.8834512],[100.3677616,13.8838184],[100.3655151,13.8839549],[100.3656316,13.8847595],[100.3653104,13.8847576],[100.3653629,13.8867283],[100.3656243,13.8867256],[100.3652186,13.891278],[100.3642434,13.8913903],[100.3641322,13.8947223],[100.3645942,13.8948308],[100.3643958,13.8960831],[100.3646713,13.8994363],[100.3645657,13.9016696],[100.3642648,13.9016961],[100.3642785,13.9023842],[100.3640297,13.9023828],[100.3638998,13.9054222],[100.3678578,13.9055842],[100.3679763,13.9083891],[100.3694784,13.9082322],[100.369711,13.9104095],[100.3693312,13.9104075],[100.369178,13.9140221],[100.3698395,13.9140459],[100.369839,13.914509],[100.3719399,13.9144884],[100.3718361,13.9155102],[100.3733508,13.9154946],[100.3732073,13.9174056],[100.3715859,13.9171127],[100.3713481,13.9182099],[100.3715993,13.9184925],[100.3731886,13.9184782],[100.3731886,13.9187828],[100.3739691,13.9188635],[100.3739798,13.9196992],[100.3721961,13.9195639],[100.3726722,13.9246366],[100.3728716,13.9254643],[100.3738241,13.9268311],[100.3730474,13.9273282],[100.3719826,13.9257871],[100.3704681,13.9262117],[100.3717794,13.9281179],[100.3712425,13.9284735],[100.3701756,13.926833],[100.3702303,13.9271663],[100.3663057,13.9281977],[100.3652777,13.9267696],[100.3640315,13.9273079],[100.3636764,13.9264319],[100.3618732,13.9268239],[100.3615789,13.9263103],[100.3598275,13.9269702],[100.3587606,13.92582],[100.3521846,13.9301014],[100.3515335,13.9290234],[100.3508618,13.929432],[100.3504077,13.9281303],[100.3447216,13.9316899],[100.344315,13.9310858],[100.3437444,13.9314482],[100.3433339,13.9308232],[100.3477091,13.9280712],[100.3463839,13.9266916],[100.3455257,13.9272169],[100.3451758,13.9264882],[100.3465677,13.9258708],[100.3439406,13.9259216],[100.3439403,13.925469],[100.3415733,13.9268775],[100.3395821,13.9273661],[100.3308888,13.9334515],[100.3261158,13.928418]]]}},{"type":"Feature","properties":{"id":"TH-LAO-6120507","nameTh":"ราษฎร์นิยม","type":"subdistrict_admin_org"},"geometry":{"type":"Polygon","coordinates":[[[100.329276,14.1209486],[100.3305931,14.133328],[100.3261618,14.1338644],[100.3260449,14.1325547],[100.3213173,14.1325805],[100.3211952,14.1320017],[100.3184018,14.1326106],[100.3181613,14.1312525],[100.3122762,14.1319979],[100.3107279,14.1223738],[100.3101662,14.1224436],[100.3119028,14.1080879],[100.3119993,14.1044461],[100.3117096,14.0821566],[100.3113663,14.0794093],[100.3114886,14.064324],[100.3022001,14.0635022],[100.3024108,14.0365397],[100.3019092,14.0289723],[100.3142443,14.0276179],[100.3140217,14.0324216],[100.3122514,14.03907],[100.3117499,14.059826],[100.3165698,14.0600888],[100.324941,14.0618346],[100.3245038,14.057643],[100.3258073,14.0483645],[100.330764,14.0344487],[100.3325692,14.0312923],[100.3341436,14.0266473],[100.3377029,14.0199204],[100.3379202,14.0202561],[100.3384276,14.0200723],[100.3388007,14.0194465],[100.3403352,14.0203066],[100.3411753,14.0187526],[100.3409876,14.0186372],[100.3433602,14.0148514],[100.3427723,14.0144555],[100.3437203,14.012982],[100.3444034,14.013425],[100.3454525,14.0122952],[100.3428816,14.0105999],[100.3435972,14.0093765],[100.3441727,14.0088216],[100.3462476,14.0101137],[100.3467103,14.0094408],[100.347061,14.0096592],[100.3483783,14.0072052],[100.3462543,14.0059378],[100.349099,14.0007021],[100.3497585,14.0002509],[100.3502719,13.9992745],[100.3513272,13.9999338],[100.3516021,13.9994549],[100.3520031,13.9996853],[100.3526786,13.9985136],[100.3562029,14.0007137],[100.3545116,14.0027264],[100.3451803,14.0192244],[100.3430862,14.0237018],[100.3415048,14.0281039],[100.3369557,14.0370635],[100.3337869,14.0462196],[100.3316046,14.0567175],[100.3323873,14.0668355],[100.3351819,14.0786421],[100.3380004,14.0858391],[100.3406585,14.0938638],[100.3414529,14.0972922],[100.3416187,14.1020447],[100.3423861,14.1074482],[100.3446515,14.1164652],[100.3383283,14.1188154],[100.329276,14.1209486]]]}},{"type":"Feature","properties":{"id":"TH-LAO-5120501","nameTh":"ไทรน้อย","type":"subdistrict_municipality"},"geometry":{"type":"Polygon","coordinates":[[[100.310237,13.9796046],[100.3049045,13.972088],[100.3148924,13.9653786],[100.3249463,13.9810178],[100.3146162,13.9877803],[100.310237,13.9796046]]]}}]}