{"type":"FeatureCollection","features":[{"type":"Feature","properties":{"provinceCode":"51","nameTh":"ลำพูน","nameEn":"Lamphun"},"geometry":{"type":"Polygon","coordinates":[[[98.705494,17.7575562],[98.7021888,17.748104],[98.703343,17.7437692],[98.7080452,17.7374148],[98.7167127,17.7325249],[98.7245098,17.7253854],[98.7257228,17.7153905],[98.7355622,17.7099991],[98.7415336,17.7046022],[98.7454354,17.6979349],[98.7462662,17.6926985],[98.7450731,17.6894684],[98.7382409,17.6830686],[98.730443,17.6815966],[98.7245103,17.6759525],[98.6981809,17.6667543],[98.6879023,17.6671209],[98.6840149,17.6647232],[98.6894178,17.6562179],[98.6846166,17.648653],[98.6845976,17.6452331],[98.6869045,17.6382535],[98.6916301,17.631469],[98.6883741,17.6248871],[98.6897381,17.6148448],[98.682587,17.5968251],[98.6844389,17.5930494],[98.6942781,17.584551],[98.6959179,17.5731936],[98.7019286,17.5568684],[98.7039712,17.5426178],[98.7016426,17.5335742],[98.7026262,17.5266162],[98.6969893,17.5135975],[98.7012654,17.5051379],[98.7055836,17.5011982],[98.704227,17.4924191],[98.7052343,17.4859873],[98.7015262,17.482777],[98.7000375,17.4787569],[98.6935602,17.4775513],[98.688556,17.4746736],[98.6827244,17.4604584],[98.6830841,17.454217],[98.6809286,17.4471584],[98.6877252,17.4400743],[98.6907163,17.4331988],[98.6906311,17.4263908],[98.6922019,17.4256518],[98.6942764,17.4299023],[98.6993131,17.4342007],[98.7028054,17.446977],[98.714328,17.455771],[98.7186485,17.4656065],[98.7260026,17.463584],[98.7422926,17.4684367],[98.7499433,17.4680878],[98.7549963,17.4723272],[98.7571557,17.4788349],[98.7637777,17.4841762],[98.7769295,17.4897159],[98.7854954,17.4960391],[98.7957108,17.4988002],[98.8137056,17.4987701],[98.8158903,17.5072623],[98.8288442,17.5147117],[98.8309127,17.5150483],[98.8338316,17.5122765],[98.84026,17.5149365],[98.8545189,17.5133212],[98.8590571,17.5109807],[98.8699072,17.5002738],[98.8718821,17.4919284],[98.8796337,17.4909527],[98.8794298,17.4977208],[98.8819645,17.5094172],[98.8894144,17.513822],[98.8903341,17.5180317],[98.8943717,17.518847],[98.9007716,17.5302343],[98.9101503,17.5367101],[98.9064648,17.5449694],[98.9065667,17.5551677],[98.904582,17.5609209],[98.9057573,17.5667271],[98.9087544,17.5714551],[98.9080827,17.5758732],[98.9110526,17.5817828],[98.8878002,17.5894261],[98.8870159,17.6016276],[98.8800492,17.6051684],[98.8819217,17.6090999],[98.881169,17.6131325],[98.8844994,17.621387],[98.8837475,17.6247718],[98.8806661,17.6269859],[98.8861986,17.628629],[98.8934792,17.6338955],[98.8963689,17.6402677],[98.9034687,17.6403227],[98.9057546,17.6489383],[98.9197768,17.6407812],[98.9220646,17.6428487],[98.9272483,17.643772],[98.938085,17.6408668],[98.9404711,17.6444944],[98.9462774,17.6470547],[98.9506307,17.6457797],[98.9558788,17.6410189],[98.9602369,17.6403322],[98.9660646,17.6403678],[98.9755251,17.6434734],[98.9900589,17.6342655],[98.9919653,17.6363351],[99.0004548,17.6386807],[99.0003469,17.6350936],[99.0055267,17.6297128],[99.0080039,17.6229863],[99.0142413,17.6226509],[99.0189364,17.6145313],[99.0301673,17.6145989],[99.0356127,17.612312],[99.0388191,17.6149915],[99.0466583,17.6117283],[99.0492517,17.6121161],[99.0549498,17.6228053],[99.0596409,17.6263268],[99.0592044,17.6302095],[99.0623961,17.6372241],[99.0611308,17.6402826],[99.0633367,17.6445242],[99.0599493,17.6607151],[99.0614845,17.6690193],[99.0650976,17.6717015],[99.0621714,17.6828682],[99.0642975,17.6845378],[99.0656518,17.6930342],[99.0756816,17.6982832],[99.0814639,17.6981722],[99.0877279,17.7040379],[99.0870112,17.7069725],[99.0834343,17.7093649],[99.0849869,17.7155828],[99.0825829,17.7208123],[99.0852495,17.7381024],[99.0931144,17.7422461],[99.1044797,17.7410748],[99.1066346,17.7444362],[99.1046516,17.7481482],[99.109799,17.7522448],[99.1114653,17.7564772],[99.1115561,17.7676099],[99.1147035,17.7698185],[99.1229823,17.7680697],[99.125602,17.7711286],[99.121503,17.7730804],[99.1246628,17.7778008],[99.1165962,17.7845272],[99.1172141,17.7911111],[99.1132966,17.7909213],[99.1098214,17.7927637],[99.1091643,17.8032528],[99.1031765,17.8126071],[99.1099908,17.8161646],[99.1158438,17.816414],[99.1222262,17.8191672],[99.1278249,17.8159815],[99.1352407,17.8210656],[99.1432974,17.8172918],[99.147096,17.8131763],[99.1544001,17.8134234],[99.1591085,17.8079054],[99.1641472,17.8097623],[99.1673005,17.8088176],[99.1746777,17.810431],[99.1744059,17.8146358],[99.168747,17.8166742],[99.1725261,17.8178771],[99.1734532,17.8216443],[99.1693539,17.8243361],[99.1675471,17.8289329],[99.1641664,17.8307738],[99.1639654,17.8339331],[99.1591039,17.8432309],[99.1619615,17.8462844],[99.1653931,17.8472235],[99.1809024,17.8464171],[99.1836772,17.8502285],[99.1833155,17.860529],[99.1794332,17.8617586],[99.1723311,17.8715488],[99.1624984,17.8768801],[99.1622513,17.8842684],[99.1634756,17.8861006],[99.1589376,17.8884248],[99.1578157,17.8914157],[99.1541932,17.8938454],[99.1485541,17.895349],[99.1444582,17.9009262],[99.1442245,17.9055742],[99.1468642,17.9108299],[99.139646,17.9102644],[99.1256166,17.9156485],[99.1227864,17.9145802],[99.1185257,17.9158647],[99.1136292,17.9125114],[99.1081609,17.9133422],[99.1108332,17.917708],[99.1124813,17.9282386],[99.1157553,17.9322108],[99.1147616,17.9397322],[99.1158038,17.9461834],[99.1132431,17.9485744],[99.1084212,17.9493318],[99.101443,17.9476377],[99.0949502,17.9548474],[99.0940264,17.9614379],[99.0973415,17.9680892],[99.0954923,17.9750324],[99.1010816,17.9835251],[99.0951698,17.992884],[99.0948661,17.9958938],[99.0952741,17.9974755],[99.1008514,17.9987479],[99.1009553,18.0011269],[99.0986701,18.0097495],[99.0927752,18.0145644],[99.0913716,18.0212245],[99.0922766,18.0243237],[99.0881334,18.0257938],[99.0834407,18.0319056],[99.0837472,18.0433433],[99.0798264,18.0504076],[99.075535,18.0527543],[99.0736675,18.057945],[99.0706677,18.0611018],[99.0715203,18.0780618],[99.0732723,18.0829707],[99.0721829,18.093669],[99.0677361,18.0973807],[99.0704232,18.1061667],[99.0659464,18.1086091],[99.0668536,18.1164195],[99.064727,18.1246214],[99.0650559,18.1394638],[99.0636964,18.1451177],[99.05868,18.1515166],[99.0585648,18.1560542],[99.0534559,18.159173],[99.0514302,18.1633851],[99.0520278,18.1679594],[99.0566465,18.1722277],[99.0567982,18.1752183],[99.0452303,18.1908677],[99.0439028,18.1961105],[99.0374854,18.1995618],[99.0291356,18.2160553],[99.0299822,18.2237979],[99.0276449,18.2269947],[99.0273003,18.2327342],[99.0223323,18.237226],[99.0211177,18.2403326],[99.0219099,18.2438417],[99.0191621,18.2458129],[99.0203914,18.2507479],[99.0177978,18.2524383],[99.0217845,18.2570956],[99.0286245,18.2611239],[99.0292116,18.2650479],[99.0503006,18.2652561],[99.054247,18.2701794],[99.062973,18.2724967],[99.0771391,18.268796],[99.0816697,18.2691426],[99.0839496,18.2796322],[99.0928959,18.279408],[99.0979442,18.2724734],[99.1063426,18.2653772],[99.113258,18.2674007],[99.116489,18.2740502],[99.1124883,18.2949426],[99.119193,18.297983],[99.119849,18.3015886],[99.1219356,18.2995829],[99.1231807,18.3001788],[99.12465,18.3043229],[99.1225607,18.3104557],[99.1251358,18.3129296],[99.1324835,18.3143463],[99.1458871,18.3131135],[99.1523869,18.3154897],[99.1510887,18.3230665],[99.1527049,18.3245458],[99.1529547,18.3295179],[99.1571943,18.331834],[99.1595232,18.3355335],[99.1596027,18.3408773],[99.1644417,18.3402796],[99.1666781,18.3420867],[99.1689795,18.3496742],[99.1684025,18.3594919],[99.1709352,18.3611644],[99.1670197,18.3645068],[99.1671734,18.3742691],[99.1709786,18.374101],[99.1896775,18.3886228],[99.1903842,18.3924226],[99.1885298,18.3944684],[99.1908149,18.3984233],[99.1904859,18.4027018],[99.1974284,18.4085358],[99.1970967,18.4155808],[99.1994647,18.4215059],[99.2018154,18.4217756],[99.2031559,18.4251109],[99.2096702,18.4262365],[99.210501,18.4283921],[99.2215177,18.4302189],[99.2305149,18.4440084],[99.2381917,18.4484686],[99.236296,18.4565055],[99.2381459,18.4585779],[99.2381002,18.4660706],[99.2402172,18.4679235],[99.2392978,18.4719292],[99.2419535,18.479202],[99.2477386,18.4830255],[99.2503519,18.488028],[99.2560324,18.4921565],[99.2565005,18.4966444],[99.2669862,18.4947898],[99.2819669,18.5002117],[99.2851343,18.4971603],[99.2856531,18.4923233],[99.2980201,18.4888265],[99.3160468,18.4996615],[99.3214817,18.499633],[99.3196064,18.5042024],[99.3202624,18.5116952],[99.3181697,18.5138545],[99.3195718,18.5197997],[99.3173589,18.5231437],[99.3173374,18.5321719],[99.3117428,18.5327846],[99.3064663,18.536049],[99.2963256,18.5369644],[99.2883224,18.5476593],[99.2735639,18.5583207],[99.2727572,18.5627695],[99.2645911,18.5683901],[99.2637425,18.5715773],[99.2515293,18.5742335],[99.2440076,18.5837317],[99.2367151,18.5832177],[99.2314905,18.58798],[99.2175075,18.5920092],[99.223212,18.6028779],[99.2229375,18.6069725],[99.2267065,18.6113375],[99.2308577,18.6128264],[99.2352928,18.6168939],[99.2306872,18.6241308],[99.2338521,18.6345897],[99.2313485,18.6428931],[99.2338602,18.6510892],[99.2309769,18.6539502],[99.2255157,18.6527799],[99.2180773,18.6541049],[99.2126654,18.6605195],[99.2062909,18.6601373],[99.2058124,18.6677524],[99.1887485,18.6789102],[99.1888475,18.6837995],[99.1868528,18.6872208],[99.1902264,18.698274],[99.1890413,18.705953],[99.1800469,18.7083657],[99.1769808,18.7064084],[99.1704409,18.7060848],[99.1634151,18.7083296],[99.1612677,18.7060183],[99.1534047,18.7083096],[99.1496174,18.7075445],[99.1476771,18.7052731],[99.1357096,18.70055],[99.1269614,18.6896224],[99.1258031,18.6844482],[99.1267472,18.6841841],[99.1269613,18.6833891],[99.1144749,18.6823071],[99.1135172,18.6790897],[99.1043616,18.6793014],[99.1022186,18.6811455],[99.0961466,18.6789936],[99.0914615,18.6792792],[99.0893895,18.6807074],[99.0797955,18.6804865],[99.0763486,18.6818685],[99.0758406,18.6772572],[99.077268,18.6749875],[99.0739067,18.6670323],[99.072589,18.6658795],[99.0693499,18.6676326],[99.0651942,18.659683],[99.0644214,18.6616086],[99.0470209,18.6679093],[99.0179387,18.6733307],[99.0133729,18.669952],[99.0099287,18.6732848],[99.0080157,18.667031],[99.0042087,18.6620368],[99.005862,18.6480211],[99.0044677,18.6430886],[99.0020232,18.6434235],[99.0004099,18.640343],[98.9945746,18.6380977],[98.9907392,18.6397416],[98.9864573,18.6354875],[98.9834214,18.6383247],[98.9828459,18.6341453],[98.9783101,18.6355432],[98.9770221,18.6287025],[98.9748593,18.6289897],[98.9708934,18.6234761],[98.9706787,18.6208025],[98.9675493,18.618806],[98.9685356,18.6152993],[98.9653897,18.6152],[98.9650906,18.6090159],[98.9694351,18.6025996],[98.9568907,18.5918733],[98.9561227,18.587944],[98.9534027,18.5858499],[98.9534045,18.5795695],[98.9476789,18.5762002],[98.9478344,18.5705454],[98.9431973,18.5633196],[98.9380914,18.5635451],[98.935756,18.5563544],[98.9325119,18.5544417],[98.9335637,18.5491627],[98.9320386,18.5448849],[98.9347111,18.5432476],[98.9341122,18.5420352],[98.9285365,18.5404684],[98.9229398,18.5359542],[98.9146636,18.5361763],[98.9064019,18.5281635],[98.8951549,18.5230883],[98.8818004,18.513803],[98.8793877,18.5104707],[98.8767967,18.5108125],[98.8724306,18.5165669],[98.867692,18.5153298],[98.8621269,18.5105967],[98.8617508,18.5032831],[98.8593267,18.5005535],[98.8558393,18.4994639],[98.8522523,18.5012474],[98.8460497,18.4994031],[98.8427035,18.4897645],[98.837751,18.4850582],[98.8248107,18.4792882],[98.822249,18.475335],[98.8157507,18.4720457],[98.8143831,18.4696515],[98.8143042,18.461639],[98.8049736,18.4629097],[98.7979596,18.4525808],[98.7863562,18.4533747],[98.7766247,18.4490794],[98.7646923,18.4346818],[98.7536939,18.4355189],[98.7427771,18.431342],[98.7377467,18.4382284],[98.7253255,18.4453174],[98.7230548,18.4440583],[98.7210594,18.435339],[98.7165598,18.4330242],[98.7132364,18.43596],[98.7113784,18.4415676],[98.7095168,18.4420403],[98.7038515,18.4354033],[98.7004555,18.4254436],[98.6939728,18.4190083],[98.6936028,18.4139406],[98.6974006,18.4105088],[98.7013336,18.4111025],[98.7072023,18.4161335],[98.7092885,18.4158655],[98.7095286,18.4138301],[98.69861,18.3964846],[98.6899467,18.3909958],[98.6871426,18.3770791],[98.6814405,18.3680773],[98.6957124,18.3518399],[98.7033744,18.3372666],[98.7038452,18.3335224],[98.702972,18.3312051],[98.6992866,18.3296989],[98.6911018,18.3345156],[98.6882622,18.3345361],[98.678547,18.3274642],[98.6719228,18.326775],[98.67114,18.3236098],[98.6749586,18.3202015],[98.6755699,18.316637],[98.6751305,18.3125936],[98.6724959,18.310098],[98.6776872,18.3111251],[98.6838059,18.3099111],[98.6873994,18.3037769],[98.6866418,18.3027518],[98.6940323,18.2979132],[98.6990991,18.296766],[98.7021973,18.291396],[98.7201968,18.2859924],[98.7269936,18.2745261],[98.7342695,18.2706341],[98.7363714,18.2666985],[98.7517328,18.2621942],[98.7628017,18.2563669],[98.7705391,18.255955],[98.7724329,18.251645],[98.7754259,18.2496984],[98.7770911,18.2446613],[98.776959,18.2370214],[98.7754768,18.2321838],[98.7723756,18.2296471],[98.7750899,18.2243675],[98.7852149,18.2209656],[98.7830896,18.217878],[98.7856476,18.214884],[98.7814345,18.2062235],[98.7839401,18.1997301],[98.7801564,18.1957335],[98.7823854,18.1933254],[98.7816237,18.1875647],[98.7837655,18.1837047],[98.7827334,18.1792964],[98.7841261,18.1789908],[98.7859847,18.1729674],[98.7909172,18.1680003],[98.7911071,18.1626624],[98.7930994,18.1596957],[98.7994015,18.1605214],[98.8052969,18.155555],[98.8028616,18.1513624],[98.8039476,18.146898],[98.8058665,18.1454375],[98.8036861,18.1436608],[98.8038872,18.1393588],[98.8069484,18.1376215],[98.8048551,18.1355573],[98.8047698,18.1297364],[98.8073606,18.1243716],[98.8053599,18.1216932],[98.8092088,18.1126734],[98.8069369,18.1062946],[98.8014939,18.1048266],[98.8013562,18.0910494],[98.7976122,18.088969],[98.7969732,18.0861164],[98.798045,18.084889],[98.8034273,18.0854065],[98.8135577,18.078689],[98.8128105,18.0767139],[98.80653,18.072832],[98.8080681,18.0645703],[98.7968105,18.0569806],[98.7985672,18.0538429],[98.797129,18.0458268],[98.791065,18.0368307],[98.7942323,18.0301261],[98.7862891,18.0249304],[98.7849728,18.0179088],[98.7791078,18.0139827],[98.7790994,18.0043301],[98.7769087,18.0005667],[98.7841318,18.0003364],[98.7868432,17.9987754],[98.7921368,18.0028982],[98.807503,18.0085612],[98.8144289,18.0061982],[98.823878,17.9944663],[98.8327767,17.9882806],[98.8335667,17.9860911],[98.830982,17.9816187],[98.8299748,17.975532],[98.8341791,17.973148],[98.8350643,17.969289],[98.8406611,17.9637576],[98.8390745,17.9599288],[98.8426207,17.9416834],[98.8504382,17.9292903],[98.848949,17.924943],[98.8498518,17.9196645],[98.8560632,17.9094067],[98.8543738,17.9035888],[98.8559559,17.8976055],[98.8607692,17.8953317],[98.8611444,17.8861811],[98.8670309,17.8778704],[98.8654395,17.8709527],[98.8706889,17.8542147],[98.8703616,17.8491622],[98.8692132,17.8489377],[98.8597469,17.8556986],[98.8519891,17.8459546],[98.8549515,17.8304895],[98.8518232,17.8220494],[98.8571902,17.8174126],[98.8571147,17.8145833],[98.8490848,17.8124678],[98.8370954,17.8056831],[98.8331082,17.8052993],[98.8300897,17.8002977],[98.8271319,17.799154],[98.8243028,17.7998649],[98.821015,17.7975291],[98.8183715,17.7985441],[98.8142277,17.7972994],[98.8074385,17.7990052],[98.8032239,17.7982324],[98.8020316,17.7960107],[98.7991792,17.7961047],[98.7971543,17.7982366],[98.7980693,17.8024439],[98.7921382,17.812515],[98.7962817,17.812114],[98.7973083,17.8142021],[98.7961422,17.8161102],[98.794663,17.8140108],[98.7923621,17.8166458],[98.7942856,17.8238321],[98.7874192,17.8250209],[98.786263,17.8270721],[98.7884602,17.8275656],[98.7880004,17.829179],[98.7895741,17.8303385],[98.7846263,17.8325609],[98.7774589,17.8310076],[98.7776058,17.8272019],[98.7750236,17.8264423],[98.7753282,17.8238708],[98.7687672,17.8165501],[98.7673145,17.8096362],[98.7627558,17.801767],[98.7497171,17.8012045],[98.7460676,17.8051597],[98.7428463,17.8056816],[98.7352756,17.7979794],[98.7270046,17.7935589],[98.7255304,17.7935849],[98.7246377,17.7970549],[98.712692,17.798791],[98.6976731,17.7919145],[98.6853752,17.790962],[98.6875826,17.779713],[98.6935804,17.7756808],[98.6980117,17.7678436],[98.7047599,17.7624251],[98.705494,17.7575562]]]}}]}