{"type":"FeatureCollection","features":[{"type":"Feature","properties":{"id":"TH-LAO-4510102","nameTh":"ลำพูน","type":"town_municipality"},"geometry":{"type":"Polygon","coordinates":[[[99.01749,18.5999045],[99.0224274,18.5962377],[99.0227451,18.595375],[99.0226624,18.5943517],[99.0235935,18.5940179],[99.0229021,18.5856488],[99.0218963,18.584857],[99.0200147,18.5846468],[99.0167083,18.581846],[99.0126774,18.5809926],[99.011077,18.5809773],[99.0099307,18.5790733],[99.0102199,18.574645],[99.010001,18.5733278],[99.0110203,18.5703523],[99.0119882,18.568643],[99.0119665,18.5675897],[99.0110095,18.5662545],[99.0100768,18.5657368],[99.0087494,18.5656548],[99.0053808,18.5664954],[99.0044889,18.5659024],[99.0036821,18.5641001],[98.9963221,18.5688959],[98.995449,18.5813865],[98.9967062,18.5834153],[98.9980231,18.5823958],[99.0014649,18.5810778],[99.003294,18.5799742],[99.0052113,18.5823216],[99.0058807,18.5818403],[99.0102007,18.5898372],[99.0119133,18.5914925],[99.0123399,18.592926],[99.0142551,18.5948737],[99.0157884,18.597801],[99.01749,18.5999045]]]}},{"type":"Feature","properties":{"id":"TH-LAO-5510402","nameTh":"วังดิน","type":"subdistrict_municipality"},"geometry":{"type":"Polygon","coordinates":[[[98.8917557,17.8126583],[98.8945849,17.8124455],[98.895531,17.8116994],[98.8962327,17.8117804],[98.8963145,17.8110994],[98.8971047,17.8111416],[98.8978132,17.8105903],[98.8985626,17.8111837],[98.8998018,17.8105485],[98.9000776,17.8107724],[98.8997906,17.8115487],[98.9012322,17.8115132],[98.902353,17.8103122],[98.9030343,17.8109326],[98.9034587,17.8104821],[98.9042598,17.8104894],[98.904262,17.8098602],[98.9049701,17.8093331],[98.904822,17.8088714],[98.9057401,17.8085246],[98.9064998,17.8090651],[98.9077585,17.8083869],[98.9086909,17.8093411],[98.9093965,17.8095239],[98.9108618,17.8071378],[98.9121402,17.8062067],[98.9132983,17.8059927],[98.9164286,17.8077898],[98.9178687,17.807845],[98.9184527,17.8074487],[98.9190455,17.808039],[98.920474,17.8086504],[98.9237695,17.8081867],[98.9246346,17.8074042],[98.9252924,17.8079488],[98.9280494,17.8088632],[98.9284731,17.8093413],[98.9291662,17.8093823],[98.9294152,17.8097296],[98.9298765,17.8095805],[98.9317648,17.8102894],[98.9322991,17.8113395],[98.9333827,17.8122833],[98.9345521,17.8122608],[98.9348504,17.8115703],[98.937199,17.8115357],[98.9375584,17.8129444],[98.9387464,17.8146231],[98.9392528,17.8169806],[98.9400132,17.8180522],[98.941588,17.8187689],[98.9426045,17.8186814],[98.9445916,17.8179119],[98.9456486,17.8162981],[98.9481521,17.8161539],[98.9511097,17.8152788],[98.9519886,17.8111068],[98.9526426,17.8103901],[98.9550038,17.8101963],[98.9555093,17.8095786],[98.9552471,17.8090046],[98.9539845,17.8083843],[98.9530951,17.8086134],[98.951765,17.8095709],[98.9508404,17.8089994],[98.9538834,17.8047192],[98.9552309,17.8051441],[98.955909,17.8047171],[98.9562244,17.8031256],[98.9560056,17.802619],[98.9573102,17.8016015],[98.9573309,17.7998662],[98.9569852,17.7988527],[98.9574399,17.7978149],[98.9599049,17.795477],[98.9620785,17.7957601],[98.9627769,17.7942098],[98.9629614,17.7919419],[98.9657745,17.7917519],[98.9680642,17.7909505],[98.9694727,17.7901113],[98.9696706,17.788245],[98.970202,17.7880925],[98.9715266,17.7884389],[98.9719796,17.7877967],[98.9710114,17.7867988],[98.9681552,17.7855201],[98.9679975,17.7849042],[98.9669228,17.784444],[98.9656299,17.7816827],[98.9660678,17.780751],[98.9647539,17.7781946],[98.9650616,17.7774028],[98.9648028,17.7770671],[98.9634244,17.7777818],[98.961504,17.7779616],[98.9588914,17.7776301],[98.9595152,17.7760296],[98.9565832,17.7750413],[98.9568339,17.774341],[98.9521285,17.771903],[98.9504532,17.7705377],[98.9467948,17.7708391],[98.9441518,17.7728025],[98.9404747,17.7740318],[98.9381741,17.7741257],[98.9356624,17.775179],[98.9351569,17.7741803],[98.9343678,17.7742689],[98.9309875,17.7734429],[98.9316336,17.7731473],[98.9306639,17.7729719],[98.9298518,17.7706598],[98.9301557,17.7727045],[98.9299986,17.7746151],[98.9293539,17.7761994],[98.9294446,17.7777843],[98.9285804,17.7784044],[98.9278771,17.7777157],[98.9264875,17.7776282],[98.9259928,17.7767567],[98.9264098,17.7747999],[98.9259291,17.7742254],[98.9262525,17.7730447],[98.9260104,17.7722049],[98.9263957,17.7716218],[98.9257009,17.7705611],[98.922702,17.7698161],[98.9218811,17.7693199],[98.9201401,17.7689417],[98.9199964,17.7686311],[98.9196552,17.7689642],[98.9195179,17.7685371],[98.9188857,17.7691214],[98.9161217,17.7694523],[98.9153757,17.7687451],[98.9146193,17.7688724],[98.9144745,17.7683583],[98.9139159,17.7681799],[98.9134118,17.7669035],[98.9134952,17.7663277],[98.9127322,17.7661591],[98.9126089,17.7658247],[98.9121707,17.765955],[98.9123103,17.765363],[98.9119288,17.7656858],[98.9118164,17.7652722],[98.9115797,17.765543],[98.9113925,17.7651975],[98.9112171,17.7656289],[98.9109123,17.7652688],[98.9104286,17.7659695],[98.9102651,17.7653029],[98.909872,17.7651229],[98.9080299,17.7651917],[98.9069676,17.7648526],[98.906644,17.7651705],[98.9060979,17.7651014],[98.9059925,17.7648118],[98.9054014,17.7648759],[98.9043061,17.7636742],[98.9038393,17.7637604],[98.9031722,17.7625752],[98.9025443,17.7622052],[98.9018801,17.762215],[98.8997456,17.7613461],[98.898037,17.7613307],[98.8969126,17.7609302],[98.8957839,17.7600025],[98.8929987,17.7593322],[98.8923207,17.7594344],[98.8918486,17.7586006],[98.8900891,17.7579017],[98.8893993,17.7557923],[98.8878597,17.7545336],[98.8868855,17.7524185],[98.886127,17.7534965],[98.8861594,17.7546242],[98.8865673,17.7561803],[98.887108,17.7568909],[98.8872276,17.7585436],[98.8868938,17.7594065],[98.8857016,17.7605354],[98.8854177,17.7619128],[98.8848114,17.7628146],[98.8827775,17.7635324],[98.8823611,17.7648969],[98.8826393,17.767547],[98.8839733,17.7701249],[98.8841363,17.7718577],[98.8823017,17.7739843],[98.8802361,17.7751535],[98.8811431,17.7761819],[98.8800739,17.7780266],[98.8812894,17.7814472],[98.8811693,17.782289],[98.8787231,17.7841279],[98.8783765,17.7856161],[98.8785495,17.7864707],[98.8803663,17.7885198],[98.8810692,17.7889317],[98.8859746,17.7899891],[98.8868738,17.790787],[98.8865703,17.7927303],[98.887553,17.7937927],[98.8854805,17.7976043],[98.8853647,17.7984864],[98.8857121,17.7993231],[98.8883507,17.8019967],[98.8887967,17.8047322],[98.8902486,17.8058112],[98.8913354,17.8057237],[98.8922081,17.8066625],[98.891217,17.8084082],[98.8917557,17.8126583]]]}},{"type":"Feature","properties":{"id":"TH-LAO-5510404","nameTh":"ลี้","type":"subdistrict_municipality"},"geometry":{"type":"Polygon","coordinates":[[[98.9386611,17.7540491],[98.9375869,17.7543929],[98.9367597,17.7537209],[98.9361379,17.7536643],[98.9360649,17.7540633],[98.935143,17.7540144],[98.9344833,17.7545165],[98.9339913,17.7541869],[98.9325518,17.7543945],[98.9313201,17.7537815],[98.9299788,17.7539519],[98.9291651,17.7529451],[98.9273537,17.7517273],[98.9214962,17.7538141],[98.9206886,17.7536664],[98.9201695,17.7540655],[98.9174984,17.7533523],[98.9172524,17.7528013],[98.9167469,17.7528038],[98.916171,17.7522219],[98.9156033,17.7522348],[98.9158358,17.7526442],[98.9146949,17.7522528],[98.9131593,17.7525309],[98.9127403,17.7529506],[98.9123174,17.752882],[98.9123607,17.75264],[98.9115794,17.7526477],[98.9109236,17.7515481],[98.9094859,17.7521979],[98.9082258,17.752241],[98.9078739,17.7520571],[98.9080279,17.7513625],[98.9075197,17.7505772],[98.9065924,17.7501601],[98.9062038,17.7488864],[98.9058068,17.748819],[98.9047468,17.7475948],[98.9048391,17.7471003],[98.90447,17.7475192],[98.9033049,17.7475642],[98.9014787,17.7462253],[98.9009509,17.7453833],[98.8996849,17.7448336],[98.8991184,17.7452709],[98.897921,17.7451054],[98.8975236,17.7457311],[98.8967125,17.7456641],[98.8948525,17.7462229],[98.8947282,17.7466966],[98.8943821,17.7464546],[98.8937414,17.7469284],[98.8922269,17.7469799],[98.8915746,17.7475603],[98.8894012,17.747473],[98.8872464,17.748942],[98.8865448,17.7508625],[98.887301,17.7536902],[98.8878597,17.7545336],[98.8893993,17.7557923],[98.8900891,17.7579017],[98.8918486,17.7586006],[98.8923207,17.7594344],[98.8929987,17.7593322],[98.8957839,17.7600025],[98.8969126,17.7609302],[98.898037,17.7613307],[98.8997456,17.7613461],[98.9018801,17.762215],[98.9025443,17.7622052],[98.9031722,17.7625752],[98.9038393,17.7637604],[98.9043061,17.7636742],[98.9054014,17.7648759],[98.9059925,17.7648118],[98.9060979,17.7651014],[98.906644,17.7651705],[98.9069676,17.7648526],[98.9080299,17.7651917],[98.909872,17.7651229],[98.9102651,17.7653029],[98.9104286,17.7659695],[98.9109123,17.7652688],[98.9112171,17.7656289],[98.9113925,17.7651975],[98.9115797,17.765543],[98.9118164,17.7652722],[98.9119288,17.7656858],[98.9123103,17.765363],[98.9121707,17.765955],[98.9126089,17.7658247],[98.9127322,17.7661591],[98.9134952,17.7663277],[98.9134118,17.7669035],[98.9139159,17.7681799],[98.9144745,17.7683583],[98.9146193,17.7688724],[98.9153757,17.7687451],[98.9161217,17.7694523],[98.9188857,17.7691214],[98.9195179,17.7685371],[98.9196552,17.7689642],[98.9199964,17.7686311],[98.9201401,17.7689417],[98.9218811,17.7693199],[98.922702,17.7698161],[98.9257009,17.7705611],[98.9263957,17.7716218],[98.9260104,17.7722049],[98.9262525,17.7730447],[98.9259495,17.7743632],[98.9264235,17.7749369],[98.9259928,17.7767567],[98.9261455,17.7773205],[98.9269498,17.7777813],[98.9278771,17.7777157],[98.9285081,17.7783882],[98.9295008,17.7775718],[98.9293539,17.7761994],[98.9299986,17.7746151],[98.9301557,17.7727045],[98.9298518,17.7706598],[98.9306639,17.7729719],[98.9316336,17.7731473],[98.9309875,17.7734429],[98.9343678,17.7742689],[98.9351569,17.7741803],[98.9356624,17.775179],[98.9381741,17.7741257],[98.9404747,17.7740318],[98.9441518,17.7728025],[98.9467948,17.7708391],[98.9504532,17.7705377],[98.9521285,17.771903],[98.9568339,17.774341],[98.9565832,17.7750413],[98.9595152,17.7760296],[98.9588914,17.7776301],[98.961504,17.7779616],[98.9634244,17.7777818],[98.9648028,17.7770671],[98.9650616,17.7774028],[98.9647539,17.7781946],[98.9660678,17.780751],[98.9656299,17.7816827],[98.9669228,17.784444],[98.9679975,17.7849042],[98.9681552,17.7855201],[98.9710114,17.7867988],[98.9718996,17.7876183],[98.9719336,17.7880756],[98.971404,17.7884486],[98.970202,17.7880925],[98.9696706,17.788245],[98.9694727,17.7901113],[98.9680642,17.7909505],[98.9657745,17.7917519],[98.9628434,17.7920298],[98.9628091,17.7940096],[98.962284,17.7955413],[98.961646,17.7958863],[98.9599049,17.795477],[98.9572168,17.79811],[98.9569852,17.7988527],[98.9573309,17.7998662],[98.9573102,17.8016015],[98.9560056,17.802619],[98.9562244,17.8031256],[98.9558532,17.804807],[98.9552309,17.8051441],[98.9538834,17.8047192],[98.9508296,17.8090973],[98.951765,17.8095709],[98.9530951,17.8086134],[98.9539845,17.8083843],[98.9553958,17.8091462],[98.9555066,17.8096918],[98.9551525,17.81015],[98.9526426,17.8103901],[98.951798,17.8114061],[98.9524391,17.8117923],[98.95316,17.813353],[98.9539454,17.8137289],[98.9543948,17.8147641],[98.9542272,17.8150961],[98.9552221,17.8157525],[98.9565225,17.8159764],[98.957758,17.8173637],[98.9585124,17.8193681],[98.9594525,17.8198773],[98.9595615,17.82133],[98.9609586,17.8221641],[98.9619703,17.8220312],[98.9626822,17.8223911],[98.9644772,17.8238731],[98.9667138,17.8244342],[98.9672159,17.8242258],[98.9682158,17.8254637],[98.9683403,17.826097],[98.9688166,17.8264034],[98.9687233,17.8272128],[98.9698065,17.8277024],[98.9699393,17.8286039],[98.9705048,17.8291681],[98.9710089,17.8286655],[98.9713427,17.8288665],[98.9713808,17.8301512],[98.9724217,17.830442],[98.9736977,17.8301615],[98.9765351,17.8309347],[98.9778635,17.8299852],[98.9787049,17.8302478],[98.9791778,17.8311009],[98.9821679,17.8339808],[98.9824956,17.8349021],[98.9823457,17.8353885],[98.9828396,17.8359495],[98.9826182,17.8364618],[98.9832211,17.8368022],[98.9832927,17.8372821],[98.9840693,17.837655],[98.9842508,17.8383877],[98.9847131,17.8386039],[98.9857593,17.8403255],[98.9873003,17.8418516],[98.9906406,17.8441069],[98.9931961,17.8468889],[98.9981056,17.8473923],[98.9996214,17.8465831],[99.000279,17.8456821],[99.0013043,17.8457696],[99.0017335,17.8454292],[99.0035251,17.8451212],[99.0036954,17.8445797],[99.0045399,17.8439077],[99.0040781,17.843495],[99.0041474,17.8432045],[99.0055287,17.8430702],[99.0059143,17.8419802],[99.0064949,17.8427082],[99.0068324,17.8417652],[99.0077292,17.8417464],[99.0096667,17.840611],[99.012826,17.8415317],[99.0159628,17.8410661],[99.0167122,17.8406852],[99.0176783,17.8411148],[99.0191236,17.8407764],[99.0199133,17.8403715],[99.02117,17.8389332],[99.0215814,17.8370263],[99.0221597,17.8364403],[99.0244956,17.8368661],[99.0291048,17.8361976],[99.032316,17.836988],[99.0350666,17.8383069],[99.0367739,17.8395983],[99.0389803,17.8422518],[99.0437181,17.844513],[99.0436261,17.8426721],[99.0451504,17.8378301],[99.0449332,17.8365007],[99.044117,17.835121],[99.0448994,17.8335478],[99.0452978,17.8308574],[99.0494413,17.8278721],[99.0566438,17.820747],[99.0568387,17.8197914],[99.0558188,17.8177975],[99.0556772,17.8158865],[99.0558937,17.8146297],[99.0567716,17.8134662],[99.0574004,17.8132375],[99.0607365,17.8133144],[99.0639457,17.8124409],[99.0662734,17.8127586],[99.0673873,17.8143785],[99.070511,17.8167316],[99.0720592,17.81993],[99.0732739,17.8203312],[99.0770897,17.8180032],[99.0780723,17.816798],[99.07878,17.8151359],[99.0797484,17.8145123],[99.0812868,17.8120033],[99.0819013,17.8117695],[99.0861374,17.8120308],[99.0883883,17.8104375],[99.0913657,17.8104067],[99.0942041,17.8087295],[99.0967823,17.8084783],[99.0981638,17.8089333],[99.0996845,17.8113582],[99.1015114,17.8122247],[99.1031765,17.8126071],[99.1034293,17.811371],[99.1041041,17.8104592],[99.1062364,17.8088262],[99.1078916,17.8049295],[99.1091643,17.8032528],[99.1090555,17.8008566],[99.1097352,17.7990168],[99.1101727,17.7958282],[99.1098214,17.7927637],[99.1091077,17.7937274],[99.1082494,17.7941944],[99.1076635,17.7940777],[99.1058354,17.7919653],[99.1035523,17.7902163],[99.0978531,17.790151],[99.0956043,17.788827],[99.094746,17.7887453],[99.0901323,17.7896905],[99.088797,17.7914938],[99.0850499,17.7940061],[99.0828183,17.7943984],[99.0783925,17.7944684],[99.0769077,17.7939372],[99.0745387,17.7913302],[99.0708223,17.7907826],[99.0701442,17.7904721],[99.0692859,17.7892543],[99.0682559,17.7889029],[99.0660456,17.7887509],[99.0650291,17.7896468],[99.0639477,17.789585],[99.0626933,17.7885038],[99.0612875,17.7865886],[99.0582806,17.7859688],[99.0568043,17.7851842],[99.0564095,17.783664],[99.0553042,17.7823526],[99.0493022,17.7811275],[99.0480802,17.7789857],[99.0456687,17.7775852],[99.044491,17.775855],[99.0422741,17.7757108],[99.0415171,17.7746399],[99.0414738,17.7738778],[99.0393759,17.7728686],[99.0388898,17.7700814],[99.0379629,17.7686347],[99.0339582,17.767041],[99.0336921,17.7665874],[99.0324046,17.7658926],[99.0319326,17.7648545],[99.0307567,17.7640862],[99.0297181,17.7637878],[99.0280831,17.7643069],[99.0269841,17.7635507],[99.0262202,17.7636386],[99.0262674,17.7630562],[99.0255571,17.7626659],[99.0250722,17.7627477],[99.0247632,17.7624309],[99.0238101,17.7627131],[99.0225179,17.7623089],[99.0228693,17.7614747],[99.0223611,17.7609418],[99.0226638,17.7606457],[99.0221478,17.7600172],[99.0228222,17.7597382],[99.0223022,17.7588858],[99.0224265,17.7566407],[99.0220264,17.7561978],[99.0211613,17.7559764],[99.0200745,17.7546736],[99.0179658,17.7543028],[99.0163425,17.7534028],[99.0158997,17.7526243],[99.0148098,17.7536559],[99.012591,17.7535088],[99.0114717,17.7541783],[99.0094575,17.7544956],[99.0085821,17.7541482],[99.006749,17.7550581],[99.0049337,17.7550377],[99.0049122,17.7556712],[99.0039166,17.755896],[99.0039853,17.7564314],[99.0034875,17.7563496],[99.0030883,17.7558428],[99.0025532,17.7559406],[99.0025703,17.7548943],[99.0022041,17.7550633],[99.0022382,17.7545637],[99.0038902,17.7528379],[99.004657,17.7514401],[99.0043813,17.7500394],[99.0051761,17.7482937],[99.0072612,17.7462631],[99.0119316,17.7439661],[99.0110711,17.7424812],[99.0102271,17.7420119],[99.007896,17.7419506],[99.0064699,17.7411481],[99.0056794,17.7403413],[99.0055604,17.7397439],[99.00578,17.7387666],[99.0101587,17.7359059],[99.0110342,17.7346142],[99.011326,17.7341319],[99.0109265,17.7324853],[99.0112671,17.7311154],[99.011624,17.7300287],[99.0130536,17.7281996],[99.0126502,17.7276518],[99.0125454,17.7258266],[99.0118233,17.7244249],[99.0108314,17.7237938],[99.010332,17.7239392],[99.0092591,17.7234135],[99.0091058,17.7229106],[99.0081286,17.7235121],[99.0071767,17.7236633],[99.0069246,17.7242018],[99.0061307,17.7240811],[99.0058013,17.7236],[99.0052177,17.7236491],[99.0050975,17.7239577],[99.0047048,17.7237104],[99.0042282,17.7246493],[99.002652,17.7256099],[99.0018977,17.7269798],[99.0012868,17.7270082],[99.0011354,17.7272708],[99.0015355,17.7276416],[99.0008758,17.7278811],[98.9996079,17.7294391],[98.9985593,17.7294018],[98.9983345,17.7298981],[98.9976498,17.7300928],[98.9976805,17.7307806],[98.995228,17.7313387],[98.9952689,17.7318707],[98.9937736,17.7329933],[98.9940018,17.7334897],[98.9927143,17.7339439],[98.9922521,17.7351335],[98.9924122,17.7357207],[98.9889004,17.7361425],[98.9867403,17.7357464],[98.9853074,17.7374129],[98.9851641,17.7381648],[98.9838448,17.7379254],[98.983196,17.7390197],[98.9824768,17.7391948],[98.982393,17.7397407],[98.9830549,17.7403354],[98.9815541,17.7413112],[98.9815259,17.7418918],[98.9819152,17.7424609],[98.9808501,17.7427287],[98.9811664,17.7430866],[98.9804148,17.7437277],[98.9803148,17.7442633],[98.9797065,17.7440547],[98.9776762,17.7447422],[98.9776762,17.7453216],[98.9765542,17.7457387],[98.974778,17.7455482],[98.9705538,17.7471232],[98.9704142,17.7478207],[98.9679217,17.7479532],[98.9678669,17.7492393],[98.9686575,17.7506938],[98.9666132,17.74922],[98.9662599,17.7497555],[98.9645058,17.7497522],[98.9637309,17.749264],[98.9634951,17.749528],[98.9622405,17.7490321],[98.9614917,17.7491196],[98.9608104,17.7485351],[98.9596479,17.7483472],[98.9582279,17.7491081],[98.9557541,17.7491187],[98.955194,17.7500158],[98.9534989,17.7500978],[98.9520289,17.7505527],[98.9502127,17.7517014],[98.950064,17.7513719],[98.9492097,17.751516],[98.9487041,17.7511169],[98.9478309,17.7519898],[98.946371,17.7522936],[98.9456688,17.7528442],[98.9455272,17.7536428],[98.9447297,17.7540655],[98.9429265,17.7539084],[98.9427913,17.754189],[98.942375,17.7539213],[98.9418559,17.7542225],[98.9413909,17.7539882],[98.94088,17.7547478],[98.9402744,17.7548713],[98.9386611,17.7540491]]]}},{"type":"Feature","properties":{"id":"TH-LAO-5510401","nameTh":"แม่ตืน","type":"subdistrict_municipality"},"geometry":{"type":"Polygon","coordinates":[[[98.7769087,18.0005667],[98.7790994,18.0043301],[98.7785827,18.0101015],[98.7791078,18.0139827],[98.7804716,18.0153688],[98.7830384,18.0164247],[98.7849728,18.0179088],[98.786152,18.0203672],[98.7862891,18.0249304],[98.7932349,18.028955],[98.7942323,18.0301261],[98.7936801,18.0316465],[98.7918219,18.034511],[98.7911054,18.0370843],[98.7919191,18.0385087],[98.7941178,18.0409486],[98.7956834,18.0443823],[98.7970071,18.0455342],[98.7973184,18.0436329],[98.800057,18.0410419],[98.8011197,18.0389043],[98.8033715,18.0359389],[98.80538,18.034127],[98.8054658,18.0312868],[98.8074914,18.0300953],[98.8102208,18.029981],[98.8138944,18.0291812],[98.8177882,18.028806],[98.8186053,18.0281038],[98.8192637,18.0280386],[98.8213488,18.0268255],[98.8233516,18.0267342],[98.8264929,18.0253776],[98.8284271,18.0242166],[98.8305744,18.0218406],[98.8318942,18.0217772],[98.8326247,18.0222989],[98.834697,18.0208479],[98.838984,18.0198643],[98.8408377,18.0190096],[98.8423803,18.018926],[98.846372,18.019443],[98.8497976,18.0201973],[98.8540814,18.0198546],[98.8595631,18.0199528],[98.8608254,18.0196938],[98.8614022,18.0198869],[98.8621808,18.0219386],[98.8650191,18.0217021],[98.8673956,18.0222239],[98.8690741,18.0220792],[98.8712571,18.0212354],[98.8748984,18.0191021],[98.8772692,18.0187578],[98.8816134,18.0174092],[98.8876391,18.0169905],[98.8876365,18.0157905],[98.8880503,18.0147706],[98.8913274,18.0132279],[98.8926394,18.0116437],[98.8931944,18.0099366],[98.8920298,18.0074335],[98.8924895,18.0062338],[98.8932508,18.0063121],[98.8934737,18.006025],[98.8935252,18.0064001],[98.8939744,18.0064751],[98.8937721,18.0070002],[98.8949312,18.0076884],[98.8948969,18.0081482],[98.8955314,18.0078841],[98.8957783,18.0081352],[98.8958709,18.0077373],[98.8966631,18.0078938],[98.8973044,18.0074959],[98.8978153,18.0077732],[98.8998276,18.0075489],[98.9009173,18.0078843],[98.9024048,18.0065351],[98.9031131,18.0064683],[98.9036322,18.00653],[98.9042095,18.0072951],[98.9055295,18.0076619],[98.9077209,18.0074389],[98.9089699,18.0089455],[98.9139835,18.00966],[98.9162316,18.0121218],[98.9186296,18.0130677],[98.9201268,18.0141806],[98.9224587,18.0147484],[98.9278591,18.0181131],[98.9292666,18.0184774],[98.9303033,18.0182117],[98.9316849,18.0170747],[98.935729,18.0155982],[98.9365827,18.0147147],[98.9380052,18.0153365],[98.9396875,18.0170588],[98.9416101,18.0174506],[98.9417982,18.0181703],[98.9422342,18.0184359],[98.94391,18.0185849],[98.9448638,18.0190902],[98.9466554,18.019006],[98.9529152,18.0159044],[98.9544902,18.0154799],[98.9561782,18.0157273],[98.9582869,18.0154702],[98.9621475,18.0159227],[98.9643428,18.0168791],[98.9671111,18.0158301],[98.968621,18.0166206],[98.9689713,18.0184613],[98.9695023,18.0190445],[98.9704894,18.0189617],[98.9722847,18.0194085],[98.9761805,18.0188504],[98.9798026,18.0233069],[98.9815192,18.0248087],[98.9842314,18.025429],[98.9881229,18.0249648],[98.9884452,18.0243504],[98.9897841,18.0234966],[98.9898734,18.0229202],[98.9883786,18.0193765],[98.9883117,18.0184585],[98.9900489,18.0149776],[98.9903718,18.0115558],[98.9900895,18.0097806],[98.9892695,18.0083655],[98.9888931,18.0066289],[98.9891197,18.0021918],[98.9888696,18.0012349],[98.9869516,17.9978985],[98.9823595,17.9956187],[98.9811878,17.9953595],[98.9788418,17.9956796],[98.977623,17.996447],[98.9733425,18.0022169],[98.9721066,18.0030659],[98.9700295,18.0038005],[98.9678837,18.0059718],[98.9671112,18.0073595],[98.9659268,18.0078819],[98.96159,18.0076765],[98.9585859,18.0088192],[98.9575044,18.0088192],[98.9550668,18.0076112],[98.9532644,18.0073336],[98.9516508,18.0076275],[98.9505178,18.0073336],[98.9472219,18.005097],[98.9465524,18.0049175],[98.9442418,18.0052466],[98.9417391,18.0043622],[98.9400769,18.0045241],[98.9392081,18.0036947],[98.9361954,18.0027968],[98.9352384,18.0015071],[98.9341226,18.0014826],[98.9347741,17.9998683],[98.9337318,17.9986697],[98.9338302,17.9970273],[98.9327639,17.9933281],[98.9320472,17.9921241],[98.931073,17.9913036],[98.9315202,17.9904139],[98.9313399,17.9875811],[98.9308421,17.986226],[98.9282243,17.9838685],[98.9271035,17.9802691],[98.9264506,17.9800092],[98.925361,17.9801429],[98.9238057,17.9797953],[98.9227414,17.978783],[98.9217286,17.9792891],[98.9206085,17.980428],[98.9185957,17.9809097],[98.9159178,17.9800361],[98.9147684,17.9802957],[98.9132534,17.9796711],[98.912378,17.9801936],[98.9120347,17.9797854],[98.9107472,17.980463],[98.9097988,17.9802222],[98.9087688,17.9804181],[98.9075703,17.9795312],[98.907396,17.9777125],[98.9068817,17.9780138],[98.9058871,17.9777999],[98.9046166,17.9768571],[98.9032098,17.9775148],[98.9024877,17.9772297],[98.9014783,17.978269],[98.8974453,17.9794621],[98.8964371,17.9786619],[98.8952183,17.9786675],[98.8950964,17.9767261],[98.8938519,17.9763419],[98.8933773,17.976648],[98.8923967,17.9787033],[98.8919439,17.9785135],[98.8903732,17.9762378],[98.8880816,17.9743498],[98.8872951,17.9751629],[98.8869382,17.9750549],[98.886366,17.9760633],[98.8849025,17.9766879],[98.8847352,17.9771859],[98.8825724,17.9787386],[98.8818401,17.9796911],[98.8800248,17.9804274],[98.8782938,17.9805079],[98.8775308,17.9797369],[98.8760321,17.979225],[98.8705296,17.9793577],[98.8698537,17.9797125],[98.8695026,17.9803683],[98.8677161,17.9781807],[98.8633457,17.9766647],[98.8597881,17.9757973],[98.8579437,17.9757018],[98.8571687,17.9748513],[98.8543825,17.9747375],[98.84826,17.9721179],[98.8477017,17.9716709],[98.8468365,17.9697917],[98.8429519,17.9662463],[98.8417734,17.9643995],[98.8406611,17.9637576],[98.8385637,17.9653007],[98.8350643,17.969289],[98.8341791,17.973148],[98.8305195,17.9747606],[98.8299748,17.975532],[98.8311545,17.9777412],[98.8307954,17.9805774],[98.830982,17.9816187],[98.8335667,17.9860911],[98.8327767,17.9882806],[98.829697,17.9913657],[98.828045,17.9923875],[98.82538,17.9934264],[98.823878,17.9944663],[98.8213424,17.9972824],[98.8187681,18.0011757],[98.8144289,18.0061982],[98.8096613,18.0079709],[98.807503,18.0085612],[98.806002,18.0085956],[98.8016699,18.0067062],[98.7987596,18.0058274],[98.7963208,18.0037132],[98.7921368,18.0028982],[98.7907801,18.0019191],[98.7904608,18.0007159],[98.7868432,17.9987754],[98.7860752,17.99889],[98.7841318,18.0003364],[98.7799857,17.9998174],[98.7769087,18.0005667]]]}},{"type":"Feature","properties":{"id":"TH-LAO-5510409","nameTh":"ก้อ","type":"subdistrict_municipality"},"geometry":{"type":"Polygon","coordinates":[[[98.7263071,17.7934443],[98.7267722,17.7918315],[98.7291021,17.7880692],[98.7293064,17.7860843],[98.7299877,17.7854226],[98.7302928,17.7827313],[98.7296548,17.7806718],[98.7302423,17.779226],[98.7306008,17.7785432],[98.7322662,17.7772457],[98.7335963,17.7747639],[98.7352617,17.7728897],[98.73524,17.7721174],[98.7367107,17.7689456],[98.7393672,17.7670084],[98.7405173,17.7649159],[98.7419593,17.7633139],[98.7455658,17.7611313],[98.7467698,17.7611987],[98.7478211,17.7607102],[98.7522204,17.7562026],[98.7539508,17.7553202],[98.7551303,17.7542306],[98.7567954,17.7507647],[98.7588039,17.748999],[98.7598853,17.7462687],[98.7628894,17.7442413],[98.7636104,17.7431623],[98.7636619,17.7425573],[98.7678002,17.7418677],[98.7692937,17.7408868],[98.7709759,17.7387613],[98.7725209,17.7355893],[98.7733277,17.7346083],[98.7742203,17.7342323],[98.7776025,17.7357424],[98.7797483,17.7360204],[98.7876276,17.7351701],[98.7911809,17.7356443],[98.794185,17.7352355],[98.7973371,17.73623],[98.8024475,17.7322975],[98.8031513,17.7310548],[98.8031684,17.7261659],[98.8037349,17.7247924],[98.8049365,17.7235661],[98.806339,17.7228791],[98.8068567,17.7215553],[98.8084645,17.7201666],[98.8088044,17.7176146],[98.8093702,17.7161696],[98.8115167,17.7146058],[98.8168214,17.7133838],[98.8191045,17.7119611],[98.8196194,17.7111108],[98.8199388,17.7099939],[98.81975,17.7093234],[98.8185312,17.7077863],[98.8184797,17.7056768],[98.8197328,17.7015885],[98.8209688,17.7002475],[98.821604,17.6987266],[98.8239211,17.6964972],[98.8241442,17.6955486],[98.8239211,17.6940931],[98.8246077,17.6912639],[98.8245047,17.6882056],[98.8268737,17.6841169],[98.8284529,17.6831683],[98.8299838,17.6802122],[98.8313056,17.6784622],[98.8351508,17.6754855],[98.8349619,17.6738172],[98.8352194,17.6726886],[98.8359576,17.6719035],[98.8421889,17.6676999],[98.8474417,17.6662606],[98.8486262,17.6652301],[98.8501022,17.6629681],[98.8509931,17.66351],[98.8525395,17.6656635],[98.8553079,17.6680025],[98.8587792,17.6694966],[98.860823,17.6698263],[98.8632453,17.669713],[98.8664571,17.6689917],[98.8698835,17.6692153],[98.8719266,17.6688178],[98.8746785,17.6698173],[98.8756948,17.6695974],[98.8771853,17.6684793],[98.8778657,17.6683249],[98.880211,17.6689059],[98.8819276,17.670656],[98.8832323,17.6706069],[98.8842326,17.6712335],[98.8863413,17.6709141],[98.8873225,17.6671746],[98.8882093,17.666917],[98.8898314,17.6657733],[98.8905514,17.6641512],[98.8921086,17.6626777],[98.8922059,17.6622861],[98.8917626,17.661977],[98.8907028,17.6618018],[98.8899783,17.6612866],[98.8895133,17.6592464],[98.8896106,17.6585354],[98.891156,17.6562619],[98.8915375,17.6536134],[98.8932133,17.6520684],[98.8934445,17.6514381],[98.8928723,17.6501657],[98.8931448,17.6493477],[98.8936489,17.6492569],[98.8949432,17.649932],[98.8960332,17.6499969],[98.8984448,17.6494516],[98.9001369,17.6499354],[98.9012507,17.6498735],[98.9048132,17.6481467],[98.9047252,17.6453325],[98.9033876,17.6416327],[98.9034687,17.6403227],[98.9027187,17.639937],[98.9001193,17.6410403],[98.8989137,17.641014],[98.8963689,17.6402677],[98.8956727,17.6395994],[98.8949769,17.6382119],[98.8934792,17.6338955],[98.887829,17.6295511],[98.8861986,17.628629],[98.8806661,17.6269859],[98.8806842,17.6266347],[98.8813276,17.6261289],[98.8837475,17.6247718],[98.8844302,17.6230208],[98.8844994,17.621387],[98.8836562,17.6183804],[98.881169,17.6131325],[98.8808752,17.6118222],[98.8819217,17.6090999],[98.8800492,17.6051684],[98.8806659,17.6043211],[98.886587,17.6021668],[98.8870159,17.6016276],[98.8878002,17.5894261],[98.8959173,17.5868617],[98.9015693,17.5855802],[98.9097398,17.5827327],[98.9110526,17.5817828],[98.9098757,17.5785713],[98.9080827,17.5758732],[98.9079762,17.5746144],[98.9087544,17.5714551],[98.9080322,17.5696566],[98.9057573,17.5667271],[98.9046612,17.5632329],[98.904582,17.5609209],[98.9065667,17.5551677],[98.9068359,17.5524192],[98.906303,17.5472299],[98.9064648,17.5449694],[98.9076233,17.5406284],[98.9101503,17.5367101],[98.9054561,17.5340632],[98.9025904,17.5320528],[98.9007716,17.5302343],[98.8986792,17.5275308],[98.8943717,17.518847],[98.8919788,17.5188697],[98.8911563,17.5187018],[98.8903341,17.5180317],[98.8899374,17.5145159],[98.8894144,17.513822],[98.8842811,17.5116906],[98.8828609,17.5107092],[98.8819645,17.5094172],[98.8800751,17.5018825],[98.8794298,17.4977208],[98.8802044,17.4947796],[98.8795327,17.4929615],[98.8796337,17.4909527],[98.8779889,17.4907603],[98.8743994,17.4917147],[98.8718821,17.4919284],[98.871258,17.4933629],[98.8711555,17.4973329],[98.8707806,17.4987676],[98.8699072,17.5002738],[98.8622253,17.5074912],[98.8590571,17.5109807],[98.8554919,17.5121739],[98.8545189,17.5133212],[98.8533969,17.5137508],[98.8482871,17.513747],[98.84026,17.5149365],[98.8389641,17.5147202],[98.8338316,17.5122765],[98.8328593,17.512491],[98.8309127,17.5150483],[98.8288442,17.5147117],[98.8194764,17.5104464],[98.8158903,17.5072623],[98.8143528,17.4995839],[98.8137056,17.4987701],[98.8105661,17.497954],[98.7957108,17.4988002],[98.793593,17.4982002],[98.7917503,17.4967155],[98.7854954,17.4960391],[98.7809375,17.4934513],[98.7787215,17.491679],[98.7769295,17.4897159],[98.7695324,17.4859049],[98.7637777,17.4841762],[98.7599428,17.4818996],[98.7571557,17.4788349],[98.7563108,17.4770402],[98.7558665,17.473811],[98.7549963,17.4723272],[98.7520844,17.4695732],[98.7499433,17.4680878],[98.747502,17.4675346],[98.7461314,17.4675807],[98.7422926,17.4684367],[98.739204,17.4674522],[98.7361663,17.465798],[98.7333018,17.4649571],[98.7260026,17.463584],[98.7239841,17.4636529],[98.7213894,17.46573],[98.7197944,17.4658712],[98.7186485,17.4656065],[98.7176779,17.4648399],[98.7173053,17.4640501],[98.7168359,17.4614665],[98.714328,17.455771],[98.7135319,17.4549567],[98.7107423,17.4541873],[98.7028054,17.446977],[98.7016376,17.4449902],[98.6993131,17.4342007],[98.6958618,17.4315459],[98.6942764,17.4299023],[98.6931978,17.426036],[98.6914544,17.4256985],[98.6906311,17.4263908],[98.6904015,17.4277724],[98.6909864,17.4316581],[98.6907163,17.4331988],[98.6877252,17.4400743],[98.6869319,17.4412347],[98.6824536,17.4441713],[98.6809286,17.4471584],[98.6810755,17.4486175],[98.6826395,17.4519443],[98.6830841,17.454217],[98.6825548,17.4577078],[98.6827244,17.4604584],[98.6853323,17.4654131],[98.6852533,17.4678763],[98.6855011,17.4687138],[98.688556,17.4746736],[98.6898501,17.475704],[98.6935602,17.4775513],[98.7000375,17.4787569],[98.7015262,17.482777],[98.7046127,17.4851015],[98.7052343,17.4859873],[98.7051565,17.4878526],[98.704227,17.4924191],[98.7043228,17.4948348],[98.7055836,17.5011982],[98.7053829,17.5020111],[98.7046587,17.5029188],[98.7020144,17.5043259],[98.7012654,17.5051379],[98.6976653,17.5117571],[98.6969893,17.5135975],[98.6971098,17.516085],[98.6979543,17.5178799],[98.7014613,17.5225249],[98.7022308,17.5244871],[98.7026262,17.5266162],[98.7016426,17.5335742],[98.7019631,17.535751],[98.7037989,17.5412783],[98.7039712,17.5426178],[98.7019286,17.5568684],[98.6981451,17.5682943],[98.6959179,17.5731936],[98.6950071,17.5810126],[98.6942781,17.584551],[98.6924033,17.5872744],[98.6861626,17.5912585],[98.6844389,17.5930494],[98.683189,17.5948411],[98.682587,17.5968251],[98.6831286,17.6008438],[98.6843701,17.6039548],[98.6881498,17.6102505],[98.6897381,17.6148448],[98.6894811,17.6192688],[98.6883741,17.6248871],[98.6886715,17.6259638],[98.690141,17.627138],[98.6907878,17.6281434],[98.6914087,17.629675],[98.6916301,17.631469],[98.6907292,17.6332612],[98.6882551,17.6361033],[98.6869045,17.6382535],[98.6845976,17.6452331],[98.6846166,17.648653],[98.6883746,17.6535856],[98.6894178,17.6562179],[98.6888664,17.6577476],[98.6852687,17.6609466],[98.6839419,17.6636469],[98.6840149,17.6647232],[98.6849358,17.6659204],[98.6879023,17.6671209],[98.6949387,17.6662232],[98.6981809,17.6667543],[98.7099485,17.6711485],[98.7155826,17.6736678],[98.7245103,17.6759525],[98.7253232,17.676486],[98.7280153,17.6796869],[98.730443,17.6815966],[98.7320112,17.6820224],[98.7364964,17.6822826],[98.7382409,17.6830686],[98.7450731,17.6894684],[98.7458198,17.6907369],[98.7462662,17.6926985],[98.7461133,17.6949703],[98.7454354,17.6979349],[98.7432084,17.7024281],[98.7415336,17.7046022],[98.7355622,17.7099991],[98.72897,17.7131948],[98.7269471,17.714316],[98.7257228,17.7153905],[98.7246215,17.7175652],[98.7252141,17.7217034],[98.7251857,17.7239514],[98.7245098,17.7253854],[98.7167127,17.7325249],[98.7139899,17.7342189],[98.7094196,17.7362928],[98.7080452,17.7374148],[98.703343,17.7437692],[98.7021855,17.7462224],[98.7021169,17.747599],[98.7042777,17.752117],[98.705443,17.7568061],[98.7054612,17.7609435],[98.7047599,17.7624251],[98.7037346,17.7636433],[98.6994369,17.766387],[98.6980117,17.7678436],[98.6966108,17.7696829],[98.6946814,17.7740563],[98.6935804,17.7756808],[98.6922808,17.7766115],[98.6892883,17.777847],[98.6875826,17.779713],[98.6867295,17.7822706],[98.6853752,17.790962],[98.6917593,17.7907364],[98.6938463,17.7919085],[98.6976731,17.7919145],[98.6984121,17.7922167],[98.7002392,17.7940437],[98.7030119,17.7942781],[98.7052095,17.7957514],[98.7085361,17.7964471],[98.7121559,17.7987548],[98.712692,17.798791],[98.7246377,17.7970549],[98.7258405,17.7963658],[98.725419,17.7939566],[98.7255304,17.7935849],[98.7263071,17.7934443]]]}},{"type":"Feature","properties":{"id":"TH-LAO-5510405","nameTh":"ศรีวิชัย","type":"subdistrict_municipality"},"geometry":{"type":"Polygon","coordinates":[[[98.7971288,18.0460413],[98.7973184,18.0436329],[98.800057,18.0410419],[98.8011197,18.0389043],[98.8033715,18.0359389],[98.80538,18.034127],[98.8054658,18.0312868],[98.8074914,18.0300953],[98.8102208,18.029981],[98.8138944,18.0291812],[98.8177882,18.028806],[98.8186053,18.0281038],[98.8192637,18.0280386],[98.8213488,18.0268255],[98.8233516,18.0267342],[98.8264929,18.0253776],[98.8284271,18.0242166],[98.8305744,18.0218406],[98.8318942,18.0217772],[98.8326247,18.0222989],[98.834697,18.0208479],[98.838984,18.0198643],[98.8408377,18.0190096],[98.8423803,18.018926],[98.846372,18.019443],[98.8497976,18.0201973],[98.8540814,18.0198546],[98.8595631,18.0199528],[98.8608254,18.0196938],[98.8614022,18.0198869],[98.8621808,18.0219386],[98.8650191,18.0217021],[98.8673956,18.0222239],[98.8690741,18.0220792],[98.8712571,18.0212354],[98.8748984,18.0191021],[98.8772692,18.0187578],[98.8816134,18.0174092],[98.8876391,18.0169905],[98.8876365,18.0157905],[98.8880503,18.0147706],[98.8913274,18.0132279],[98.8926394,18.0116437],[98.8931944,18.0099366],[98.8920298,18.0074335],[98.8924895,18.0062338],[98.8932508,18.0063121],[98.8934737,18.006025],[98.8935252,18.0064001],[98.8939744,18.0064751],[98.8937721,18.0070002],[98.8949312,18.0076884],[98.8948969,18.0081482],[98.8955314,18.0078841],[98.8957783,18.0081352],[98.8958709,18.0077373],[98.8966631,18.0078938],[98.8973044,18.0074959],[98.8978153,18.0077732],[98.8998276,18.0075489],[98.9009173,18.0078843],[98.9024048,18.0065351],[98.9031131,18.0064683],[98.9036322,18.00653],[98.9042095,18.0072951],[98.9055295,18.0076619],[98.9077209,18.0074389],[98.9089699,18.0089455],[98.9139835,18.00966],[98.9162316,18.0121218],[98.9186296,18.0130677],[98.9201268,18.0141806],[98.9224587,18.0147484],[98.9278591,18.0181131],[98.9292666,18.0184774],[98.9303033,18.0182117],[98.9316849,18.0170747],[98.935729,18.0155982],[98.9365827,18.0147147],[98.9380052,18.0153365],[98.9396875,18.0170588],[98.9416101,18.0174506],[98.9417982,18.0181703],[98.9422342,18.0184359],[98.94391,18.0185849],[98.9448638,18.0190902],[98.9466554,18.019006],[98.9529152,18.0159044],[98.9544902,18.0154799],[98.9561782,18.0157273],[98.9582869,18.0154702],[98.9621475,18.0159227],[98.9643428,18.0168791],[98.9671111,18.0158301],[98.968621,18.0166206],[98.9689713,18.0184613],[98.9695023,18.0190445],[98.9704894,18.0189617],[98.9722847,18.0194085],[98.9761805,18.0188504],[98.9798026,18.0233069],[98.9815192,18.0248087],[98.9842314,18.025429],[98.9881229,18.0249648],[98.9887597,18.0260752],[98.9899247,18.0267637],[98.9907042,18.0286652],[98.9902236,18.0340433],[98.9908626,18.0360197],[98.9927856,18.0385409],[98.9964522,18.0404049],[98.9971014,18.0424494],[98.9946461,18.0436374],[98.9939037,18.0445933],[98.992633,18.0490178],[98.9902915,18.0542616],[98.9900487,18.0563509],[98.9890351,18.0564874],[98.9868365,18.0561049],[98.9854804,18.0552855],[98.9846666,18.0551898],[98.9820825,18.0559816],[98.9818108,18.0603925],[98.9810968,18.0623043],[98.9756996,18.0664277],[98.9756138,18.0671242],[98.9759849,18.0679572],[98.9776551,18.069842],[98.9789541,18.0723275],[98.9793837,18.0806017],[98.9788479,18.0831622],[98.9773305,18.0862132],[98.9773065,18.0884854],[98.9763035,18.0909927],[98.9760132,18.0930624],[98.9769942,18.0987169],[98.9767581,18.1015964],[98.9763466,18.1024081],[98.9742713,18.1039868],[98.9734902,18.1050536],[98.9740256,18.1061419],[98.9764575,18.1075505],[98.9767697,18.1085747],[98.9765911,18.1098976],[98.975609,18.1114977],[98.9741139,18.1126071],[98.973779,18.1132898],[98.9738458,18.1147408],[98.9746042,18.1162132],[98.9758086,18.1204808],[98.9756519,18.1242788],[98.9778604,18.1299121],[98.9776591,18.1333687],[98.9786186,18.1348624],[98.9790647,18.1366548],[98.9792342,18.1393857],[98.9785964,18.1419976],[98.9772519,18.1430491],[98.9747727,18.142982],[98.9738123,18.1433491],[98.9729385,18.1490578],[98.972432,18.1500927],[98.9713493,18.1511108],[98.9691142,18.152112],[98.9688522,18.1526294],[98.9685895,18.156719],[98.9676988,18.1581711],[98.9648344,18.1617595],[98.9634198,18.1628275],[98.9594381,18.1648465],[98.9585701,18.1659885],[98.956205,18.1624474],[98.9538395,18.1598898],[98.9535089,18.1559774],[98.9531148,18.1550804],[98.9516128,18.1537266],[98.9504862,18.1529944],[98.9427441,18.1503821],[98.9402842,18.1473754],[98.9385883,18.1484478],[98.9361016,18.1482753],[98.9342611,18.1472804],[98.9325864,18.1453772],[98.930189,18.1436184],[98.9273095,18.1422235],[98.9238812,18.1414076],[98.9169021,18.141909],[98.9090536,18.1437881],[98.906504,18.1454016],[98.9017935,18.1475377],[98.9014888,18.1481486],[98.9005451,18.14857],[98.8986816,18.1478271],[98.8932759,18.147613],[98.8925842,18.1473463],[98.8912792,18.1463865],[98.8915472,18.145114],[98.8905636,18.1428577],[98.8881826,18.1424879],[98.8865452,18.1415723],[98.8838739,18.1432157],[98.8809964,18.1442864],[98.8795717,18.1443777],[98.8791314,18.1441461],[98.8794995,18.1436762],[98.8788235,18.1433699],[98.8786329,18.1428689],[98.8770459,18.1426717],[98.8767866,18.1424865],[98.8769082,18.1420862],[98.8720202,18.142009],[98.8709676,18.1415296],[98.870452,18.1408828],[98.8698066,18.1410798],[98.8690689,18.1405266],[98.8671437,18.1404315],[98.8655701,18.1396408],[98.8644198,18.1386481],[98.8636817,18.1386673],[98.8621552,18.1397987],[98.8608215,18.139903],[98.8543751,18.138401],[98.8489648,18.1378105],[98.8472213,18.1379232],[98.8433162,18.1370471],[98.8427782,18.1366724],[98.837065,18.1363284],[98.8359521,18.1358946],[98.8339239,18.1342872],[98.8310565,18.1326287],[98.8280177,18.1325753],[98.8258188,18.1318926],[98.8247668,18.1320339],[98.8224702,18.1334744],[98.8209906,18.1360027],[98.8171758,18.1361007],[98.8147625,18.1372871],[98.8127653,18.1368483],[98.8087373,18.1376266],[98.8069489,18.1371827],[98.8052674,18.1362012],[98.8048551,18.1355573],[98.8047698,18.1297364],[98.805322,18.1282598],[98.8072067,18.125249],[98.8073606,18.1243716],[98.8072392,18.1235379],[98.8055429,18.1221907],[98.8053599,18.1216932],[98.8071374,18.1186823],[98.8077205,18.1169717],[98.8090686,18.1149694],[98.8092088,18.1126734],[98.8078051,18.1095276],[98.807593,18.1076408],[98.8069369,18.1062946],[98.8055305,18.1057375],[98.8022426,18.105427],[98.8014939,18.1048266],[98.8012508,18.1034516],[98.8013562,18.0910494],[98.7976122,18.088969],[98.7969411,18.0874034],[98.7969732,18.0861164],[98.7973413,18.0851662],[98.798045,18.084889],[98.7993448,18.0849635],[98.801653,18.0857557],[98.8036721,18.0852897],[98.80837,18.0822963],[98.8094721,18.0812736],[98.8125161,18.0804283],[98.8133888,18.0794054],[98.8135584,18.0780893],[98.8133145,18.0772847],[98.8124286,18.0764064],[98.808317,18.0747497],[98.80653,18.072832],[98.806563,18.0706383],[98.8082939,18.0678758],[98.808464,18.066121],[98.8080681,18.0645703],[98.8051965,18.0618764],[98.8027661,18.0612597],[98.8005054,18.0592684],[98.7968105,18.0569806],[98.7985672,18.0538429],[98.7973881,18.0510336],[98.7977378,18.0482455],[98.796455,18.0469571],[98.7971288,18.0460413]]]}}]}