{"type":"FeatureCollection","features":[{"type":"Feature","properties":{"provinceCode":"27","nameTh":"สระแก้ว","nameEn":"Sa Kaeo"},"geometry":{"type":"Polygon","coordinates":[[[101.9113733,13.8767036],[101.9131486,13.8791631],[101.9119343,13.8800441],[101.9136748,13.8857493],[101.9120776,13.886087],[101.9114285,13.8840078],[101.9094519,13.885251],[101.910568,13.8931441],[101.9089229,13.8934053],[101.9115698,13.8982287],[101.9140991,13.899186],[101.9133379,13.9020552],[101.9146682,13.9031591],[101.9109469,13.9053571],[101.910952,13.9030716],[101.9093982,13.9031344],[101.9096775,13.9097451],[101.9067466,13.9073373],[101.9039227,13.9071874],[101.9064695,13.9095212],[101.9050147,13.9127535],[101.905626,13.9172883],[101.909285,13.9207609],[101.9087727,13.9239808],[101.9070977,13.9246832],[101.909537,13.9267114],[101.9086993,13.9283893],[101.9122716,13.9298179],[101.9106378,13.9339522],[101.9130381,13.9358295],[101.9147706,13.9348177],[101.9145099,13.9374961],[101.919554,13.936395],[101.9227889,13.9377193],[101.9243681,13.9403233],[101.9263458,13.9395049],[101.9267138,13.9356956],[101.9293968,13.93702],[101.930286,13.9336273],[101.9367814,13.9338137],[101.9393555,13.936039],[101.9417505,13.9309183],[101.9512626,13.9343184],[101.9509618,13.9402052],[101.9465474,13.9393787],[101.9450347,13.9404721],[101.9464991,13.9421641],[101.945392,13.9478702],[101.9417625,13.9506211],[101.939729,13.9574566],[101.937295,13.9599443],[101.9372074,13.9620775],[101.9401601,13.9636411],[101.9415679,13.9665847],[101.9402728,13.9724565],[101.9440566,13.976285],[101.9484645,13.9961284],[101.9402933,14.0148381],[101.9397783,14.0195639],[101.949757,14.0229022],[101.9597282,14.022649],[101.9719746,14.0284859],[101.992881,14.0328995],[102.0072591,14.0323595],[102.0401876,14.036408],[102.0545801,14.0341954],[102.0685738,14.0359107],[102.0752689,14.0350616],[102.0781501,14.0471842],[102.086183,14.0512532],[102.0889947,14.0485531],[102.0940541,14.0492981],[102.0989977,14.0459663],[102.1062777,14.0458817],[102.1100874,14.0421476],[102.1136024,14.0444137],[102.1222295,14.0441911],[102.1241794,14.0468937],[102.1198301,14.0497258],[102.1184455,14.0534955],[102.1205769,14.058738],[102.1180804,14.0657653],[102.1176284,14.0792735],[102.1227402,14.0826801],[102.1231,14.0891992],[102.1257964,14.0912561],[102.1261832,14.0960161],[102.1241802,14.0987277],[102.1219916,14.0987561],[102.1117696,14.0901239],[102.1037046,14.0915972],[102.0999283,14.0944968],[102.0898183,14.0931053],[102.0917869,14.097832],[102.0990706,14.1056066],[102.0998262,14.1111766],[102.0976004,14.1162271],[102.0975623,14.1257203],[102.1037295,14.1396607],[102.1062059,14.1517591],[102.1219539,14.1472291],[102.1325588,14.1380967],[102.1509514,14.1371367],[102.1665268,14.1417044],[102.171629,14.158338],[102.17138,14.1608877],[102.1662855,14.1656216],[102.1668482,14.1723853],[102.1740102,14.1830973],[102.1739378,14.1869729],[102.176547,14.1913934],[102.1817264,14.1955696],[102.1909419,14.1957918],[102.1950845,14.1927348],[102.1968698,14.1846274],[102.2012529,14.1787386],[102.206337,14.1740578],[102.2115612,14.1722376],[102.2135363,14.1652557],[102.210681,14.1543518],[102.2146845,14.1462581],[102.2183418,14.1445242],[102.239027,14.1443161],[102.2488546,14.1405708],[102.2563763,14.1443805],[102.268795,14.1466717],[102.2721195,14.1413514],[102.2718572,14.1291264],[102.2902689,14.1341841],[102.299323,14.1275865],[102.3015509,14.1230747],[102.3080425,14.1203894],[102.3152485,14.1219518],[102.3250561,14.1278438],[102.3278656,14.1275665],[102.3302221,14.1216768],[102.332282,14.1206363],[102.3395014,14.1261791],[102.3482894,14.1255474],[102.3509502,14.1266709],[102.3529672,14.1303749],[102.3571299,14.131998],[102.3581171,14.1340787],[102.3607778,14.1512656],[102.3579864,14.1640344],[102.362194,14.1661209],[102.375843,14.1505772],[102.3824674,14.1462471],[102.3908635,14.1446657],[102.4001923,14.1460272],[102.4066848,14.1545007],[102.4100875,14.1561343],[102.4181556,14.1544698],[102.4237775,14.1579652],[102.4280872,14.1523221],[102.4345295,14.1545899],[102.4326644,14.1478829],[102.4367205,14.1439915],[102.4483252,14.1417227],[102.4528541,14.1437678],[102.4546626,14.1421408],[102.4560922,14.1361898],[102.4604235,14.1366067],[102.4734852,14.1312382],[102.476251,14.1320497],[102.4770974,14.1354247],[102.4830026,14.142473],[102.4885758,14.140443],[102.491955,14.1357011],[102.498698,14.1366437],[102.5028969,14.1322681],[102.5079899,14.133102],[102.5161436,14.1412953],[102.5213531,14.1433599],[102.5255101,14.1426137],[102.5332007,14.137705],[102.5502245,14.134842],[102.5685237,14.1490856],[102.5866046,14.1576788],[102.5926705,14.1667077],[102.6081278,14.1714898],[102.6127569,14.1695885],[102.6270034,14.1527589],[102.6335782,14.1488983],[102.6383999,14.1498057],[102.6445724,14.1604156],[102.6525877,14.1652451],[102.6542755,14.1651095],[102.6555452,14.1599785],[102.6605166,14.1541426],[102.6684711,14.1586619],[102.6891604,14.1470506],[102.6910019,14.1425191],[102.6882084,14.1344657],[102.6967012,14.1300799],[102.7278547,14.1384764],[102.7443168,14.1391401],[102.7553961,14.1370191],[102.7625032,14.138476],[102.7673932,14.1413911],[102.7775376,14.1551822],[102.7821485,14.1524384],[102.7925273,14.160563],[102.8033671,14.1573622],[102.8123406,14.1607168],[102.8150534,14.1701927],[102.8175688,14.1665058],[102.8293061,14.1577467],[102.8318918,14.1578299],[102.832557,14.1597336],[102.8289628,14.1650078],[102.8306579,14.1675981],[102.8381681,14.1630729],[102.8415477,14.1570289],[102.8483927,14.1581836],[102.8597116,14.1490184],[102.8714061,14.1466881],[102.8731441,14.1477076],[102.8734445,14.1503501],[102.8729296,14.1681598],[102.8786588,14.1757327],[102.8897631,14.1733402],[102.8937542,14.1660585],[102.8985715,14.1635098],[102.9267508,14.1729033],[102.9303181,14.1756599],[102.937356,14.1651067],[102.937181,14.1612138],[102.9407168,14.1533145],[102.9404068,14.1483992],[102.9363033,14.1421287],[102.9249614,14.1321381],[102.923569,14.127182],[102.9246411,14.1104394],[102.9231652,14.1059864],[102.9200655,14.1047632],[102.9203393,14.1035272],[102.9109593,14.0952335],[102.9078498,14.0955928],[102.9067343,14.0915788],[102.9042355,14.0903349],[102.9046131,14.0884315],[102.9007269,14.0834129],[102.9019184,14.0722044],[102.9008468,14.0704984],[102.9024798,14.0673295],[102.8988349,14.0614624],[102.897792,14.0518362],[102.9003483,14.0477999],[102.8996332,14.0437769],[102.9035086,14.0413334],[102.9039197,14.0378568],[102.9015451,14.0357182],[102.9070681,14.0295884],[102.9082991,14.0211927],[102.9110608,14.0199018],[102.9113481,14.0173085],[102.901359,14.0155695],[102.8939533,14.0073724],[102.8855206,14.0105442],[102.8823529,14.0091814],[102.8799299,14.0037586],[102.8634762,14.00441],[102.8626502,14.0012848],[102.8488083,13.9878092],[102.8156269,13.9654346],[102.8109578,13.9533022],[102.8030274,13.9430256],[102.7983247,13.9422636],[102.7931154,13.9377175],[102.7829104,13.9328165],[102.7662519,13.8563771],[102.7559989,13.8465505],[102.7232197,13.7932601],[102.7243079,13.7895282],[102.7324886,13.7848464],[102.7320296,13.7708884],[102.7017459,13.7680419],[102.688584,13.7519276],[102.6642282,13.7420108],[102.5997642,13.7094599],[102.5909913,13.7067755],[102.577571,13.6976364],[102.5770041,13.6930016],[102.5690493,13.6909946],[102.5628418,13.6839824],[102.5558966,13.6703984],[102.550725,13.6652761],[102.5511587,13.6629563],[102.5480209,13.6584256],[102.5501473,13.6582941],[102.5526137,13.6544439],[102.5549943,13.6536042],[102.5543885,13.6525039],[102.5576668,13.6523351],[102.5566039,13.6503806],[102.5579903,13.6502066],[102.5575804,13.6488593],[102.5610011,13.6493916],[102.5620138,13.6468944],[102.563416,13.6477754],[102.5641873,13.6457202],[102.5657899,13.646147],[102.566075,13.6445269],[102.5703144,13.6430551],[102.5714083,13.6352317],[102.5725813,13.6355714],[102.5725064,13.633112],[102.5739338,13.6330467],[102.5756211,13.6294318],[102.578955,13.6302115],[102.578802,13.628212],[102.5819097,13.6280092],[102.5839448,13.6301199],[102.5859869,13.6284272],[102.5868449,13.629714],[102.5902478,13.6247857],[102.5925352,13.6269536],[102.5945808,13.6225941],[102.5998858,13.6232351],[102.6019105,13.6196659],[102.604617,13.619717],[102.6064706,13.6165602],[102.6106499,13.615089],[102.6111478,13.6172214],[102.6136656,13.616453],[102.6140417,13.6138346],[102.621324,13.6130911],[102.6227711,13.6107309],[102.6241934,13.6109076],[102.6242014,13.6087138],[102.6173894,13.6075047],[102.6131839,13.6085435],[102.6132879,13.6068261],[102.6108208,13.6053726],[102.6065012,13.6071367],[102.598165,13.6068807],[102.5966093,13.6084844],[102.5911635,13.6065746],[102.5888834,13.6079506],[102.579897,13.6061456],[102.5737251,13.6026691],[102.5734001,13.5971377],[102.5709009,13.5961759],[102.5691447,13.5913533],[102.5701021,13.585849],[102.5641855,13.582779],[102.5627611,13.5790732],[102.5563474,13.5784009],[102.5531013,13.5751154],[102.5493664,13.5773388],[102.5465819,13.574729],[102.5447824,13.5754768],[102.5404506,13.5686548],[102.5312099,13.5655818],[102.527667,13.5671534],[102.5268499,13.5645162],[102.5192196,13.5680265],[102.510706,13.5693218],[102.5097835,13.567444],[102.5006238,13.5710431],[102.4967103,13.5694127],[102.4900826,13.5720621],[102.4838457,13.5706317],[102.4801316,13.5725185],[102.479162,13.5706781],[102.4771152,13.5714344],[102.4757142,13.5675873],[102.4723949,13.5667361],[102.471824,13.564858],[102.4696596,13.5655802],[102.4696523,13.5671781],[102.4666281,13.5653236],[102.4630609,13.5659691],[102.4591511,13.5619512],[102.4539041,13.5631535],[102.4531383,13.5617239],[102.4448521,13.5607268],[102.4441915,13.5638933],[102.4388442,13.559799],[102.4311427,13.5620699],[102.4284882,13.5666116],[102.4210453,13.5713048],[102.4182734,13.5699877],[102.4152073,13.5709485],[102.4146244,13.5690002],[102.4117482,13.5689828],[102.4101907,13.5669983],[102.4052083,13.5688629],[102.39711,13.5666556],[102.3906407,13.5681335],[102.3872098,13.572187],[102.3826297,13.5719899],[102.3811062,13.5746479],[102.3786542,13.5748096],[102.3755481,13.5776892],[102.3712543,13.5749062],[102.3718899,13.5766556],[102.3666486,13.5779383],[102.3647794,13.577299],[102.36324,13.5735111],[102.3583234,13.5713058],[102.3597267,13.5695341],[102.3584724,13.5685238],[102.359266,13.5646913],[102.3570146,13.5658728],[102.3554758,13.563336],[102.3425132,13.5605425],[102.3420722,13.5586272],[102.3400866,13.5596573],[102.338002,13.5564835],[102.3389446,13.5544181],[102.3374691,13.5523517],[102.3386335,13.5513648],[102.3366108,13.5497522],[102.3379715,13.5460054],[102.3352492,13.5448709],[102.3338282,13.537473],[102.3355875,13.5373416],[102.3386525,13.5326474],[102.3414117,13.5327592],[102.346416,13.5295749],[102.347993,13.5239637],[102.3504679,13.5238137],[102.3509872,13.5192821],[102.3571128,13.5143862],[102.3589298,13.5117709],[102.357521,13.5104402],[102.3635467,13.5050397],[102.3605642,13.5024607],[102.3622321,13.4984188],[102.3609261,13.4928538],[102.3629533,13.49159],[102.3607146,13.4883674],[102.3608327,13.4837784],[102.3592835,13.4835069],[102.3570386,13.4792633],[102.3579614,13.4761145],[102.3565591,13.4743733],[102.3579242,13.471638],[102.3551713,13.4612417],[102.3566537,13.4585404],[102.3555407,13.4512622],[102.3568799,13.4489738],[102.3553034,13.4472216],[102.3586659,13.4465726],[102.3602335,13.4432635],[102.3579,13.4357489],[102.3588619,13.4314623],[102.3613083,13.4307629],[102.360624,13.4268362],[102.3624159,13.4255587],[102.3605578,13.4237381],[102.3619667,13.4215531],[102.3596911,13.4187661],[102.3604554,13.4140426],[102.3588043,13.4086073],[102.3605327,13.4058961],[102.3603904,13.4016159],[102.3594773,13.3988014],[102.3569092,13.3981241],[102.354683,13.3880981],[102.3567602,13.3814981],[102.3513782,13.373247],[102.3450807,13.3468871],[102.3514031,13.3409931],[102.3504319,13.335966],[102.3522383,13.3339782],[102.3523262,13.3305824],[102.3573105,13.3246619],[102.3596439,13.3136931],[102.3534851,13.2991399],[102.332615,13.3167391],[102.3304934,13.3162328],[102.3309221,13.3085816],[102.3250844,13.3081292],[102.3274185,13.3048631],[102.3239243,13.3044639],[102.320002,13.3015322],[102.3009471,13.2998364],[102.2976118,13.2969214],[102.2921634,13.3004586],[102.2880468,13.2987044],[102.286541,13.3011356],[102.2881153,13.3028098],[102.2850474,13.3043509],[102.2811971,13.2997393],[102.280114,13.2939854],[102.2774851,13.2898241],[102.2722822,13.2880952],[102.2674627,13.289253],[102.2647815,13.2875683],[102.2611637,13.287998],[102.2559398,13.284711],[102.2448046,13.285577],[102.2380392,13.291389],[102.2323262,13.2924351],[102.2286862,13.3015826],[102.2187282,13.3038588],[102.2165313,13.308005],[102.216915,13.3110854],[102.2125694,13.3058708],[102.2124471,13.3036512],[102.2077313,13.3027826],[102.2055335,13.299692],[102.2010154,13.299411],[102.1966709,13.2960313],[102.1950523,13.2965612],[102.1900209,13.2918785],[102.1886136,13.2928032],[102.1900173,13.3001336],[102.1840878,13.3040844],[102.1813677,13.3101744],[102.1812601,13.3143624],[102.1705971,13.3198651],[102.1692104,13.3230519],[102.1659714,13.3250337],[102.149685,13.3191923],[102.1460171,13.3230552],[102.1434253,13.3236466],[102.1438371,13.3249935],[102.1413585,13.327452],[102.1387393,13.3281833],[102.1370419,13.3306153],[102.1379389,13.3326421],[102.1296252,13.3361804],[102.1266104,13.3317848],[102.127825,13.3299309],[102.1263828,13.3272342],[102.1292175,13.3260395],[102.127063,13.3214855],[102.1279829,13.3200249],[102.1252017,13.3182401],[102.1251939,13.3134829],[102.1222644,13.3118251],[102.1240379,13.3101836],[102.1184942,13.3035004],[102.1197859,13.3018913],[102.118351,13.301065],[102.1181464,13.2977966],[102.119805,13.2973213],[102.1180301,13.2958315],[102.1197595,13.2952491],[102.1190229,13.2891272],[102.1176344,13.2890488],[102.1191368,13.2862364],[102.1174052,13.2842268],[102.1191927,13.2829727],[102.1177225,13.2825498],[102.1170907,13.279441],[102.1181317,13.2775692],[102.1163361,13.2771156],[102.1155704,13.2746426],[102.1141847,13.2752241],[102.1142371,13.2728769],[102.1123135,13.2719383],[102.1129061,13.2698049],[102.1083366,13.2642258],[102.0960944,13.2599222],[102.0879357,13.2602471],[102.0831678,13.2578027],[102.0797325,13.2586967],[102.076201,13.253108],[102.070637,13.2550028],[102.0694532,13.2508084],[102.0608277,13.2518924],[102.0608519,13.2455497],[102.0571694,13.2452968],[102.0571692,13.2408997],[102.0525549,13.2423891],[102.0496188,13.2390647],[102.0438852,13.2424732],[102.0377499,13.2387861],[102.0282905,13.2367083],[102.0264088,13.2384444],[102.0285602,13.2427377],[102.0280167,13.2472586],[102.0299056,13.2497353],[102.0285225,13.2573945],[102.0299457,13.2628308],[102.0281863,13.2667403],[102.0359283,13.2748208],[102.0354472,13.2831875],[102.0297445,13.2876287],[102.0211819,13.286648],[102.0145672,13.2917484],[102.0118769,13.2902015],[102.0048306,13.3110768],[102.0001143,13.3185928],[101.9952676,13.3202438],[101.9889031,13.3332549],[101.9860498,13.3356899],[101.9843932,13.3421816],[101.9891347,13.3467034],[101.9900661,13.3523711],[101.9857135,13.3525539],[101.9829708,13.3547912],[101.9805019,13.3642307],[101.9830787,13.3716435],[101.9821253,13.3804196],[101.9773082,13.3834213],[101.9728647,13.3899594],[101.9732818,13.3959747],[101.9773434,13.400631],[101.976831,13.4085457],[101.9665146,13.4137867],[101.9624969,13.4276473],[101.9531873,13.4324091],[101.9482218,13.4327309],[101.9385159,13.4434314],[101.9386356,13.452816],[101.9434928,13.4606382],[101.9409272,13.4671014],[101.9356563,13.4714177],[101.9371728,13.4779866],[101.9333846,13.4751799],[101.9272149,13.4751782],[101.9251334,13.4730323],[101.913246,13.4747072],[101.9104881,13.4732755],[101.9003237,13.4727586],[101.8989211,13.4711503],[101.8920928,13.4727097],[101.8869422,13.481066],[101.88233,13.4853121],[101.8820641,13.4913318],[101.8843214,13.4961388],[101.8862494,13.4959795],[101.8916741,13.5033028],[101.8918207,13.5054686],[101.8985021,13.5110361],[101.8962065,13.5114549],[101.896158,13.5158988],[101.8850771,13.5253926],[101.8733904,13.5241442],[101.8788118,13.5346919],[101.8821148,13.5340109],[101.8860632,13.5384163],[101.8882751,13.5378995],[101.8927425,13.5402893],[101.892269,13.5432419],[101.8942549,13.5465404],[101.9024612,13.5548216],[101.9053147,13.5654593],[101.904288,13.5667973],[101.9067409,13.5680442],[101.9064885,13.5702582],[101.9087544,13.5715669],[101.9100691,13.577091],[101.9123711,13.5786101],[101.9153076,13.5859831],[101.9166407,13.5860074],[101.9127707,13.5884629],[101.9134516,13.5932777],[101.9088188,13.6001419],[101.9095812,13.605341],[101.9162196,13.6074678],[101.9189594,13.6105651],[101.920537,13.609463],[101.9253504,13.6109988],[101.9340988,13.6108688],[101.9357779,13.6135491],[101.9420692,13.6165501],[101.9421666,13.6204205],[101.9370052,13.6272422],[101.9368937,13.6322553],[101.9408907,13.6434279],[101.9386273,13.6466484],[101.9433099,13.6494999],[101.9483054,13.6651366],[101.9464009,13.6689723],[101.9479317,13.6722914],[101.9442535,13.6774432],[101.9456359,13.6881176],[101.9425288,13.6919561],[101.9442937,13.6933505],[101.943103,13.6936096],[101.9423091,13.6986576],[101.9432739,13.7021149],[101.9415356,13.7016276],[101.9417456,13.7063157],[101.93881,13.7070553],[101.9402302,13.7080818],[101.9400365,13.7124028],[101.9372888,13.7144501],[101.9392884,13.7172843],[101.9384797,13.7191085],[101.9398052,13.7193498],[101.9379267,13.7228312],[101.9418536,13.7387163],[101.9357514,13.740798],[101.9399016,13.7462265],[101.9421878,13.7548291],[101.9413119,13.7575305],[101.9447128,13.7847169],[101.9438985,13.7887615],[101.9462374,13.7946046],[101.9354011,13.798454],[101.9360245,13.8007064],[101.9331527,13.8041719],[101.937401,13.8103374],[101.9316093,13.8141354],[101.9306466,13.8133095],[101.9235409,13.8160735],[101.926952,13.822637],[101.9201635,13.8326316],[101.9249633,13.8434928],[101.9253806,13.850187],[101.9286231,13.8555883],[101.926431,13.8559215],[101.9248489,13.8593336],[101.9178944,13.8641785],[101.9135313,13.8750754],[101.9113733,13.8767036]]]}}]}