{"type":"FeatureCollection","features":[{"type":"Feature","properties":{"provinceCode":"52","nameTh":"ลำปาง","nameEn":"Lampang"},"geometry":{"type":"Polygon","coordinates":[[[100.0878728,18.827266],[100.1004511,18.8141604],[100.1057904,18.8139098],[100.111457,18.809009],[100.1140246,18.8085514],[100.1162502,18.8036887],[100.1156892,18.7995318],[100.121475,18.7978611],[100.1259942,18.7874065],[100.1228025,18.7818023],[100.119256,18.7811809],[100.1145353,18.7764373],[100.1158128,18.7655042],[100.1083318,18.7622028],[100.1066689,18.7600315],[100.107304,18.7565412],[100.1002592,18.7521483],[100.1016318,18.7375514],[100.0975989,18.7345866],[100.0963219,18.7300793],[100.0986612,18.7241207],[100.1015027,18.7228348],[100.1002061,18.7153069],[100.1027108,18.7115004],[100.1029196,18.7046867],[100.1076492,18.7034056],[100.1084802,18.6912058],[100.1046674,18.6900952],[100.1040095,18.6879693],[100.1096943,18.6800569],[100.1089268,18.6762596],[100.1113479,18.6720633],[100.1082802,18.6656576],[100.1049454,18.6631958],[100.1064642,18.6516489],[100.1032429,18.6480472],[100.0995437,18.6289238],[100.1053969,18.6216022],[100.106184,18.6157429],[100.1102773,18.6144803],[100.1119364,18.6111859],[100.1162723,18.609764],[100.1208568,18.6023208],[100.1130412,18.5921809],[100.1090133,18.5896207],[100.1117885,18.5771277],[100.1055188,18.5704958],[100.1092787,18.5601828],[100.1046994,18.5595777],[100.0949515,18.5698163],[100.0895746,18.5728268],[100.0785091,18.5628389],[100.0637004,18.5613079],[100.0556601,18.5571599],[100.0553383,18.5493054],[100.0518609,18.5423019],[100.0527986,18.5376162],[100.0490592,18.5302204],[100.0565056,18.5267269],[100.052669,18.519312],[100.0534985,18.5148746],[100.0512467,18.5116927],[100.0496783,18.4976572],[100.0389324,18.4856655],[100.0315177,18.4707264],[100.0287772,18.4689165],[100.0230246,18.4691334],[100.0286365,18.4649055],[100.0218201,18.4477252],[100.004437,18.4453246],[100.010248,18.4431485],[100.0141858,18.437667],[100.00617,18.4216694],[100.0044195,18.4150852],[100.0066474,18.4134204],[100.0065948,18.4110619],[100.0021194,18.4076495],[100.0007486,18.4027534],[99.9968877,18.4030679],[99.9904137,18.3987214],[99.987142,18.3916326],[99.976809,18.3908899],[99.9684884,18.3939681],[99.9666822,18.3932554],[99.9707764,18.3897787],[99.9684419,18.3847278],[99.9664996,18.3831029],[99.960663,18.3839762],[99.955445,18.3768171],[99.95013,18.3644636],[99.9509138,18.3563118],[99.9487795,18.3548458],[99.9434515,18.355136],[99.9397886,18.3518448],[99.9383172,18.345273],[99.9393513,18.3424597],[99.9369399,18.3367964],[99.9384043,18.334416],[99.9357693,18.3270721],[99.9262623,18.3122311],[99.9231574,18.3103137],[99.9197188,18.3009377],[99.9063392,18.2798879],[99.8957783,18.2797867],[99.8892204,18.2833205],[99.8872822,18.2818599],[99.8807192,18.2825708],[99.8786493,18.2795326],[99.8720231,18.2779158],[99.8635801,18.2799194],[99.8575981,18.2839089],[99.8564604,18.2793177],[99.858621,18.2756684],[99.856308,18.2735089],[99.8518645,18.262776],[99.8496971,18.261681],[99.8516227,18.258237],[99.8503138,18.2553597],[99.8447452,18.2562128],[99.8397797,18.245017],[99.8345623,18.2402677],[99.8334301,18.2355742],[99.8281842,18.2377326],[99.8216631,18.2375103],[99.8103011,18.2265929],[99.8015997,18.214956],[99.799483,18.1994994],[99.7906044,18.191476],[99.7887512,18.1848774],[99.7862209,18.1839611],[99.7835562,18.1788451],[99.7789747,18.1746807],[99.7720637,18.1625588],[99.758927,18.1480807],[99.7538675,18.1399554],[99.7563031,18.1361482],[99.7544708,18.1299668],[99.7620163,18.1234233],[99.759897,18.120492],[99.7549608,18.1200085],[99.7467105,18.1114276],[99.7391531,18.1085386],[99.7360676,18.1028139],[99.7344839,18.0951546],[99.7269397,18.0874359],[99.7250493,18.0805145],[99.7224167,18.0778328],[99.7228777,18.0754363],[99.7200669,18.0736353],[99.7198277,18.070085],[99.7155674,18.0716147],[99.7096579,18.0686427],[99.7052189,18.0705196],[99.700334,18.0669211],[99.6904788,18.0650439],[99.6893112,18.0633568],[99.6915412,18.055523],[99.6842747,18.0517235],[99.6802186,18.0457964],[99.6688257,18.0416774],[99.6594604,18.0410573],[99.65097,18.0522935],[99.6503061,18.0566204],[99.6418457,18.0556289],[99.6347478,18.0613452],[99.6313289,18.0622953],[99.6275993,18.0607596],[99.6187951,18.0485888],[99.6137983,18.0479551],[99.6100382,18.0498246],[99.6010674,18.0398347],[99.5850043,18.0352073],[99.5847532,18.0330873],[99.5888407,18.0268292],[99.5881011,18.0225369],[99.5916239,18.0180127],[99.5913705,18.013918],[99.5946185,18.0111401],[99.5946069,18.00891],[99.578926,17.9994297],[99.5763637,17.9955362],[99.5721269,17.9956077],[99.5641323,17.9909691],[99.5614849,17.9865199],[99.5612816,17.9781711],[99.5583614,17.9743621],[99.5492342,17.9713041],[99.546408,17.9724027],[99.5417008,17.968843],[99.538331,17.9623808],[99.5331682,17.9618202],[99.5227243,17.9569149],[99.5214919,17.9515479],[99.5117778,17.9432716],[99.5065082,17.9427014],[99.5014868,17.9372192],[99.49786,17.9267994],[99.485816,17.9197301],[99.4830367,17.9201895],[99.4841498,17.9164585],[99.4783806,17.9032207],[99.4763032,17.9016029],[99.4771876,17.8985364],[99.4749053,17.8942798],[99.4687935,17.8925613],[99.4687955,17.8892121],[99.4636678,17.8830457],[99.4572593,17.8826218],[99.4531072,17.8795102],[99.4480103,17.8695914],[99.4437071,17.8678187],[99.4420658,17.8637427],[99.437598,17.8637679],[99.4288866,17.8577812],[99.4277422,17.8526565],[99.4219375,17.848981],[99.4202432,17.8428527],[99.4168757,17.8424864],[99.4114789,17.8249381],[99.4044232,17.8231614],[99.4007154,17.8178377],[99.3926459,17.8146998],[99.3938143,17.8085899],[99.38539,17.7902516],[99.3771776,17.7822533],[99.3686743,17.7771117],[99.3675728,17.7734879],[99.3688485,17.771172],[99.3810118,17.7547655],[99.3791633,17.7461671],[99.381113,17.7416832],[99.3789602,17.7400485],[99.3796906,17.7356477],[99.3767298,17.7334555],[99.3767824,17.7268298],[99.3797362,17.7224426],[99.3858289,17.7222179],[99.3844247,17.7146119],[99.3795745,17.7115619],[99.3816773,17.7083387],[99.3805203,17.7059732],[99.3814709,17.7026325],[99.3892036,17.6973232],[99.3872059,17.6875566],[99.402515,17.6972787],[99.4051886,17.6968153],[99.4077015,17.7001619],[99.4153323,17.7039619],[99.4220808,17.7100758],[99.4296743,17.7103004],[99.4322006,17.7083515],[99.4421594,17.7075065],[99.4495404,17.7093877],[99.4558926,17.7154939],[99.4581687,17.7224299],[99.4555276,17.7246177],[99.4560949,17.7278021],[99.459363,17.7293814],[99.4596092,17.7322647],[99.4624728,17.7334075],[99.4648554,17.7373081],[99.4710508,17.7378681],[99.4793322,17.7289918],[99.4740937,17.7165266],[99.4751565,17.6974269],[99.472659,17.6961742],[99.4702203,17.6912697],[99.4734011,17.6831089],[99.4751999,17.682188],[99.4762376,17.6764094],[99.4713372,17.6717798],[99.4706414,17.6655716],[99.4676674,17.662873],[99.4557258,17.6548263],[99.4506696,17.6549092],[99.4490909,17.6462855],[99.4475783,17.6448402],[99.449925,17.6305742],[99.4469442,17.6236675],[99.448696,17.6214057],[99.447764,17.61855],[99.450749,17.6170696],[99.449633,17.6130091],[99.4552556,17.6085148],[99.4531128,17.6070983],[99.4543321,17.5981055],[99.4484314,17.5987967],[99.442425,17.6027721],[99.4422919,17.6074501],[99.440677,17.6095242],[99.4256911,17.609064],[99.4191117,17.600457],[99.419192,17.5949787],[99.4225997,17.5917506],[99.4202203,17.590698],[99.4201893,17.5884985],[99.4156868,17.5838564],[99.4160123,17.577555],[99.413043,17.5741966],[99.4152782,17.570184],[99.4197589,17.568836],[99.4295373,17.5694494],[99.4309766,17.5657115],[99.4357618,17.5634534],[99.4306813,17.5488747],[99.4327422,17.5410022],[99.4386054,17.5322612],[99.4394079,17.5279874],[99.4315734,17.5211124],[99.4213542,17.5186973],[99.4224919,17.5149673],[99.4204047,17.5126078],[99.4186227,17.5052842],[99.4215139,17.5010652],[99.4181746,17.4946182],[99.4193419,17.4863553],[99.4158679,17.4787527],[99.4108522,17.478633],[99.4074922,17.4763309],[99.4063744,17.4689183],[99.4145371,17.4593469],[99.4180026,17.458047],[99.4144047,17.4498524],[99.4174279,17.4482851],[99.4210508,17.4422718],[99.4263366,17.4424557],[99.4336135,17.4344614],[99.4410637,17.4331009],[99.4405399,17.4219147],[99.4309549,17.4180331],[99.4294943,17.4115319],[99.4269812,17.4088055],[99.4308342,17.3906286],[99.4325916,17.3889337],[99.4424819,17.388912],[99.4449262,17.3807193],[99.4473472,17.3804374],[99.4492677,17.3763354],[99.4551014,17.3728262],[99.4565807,17.3690316],[99.4614103,17.3698197],[99.4703993,17.3676362],[99.4706398,17.3575549],[99.4733478,17.3551856],[99.4779663,17.3286032],[99.4768073,17.3255977],[99.4645374,17.314837],[99.4606804,17.3090291],[99.457044,17.3120195],[99.4554941,17.3094378],[99.4569768,17.305861],[99.4552178,17.3048806],[99.4556585,17.3019471],[99.4539863,17.2981068],[99.4518022,17.2970298],[99.4511931,17.2929565],[99.451333,17.2801759],[99.4533507,17.2750372],[99.4529042,17.2687673],[99.455108,17.2667622],[99.4553699,17.2545416],[99.4535991,17.2518381],[99.4505253,17.2509182],[99.4433447,17.2531355],[99.4408206,17.2520515],[99.4453323,17.2421712],[99.444038,17.2387267],[99.4401553,17.2355318],[99.4397675,17.2288062],[99.4360934,17.2280118],[99.4325314,17.2315644],[99.4291651,17.2319782],[99.4250588,17.227011],[99.4186452,17.2263399],[99.4203185,17.2184351],[99.405153,17.2189601],[99.4010195,17.2205539],[99.3943389,17.2059565],[99.3832382,17.2070592],[99.3739186,17.210581],[99.3696767,17.2215163],[99.3717224,17.2291472],[99.3684374,17.2300923],[99.3641818,17.2355455],[99.3602957,17.2419232],[99.3586987,17.2489417],[99.3418571,17.2610423],[99.3399599,17.2639281],[99.3400156,17.2674121],[99.3306298,17.266093],[99.3268188,17.2677416],[99.3241095,17.2665469],[99.320979,17.2699646],[99.3093271,17.2704585],[99.3033405,17.2734415],[99.2982645,17.2870808],[99.2974475,17.2927082],[99.3005903,17.2941544],[99.2971418,17.2980999],[99.296899,17.3042951],[99.2942837,17.3068961],[99.2930728,17.3112755],[99.286301,17.3116461],[99.2860371,17.3193276],[99.276638,17.3314557],[99.2778112,17.3462882],[99.2721714,17.3476268],[99.2710197,17.3493255],[99.2712244,17.3657559],[99.2753657,17.3824085],[99.270445,17.4000085],[99.2633355,17.4046541],[99.2499896,17.4066878],[99.2373331,17.4026503],[99.2290007,17.4054683],[99.2250939,17.4046568],[99.2079285,17.3828425],[99.2108999,17.3765379],[99.2061293,17.3686723],[99.2023273,17.3680306],[99.1974931,17.3641483],[99.1965685,17.3602506],[99.1912975,17.3543813],[99.177031,17.3488291],[99.1737566,17.3357047],[99.1614158,17.332502],[99.1549979,17.338293],[99.1508856,17.3470599],[99.1489023,17.3483878],[99.1467601,17.3553534],[99.1418473,17.3609959],[99.1325484,17.3622951],[99.1272052,17.3658832],[99.1217226,17.3647726],[99.1171646,17.3674464],[99.1142198,17.3613712],[99.1095748,17.3587641],[99.0965853,17.3708502],[99.086445,17.3774392],[99.077628,17.3731927],[99.0776245,17.3763911],[99.0765145,17.3747956],[99.0716925,17.3751398],[99.0663858,17.3772862],[99.0642172,17.3840465],[99.0618098,17.3840237],[99.0566963,17.3881218],[99.0534181,17.3888515],[99.0532312,17.3872606],[99.0500864,17.3879017],[99.046862,17.385671],[99.046248,17.3879364],[99.0413848,17.3901474],[99.0434184,17.3935316],[99.0419268,17.3966616],[99.0396175,17.3971834],[99.0400988,17.3988246],[99.0370932,17.3985991],[99.0376945,17.4003292],[99.034566,17.402372],[99.0317853,17.4080691],[99.0326362,17.4104884],[99.0215868,17.4111013],[99.0170532,17.4122325],[99.0169239,17.4144704],[99.0120472,17.414585],[99.0114656,17.4187533],[99.0137927,17.4226167],[99.010137,17.4248407],[99.0094426,17.4278737],[99.006228,17.4289179],[99.0050027,17.4360096],[99.0000065,17.4393149],[98.9974764,17.4449724],[98.9921936,17.4476081],[98.9924042,17.4528313],[98.9905721,17.4552993],[98.9871484,17.4559328],[98.9860671,17.4609363],[98.9796217,17.4657215],[98.9804889,17.4677424],[98.9735564,17.4645589],[98.9623708,17.4664904],[98.9592089,17.4628708],[98.9553422,17.4743446],[98.9456409,17.4685907],[98.9374912,17.4705055],[98.9377753,17.4744312],[98.9314103,17.4736124],[98.932794,17.4831716],[98.9295029,17.4850072],[98.926489,17.4918672],[98.9299777,17.4948977],[98.9264658,17.4990446],[98.9281552,17.5064023],[98.9218487,17.5126018],[98.9247543,17.5256709],[98.9219209,17.5300239],[98.9126091,17.5331923],[98.9064648,17.5449694],[98.9065667,17.5551677],[98.9046612,17.5632329],[98.9087544,17.5714551],[98.9080827,17.5758732],[98.9110526,17.5817828],[98.8878002,17.5894261],[98.8870159,17.6016276],[98.880103,17.6047832],[98.8819217,17.6090999],[98.881169,17.6131325],[98.8844994,17.621387],[98.8837475,17.6247718],[98.8806661,17.6269859],[98.8861986,17.628629],[98.8934792,17.6338955],[98.8963689,17.6402677],[98.9034687,17.6403227],[98.9057546,17.6489383],[98.9197768,17.6407812],[98.9220646,17.6428487],[98.9272483,17.643772],[98.938085,17.6408668],[98.9404711,17.6444944],[98.9462774,17.6470547],[98.9506307,17.6457797],[98.9558788,17.6410189],[98.9602369,17.6403322],[98.9660646,17.6403678],[98.9755251,17.6434734],[98.9900589,17.6342655],[98.9919653,17.6363351],[99.0004548,17.6386807],[99.0003469,17.6350936],[99.0055267,17.6297128],[99.0080039,17.6229863],[99.0142413,17.6226509],[99.0189364,17.6145313],[99.0301673,17.6145989],[99.0356127,17.612312],[99.0388191,17.6149915],[99.0466583,17.6117283],[99.0492517,17.6121161],[99.0549498,17.6228053],[99.0596409,17.6263268],[99.0592044,17.6302095],[99.0623961,17.6372241],[99.0611308,17.6402826],[99.0633367,17.6445242],[99.0599493,17.6607151],[99.0614845,17.6690193],[99.0650976,17.6717015],[99.0621714,17.6828682],[99.0642975,17.6845378],[99.0656518,17.6930342],[99.0756816,17.6982832],[99.0814639,17.6981722],[99.0877279,17.7040379],[99.0870112,17.7069725],[99.0834343,17.7093649],[99.0849869,17.7155828],[99.0825829,17.7208123],[99.0852495,17.7381024],[99.0931144,17.7422461],[99.1044797,17.7410748],[99.1066346,17.7444362],[99.1046516,17.7481482],[99.109799,17.7522448],[99.1114653,17.7564772],[99.1115561,17.7676099],[99.1147035,17.7698185],[99.1229823,17.7680697],[99.125602,17.7711286],[99.121503,17.7730804],[99.1246628,17.7778008],[99.1165962,17.7845272],[99.1172141,17.7911111],[99.1132966,17.7909213],[99.1098214,17.7927637],[99.1091643,17.8032528],[99.1031765,17.8126071],[99.1099908,17.8161646],[99.1158438,17.816414],[99.1222262,17.8191672],[99.1278249,17.8159815],[99.1352407,17.8210656],[99.1432974,17.8172918],[99.147096,17.8131763],[99.1544001,17.8134234],[99.1588567,17.8079746],[99.1641472,17.8097623],[99.1742335,17.8099374],[99.1744059,17.8146358],[99.168747,17.8166742],[99.1725261,17.8178771],[99.1734532,17.8216443],[99.1693539,17.8243361],[99.1675471,17.8289329],[99.1641664,17.8307738],[99.1639654,17.8339331],[99.1591039,17.8432309],[99.1619615,17.8462844],[99.1653931,17.8472235],[99.1801942,17.8460157],[99.1836772,17.8502285],[99.1833155,17.860529],[99.1794332,17.8617586],[99.1723311,17.8715488],[99.1624984,17.8768801],[99.1622513,17.8842684],[99.1634756,17.8861006],[99.1589376,17.8884248],[99.1578157,17.8914157],[99.1541932,17.8938454],[99.1485541,17.895349],[99.144294,17.9011582],[99.1442245,17.9055742],[99.1468642,17.9108299],[99.139646,17.9102644],[99.1256166,17.9156485],[99.1227864,17.9145802],[99.1185257,17.9158647],[99.1136292,17.9125114],[99.1081609,17.9133422],[99.1108332,17.917708],[99.1124813,17.9282386],[99.1157553,17.9322108],[99.1147616,17.9397322],[99.1158038,17.9461834],[99.1132431,17.9485744],[99.1084212,17.9493318],[99.101443,17.9476377],[99.0949502,17.9548474],[99.0940264,17.9614379],[99.0973415,17.9680892],[99.0954923,17.9750324],[99.1010816,17.9835251],[99.0951698,17.992884],[99.0948661,17.9958938],[99.0952741,17.9974755],[99.1008514,17.9987479],[99.1009553,18.0011269],[99.0986701,18.0097495],[99.0927752,18.0145644],[99.0913716,18.0212245],[99.0922766,18.0243237],[99.0881334,18.0257938],[99.0834407,18.0319056],[99.0837472,18.0433433],[99.0798264,18.0504076],[99.075535,18.0527543],[99.0736675,18.057945],[99.0706677,18.0611018],[99.0715203,18.0780618],[99.0732723,18.0829707],[99.0721829,18.093669],[99.0677361,18.0973807],[99.0704232,18.1061667],[99.0659464,18.1086091],[99.0668536,18.1164195],[99.064727,18.1246214],[99.0650559,18.1394638],[99.0636964,18.1451177],[99.05868,18.1515166],[99.0585648,18.1560542],[99.0534559,18.159173],[99.0514302,18.1633851],[99.0520278,18.1679594],[99.0566465,18.1722277],[99.0567982,18.1752183],[99.0452303,18.1908677],[99.0439028,18.1961105],[99.0374854,18.1995618],[99.0291356,18.2160553],[99.0299822,18.2237979],[99.0276449,18.2269947],[99.0273003,18.2327342],[99.0223323,18.237226],[99.0211177,18.2403326],[99.0219099,18.2438417],[99.0191621,18.2458129],[99.0203914,18.2507479],[99.0177978,18.2524383],[99.0217845,18.2570956],[99.0286245,18.2611239],[99.0292116,18.2650479],[99.0503006,18.2652561],[99.054247,18.2701794],[99.062973,18.2724967],[99.0771391,18.268796],[99.0816697,18.2691426],[99.0839496,18.2796322],[99.0928959,18.279408],[99.0979442,18.2724734],[99.1063426,18.2653772],[99.113258,18.2674007],[99.116489,18.2740502],[99.1124883,18.2949426],[99.119193,18.297983],[99.119849,18.3015886],[99.1219356,18.2995829],[99.1231807,18.3001788],[99.12465,18.3043229],[99.1225607,18.3104557],[99.1251358,18.3129296],[99.1324835,18.3143463],[99.1458871,18.3131135],[99.1523869,18.3154897],[99.1510887,18.3230665],[99.1527049,18.3245458],[99.1529547,18.3295179],[99.1571943,18.331834],[99.1595232,18.3355335],[99.1596027,18.3408773],[99.1644417,18.3402796],[99.1666781,18.3420867],[99.1689795,18.3496742],[99.1684025,18.3594919],[99.1709352,18.3611644],[99.1670197,18.3645068],[99.1671734,18.3742691],[99.1709786,18.374101],[99.1896775,18.3886228],[99.1903842,18.3924226],[99.1885298,18.3944684],[99.1908149,18.3984233],[99.1904859,18.4027018],[99.1974284,18.4085358],[99.1970967,18.4155808],[99.1994647,18.4215059],[99.2018154,18.4217756],[99.2031559,18.4251109],[99.2096702,18.4262365],[99.210501,18.4283921],[99.2215177,18.4302189],[99.2305149,18.4440084],[99.2381917,18.4484686],[99.236296,18.4565055],[99.2381459,18.4585779],[99.2381002,18.4660706],[99.2402172,18.4679235],[99.2392978,18.4719292],[99.2419535,18.479202],[99.2477386,18.4830255],[99.2503519,18.488028],[99.2560324,18.4921565],[99.2565005,18.4966444],[99.2669862,18.4947898],[99.2819669,18.5002117],[99.2851343,18.4971603],[99.2856531,18.4923233],[99.2980201,18.4888265],[99.3160468,18.4996615],[99.3214817,18.499633],[99.3196064,18.5042024],[99.3202624,18.5116952],[99.3181697,18.5138545],[99.3195718,18.5197997],[99.3175004,18.5225609],[99.3168403,18.5289319],[99.3187486,18.5356216],[99.3233483,18.5374635],[99.3284387,18.5455647],[99.3273323,18.5535336],[99.3298468,18.5575454],[99.3273506,18.5611684],[99.3277932,18.5657091],[99.3325745,18.5762391],[99.3388753,18.5771032],[99.3438666,18.574659],[99.3467137,18.5779119],[99.3534544,18.5793823],[99.3501279,18.5827131],[99.351759,18.5893215],[99.3488819,18.59188],[99.3487303,18.5939962],[99.3546933,18.5967597],[99.3569602,18.6000839],[99.3566444,18.6026523],[99.3590477,18.6046773],[99.3545292,18.6131395],[99.3501093,18.6141729],[99.3484307,18.617804],[99.3443407,18.6159696],[99.3371607,18.6156459],[99.326884,18.619523],[99.3307613,18.6273771],[99.3268782,18.6283311],[99.3286225,18.6330904],[99.3269834,18.6384941],[99.3325432,18.6501322],[99.3371763,18.6509559],[99.3424888,18.6495661],[99.3491394,18.6553556],[99.3393341,18.6657714],[99.3332061,18.6686073],[99.3345413,18.6719203],[99.3322294,18.6747384],[99.3313391,18.6798884],[99.3270748,18.6848059],[99.3368184,18.6936514],[99.3341149,18.6983564],[99.3340356,18.7021177],[99.3430231,18.7074713],[99.3406449,18.7159443],[99.3445904,18.7179158],[99.3452501,18.7214123],[99.3486049,18.7245964],[99.3482345,18.7352842],[99.3533857,18.737152],[99.3618309,18.7473891],[99.3664873,18.7485952],[99.371475,18.7534203],[99.3711863,18.7605541],[99.36622,18.7693681],[99.367051,18.7748879],[99.3710764,18.7796657],[99.3709931,18.7822012],[99.366219,18.7868761],[99.3643287,18.798099],[99.359003,18.801412],[99.3592751,18.8057263],[99.357194,18.8079253],[99.3573358,18.8170054],[99.3528789,18.8231398],[99.3553601,18.8281766],[99.3529701,18.8294625],[99.3504477,18.8362399],[99.3530655,18.8432403],[99.3526475,18.8474933],[99.3601797,18.8501326],[99.3618069,18.8524872],[99.3770337,18.8607417],[99.3872056,18.8729274],[99.3859431,18.879385],[99.391414,18.8843357],[99.3913863,18.8869288],[99.3861415,18.8885027],[99.387256,18.8957911],[99.3839385,18.9003821],[99.3853276,18.9036805],[99.3830738,18.9067474],[99.3836793,18.9105363],[99.3776414,18.9217162],[99.3849252,18.9341718],[99.3867268,18.9439071],[99.3837612,18.9526196],[99.3750421,18.9597359],[99.3776709,18.9674845],[99.3760519,18.9734446],[99.378082,18.9773937],[99.3774782,18.9824529],[99.3813057,18.9897287],[99.3906776,18.9939138],[99.3925495,18.9973875],[99.403249,18.9999028],[99.4052605,19.002079],[99.4217337,19.002796],[99.4274458,19.0083738],[99.4361563,19.007867],[99.437856,19.0133649],[99.4442405,19.0181355],[99.4443737,19.0206845],[99.4529542,19.0291043],[99.4567968,19.030142],[99.46148,19.0351799],[99.4648119,19.0355439],[99.4679778,19.0414959],[99.4716035,19.0441898],[99.4754373,19.0500906],[99.4766592,19.0557579],[99.4790601,19.0580702],[99.4836159,19.0718093],[99.4917122,19.0738751],[99.494448,19.0777243],[99.4990961,19.0747959],[99.5036044,19.0782666],[99.5147593,19.0770876],[99.5178766,19.080611],[99.5205157,19.0757809],[99.5291116,19.0764519],[99.5309229,19.0810023],[99.5382816,19.0861978],[99.5362404,19.0883529],[99.5373122,19.0911786],[99.534736,19.0951906],[99.5390082,19.1017726],[99.5369385,19.1071057],[99.5391254,19.1113847],[99.5525042,19.1217732],[99.5535245,19.12775],[99.5597514,19.131522],[99.5603404,19.1430137],[99.5525982,19.1449113],[99.5526927,19.1488232],[99.5496813,19.1564034],[99.5457943,19.1602166],[99.5394005,19.1616411],[99.5366288,19.1639174],[99.5420616,19.1682339],[99.5429487,19.1805036],[99.5458511,19.1909201],[99.5459474,19.1967725],[99.5414148,19.2062859],[99.5443383,19.209777],[99.545133,19.2214824],[99.5489479,19.2246997],[99.5476599,19.2288802],[99.5498283,19.2362419],[99.5471395,19.2412337],[99.5494727,19.2487369],[99.5483583,19.2512679],[99.5515286,19.2568156],[99.5593268,19.2570881],[99.5591284,19.2599027],[99.562205,19.2657681],[99.5603024,19.2688447],[99.5604825,19.2728726],[99.5644523,19.2837486],[99.5688639,19.2880981],[99.5708812,19.2935988],[99.5779492,19.2938542],[99.5753467,19.3022694],[99.5806104,19.3114002],[99.5772018,19.3157342],[99.5798852,19.3207865],[99.5760464,19.3257605],[99.5802671,19.3318058],[99.5811651,19.3377837],[99.5727606,19.3461635],[99.5783404,19.3485856],[99.5806591,19.3523674],[99.5798108,19.3580711],[99.5754187,19.3620253],[99.5760383,19.3892594],[99.5634055,19.4043049],[99.5625865,19.4131674],[99.5648487,19.4173227],[99.5845137,19.4059327],[99.5955635,19.4059425],[99.6006655,19.4021513],[99.6057209,19.4016361],[99.6107274,19.3970943],[99.6156196,19.3958282],[99.6154003,19.3938317],[99.6177398,19.3928943],[99.6177077,19.3914059],[99.620483,19.3902094],[99.6211295,19.3914068],[99.622055,19.3893499],[99.6228814,19.3908607],[99.6281109,19.3896925],[99.6322952,19.3854741],[99.6347116,19.3878068],[99.6392911,19.3853646],[99.6400947,19.3877567],[99.6460743,19.3891257],[99.6504373,19.385593],[99.6600196,19.3853492],[99.6747292,19.3916008],[99.6814342,19.3915326],[99.6818687,19.3856691],[99.6837392,19.3827926],[99.6885705,19.381736],[99.6936154,19.3826842],[99.6955947,19.3814288],[99.6914222,19.3597825],[99.6949867,19.354242],[99.6994585,19.3518467],[99.7014705,19.3464573],[99.7073169,19.3447164],[99.7084011,19.3342739],[99.7080769,19.3290887],[99.7016281,19.3177151],[99.6980348,19.306087],[99.6983617,19.3018429],[99.7020175,19.2987175],[99.7029139,19.2846605],[99.7053072,19.2760613],[99.7034759,19.2675504],[99.7045465,19.2618065],[99.7021811,19.2545197],[99.7058729,19.2478337],[99.7031283,19.24454],[99.705177,19.2406617],[99.7098752,19.2373524],[99.7111462,19.2267368],[99.7151175,19.2202149],[99.7156295,19.2149831],[99.7141015,19.2114675],[99.7191407,19.2071166],[99.7221803,19.1988342],[99.7220525,19.19195],[99.7261536,19.1876637],[99.7285689,19.1814811],[99.7261393,19.1698884],[99.730142,19.1692567],[99.7332037,19.1665816],[99.734572,19.162454],[99.7391334,19.1591045],[99.7435826,19.142152],[99.758611,19.1340352],[99.7591613,19.1289574],[99.757324,19.120098],[99.7602326,19.1151922],[99.7622406,19.1044836],[99.7640961,19.1017787],[99.7651425,19.0965656],[99.7635283,19.0899544],[99.7691721,19.0779305],[99.7742724,19.0760316],[99.7732704,19.0642112],[99.7821186,19.0593177],[99.782178,19.0555953],[99.7875316,19.0562085],[99.7955008,19.0530969],[99.7992879,19.0562918],[99.8054522,19.0582668],[99.8125286,19.0583609],[99.8148295,19.0625073],[99.8192688,19.061445],[99.8186806,19.0548027],[99.8214875,19.0518153],[99.8215283,19.0482286],[99.8272725,19.0421419],[99.8336602,19.0391243],[99.8300136,19.0318703],[99.8350586,19.0264399],[99.8333264,19.0220131],[99.8341203,19.0170745],[99.8291809,19.0113554],[99.8307046,19.0082541],[99.8385285,19.0016255],[99.8459279,19.0042172],[99.848584,19.0022509],[99.8546712,19.00273],[99.857183,19.0001825],[99.8715119,18.9963118],[99.8765013,18.9998086],[99.8810831,19.0003089],[99.8837743,18.9991624],[99.8841242,18.9941486],[99.8874213,18.9919401],[99.8890782,18.987994],[99.8934913,18.9892706],[99.9026319,18.9861086],[99.9036213,18.9834784],[99.9058283,18.9827516],[99.9079656,18.9836361],[99.9099032,18.9881613],[99.9116427,18.9879738],[99.9144853,18.9830223],[99.9272208,18.9779171],[99.9274564,18.9734603],[99.9399217,18.9597061],[99.9406689,18.9548532],[99.9467446,18.942462],[99.951547,18.9391334],[99.9542658,18.9340327],[99.9647016,18.9287494],[99.9663544,18.9244659],[99.975734,18.9186542],[99.979438,18.920199],[99.9892304,18.913034],[99.9966422,18.9049187],[100.0018275,18.9075515],[100.0091685,18.9041692],[100.0120201,18.8994606],[100.0169984,18.8957165],[100.0227283,18.8954979],[100.0338253,18.9023222],[100.0373784,18.897596],[100.039583,18.8906445],[100.0432352,18.889774],[100.0452407,18.8850327],[100.0508772,18.8856965],[100.05502,18.8812106],[100.0611505,18.8799986],[100.0662629,18.8674293],[100.0703244,18.8652781],[100.0697268,18.857196],[100.0665189,18.8516476],[100.0692698,18.8486111],[100.0687924,18.8443612],[100.0643819,18.8408471],[100.0608991,18.8295873],[100.0661127,18.8275498],[100.0661354,18.8169636],[100.0689425,18.8163148],[100.0768358,18.8198103],[100.0805705,18.8243638],[100.0849082,18.8252634],[100.0854222,18.8277061],[100.0878728,18.827266]]]}}]}