{"type":"FeatureCollection","features":[{"type":"Feature","properties":{"id":"TH-LAO-3520102","nameTh":"ลำปาง","type":"city_municipality"},"geometry":{"type":"Polygon","coordinates":[[[99.4767621,18.3038678],[99.4823652,18.3021998],[99.4829714,18.3039136],[99.4982815,18.2994572],[99.5016396,18.3032057],[99.5016825,18.3038983],[99.50297,18.3055281],[99.503839,18.3057522],[99.5060491,18.3080949],[99.5084095,18.3085125],[99.5103514,18.308207],[99.5127332,18.3087774],[99.5143962,18.3080847],[99.5154047,18.3071476],[99.51563,18.3054491],[99.5140958,18.3034527],[99.5110032,18.3015428],[99.5112634,18.3001218],[99.5130658,18.2963809],[99.5129907,18.2952095],[99.5124167,18.293982],[99.5141709,18.2933453],[99.5145357,18.2929022],[99.5143479,18.2920134],[99.517014,18.2928105],[99.5177141,18.2937706],[99.5229149,18.2915627],[99.5187762,18.2845031],[99.5181432,18.2844904],[99.5170677,18.2851118],[99.516381,18.2849233],[99.5156944,18.2838435],[99.5159921,18.2824657],[99.5138517,18.2811184],[99.51368,18.2804944],[99.5139509,18.2795521],[99.5158231,18.2772854],[99.5160082,18.2761265],[99.5157588,18.2756146],[99.5128351,18.2745067],[99.5122102,18.2728843],[99.5123765,18.2717229],[99.5052069,18.2711116],[99.5060491,18.2616926],[99.504016,18.2616264],[99.5038317,18.2652329],[99.4994938,18.2660125],[99.4971389,18.2651719],[99.4963342,18.2652636],[99.4978791,18.2722985],[99.4952238,18.2741221],[99.4849502,18.2657577],[99.4822472,18.2694458],[99.4734335,18.2631394],[99.4716766,18.2611042],[99.465639,18.2559003],[99.4544595,18.2657017],[99.4549477,18.2664404],[99.4563317,18.2674286],[99.4624364,18.2693949],[99.4649362,18.2710657],[99.4651294,18.2721355],[99.464829,18.2730014],[99.4618356,18.2764653],[99.4615567,18.277973],[99.4624793,18.282211],[99.4638634,18.2846967],[99.4646144,18.285257],[99.4666099,18.2895151],[99.4693565,18.2915321],[99.47088,18.2917053],[99.4735005,18.2912469],[99.4707888,18.2984029],[99.4696811,18.2993426],[99.4710624,18.3010921],[99.4734013,18.3004096],[99.4767621,18.3038678]]]}},{"type":"Feature","properties":{"id":"TH-LAO-5521101","nameTh":"สบปราบ","type":"subdistrict_municipality"},"geometry":{"type":"Polygon","coordinates":[[[99.3426844,17.8966984],[99.3388959,17.8758528],[99.3391728,17.8708626],[99.3385475,17.8678811],[99.3366152,17.8657788],[99.3318405,17.8623889],[99.3292929,17.8611531],[99.3259353,17.860658],[99.3224875,17.8754733],[99.3240307,17.8750362],[99.3258961,17.8760242],[99.3272694,17.8776005],[99.3281063,17.8792383],[99.3285399,17.8817798],[99.327719,17.8873262],[99.3290428,17.893915],[99.3307541,17.895154],[99.3342088,17.8965793],[99.3352955,17.8981418],[99.3354252,17.8989032],[99.3387706,17.8981299],[99.3426844,17.8966984]]]}},{"type":"Feature","properties":{"id":"TH-LAO-4520106","nameTh":"พิชัย","type":"town_municipality"},"geometry":{"type":"Polygon","coordinates":[[[99.5701632,18.364652],[99.5776249,18.3541513],[99.5759616,18.3518036],[99.5682133,18.3465103],[99.560334,18.336744],[99.5599027,18.3353508],[99.5590122,18.334253],[99.5592356,18.332154],[99.5561785,18.3309177],[99.5529089,18.3274725],[99.5516528,18.3226072],[99.5523013,18.3210734],[99.5521241,18.3203957],[99.5440699,18.3163114],[99.5438002,18.3157604],[99.5437293,18.3130077],[99.5413179,18.3110624],[99.5404079,18.309654],[99.5387785,18.3094522],[99.5352677,18.3078436],[99.5350309,18.3068594],[99.5355664,18.3058621],[99.5352746,18.3052819],[99.5342482,18.3049267],[99.5331187,18.3040336],[99.5316435,18.3053079],[99.5277177,18.3076192],[99.5263866,18.3051603],[99.5212836,18.2980783],[99.5186587,18.2987467],[99.5172101,18.2998899],[99.5166034,18.3000191],[99.5162404,18.2991027],[99.5138197,18.2992246],[99.513637,18.2965032],[99.5130126,18.296608],[99.5112634,18.3001218],[99.5110032,18.3015428],[99.5138329,18.3031293],[99.51563,18.3054491],[99.5166236,18.3060822],[99.5177293,18.3062721],[99.524461,18.3061155],[99.5264859,18.3067008],[99.5271537,18.3074092],[99.5271276,18.3083645],[99.5243767,18.3104831],[99.5229438,18.3110725],[99.5225453,18.3121558],[99.5233083,18.3151922],[99.5258868,18.3181316],[99.5276546,18.3206247],[99.5279943,18.3215715],[99.5278568,18.3272541],[99.5310883,18.3289814],[99.5320322,18.3306114],[99.5329162,18.3333286],[99.5361606,18.3360743],[99.5366885,18.3369012],[99.5376455,18.3392517],[99.5373782,18.34446],[99.5375144,18.345362],[99.5382229,18.3462835],[99.5398102,18.3469915],[99.5416257,18.3465615],[99.5430086,18.3466811],[99.5452192,18.348039],[99.5457131,18.3493936],[99.5455769,18.3538099],[99.5465034,18.3564705],[99.5478556,18.3572497],[99.5493135,18.3569458],[99.5504682,18.3556688],[99.5518307,18.3532376],[99.5530944,18.3520285],[99.5535372,18.3520512],[99.5547974,18.3533734],[99.5556047,18.3551386],[99.5563132,18.3556753],[99.5607958,18.3581225],[99.5655678,18.3594286],[99.5684358,18.3610644],[99.5698869,18.3630687],[99.5701632,18.364652]]]}},{"type":"Feature","properties":{"id":"TH-LAO-5520901","nameTh":"แม่ปุ","type":"subdistrict_municipality"},"geometry":{"type":"Polygon","coordinates":[[[99.1785647,17.5360672],[99.1811216,17.5324751],[99.1808819,17.531316],[99.1775942,17.5266208],[99.1751644,17.5243314],[99.171307,17.5219352],[99.1696855,17.5192144],[99.1696674,17.5168501],[99.1701041,17.5163463],[99.1719555,17.5154829],[99.1729357,17.5143891],[99.1730504,17.5133998],[99.171817,17.5119518],[99.1705765,17.5114418],[99.1674367,17.5114598],[99.1601788,17.5106344],[99.160202,17.510121],[99.1589843,17.5100089],[99.1539294,17.5098109],[99.1499641,17.5100892],[99.1470415,17.5107113],[99.1454708,17.5106499],[99.1426642,17.5101342],[99.1402094,17.5072898],[99.1401048,17.5067249],[99.141181,17.5049561],[99.1423543,17.5045075],[99.1442016,17.5048268],[99.1455621,17.5046467],[99.1466821,17.5036645],[99.1468452,17.5031324],[99.1462272,17.5024693],[99.1454575,17.4998591],[99.1439315,17.4973447],[99.1442858,17.4937582],[99.1476647,17.4896454],[99.1497766,17.4892036],[99.1506281,17.4886903],[99.1165498,17.4799989],[99.1125577,17.4796599],[99.110434,17.4801155],[99.1096318,17.4807766],[99.1069611,17.4854671],[99.1046479,17.4885697],[99.1014529,17.4882996],[99.0923671,17.4894301],[99.0899637,17.4891052],[99.0889932,17.4909747],[99.0877769,17.4920689],[99.0872214,17.4941794],[99.0862524,17.4950142],[99.0850126,17.4969975],[99.0837659,17.4980955],[99.0831409,17.5032818],[99.0827348,17.5039739],[99.0817504,17.504133],[99.0801665,17.5031682],[99.0793763,17.5031293],[99.0771357,17.5038942],[99.0765814,17.5047012],[99.0751459,17.5056578],[99.0735887,17.5061477],[99.0693328,17.50484],[99.067003,17.5048221],[99.0651244,17.5055417],[99.0641026,17.5070181],[99.07103,17.5110087],[99.1368288,17.5715337],[99.1377587,17.5704568],[99.1387291,17.5704393],[99.1386546,17.5697409],[99.1392516,17.569919],[99.1396461,17.5696588],[99.1401427,17.5701825],[99.1406723,17.5696134],[99.1506773,17.5674195],[99.1609704,17.5596047],[99.1648708,17.5559783],[99.1662875,17.5510372],[99.1696686,17.5480216],[99.1723502,17.5426406],[99.1737405,17.5412307],[99.1752386,17.5389708],[99.1771326,17.5385436],[99.1767815,17.5378033],[99.1775642,17.5375294],[99.1776945,17.536463],[99.1785647,17.5360672]]]}},{"type":"Feature","properties":{"id":"TH-LAO-5520401","nameTh":"เสริมงาม","type":"subdistrict_municipality"},"geometry":{"type":"Polygon","coordinates":[[[99.2090254,18.0527762],[99.2255034,18.0757345],[99.2642234,18.0840504],[99.2686054,18.0827919],[99.2230586,18.0137547],[99.1833178,18.0453424],[99.1804099,18.0576852],[99.1836644,18.0580583],[99.1898442,18.0578461],[99.1957458,18.0583294],[99.1971535,18.0581825],[99.201659,18.0568987],[99.2090254,18.0527762]]]}},{"type":"Feature","properties":{"id":"TH-LAO-5520105","nameTh":"บ่อแฮ้ว","type":"subdistrict_municipality"},"geometry":{"type":"Polygon","coordinates":[[[99.4348263,18.3172425],[99.4416845,18.3163431],[99.4575746,18.3126423],[99.4637992,18.3123342],[99.468197,18.3101319],[99.4671135,18.30846],[99.4657708,18.3053638],[99.4654324,18.3037422],[99.4645376,18.3027977],[99.4653267,18.3023096],[99.4658889,18.3014519],[99.4683362,18.3011544],[99.4693326,18.2996506],[99.4707888,18.2984029],[99.4735005,18.2912469],[99.47088,18.2917053],[99.4693565,18.2915321],[99.4684017,18.2909616],[99.4666099,18.2895151],[99.4646144,18.285257],[99.4637048,18.2844527],[99.4311363,18.3023731],[99.4320849,18.3031124],[99.4324013,18.3039351],[99.4321363,18.3044356],[99.431747,18.3044548],[99.4319646,18.3052261],[99.4317673,18.3057497],[99.4327297,18.3058806],[99.4335603,18.3065883],[99.4336654,18.3069794],[99.4332779,18.3075955],[99.4339536,18.308187],[99.4342959,18.3094869],[99.4338202,18.3104238],[99.4347364,18.3119386],[99.435568,18.3124146],[99.4353817,18.3129499],[99.4358301,18.3147014],[99.4348263,18.3172425]]]}},{"type":"Feature","properties":{"id":"TH-LAO-5521201","nameTh":"ห้างฉัตร","type":"subdistrict_municipality"},"geometry":{"type":"Polygon","coordinates":[[[99.3572995,18.3330312],[99.3411279,18.332543],[99.3418931,18.3308875],[99.3441633,18.3300598],[99.3450608,18.3287397],[99.3452261,18.3270592],[99.346123,18.3261731],[99.3459814,18.3240506],[99.3473375,18.3227572],[99.3478117,18.3169456],[99.3491474,18.3153998],[99.3486864,18.3244092],[99.3575785,18.3249395],[99.3572995,18.3330312]]]}},{"type":"Feature","properties":{"id":"TH-LAO-5520601","nameTh":"แจ้ห่ม","type":"subdistrict_municipality"},"geometry":{"type":"Polygon","coordinates":[[[99.5672719,18.7252325],[99.5775004,18.7232142],[99.5766121,18.7202408],[99.5768969,18.7180771],[99.5765824,18.7163458],[99.5771331,18.714519],[99.5768499,18.7113876],[99.5779675,18.7090807],[99.5778994,18.7082032],[99.5738801,18.703609],[99.5729803,18.7011472],[99.5725729,18.6979839],[99.5717799,18.6968074],[99.5684946,18.6988733],[99.5657673,18.698794],[99.5660299,18.7006931],[99.5639957,18.7027377],[99.5643495,18.7038102],[99.5672334,18.7057222],[99.5689043,18.7077234],[99.5685449,18.7092349],[99.5678399,18.7098914],[99.5668589,18.7102318],[99.5665915,18.7106883],[99.5669662,18.7128434],[99.5663905,18.7143338],[99.5666511,18.715613],[99.5660022,18.7173534],[99.566084,18.7182374],[99.567627,18.7202972],[99.5673086,18.7226546],[99.5677763,18.7241883],[99.5672719,18.7252325]]]}},{"type":"Feature","properties":{"id":"TH-LAO-5520701","nameTh":"บ้านใหม่","type":"subdistrict_municipality"},"geometry":{"type":"Polygon","coordinates":[[[99.6186028,19.198511],[99.6212338,19.1952311],[99.6239981,19.1945343],[99.6210647,19.1807888],[99.6218847,19.1773298],[99.6219928,19.1755717],[99.6231905,19.1749448],[99.6236663,19.1743486],[99.6231764,19.1719518],[99.6226178,19.1715143],[99.6210476,19.1712505],[99.6202982,19.1701469],[99.6208432,19.1667237],[99.622102,19.1649436],[99.6220117,19.1629263],[99.6223614,19.1623598],[99.620597,19.1611902],[99.6195837,19.1615087],[99.6192601,19.1622841],[99.6179879,19.1627298],[99.6160514,19.1625737],[99.6142169,19.1618555],[99.6123295,19.1618872],[99.6121311,19.1634016],[99.6110153,19.1635537],[99.6093287,19.1630774],[99.6087554,19.1632104],[99.6078167,19.1645406],[99.6092145,19.180252],[99.617027,19.186372],[99.6164991,19.1876066],[99.6168338,19.1890292],[99.6168166,19.191226],[99.6160849,19.1934288],[99.6172393,19.1954249],[99.6173509,19.1965394],[99.6186028,19.198511]]]}},{"type":"Feature","properties":{"id":"TH-LAO-5520902","nameTh":"แม่พริก","type":"subdistrict_municipality"},"geometry":{"type":"Polygon","coordinates":[[[99.0927564,17.4516369],[99.0923936,17.4440288],[99.0720448,17.4400229],[99.086711,17.4242531],[99.088831,17.4228691],[99.0907536,17.4222631],[99.0939294,17.4204614],[99.0952855,17.4194132],[99.0970708,17.4171365],[99.1006989,17.4159033],[99.102477,17.4140345],[99.1039791,17.41356],[99.1053121,17.4116705],[99.1074989,17.4106825],[99.1097842,17.4055521],[99.1116676,17.4034371],[99.1101609,17.3998564],[99.1127121,17.3989576],[99.1184413,17.4008493],[99.1264054,17.4010914],[99.1270663,17.4013945],[99.1274311,17.4019596],[99.1273796,17.402537],[99.1241695,17.4066485],[99.1212685,17.4090195],[99.1178352,17.4112553],[99.1172688,17.4121439],[99.1172044,17.4130447],[99.1176765,17.4141299],[99.1192128,17.4151618],[99.1289074,17.4175286],[99.1306927,17.4183393],[99.1327655,17.4198503],[99.1375512,17.4215083],[99.1382108,17.4223776],[99.1378404,17.4232933],[99.1351802,17.4261255],[99.1338663,17.4281013],[99.1332445,17.4329892],[99.13355,17.4373173],[99.1325389,17.438563],[99.1310601,17.4396541],[99.1301436,17.442192],[99.1294229,17.4424972],[99.1286667,17.4462862],[99.1293888,17.4471376],[99.1305833,17.4473969],[99.1365077,17.4468299],[99.1388852,17.4501543],[99.1389646,17.4515667],[99.1382308,17.4525779],[99.1357631,17.4531675],[99.1335208,17.4531531],[99.1308858,17.4520211],[99.1290841,17.4521294],[99.1282341,17.4535244],[99.1285451,17.455451],[99.1272906,17.459077],[99.1276286,17.4598559],[99.1287586,17.4603072],[99.1295372,17.460088],[99.1307565,17.4590151],[99.1317757,17.4590538],[99.1395696,17.4633354],[99.1349777,17.4710335],[99.13027,17.4689464],[99.115186,17.4691249],[99.1151157,17.4665899],[99.1160295,17.4648444],[99.1042074,17.4557952],[99.0927564,17.4516369]]]}},{"type":"Feature","properties":{"id":"TH-LAO-5520302","nameTh":"เกาะคา","type":"subdistrict_municipality"},"geometry":{"type":"Polygon","coordinates":[[[99.3794909,18.1967943],[99.389318,18.1908642],[99.3888185,18.1903432],[99.3883481,18.1885354],[99.3859537,18.1843911],[99.3840495,18.182513],[99.3838938,18.1818645],[99.3967002,18.1786651],[99.3988309,18.1802104],[99.4012727,18.1798236],[99.4022264,18.1820373],[99.4036457,18.1829209],[99.403301,18.1836367],[99.4037645,18.1840281],[99.4034062,18.1843502],[99.4035499,18.1847131],[99.4027667,18.1845133],[99.4030799,18.1849347],[99.4028052,18.1852935],[99.4032966,18.1855524],[99.4026021,18.1859268],[99.4031698,18.1860372],[99.4039053,18.18751],[99.4051928,18.187828],[99.4045192,18.1892765],[99.4048493,18.1902857],[99.4053568,18.1905429],[99.4056773,18.1919314],[99.4063072,18.1924553],[99.4090086,18.193138],[99.411477,18.1963765],[99.4063049,18.2011788],[99.4022492,18.203694],[99.3999359,18.2044887],[99.3989933,18.2032415],[99.3983836,18.2009879],[99.3966831,18.197671],[99.3956653,18.1965345],[99.3945176,18.1959284],[99.3932095,18.1970063],[99.3924349,18.1982365],[99.3915997,18.1986639],[99.3794909,18.1967943]]]}},{"type":"Feature","properties":{"id":"TH-LAO-5520304","nameTh":"ศาลา","type":"subdistrict_municipality"},"geometry":{"type":"Polygon","coordinates":[[[99.3999359,18.2044887],[99.4009996,18.2054881],[99.4042457,18.207245],[99.4073283,18.2117684],[99.4119948,18.214936],[99.4162185,18.2197536],[99.4202651,18.2229502],[99.421109,18.224027],[99.4275119,18.2218851],[99.4308941,18.2203798],[99.4324244,18.2190238],[99.43237,18.2176571],[99.4327426,18.2177301],[99.4328188,18.2173001],[99.4332255,18.2171064],[99.4333102,18.2162684],[99.4338043,18.215877],[99.432991,18.2160476],[99.4325838,18.2157905],[99.4330203,18.2148795],[99.432252,18.2140685],[99.4312221,18.2098102],[99.4306945,18.1998219],[99.4259231,18.1837176],[99.4253433,18.1783923],[99.4227292,18.1796912],[99.4188818,18.1783131],[99.4178057,18.1782815],[99.4160569,18.17873],[99.4144347,18.1796974],[99.4122346,18.1799946],[99.410872,18.1809437],[99.409769,18.1809141],[99.4056259,18.1817976],[99.4055234,18.1810031],[99.4060802,18.1807105],[99.4055556,18.1799112],[99.4055363,18.1781417],[99.4051436,18.1767248],[99.4037846,18.1738729],[99.403127,18.1734813],[99.4027216,18.1727046],[99.4023112,18.1695411],[99.4008908,18.1672983],[99.4005278,18.1660651],[99.4007209,18.1649744],[99.4018045,18.1646604],[99.402047,18.1629885],[99.4029145,18.1620705],[99.4014658,18.1618896],[99.3995009,18.160912],[99.3955068,18.1626084],[99.3951485,18.1622557],[99.3941919,18.1624907],[99.3938797,18.1618648],[99.3934323,18.1622318],[99.392662,18.1618536],[99.3916209,18.1630971],[99.3920012,18.163902],[99.3921729,18.16726],[99.3914862,18.1695373],[99.3924475,18.1705913],[99.3952327,18.1708829],[99.3975703,18.1725082],[99.398493,18.1735269],[99.3986045,18.1750437],[99.3981411,18.1763485],[99.396348,18.1787531],[99.3967002,18.1786651],[99.3988309,18.1802104],[99.4012727,18.1798236],[99.4022264,18.1820373],[99.4036457,18.1829209],[99.403301,18.1836367],[99.4037645,18.1840281],[99.4034062,18.1843502],[99.4035499,18.1847131],[99.4027667,18.1845133],[99.4030799,18.1849347],[99.4028052,18.1852935],[99.4032966,18.1855524],[99.4026021,18.1859268],[99.4031698,18.1860372],[99.4039053,18.18751],[99.4051928,18.187828],[99.4045192,18.1892765],[99.4048493,18.1902857],[99.4053568,18.1905429],[99.4056773,18.1919314],[99.4063072,18.1924553],[99.4090086,18.193138],[99.411477,18.1963765],[99.4063049,18.2011788],[99.4022492,18.203694],[99.3999359,18.2044887]]]}},{"type":"Feature","properties":{"id":"TH-LAO-5520307","nameTh":"ท่าผา","type":"subdistrict_municipality"},"geometry":{"type":"MultiPolygon","coordinates":[[[[99.391735,18.1986351],[99.3945176,18.1959284],[99.3953584,18.1963059],[99.3966831,18.197671],[99.3983836,18.2009879],[99.3989933,18.2032415],[99.4003559,18.2049639],[99.4042457,18.207245],[99.4073283,18.2117684],[99.4119948,18.214936],[99.4162185,18.2197536],[99.4202651,18.2229502],[99.421109,18.224027],[99.418897,18.224873],[99.4164938,18.2263799],[99.4130758,18.2301975],[99.4113493,18.2315996],[99.4097982,18.2312976],[99.409392,18.2302155],[99.4094449,18.2290958],[99.4090369,18.2285072],[99.4092843,18.2271937],[99.4072251,18.2248448],[99.4077555,18.2229643],[99.4073101,18.2219955],[99.4045357,18.2204128],[99.40421,18.2195791],[99.4034431,18.2194414],[99.402685,18.2183957],[99.4015972,18.2183629],[99.4013202,18.2179673],[99.4018029,18.2176828],[99.4017406,18.2174065],[99.4007298,18.2178174],[99.4006893,18.2171845],[99.4000986,18.2169252],[99.3999141,18.2163441],[99.3971653,18.2164814],[99.3965305,18.2157196],[99.39635,18.2148166],[99.3966239,18.2145573],[99.3955766,18.2112427],[99.3943699,18.2100172],[99.3934162,18.2096305],[99.3933034,18.2090549],[99.3921732,18.2091239],[99.3920788,18.2084675],[99.3914224,18.208071],[99.3897809,18.2090984],[99.3900955,18.2077282],[99.389769,18.2064994],[99.3897569,18.2038423],[99.3865835,18.1978838],[99.391735,18.1986351]]],[[[99.3480983,18.1633724],[99.3488787,18.1642448],[99.3495248,18.1643732],[99.3498114,18.1657475],[99.3504089,18.1664077],[99.3496654,18.1668932],[99.3496248,18.1675585],[99.3487449,18.1686873],[99.3481421,18.1703217],[99.348544,18.1708346],[99.3483994,18.1710417],[99.3488296,18.1710162],[99.3485169,18.172408],[99.3492809,18.1735004],[99.3499637,18.1735178],[99.3497773,18.1743318],[99.3514126,18.17566],[99.3546928,18.177058],[99.3560882,18.1784625],[99.3574115,18.1788703],[99.3591844,18.1809512],[99.3609011,18.1815013],[99.3617273,18.1822032],[99.3635984,18.1824927],[99.3676294,18.1849813],[99.371039,18.1857175],[99.3738718,18.1875396],[99.3768349,18.1879454],[99.3798033,18.1893079],[99.3811483,18.1895892],[99.3837558,18.1908361],[99.386377,18.1926389],[99.389318,18.1908642],[99.3888185,18.1903432],[99.3883481,18.1885354],[99.3859537,18.1843911],[99.3840495,18.182513],[99.3838938,18.1818645],[99.396348,18.1787531],[99.3979415,18.1767236],[99.3985466,18.1753149],[99.3985681,18.1737287],[99.3975703,18.1725082],[99.3952327,18.1708829],[99.3927093,18.1706668],[99.3916729,18.1699593],[99.3914969,18.1691703],[99.3920784,18.1679348],[99.3921814,18.1665933],[99.3917094,18.1631599],[99.3871707,18.1617085],[99.3852286,18.1605058],[99.3843444,18.1592635],[99.3835963,18.1571309],[99.3770955,18.1586525],[99.3733146,18.1606447],[99.3716804,18.1603955],[99.3703016,18.1605724],[99.3679173,18.1598263],[99.3649894,18.1609989],[99.3631547,18.1623869],[99.3601317,18.1635634],[99.3586216,18.1631177],[99.3557678,18.1633807],[99.3520554,18.1645978],[99.3480983,18.1633724]]]]}},{"type":"Feature","properties":{"id":"TH-LAO-5520104","nameTh":"ต้นธงชัย","type":"subdistrict_municipality"},"geometry":{"type":"Polygon","coordinates":[[[99.4780034,18.4223567],[99.4798947,18.4233126],[99.4798663,18.4226988],[99.4801366,18.4225192],[99.4815479,18.4228373],[99.4808749,18.4236377],[99.482802,18.4239629],[99.4830148,18.424816],[99.4840738,18.4256006],[99.4840888,18.4266551],[99.4849342,18.4268363],[99.4848677,18.4281127],[99.485509,18.4279457],[99.485225,18.4291402],[99.4854782,18.429584],[99.4852165,18.4299566],[99.485622,18.4306141],[99.4853428,18.4314936],[99.4848697,18.4318296],[99.4851243,18.43215],[99.4858346,18.4321378],[99.4850835,18.4326324],[99.4855706,18.4331251],[99.4855771,18.433748],[99.4859461,18.433577],[99.4865181,18.4344035],[99.4876173,18.434274],[99.4884608,18.4348613],[99.488377,18.4353486],[99.4893232,18.4352461],[99.4900147,18.4360921],[99.4912384,18.4365671],[99.4913031,18.437278],[99.492359,18.438102],[99.4934209,18.4405607],[99.4962386,18.4410871],[99.4969536,18.444971],[99.4989988,18.4505332],[99.5004972,18.4564506],[99.5011682,18.4622459],[99.5017746,18.4612993],[99.5023945,18.4611054],[99.5055759,18.4607048],[99.5108106,18.4594525],[99.5129293,18.4585284],[99.5152182,18.4582376],[99.5165943,18.4575591],[99.5170644,18.4566157],[99.5168795,18.4536218],[99.5171026,18.453003],[99.5167765,18.4523924],[99.5175187,18.4520887],[99.5170285,18.4508724],[99.5176995,18.4501914],[99.5248836,18.4513801],[99.525342,18.451213],[99.5262072,18.44899],[99.5247221,18.4463059],[99.5249247,18.4437307],[99.5241688,18.4431038],[99.5240337,18.4421241],[99.5229739,18.4415342],[99.5226617,18.4408972],[99.5231771,18.4399713],[99.5227777,18.4390162],[99.5233828,18.4385541],[99.5236639,18.4363617],[99.5221831,18.4352591],[99.52015,18.4348789],[99.518901,18.4339812],[99.5192092,18.4329681],[99.5197628,18.4323699],[99.5197871,18.4309105],[99.521028,18.4290606],[99.5210604,18.4281911],[99.5199166,18.4271376],[99.520556,18.4262378],[99.5197379,18.425005],[99.5199074,18.4236166],[99.5193522,18.4232823],[99.5200543,18.4219711],[99.5192303,18.4207609],[99.519476,18.4198878],[99.5190919,18.4197371],[99.5188279,18.4200079],[99.5185297,18.419165],[99.5178452,18.4191508],[99.5179095,18.418635],[99.5187528,18.4177861],[99.5185382,18.417609],[99.5181799,18.4178757],[99.5179052,18.4176029],[99.5185961,18.4171794],[99.5183279,18.4165707],[99.5179264,18.41663],[99.5171678,18.4150859],[99.517449,18.414164],[99.5166596,18.4137588],[99.5172138,18.4131996],[99.5165568,18.4132611],[99.5169353,18.4126378],[99.5166069,18.4117139],[99.517963,18.4109952],[99.5174064,18.4106305],[99.5168292,18.4108055],[99.5166271,18.4103234],[99.5169164,18.410013],[99.5172922,18.4101028],[99.5178185,18.4092663],[99.5173082,18.4065373],[99.5179974,18.4063126],[99.5187153,18.405161],[99.5194443,18.4052923],[99.5202434,18.4050105],[99.5202216,18.4043485],[99.5197774,18.4038651],[99.5202267,18.4033286],[99.5195589,18.4025052],[99.5203452,18.4016388],[99.5211887,18.4018619],[99.5208021,18.4006691],[99.5216174,18.4002098],[99.5212121,18.4002486],[99.5210247,18.3999286],[99.522093,18.3992413],[99.5204846,18.3969631],[99.5205392,18.3966066],[99.5196728,18.3962785],[99.5201015,18.3955451],[99.5192603,18.394601],[99.5216502,18.3919448],[99.5225946,18.3915047],[99.5221877,18.389158],[99.5215844,18.3877289],[99.52382,18.3866719],[99.5243925,18.3844266],[99.5250617,18.383925],[99.5273933,18.3798843],[99.5270742,18.3778036],[99.5279177,18.3755368],[99.5281444,18.3739303],[99.5301007,18.3712836],[99.5318481,18.3676717],[99.5328233,18.3671376],[99.5334816,18.3659881],[99.5334559,18.3633953],[99.5342508,18.3604533],[99.5349951,18.3597699],[99.5356162,18.3583555],[99.5352026,18.3577241],[99.5354887,18.3568556],[99.5346237,18.3563855],[99.533918,18.3583582],[99.5322287,18.3598228],[99.5306816,18.3603961],[99.5273451,18.3575522],[99.5272046,18.3568547],[99.528404,18.354704],[99.5294759,18.353866],[99.5295856,18.3531511],[99.5289912,18.3523904],[99.5288957,18.3514729],[99.5313719,18.350422],[99.5323906,18.3494616],[99.5340057,18.3491566],[99.5366892,18.3476168],[99.5365443,18.3471008],[99.5371096,18.3464227],[99.5385865,18.3487479],[99.5391285,18.3490167],[99.539182,18.3487737],[99.5388413,18.3484084],[99.5389249,18.3478474],[99.5382369,18.347343],[99.5382719,18.3463141],[99.5375144,18.345362],[99.5376455,18.3392517],[99.5366885,18.3369012],[99.5361606,18.3360743],[99.5329162,18.3333286],[99.5320322,18.3306114],[99.5310883,18.3289814],[99.5278568,18.3272541],[99.5276894,18.3259505],[99.5280837,18.3223819],[99.5276546,18.3206247],[99.523121,18.3148139],[99.5225453,18.3121558],[99.5227565,18.3112698],[99.5243767,18.3104831],[99.5271276,18.3083645],[99.5271537,18.3074092],[99.5258506,18.3064056],[99.5229092,18.306036],[99.5200002,18.3063209],[99.5169723,18.3062028],[99.51563,18.3054491],[99.5154047,18.3071476],[99.5143962,18.3080847],[99.5127332,18.3087774],[99.5103514,18.308207],[99.5084095,18.3085125],[99.5060491,18.3080949],[99.503839,18.3057522],[99.50297,18.3055281],[99.5016825,18.3038983],[99.5016396,18.3032057],[99.4982815,18.2994572],[99.4959942,18.3085017],[99.4944919,18.3124534],[99.4945971,18.3144089],[99.4926366,18.3159947],[99.4909796,18.3194994],[99.4892835,18.3220743],[99.4887563,18.324737],[99.4879655,18.3253606],[99.4872383,18.3270198],[99.4869468,18.3296351],[99.4857579,18.3345578],[99.4874744,18.3371178],[99.4873732,18.3396514],[99.4793187,18.3399551],[99.4788737,18.3408149],[99.47926,18.3442888],[99.478226,18.3476646],[99.4744114,18.3482508],[99.4691933,18.3539373],[99.4689427,18.3622829],[99.4692863,18.3624187],[99.4694566,18.3635733],[99.4713166,18.3637812],[99.4726642,18.3646556],[99.4708045,18.3651825],[99.4703839,18.3668326],[99.4707007,18.3670977],[99.4706155,18.3676149],[99.46989,18.3678703],[99.4692769,18.3677022],[99.4691611,18.3679834],[99.4697538,18.3683843],[99.470084,18.3691625],[99.4695731,18.3698284],[99.4703088,18.3707287],[99.4705322,18.3722572],[99.4710636,18.3725876],[99.4707077,18.3737222],[99.4714179,18.373824],[99.4716767,18.3746127],[99.4710492,18.3748221],[99.4711779,18.3755695],[99.4708582,18.3759075],[99.4714118,18.3762191],[99.4720749,18.376105],[99.4717573,18.3764023],[99.4709934,18.3763474],[99.4707745,18.3769073],[99.4716393,18.3770438],[99.4717766,18.3778807],[99.4725219,18.3784255],[99.4724897,18.3788897],[99.471728,18.3790119],[99.4717945,18.3794396],[99.4727107,18.3795027],[99.4736821,18.3803678],[99.4739972,18.381205],[99.4736599,18.381984],[99.473304,18.3815056],[99.4725462,18.3820997],[99.4731113,18.3826077],[99.4722256,18.3833861],[99.4725496,18.384164],[99.4717273,18.384552],[99.4713219,18.384198],[99.4710307,18.3844873],[99.471201,18.3854182],[99.4705958,18.3858821],[99.4707607,18.3863439],[99.4700619,18.3860931],[99.46902,18.3866877],[99.4693958,18.3870597],[99.4689253,18.388091],[99.4695967,18.3879622],[99.4692384,18.3888474],[99.4697762,18.3890877],[99.4695228,18.3895902],[99.4688254,18.3894436],[99.4691018,18.3908612],[99.4685718,18.3910323],[99.4688598,18.3914853],[99.4684,18.3925797],[99.4686468,18.3928586],[99.4697309,18.3929301],[99.4689713,18.3933648],[99.4687873,18.3940032],[99.4700306,18.3945041],[99.4692506,18.3952378],[99.4695946,18.3955239],[99.4693068,18.3958245],[99.4696593,18.3974551],[99.4690122,18.3974389],[99.4688265,18.3980094],[99.4681231,18.3974906],[99.4680857,18.3982308],[99.4685574,18.39847],[99.4673752,18.3989335],[99.4678132,18.3995825],[99.46734,18.3997749],[99.4673184,18.4011268],[99.466875,18.4016552],[99.4672643,18.4019939],[99.4668696,18.4024941],[99.4676591,18.4024941],[99.467951,18.4034253],[99.4689324,18.4035689],[99.468854,18.4041256],[99.4693055,18.4044744],[99.4686161,18.405344],[99.4702652,18.4062675],[99.4704367,18.4068148],[99.4699528,18.4072021],[99.4711609,18.407348],[99.4713278,18.4085018],[99.4706568,18.4088605],[99.4709191,18.4092096],[99.4705949,18.4113917],[99.4714188,18.411636],[99.4716506,18.4125603],[99.472732,18.4127924],[99.4731569,18.4143723],[99.4740888,18.414937],[99.4741841,18.4157191],[99.474678,18.4154605],[99.4753491,18.4156512],[99.4746576,18.416485],[99.4755671,18.4168469],[99.475751,18.4172509],[99.4751617,18.4179069],[99.4756045,18.4183917],[99.4752282,18.4194125],[99.4759258,18.4192213],[99.4755932,18.4203227],[99.4760202,18.4208092],[99.4764579,18.4206057],[99.4768227,18.4211248],[99.4775262,18.4211353],[99.477391,18.4218336],[99.4776678,18.4221858],[99.47723,18.4223324],[99.4777673,18.4231446],[99.4781857,18.4230041],[99.4777738,18.4225725],[99.4780034,18.4223567]]]}},{"type":"Feature","properties":{"id":"TH-LAO-6521103","nameTh":"แม่กัวะ","type":"subdistrict_admin_org"},"geometry":{"type":"Polygon","coordinates":[[[99.3695334,17.9238604],[99.3701901,17.9256029],[99.3699348,17.9259541],[99.3711622,17.9260786],[99.3716612,17.9265692],[99.3716381,17.9270716],[99.372214,17.9271333],[99.3721281,17.9274928],[99.3724976,17.9277877],[99.3721575,17.9284172],[99.3733725,17.9287732],[99.3737387,17.9284588],[99.3752919,17.9286273],[99.3772011,17.9305961],[99.416433,17.9509059],[99.4185078,17.9514923],[99.4186204,17.951966],[99.41732,17.9570008],[99.4163098,17.9642355],[99.4166344,17.9650213],[99.418272,17.9657956],[99.4190793,17.9667343],[99.4195049,17.9678174],[99.4193842,17.9686796],[99.4182131,17.9697923],[99.4150055,17.9695772],[99.4127272,17.9699085],[99.4111606,17.9711134],[99.409291,17.9711566],[99.4074913,17.9719048],[99.4030001,17.9730393],[99.4035351,17.9759768],[99.4032556,17.9789266],[99.4044158,17.9809044],[99.4053307,17.9814712],[99.4088303,17.9812532],[99.4091308,17.9827061],[99.4098917,17.9833365],[99.4119611,17.9834058],[99.4162732,17.9823117],[99.4184032,17.9847297],[99.4215337,17.9866504],[99.4212738,17.9884521],[99.4202081,17.989276],[99.4200881,17.9897397],[99.4208649,17.9924134],[99.4223984,17.993853],[99.4217637,17.9954238],[99.4237928,17.9969993],[99.4225216,17.999393],[99.4223816,18.0006678],[99.422805,18.0028261],[99.4243796,18.0061893],[99.4240457,18.0070425],[99.4225746,18.0071622],[99.4199337,18.0065597],[99.4182094,18.0065472],[99.4146782,18.0074283],[99.4108414,18.0077276],[99.406695,18.0087008],[99.4033863,18.0077756],[99.4023552,18.0078101],[99.4008515,18.0082015],[99.3993125,18.0091697],[99.3981832,18.0091265],[99.3957029,18.0109172],[99.3938378,18.0114328],[99.3907218,18.0106771],[99.3874938,18.0089763],[99.3861534,18.0088779],[99.3851321,18.0093235],[99.3804814,18.0134726],[99.3772857,18.0143088],[99.358985,18.012528],[99.3572387,18.0119682],[99.3563896,18.009901],[99.3551193,17.9991221],[99.355928,17.9944952],[99.3446879,17.99106],[99.3385723,17.988339],[99.3290506,17.985288],[99.318929,17.982669],[99.3115312,17.9814076],[99.310241,17.980534],[99.3019861,17.979149],[99.3013657,17.9798339],[99.2998952,17.9831521],[99.2985746,17.9832136],[99.2907094,17.9815007],[99.2892631,17.9807445],[99.2885782,17.9800169],[99.2875212,17.9797211],[99.2854209,17.9780589],[99.2840309,17.977705],[99.2828207,17.9769743],[99.2825203,17.9764232],[99.284576,17.9754068],[99.2845481,17.9738207],[99.2847952,17.9735413],[99.2875095,17.9725023],[99.2892073,17.9711857],[99.2887748,17.9704451],[99.2889714,17.9692662],[99.2881046,17.9679982],[99.2865854,17.9668901],[99.2864626,17.9650217],[99.2861042,17.9643357],[99.2864561,17.9639295],[99.2862737,17.9626456],[99.2859003,17.9623864],[99.2857604,17.9615788],[99.2864363,17.9611808],[99.2865865,17.9607297],[99.2874875,17.960511],[99.2882387,17.9595382],[99.2901315,17.9590814],[99.2914834,17.9582166],[99.2916321,17.9576405],[99.292216,17.9572162],[99.2914503,17.9559641],[99.2916449,17.9556812],[99.2908172,17.9548919],[99.2910172,17.9542438],[99.2903216,17.9531264],[99.2908346,17.9526239],[99.2906337,17.9520018],[99.2911003,17.9518786],[99.2907427,17.9514833],[99.2913932,17.9514347],[99.2914028,17.9506899],[99.291866,17.9505019],[99.2920567,17.9497404],[99.2914895,17.9493729],[99.2919625,17.948272],[99.2933584,17.9480967],[99.2933209,17.9474],[99.2940635,17.9469301],[99.2943291,17.9461556],[99.295058,17.9463836],[99.2954013,17.9458203],[99.2959772,17.945648],[99.2978294,17.945896],[99.2994167,17.9442952],[99.3013578,17.9445276],[99.3020843,17.9431839],[99.3016659,17.942843],[99.301756,17.9424612],[99.3024831,17.9423491],[99.30282,17.9419367],[99.3038288,17.9418991],[99.3042208,17.9413847],[99.3029962,17.9399801],[99.3034322,17.9395621],[99.3039806,17.9399639],[99.3042599,17.9398181],[99.3038409,17.9387519],[99.3046673,17.9383014],[99.3042963,17.9374301],[99.3053799,17.9377404],[99.3061953,17.9372178],[99.3055993,17.9366791],[99.3063201,17.9363376],[99.3070708,17.934507],[99.3094781,17.9341294],[99.3096825,17.93376],[99.3092652,17.9335882],[99.3093787,17.9333193],[99.3128645,17.9338071],[99.3125293,17.9333364],[99.3136539,17.9334316],[99.3135289,17.9323656],[99.3138354,17.9320674],[99.3155045,17.9326864],[99.3163392,17.931209],[99.3161225,17.9307455],[99.3168392,17.9303086],[99.3173885,17.9293757],[99.3186463,17.9288758],[99.3189256,17.9280786],[99.3181081,17.9276897],[99.3180264,17.9273656],[99.3186259,17.927142],[99.3194016,17.9261397],[99.3201504,17.9263352],[99.3205451,17.9257179],[99.3211669,17.9257281],[99.3212075,17.9253475],[99.3218355,17.9251959],[99.3221339,17.9245642],[99.3228339,17.9246285],[99.3231394,17.92406],[99.3226393,17.9236506],[99.3228813,17.9229105],[99.3252374,17.9214712],[99.3259008,17.9214189],[99.3263009,17.9207398],[99.3276618,17.9202669],[99.3277969,17.9197648],[99.328565,17.9191564],[99.328448,17.9181568],[99.3290644,17.9178507],[99.32894,17.9170918],[99.3294807,17.917133],[99.3295889,17.9168732],[99.3293212,17.9162455],[99.3301064,17.9160993],[99.3299021,17.9150395],[99.3314604,17.9153803],[99.3321439,17.9138118],[99.3320451,17.9134067],[99.3310607,17.9133613],[99.3315904,17.911152],[99.3305603,17.9093338],[99.3317525,17.9069748],[99.3327216,17.9080772],[99.3340545,17.9121069],[99.3366525,17.9136143],[99.337133,17.9156742],[99.3392372,17.917836],[99.3391183,17.918546],[99.3399586,17.9191865],[99.3403915,17.9185223],[99.3398786,17.9173095],[99.3403132,17.9152894],[99.3423381,17.9146026],[99.3429518,17.9154849],[99.3436237,17.9152132],[99.3444158,17.9154705],[99.3452981,17.9165718],[99.345946,17.9165157],[99.3463795,17.9169424],[99.3486156,17.9159256],[99.3491864,17.916879],[99.3491907,17.9175896],[99.349931,17.9178693],[99.3508356,17.9173825],[99.3519852,17.9179594],[99.3534397,17.9177131],[99.3541462,17.9179276],[99.3547031,17.9175469],[99.3556953,17.9174723],[99.3562299,17.917945],[99.3578334,17.9175572],[99.3579254,17.9189926],[99.3596782,17.9187953],[99.3598709,17.9195932],[99.3608485,17.9198622],[99.3609592,17.9203418],[99.361545,17.9201004],[99.3617375,17.9204326],[99.3621037,17.9201555],[99.3631416,17.9203871],[99.3635193,17.9207934],[99.3641287,17.9206137],[99.3647402,17.9212079],[99.3651758,17.9209465],[99.3659775,17.9215331],[99.3659496,17.9221375],[99.3664396,17.9220962],[99.3672128,17.9228206],[99.3677459,17.9227234],[99.3677652,17.9235225],[99.3687573,17.9232062],[99.3695334,17.9238604]]]}},{"type":"Feature","properties":{"id":"TH-LAO-6521105","nameTh":"สมัย","type":"subdistrict_admin_org"},"geometry":{"type":"Polygon","coordinates":[[[99.3773306,17.9306264],[99.375924,17.9228796],[99.3739561,17.9152658],[99.3672863,17.8776858],[99.3672348,17.875471],[99.3682041,17.875057],[99.368406,17.874259],[99.3696037,17.8740738],[99.3699322,17.8732029],[99.3715188,17.8734463],[99.3714675,17.87287],[99.3722509,17.8718792],[99.3726596,17.8718209],[99.3731399,17.8722553],[99.3741471,17.8715577],[99.3732279,17.8708707],[99.3734604,17.8703715],[99.3741661,17.8699804],[99.3736848,17.869332],[99.3745467,17.8680173],[99.375939,17.868146],[99.3766122,17.8689076],[99.3783994,17.8678789],[99.3783599,17.8668434],[99.3812067,17.8669232],[99.3817043,17.8650472],[99.3824,17.8648381],[99.3825803,17.864303],[99.3832519,17.8642601],[99.3835759,17.8635003],[99.3842956,17.8632285],[99.3848174,17.8624951],[99.3858015,17.8625234],[99.3863408,17.8614435],[99.3869633,17.8615342],[99.3871092,17.8610787],[99.388088,17.8607374],[99.3899778,17.8606062],[99.3907348,17.8599088],[99.3932456,17.8599905],[99.3939422,17.8595917],[99.3968453,17.8559528],[99.3971908,17.8551358],[99.3983461,17.8547514],[99.3990682,17.8533573],[99.399259,17.8513179],[99.4015275,17.8497746],[99.4016315,17.8491874],[99.4006926,17.8477753],[99.4006494,17.8467871],[99.4014712,17.8456342],[99.4029846,17.8446315],[99.4036443,17.8428609],[99.4083159,17.8405036],[99.4162596,17.8379003],[99.4163088,17.8407657],[99.4168757,17.8424864],[99.417825,17.8431608],[99.4195894,17.8426655],[99.4202432,17.8428527],[99.4219375,17.848981],[99.4229971,17.8504616],[99.4245542,17.851616],[99.4277422,17.8526565],[99.428346,17.8564041],[99.4288866,17.8577812],[99.4335172,17.8601784],[99.4365184,17.8632406],[99.437598,17.8637679],[99.4408722,17.8634276],[99.4420658,17.8637427],[99.4437071,17.8678187],[99.4445912,17.868368],[99.4469281,17.8686838],[99.4480103,17.8695914],[99.4507515,17.8759435],[99.452024,17.8782377],[99.4531072,17.8795102],[99.4554674,17.8816801],[99.4572593,17.8826218],[99.4614091,17.8831732],[99.4631207,17.8828086],[99.4636678,17.8830457],[99.465971,17.8866553],[99.4687955,17.8892121],[99.4687935,17.8925613],[99.4720544,17.8926775],[99.4742377,17.8935922],[99.4749053,17.8942798],[99.4757477,17.8957328],[99.4762163,17.8973546],[99.4771876,17.8985364],[99.4763032,17.9016029],[99.4783806,17.9032207],[99.4800464,17.9083748],[99.4822752,17.9116527],[99.4841498,17.9164585],[99.48413,17.9171201],[99.4828618,17.9193043],[99.4830367,17.9201895],[99.4778917,17.9221858],[99.4752274,17.9213102],[99.4741251,17.9226067],[99.4731148,17.9245763],[99.4720436,17.9256724],[99.4693428,17.9261466],[99.4652338,17.9287832],[99.464745,17.929784],[99.465013,17.9319396],[99.4624503,17.9342612],[99.4576309,17.9374971],[99.4558373,17.9383124],[99.4521072,17.9391701],[99.4441405,17.9400458],[99.4418868,17.9398402],[99.4414876,17.9407459],[99.4418159,17.942592],[99.4413513,17.9432128],[99.4268164,17.9508327],[99.4257247,17.9510704],[99.4225271,17.9500656],[99.4199267,17.9502868],[99.4178811,17.951291],[99.4170548,17.9511734],[99.3773306,17.9306264]]]}},{"type":"Feature","properties":{"id":"TH-LAO-6521104","nameTh":"สบปราบ","type":"subdistrict_admin_org"},"geometry":{"type":"Polygon","coordinates":[[[99.3429518,17.9154849],[99.3444158,17.9154705],[99.3452981,17.9165718],[99.345946,17.9165157],[99.3463795,17.9169424],[99.3486156,17.9159256],[99.3491864,17.916879],[99.3491907,17.9175896],[99.349931,17.9178693],[99.3508356,17.9173825],[99.3519852,17.9179594],[99.3534397,17.9177131],[99.3541462,17.9179276],[99.3547031,17.9175469],[99.3556953,17.9174723],[99.3562299,17.917945],[99.3578334,17.9175572],[99.3579254,17.9189926],[99.3596782,17.9187953],[99.3598709,17.9195932],[99.3608485,17.9198622],[99.3609592,17.9203418],[99.361545,17.9201004],[99.3617375,17.9204326],[99.3621037,17.9201555],[99.3631416,17.9203871],[99.3635193,17.9207934],[99.3641287,17.9206137],[99.3647402,17.9212079],[99.3651758,17.9209465],[99.3659775,17.9215331],[99.3659496,17.9221375],[99.3664396,17.9220962],[99.3672128,17.9228206],[99.3677459,17.9227234],[99.3677652,17.9235225],[99.3687573,17.9232062],[99.369326,17.9235451],[99.3697925,17.9241021],[99.3701901,17.9256029],[99.3699348,17.9259541],[99.3711622,17.9260786],[99.3716612,17.9265692],[99.3716381,17.9270716],[99.372214,17.9271333],[99.3721281,17.9274928],[99.3724976,17.9277877],[99.3721575,17.9284172],[99.3733725,17.9287732],[99.3736757,17.9284669],[99.3750756,17.928522],[99.3773306,17.9306264],[99.375924,17.9228796],[99.3739561,17.9152658],[99.3672863,17.8776858],[99.3672348,17.875471],[99.3682041,17.875057],[99.368406,17.874259],[99.3696037,17.8740738],[99.3699322,17.8732029],[99.3715188,17.8734463],[99.3714675,17.87287],[99.3722509,17.8718792],[99.3726596,17.8718209],[99.3731399,17.8722553],[99.3741471,17.8715577],[99.3732279,17.8708707],[99.3734604,17.8703715],[99.3741661,17.8699804],[99.3736848,17.869332],[99.3745467,17.8680173],[99.375939,17.868146],[99.3766122,17.8689076],[99.3783994,17.8678789],[99.3783599,17.8668434],[99.3812067,17.8669232],[99.3817043,17.8650472],[99.3824,17.8648381],[99.3825803,17.864303],[99.3832519,17.8642601],[99.3835759,17.8635003],[99.3842956,17.8632285],[99.3848174,17.8624951],[99.3858015,17.8625234],[99.3863408,17.8614435],[99.3869633,17.8615342],[99.3871092,17.8610787],[99.388088,17.8607374],[99.3899778,17.8606062],[99.3907348,17.8599088],[99.3932456,17.8599905],[99.3939422,17.8595917],[99.3968453,17.8559528],[99.3971908,17.8551358],[99.3983461,17.8547514],[99.3990682,17.8533573],[99.399259,17.8513179],[99.4015275,17.8497746],[99.4016315,17.8491874],[99.4006926,17.8477753],[99.4006494,17.8467871],[99.4014712,17.8456342],[99.4029846,17.8446315],[99.4036443,17.8428609],[99.4083159,17.8405036],[99.4162596,17.8379003],[99.4146443,17.8348758],[99.4127994,17.8323487],[99.4125429,17.8268487],[99.4114789,17.8249381],[99.4099369,17.8237242],[99.4083435,17.8232183],[99.4044232,17.8231614],[99.4025149,17.821525],[99.401541,17.818856],[99.4007154,17.8178377],[99.3968564,17.8168341],[99.3926459,17.8146998],[99.3923398,17.8138347],[99.3938187,17.8108489],[99.3938143,17.8085899],[99.389521,17.8014119],[99.3880543,17.7976263],[99.3865005,17.7949036],[99.3864241,17.7926581],[99.38539,17.7902516],[99.3795824,17.7856001],[99.3771776,17.7822533],[99.3708997,17.7792311],[99.3690529,17.7777313],[99.3686743,17.7771117],[99.3683479,17.7744139],[99.3675728,17.7734879],[99.3668072,17.7737376],[99.3655353,17.7734682],[99.3607275,17.7691261],[99.3596246,17.7686434],[99.3564119,17.7692854],[99.3555609,17.769836],[99.3529586,17.7729375],[99.350903,17.7740458],[99.3477052,17.7742771],[99.3441696,17.77287],[99.3415711,17.7732979],[99.3406241,17.7729425],[99.3381906,17.7710124],[99.3334791,17.7695404],[99.3317053,17.7697344],[99.3283244,17.7687571],[99.3270777,17.7679525],[99.3257267,17.7662724],[99.3242969,17.7652297],[99.3227382,17.7657226],[99.321911,17.7663533],[99.3191209,17.7692287],[99.3184223,17.7706919],[99.3174933,17.7741562],[99.3156887,17.7750078],[99.3138663,17.7771202],[99.3110242,17.7767903],[99.3096828,17.777537],[99.3097189,17.7802178],[99.311216,17.7826991],[99.3116444,17.7848704],[99.3113954,17.7854895],[99.3085543,17.7854296],[99.3068385,17.7873325],[99.3027383,17.7886079],[99.3012528,17.7903151],[99.3003767,17.7907526],[99.2995614,17.7909018],[99.296942,17.7901348],[99.2956374,17.7909128],[99.2936047,17.7912325],[99.2900874,17.7934231],[99.2880241,17.7952789],[99.2872149,17.7957868],[99.2856947,17.7961216],[99.2830647,17.7980325],[99.2791515,17.8041501],[99.2760575,17.8068878],[99.2746056,17.8087584],[99.2739222,17.8124348],[99.2731362,17.8138589],[99.2723453,17.8145872],[99.2731644,17.8175515],[99.2724585,17.8192954],[99.2726613,17.8209838],[99.2717454,17.8248468],[99.2721641,17.8259904],[99.2737521,17.827011],[99.2746443,17.8271551],[99.2752472,17.8295486],[99.2744415,17.8301508],[99.2743902,17.8305961],[99.2749282,17.8311237],[99.2767936,17.8313167],[99.2788699,17.8304957],[99.2802297,17.8292501],[99.282963,17.8294354],[99.2840092,17.8302075],[99.2849014,17.83152],[99.2853069,17.8328094],[99.2847392,17.8358617],[99.2837443,17.8365334],[99.2842417,17.8379848],[99.2861666,17.8379437],[99.2881158,17.8365617],[99.2889485,17.8365154],[99.2903624,17.8369477],[99.2918358,17.8382448],[99.292409,17.8393462],[99.2929713,17.842437],[99.2925631,17.8443362],[99.2913276,17.8457542],[99.2899758,17.8465957],[99.288962,17.8466317],[99.2874021,17.8460012],[99.286856,17.8463203],[99.2857165,17.84864],[99.2855672,17.8507393],[99.2841123,17.8530166],[99.2846164,17.8551014],[99.2857843,17.8550911],[99.2871307,17.8533155],[99.28824,17.8528414],[99.290654,17.8530824],[99.2924543,17.8536522],[99.2945936,17.8535072],[99.2970655,17.8542792],[99.2972818,17.8576499],[99.2978826,17.8585567],[99.3001142,17.8591245],[99.3036118,17.8584219],[99.3048091,17.8586195],[99.305393,17.8594558],[99.3066826,17.8637684],[99.3105702,17.8695013],[99.311557,17.8721413],[99.3117084,17.8744776],[99.3124491,17.8769013],[99.313517,17.8791218],[99.3149941,17.8809306],[99.3161431,17.8813757],[99.3171461,17.8812264],[99.3200442,17.8776321],[99.322548,17.8756292],[99.3259353,17.860658],[99.3292929,17.8611531],[99.3318405,17.8623889],[99.3350811,17.8645707],[99.3377424,17.8668488],[99.3389075,17.8687398],[99.3391728,17.8708626],[99.3388959,17.8758528],[99.3426844,17.8966984],[99.338272,17.898279],[99.3346747,17.8990472],[99.3344331,17.8999014],[99.3329448,17.9013513],[99.3316652,17.903429],[99.3311809,17.9058825],[99.3327216,17.9080772],[99.3340545,17.9121069],[99.3366525,17.9136143],[99.337133,17.9156742],[99.3392372,17.917836],[99.339221,17.9186797],[99.3400216,17.9192027],[99.3403316,17.9188657],[99.3398701,17.916699],[99.3404889,17.915117],[99.3421272,17.914582],[99.3429518,17.9154849]]]}},{"type":"Feature","properties":{"id":"TH-LAO-6521102","nameTh":"นายาง","type":"subdistrict_admin_org"},"geometry":{"type":"Polygon","coordinates":[[[99.3349171,17.8975634],[99.3354252,17.8989032],[99.3346747,17.8990472],[99.3344331,17.8999014],[99.3329448,17.9013513],[99.3316652,17.903429],[99.3311723,17.9049085],[99.3312507,17.906192],[99.3317525,17.9069748],[99.3305603,17.9093338],[99.3315904,17.911152],[99.3310607,17.9133613],[99.3320451,17.9134067],[99.3321439,17.9138118],[99.3314604,17.9153803],[99.3299021,17.9150395],[99.3301064,17.9160993],[99.3293212,17.9162455],[99.3295889,17.9168732],[99.3294807,17.917133],[99.32894,17.9170918],[99.3290644,17.9178507],[99.328448,17.9181568],[99.328565,17.9191564],[99.3277969,17.9197648],[99.3276618,17.9202669],[99.3263009,17.9207398],[99.3259008,17.9214189],[99.3252374,17.9214712],[99.3228813,17.9229105],[99.3226393,17.9236506],[99.3231394,17.92406],[99.3228339,17.9246285],[99.3221339,17.9245642],[99.3218355,17.9251959],[99.3212075,17.9253475],[99.3211669,17.9257281],[99.3205451,17.9257179],[99.3201504,17.9263352],[99.3194016,17.9261397],[99.3186259,17.927142],[99.3180264,17.9273656],[99.3181081,17.9276897],[99.3189256,17.9280786],[99.3186463,17.9288758],[99.3173885,17.9293757],[99.3168392,17.9303086],[99.3161225,17.9307455],[99.3163392,17.931209],[99.3155045,17.9326864],[99.3138354,17.9320674],[99.3135289,17.9323656],[99.3136539,17.9334316],[99.3125293,17.9333364],[99.3128645,17.9338071],[99.3093787,17.9333193],[99.3092652,17.9335882],[99.3096825,17.93376],[99.3094781,17.9341294],[99.3070708,17.934507],[99.3063201,17.9363376],[99.3055993,17.9366791],[99.3061953,17.9372178],[99.3053799,17.9377404],[99.3042963,17.9374301],[99.3046673,17.9383014],[99.3038409,17.9387519],[99.3042599,17.9398181],[99.3039806,17.9399639],[99.3034322,17.9395621],[99.3029962,17.9399801],[99.3042208,17.9413847],[99.3038288,17.9418991],[99.30282,17.9419367],[99.3024831,17.9423491],[99.301756,17.9424612],[99.3016659,17.942843],[99.3020843,17.9431839],[99.3013578,17.9445276],[99.2994167,17.9442952],[99.2978294,17.945896],[99.2959772,17.945648],[99.2954013,17.9458203],[99.295058,17.9463836],[99.2943291,17.9461556],[99.2940635,17.9469301],[99.2933209,17.9474],[99.2933584,17.9480967],[99.2919625,17.948272],[99.2914895,17.9493729],[99.2920567,17.9497404],[99.291866,17.9505019],[99.2914028,17.9506899],[99.2913932,17.9514347],[99.2907427,17.9514833],[99.2911003,17.9518786],[99.2906337,17.9520018],[99.2908346,17.9526239],[99.2903216,17.9531264],[99.2910172,17.9542438],[99.2908172,17.9548919],[99.2916449,17.9556812],[99.2914503,17.9559641],[99.292216,17.9572162],[99.2916321,17.9576405],[99.2914834,17.9582166],[99.2901315,17.9590814],[99.2882387,17.9595382],[99.2874875,17.960511],[99.2865865,17.9607297],[99.2864363,17.9611808],[99.2857604,17.9615788],[99.2859003,17.9623864],[99.2862737,17.9626456],[99.2864561,17.9639295],[99.2861042,17.9643357],[99.2864626,17.9650217],[99.2865854,17.9668901],[99.2881046,17.9679982],[99.2889714,17.9692662],[99.2887748,17.9704451],[99.2892073,17.9711857],[99.2875095,17.9725023],[99.2847952,17.9735413],[99.2845481,17.9738207],[99.284576,17.9754068],[99.2825203,17.9764232],[99.2829194,17.9771131],[99.2848614,17.9779556],[99.2815221,17.9788526],[99.2793741,17.9789092],[99.2756524,17.9811658],[99.2743493,17.9826286],[99.2729449,17.9817811],[99.271312,17.9813815],[99.2685261,17.9822075],[99.2668544,17.9855986],[99.262198,17.9882825],[99.2584267,17.9894106],[99.2568783,17.9892342],[99.2553839,17.9884892],[99.2539166,17.9870586],[99.2523211,17.9846688],[99.2510857,17.982291],[99.2503189,17.9793963],[99.2495637,17.9779725],[99.2482228,17.9765143],[99.2467061,17.9754973],[99.2396683,17.9732549],[99.235316,17.9733577],[99.2314452,17.9718521],[99.2264943,17.971517],[99.2202282,17.9676999],[99.2130731,17.9650772],[99.2094214,17.9656171],[99.208314,17.965399],[99.205055,17.9633549],[99.2028266,17.9604084],[99.199009,17.9562602],[99.1993692,17.9547442],[99.2008822,17.9523176],[99.206173,17.9473294],[99.2077509,17.945122],[99.2086531,17.9428475],[99.2095528,17.9385162],[99.2128624,17.931696],[99.2115467,17.9273129],[99.212408,17.924121],[99.2124448,17.9229152],[99.211242,17.9189643],[99.2108486,17.9161879],[99.2112714,17.9151482],[99.2142895,17.9140731],[99.2144661,17.9127927],[99.2135831,17.9119709],[99.209353,17.911326],[99.208334,17.9102661],[99.2079031,17.9093139],[99.2063142,17.9042923],[99.2061017,17.8965844],[99.2064615,17.8947869],[99.2076128,17.8930752],[99.2077003,17.8909476],[99.2088053,17.8894849],[99.2094327,17.887566],[99.2105669,17.8862118],[99.2144602,17.8896135],[99.2154513,17.8900866],[99.2169204,17.8899901],[99.2179099,17.8891988],[99.2208935,17.8856866],[99.2226565,17.883045],[99.2270202,17.8746156],[99.2276783,17.8729236],[99.2276098,17.8709796],[99.2258548,17.8667299],[99.2256875,17.8649757],[99.2288774,17.855457],[99.2280154,17.8524866],[99.2283098,17.8504315],[99.2297266,17.8483909],[99.2333322,17.8445731],[99.2378604,17.8430621],[99.2404346,17.8427745],[99.2422642,17.8410652],[99.2426337,17.8397371],[99.2446239,17.8378261],[99.2483605,17.8368611],[99.2499809,17.836136],[99.2504251,17.8351989],[99.2505085,17.8328161],[99.2513982,17.8318311],[99.2550215,17.8296215],[99.2590312,17.8281684],[99.2595116,17.8277663],[99.2597202,17.8265806],[99.2602022,17.8260939],[99.2628007,17.825723],[99.2642214,17.8239666],[99.2642939,17.8227811],[99.2646646,17.8223657],[99.2687271,17.8209368],[99.2706013,17.8198089],[99.2713553,17.819144],[99.2719228,17.8179578],[99.2723453,17.8145872],[99.2731644,17.8175515],[99.2724585,17.8192954],[99.2726613,17.8209838],[99.2717454,17.8248468],[99.2721641,17.8259904],[99.2737521,17.827011],[99.2746443,17.8271551],[99.2752472,17.8295486],[99.2744415,17.8301508],[99.2745226,17.8308406],[99.2764313,17.8314094],[99.2788699,17.8304957],[99.2799756,17.8292912],[99.2832576,17.829546],[99.2847608,17.8312524],[99.2852772,17.8324156],[99.2848419,17.8355863],[99.2837443,17.8365334],[99.2842417,17.8379848],[99.2861666,17.8379437],[99.2881158,17.8365617],[99.2889485,17.8365154],[99.2903624,17.8369477],[99.2915168,17.8379154],[99.2924901,17.8395495],[99.2929713,17.842437],[99.2925631,17.8443362],[99.2913276,17.8457542],[99.2899758,17.8465957],[99.288962,17.8466317],[99.2874021,17.8460012],[99.286856,17.8463203],[99.2857165,17.84864],[99.2855672,17.8507393],[99.2841123,17.8530166],[99.2846164,17.8551014],[99.2857843,17.8550911],[99.2871307,17.8533155],[99.28824,17.8528414],[99.290654,17.8530824],[99.2924543,17.8536522],[99.2945936,17.8535072],[99.2970655,17.8542792],[99.2972818,17.8576499],[99.2978826,17.8585567],[99.3001142,17.8591245],[99.3036118,17.8584219],[99.3048091,17.8586195],[99.305393,17.8594558],[99.3066826,17.8637684],[99.3105702,17.8695013],[99.311557,17.8721413],[99.3117084,17.8744776],[99.3124491,17.8769013],[99.313517,17.8791218],[99.3149941,17.8809306],[99.3161431,17.8813757],[99.3171461,17.8812264],[99.3200442,17.8776321],[99.3231604,17.8751494],[99.3240307,17.8750362],[99.3264926,17.8764936],[99.3281063,17.8792383],[99.328441,17.8808148],[99.3285399,17.8817798],[99.327719,17.8873262],[99.3290428,17.893915],[99.3307541,17.895154],[99.3335093,17.8961056],[99.3349171,17.8975634]]]}},{"type":"Feature","properties":{"id":"TH-LAO-4520802","nameTh":"ล้อมแรด","type":"town_municipality"},"geometry":{"type":"Polygon","coordinates":[[[99.1947411,17.6540545],[99.1937074,17.6526481],[99.1930153,17.6522256],[99.1923827,17.6506592],[99.1926028,17.6496559],[99.1921259,17.647559],[99.1911177,17.6466177],[99.1912225,17.6450527],[99.1920379,17.6438421],[99.1927417,17.6435395],[99.1936515,17.6425007],[99.1941407,17.6412329],[99.1932653,17.6405786],[99.1909404,17.637433],[99.1910104,17.636606],[99.192555,17.6352734],[99.1923704,17.634844],[99.1906109,17.6336947],[99.190126,17.6318461],[99.1906002,17.6299292],[99.1899462,17.6291761],[99.1891542,17.6291179],[99.1886907,17.628713],[99.1888624,17.6281282],[99.188223,17.6268684],[99.1884547,17.6259809],[99.1880041,17.6253796],[99.1876125,17.6236049],[99.1880338,17.621647],[99.1865063,17.619145],[99.1868172,17.6181556],[99.1865523,17.6168982],[99.1876499,17.6164034],[99.1878256,17.6159912],[99.1875871,17.6152411],[99.1856247,17.6125788],[99.1851805,17.6107197],[99.1854595,17.6100121],[99.186026,17.6096357],[99.1881583,17.6094942],[99.1884615,17.6089131],[99.1900147,17.6087053],[99.1899364,17.6080819],[99.1912985,17.6081883],[99.1914424,17.6062777],[99.1924291,17.6063343],[99.1926139,17.6045601],[99.1938062,17.604488],[99.1944414,17.6040963],[99.1941796,17.602955],[99.1930783,17.6016451],[99.1924005,17.6013343],[99.192375,17.6004723],[99.1917016,17.5994109],[99.1921921,17.5980911],[99.1923913,17.5956284],[99.1921879,17.5929479],[99.1917287,17.5927392],[99.191938,17.5880515],[99.1914638,17.5877733],[99.1914295,17.5868733],[99.1906004,17.5853695],[99.1983924,17.5772993],[99.2023497,17.5780838],[99.2055372,17.5801224],[99.2063861,17.5810709],[99.2068565,17.5821997],[99.2072396,17.585313],[99.2077289,17.5865116],[99.2096086,17.5883444],[99.2144259,17.5916547],[99.2150951,17.5929937],[99.2161091,17.5935466],[99.2168606,17.5945671],[99.2181259,17.5948402],[99.2211859,17.5944651],[99.2238981,17.5963997],[99.2264177,17.597245],[99.2295025,17.5959246],[99.2333937,17.5967079],[99.235749,17.5976499],[99.2387273,17.5979771],[99.2432162,17.5972993],[99.2488938,17.5904709],[99.2566085,17.5863518],[99.2569762,17.5853622],[99.2579603,17.5847746],[99.2581117,17.5843416],[99.2579711,17.5835478],[99.257279,17.5825788],[99.2572682,17.5804243],[99.2593228,17.578414],[99.2612523,17.5745275],[99.2638273,17.5730857],[99.2684598,17.5725792],[99.2696724,17.5720596],[99.2706125,17.5713582],[99.2715183,17.5700885],[99.2726146,17.5669659],[99.2731296,17.5663931],[99.2743828,17.5672293],[99.2753441,17.5692668],[99.2777988,17.5707561],[99.2786228,17.572409],[99.2798073,17.573129],[99.2819781,17.573808],[99.2821734,17.5770312],[99.2826713,17.578864],[99.2837818,17.5812489],[99.2846229,17.581748],[99.2846176,17.5837195],[99.2848969,17.5843429],[99.2861432,17.5863232],[99.2870192,17.5870655],[99.288771,17.587818],[99.2895496,17.5884674],[99.2899389,17.5893024],[99.2914853,17.5905806],[99.2921991,17.5934669],[99.2919287,17.5956316],[99.2930115,17.5969982],[99.2930115,17.598219],[99.2925617,17.599143],[99.2891419,17.5992859],[99.2884607,17.5997534],[99.2877752,17.601807],[99.2871155,17.6024048],[99.2850166,17.6031538],[99.2841991,17.6037901],[99.2819992,17.6044431],[99.2789856,17.6075137],[99.2776347,17.6081199],[99.2762453,17.6079963],[99.2752874,17.6083285],[99.2750423,17.6116479],[99.2745927,17.6123361],[99.2726297,17.6128465],[99.2706665,17.6145425],[99.2708599,17.6177025],[99.2695548,17.6199791],[99.2694293,17.6232909],[99.2679633,17.6263773],[99.2654065,17.6291809],[99.2639383,17.6302692],[99.2623397,17.6308582],[99.2611101,17.6321437],[99.259314,17.632559],[99.2584353,17.6344169],[99.2577079,17.6343617],[99.2578152,17.634603],[99.257356,17.6345662],[99.2551634,17.6359824],[99.2533803,17.636234],[99.2521892,17.6374192],[99.2513648,17.6375105],[99.250161,17.6388438],[99.2498606,17.6400912],[99.2469049,17.6422969],[99.2463963,17.642074],[99.2449694,17.6423399],[99.2431283,17.6434134],[99.2427313,17.6443029],[99.2416732,17.6450426],[99.2394567,17.6437646],[99.2387335,17.6440243],[99.238961,17.6445784],[99.2401648,17.6452593],[99.240154,17.6468052],[99.2395051,17.647415],[99.2415406,17.6493899],[99.2421056,17.650374],[99.2445279,17.6523396],[99.2479421,17.6538911],[99.2486613,17.6556713],[99.2479725,17.6568388],[99.2449023,17.6596283],[99.2429795,17.6623109],[99.2424243,17.6640749],[99.2432983,17.6681656],[99.2425249,17.6695887],[99.2374176,17.6710337],[99.2355408,17.6724358],[99.2341238,17.6739644],[99.2330492,17.6760221],[99.2317246,17.6758214],[99.2283686,17.6763039],[99.2270211,17.6769418],[99.2235899,17.6774097],[99.2188125,17.6794599],[99.2164841,17.6772316],[99.2157358,17.6768923],[99.21358,17.6768021],[99.2092488,17.6741131],[99.2090857,17.6733771],[99.209326,17.6726084],[99.2089913,17.6720441],[99.2094162,17.6712795],[99.2092515,17.6699106],[99.2095777,17.6692441],[99.2105908,17.6687257],[99.2110095,17.6669518],[99.2108685,17.6659161],[99.2122445,17.6627687],[99.2120785,17.6621061],[99.2109646,17.6612818],[99.2108851,17.6604141],[99.2103768,17.6597959],[99.2105713,17.6592761],[99.2048132,17.6543492],[99.2021169,17.6545693],[99.2012973,17.6542636],[99.200788,17.6536299],[99.2001529,17.6536216],[99.1991194,17.654764],[99.1984722,17.6545953],[99.1981377,17.6534642],[99.1947411,17.6540545]]]}},{"type":"Feature","properties":{"id":"TH-LAO-5520301","nameTh":"วังพร้าว","type":"subdistrict_municipality"},"geometry":{"type":"Polygon","coordinates":[[[99.4253433,18.1783923],[99.4246621,18.1717862],[99.4246809,18.1688184],[99.4280007,18.161824],[99.431067,18.1568427],[99.4319066,18.1540011],[99.4295009,18.151777],[99.428045,18.1496997],[99.426522,18.1456975],[99.4259681,18.1405652],[99.4262227,18.1363705],[99.426486,18.1357824],[99.4273824,18.1351025],[99.4273807,18.1343703],[99.4277667,18.1337458],[99.4275755,18.1328694],[99.4281508,18.1322897],[99.4284789,18.131132],[99.4298864,18.1306769],[99.4295531,18.1296833],[99.4298071,18.1291766],[99.4308849,18.1287913],[99.4333448,18.1290474],[99.4345902,18.128041],[99.4346651,18.1270326],[99.4337094,18.1258786],[99.4334646,18.1246721],[99.4343701,18.1231254],[99.4343099,18.1222561],[99.4347017,18.1217043],[99.4346796,18.1211731],[99.4341555,18.1208488],[99.4344064,18.1196274],[99.4333054,18.1190201],[99.4319838,18.1192078],[99.430894,18.1187261],[99.4292102,18.1185651],[99.4287674,18.1181734],[99.428219,18.1188305],[99.4270538,18.1187324],[99.4255684,18.1175598],[99.4236973,18.1191549],[99.4209724,18.1195499],[99.4181606,18.1205809],[99.4177246,18.1202798],[99.4175339,18.1190756],[99.4166891,18.1179975],[99.4149077,18.1173695],[99.4139971,18.1162501],[99.4113956,18.1118646],[99.4099854,18.1124441],[99.4078205,18.1113873],[99.4049847,18.1117313],[99.4033839,18.111605],[99.3996786,18.1107084],[99.3963484,18.109346],[99.3956272,18.1094015],[99.3951809,18.1096544],[99.3947432,18.1108618],[99.3933603,18.1124338],[99.3922902,18.11634],[99.3909489,18.119364],[99.3901736,18.1202762],[99.3886583,18.1209099],[99.3873886,18.1218932],[99.3842468,18.1262869],[99.3837869,18.1275282],[99.3845214,18.1289776],[99.38461,18.1302142],[99.3822156,18.1320175],[99.3809774,18.1335693],[99.3799934,18.1360306],[99.3772884,18.1385771],[99.37767,18.1404812],[99.3767986,18.141094],[99.3765661,18.1418236],[99.3748359,18.1437967],[99.3765006,18.1448948],[99.3785422,18.1474559],[99.3790948,18.1510822],[99.381881,18.1535299],[99.3845711,18.1597231],[99.3864717,18.161371],[99.3916209,18.1630971],[99.3927049,18.161826],[99.3934323,18.1622318],[99.3938797,18.1618648],[99.3941919,18.1624907],[99.3951485,18.1622557],[99.3955068,18.1626084],[99.3995009,18.160912],[99.4014658,18.1618896],[99.4029145,18.1620705],[99.402047,18.1629885],[99.4018045,18.1646604],[99.4007209,18.1649744],[99.4005278,18.1660651],[99.4008908,18.1672983],[99.4023112,18.1695411],[99.4027216,18.1727046],[99.403127,18.1734813],[99.4037846,18.1738729],[99.4051436,18.1767248],[99.4055363,18.1781417],[99.4055556,18.1799112],[99.4060802,18.1807105],[99.4055234,18.1810031],[99.4056259,18.1817976],[99.409769,18.1809141],[99.410872,18.1809437],[99.4122346,18.1799946],[99.4144347,18.1796974],[99.4160569,18.17873],[99.4178057,18.1782815],[99.4188818,18.1783131],[99.4227292,18.1796912],[99.4253433,18.1783923]]]}},{"type":"Feature","properties":{"id":"TH-LAO-5520308","nameTh":"เกาะคาแม่ยาว","type":"subdistrict_municipality"},"geometry":{"type":"Polygon","coordinates":[[[99.3476688,18.163153],[99.3488787,18.1642448],[99.3495248,18.1643732],[99.3498114,18.1657475],[99.3504089,18.1664077],[99.3496654,18.1668932],[99.3496248,18.1675585],[99.3487449,18.1686873],[99.3481421,18.1703217],[99.348544,18.1708346],[99.3483994,18.1710417],[99.3488296,18.1710162],[99.3485169,18.172408],[99.3492809,18.1735004],[99.3499637,18.1735178],[99.3497773,18.1743318],[99.3514126,18.17566],[99.3546928,18.177058],[99.3560882,18.1784625],[99.3574115,18.1788703],[99.3591844,18.1809512],[99.3609011,18.1815013],[99.3617273,18.1822032],[99.3635984,18.1824927],[99.3676294,18.1849813],[99.371039,18.1857175],[99.3738718,18.1875396],[99.3768349,18.1879454],[99.3798033,18.1893079],[99.3811483,18.1895892],[99.3837558,18.1908361],[99.3862376,18.1924786],[99.386377,18.1926389],[99.3794909,18.1967943],[99.3865835,18.1978838],[99.3897569,18.2038423],[99.389769,18.2064994],[99.3900955,18.2077282],[99.3897809,18.2090984],[99.3884379,18.2097086],[99.3879444,18.2095435],[99.3865024,18.2099511],[99.3860905,18.2109132],[99.3840005,18.2106666],[99.3834661,18.2112554],[99.379542,18.2127459],[99.3779369,18.2137079],[99.3611614,18.2158914],[99.3584832,18.2164943],[99.3492432,18.2025212],[99.3494059,18.2012175],[99.3451525,18.2012789],[99.3433976,18.1992655],[99.3423312,18.1989883],[99.3397127,18.1957975],[99.3381342,18.1948853],[99.3355335,18.1918255],[99.3325369,18.1889404],[99.3313159,18.187277],[99.3302838,18.1841477],[99.3289019,18.1824333],[99.3282603,18.1810776],[99.3247813,18.1783744],[99.3241582,18.1770837],[99.3226321,18.1764236],[99.3217359,18.1754449],[99.3238187,18.1731324],[99.3226699,18.1716944],[99.3230349,18.1707928],[99.3228699,18.1704101],[99.3212181,18.1697448],[99.3198718,18.1684502],[99.319411,18.1683807],[99.3190329,18.1673483],[99.3173425,18.166767],[99.3161538,18.164501],[99.3143614,18.1625513],[99.3114081,18.1609825],[99.3090016,18.1609122],[99.3078563,18.1598575],[99.3087268,18.1590894],[99.3110504,18.1583512],[99.313375,18.1587736],[99.3138238,18.1581622],[99.3159574,18.1574332],[99.3174355,18.156247],[99.3173969,18.155248],[99.3179847,18.1544743],[99.321241,18.1514901],[99.3200693,18.1500854],[99.3201626,18.1497531],[99.3210381,18.1494472],[99.3219307,18.1486276],[99.3217955,18.1478772],[99.3222096,18.1473307],[99.3217679,18.1454897],[99.3230737,18.1444235],[99.3240415,18.1440844],[99.3244173,18.1433573],[99.3241118,18.1417414],[99.325434,18.1404735],[99.326387,18.1413238],[99.3292878,18.1457529],[99.3298042,18.1491081],[99.3313636,18.1510478],[99.331837,18.1525707],[99.332239,18.1528863],[99.3325404,18.1553154],[99.3337014,18.1548012],[99.3333934,18.1530773],[99.3341551,18.1529183],[99.3344598,18.1523739],[99.3350078,18.1524409],[99.3355474,18.1519066],[99.3360538,18.1518801],[99.3360216,18.1516109],[99.3364636,18.1519535],[99.3373885,18.151825],[99.3388948,18.1528934],[99.3390622,18.1525407],[99.339708,18.1528914],[99.3401715,18.1526508],[99.3403453,18.152977],[99.3412996,18.1528341],[99.3414267,18.1520017],[99.3421807,18.1519857],[99.343039,18.1511864],[99.3445475,18.1517451],[99.3446612,18.152528],[99.3450331,18.1525541],[99.3450309,18.1531821],[99.345312,18.1533207],[99.3448306,18.153809],[99.3453971,18.1542352],[99.3453778,18.1547204],[99.3458691,18.1547245],[99.3472076,18.1558273],[99.3487844,18.1578852],[99.3488219,18.1589759],[99.3480554,18.1589894],[99.3480852,18.1601454],[99.3476553,18.1602764],[99.3476553,18.1607491],[99.3471254,18.160913],[99.3476688,18.163153]]]}},{"type":"Feature","properties":{"id":"TH-LAO-5520305","nameTh":"ลำปางหลวง","type":"subdistrict_municipality"},"geometry":{"type":"Polygon","coordinates":[[[99.3884379,18.2097086],[99.3914224,18.208071],[99.3920788,18.2084675],[99.3921732,18.2091239],[99.3933034,18.2090549],[99.3934162,18.2096305],[99.3943699,18.2100172],[99.3955766,18.2112427],[99.3966239,18.2145573],[99.39635,18.2148166],[99.3965305,18.2157196],[99.3971653,18.2164814],[99.3999141,18.2163441],[99.4000986,18.2169252],[99.4006893,18.2171845],[99.4007298,18.2178174],[99.4017406,18.2174065],[99.4018029,18.2176828],[99.4013202,18.2179673],[99.4015972,18.2183629],[99.402685,18.2183957],[99.4034431,18.2194414],[99.40421,18.2195791],[99.4045357,18.2204128],[99.4073101,18.2219955],[99.4077555,18.2229643],[99.4072251,18.2248448],[99.4092843,18.2271937],[99.4090369,18.2285072],[99.4094449,18.2290958],[99.409392,18.2302155],[99.4097982,18.2312976],[99.4113493,18.2315996],[99.4109158,18.2334461],[99.4114392,18.2353453],[99.4108782,18.2362924],[99.4121322,18.2378903],[99.4110581,18.2388068],[99.4115932,18.2400052],[99.411441,18.2412433],[99.4110674,18.241863],[99.4104236,18.2420382],[99.4101651,18.2428023],[99.4090678,18.2432244],[99.408659,18.2443054],[99.4084025,18.2503186],[99.4079429,18.2520037],[99.4082222,18.2531011],[99.408115,18.2535498],[99.4074721,18.2539421],[99.4069119,18.2553036],[99.4063596,18.2584653],[99.4056687,18.2601958],[99.405688,18.2608401],[99.4063934,18.2613542],[99.4055207,18.2644907],[99.403364,18.264078],[99.4028673,18.2643772],[99.4018119,18.2635881],[99.4011941,18.2642776],[99.4003824,18.2643286],[99.3978487,18.2634484],[99.3966816,18.2643777],[99.3926096,18.2610751],[99.3909244,18.2606887],[99.3900338,18.2611806],[99.3878134,18.2612519],[99.38647,18.2618163],[99.3829558,18.2654797],[99.3771584,18.2664134],[99.374976,18.2678745],[99.3736466,18.2683812],[99.371199,18.2685745],[99.363939,18.2681664],[99.3633305,18.2688841],[99.3617774,18.2692394],[99.3593416,18.2691121],[99.3566243,18.2699657],[99.3547244,18.2700529],[99.3557446,18.2688286],[99.3574238,18.2678761],[99.3574562,18.2673488],[99.3599223,18.2667925],[99.3606107,18.2661581],[99.3604945,18.2654919],[99.3611203,18.2654085],[99.3615286,18.265696],[99.3618691,18.265155],[99.3622638,18.2652731],[99.3624625,18.2647866],[99.3635521,18.2640087],[99.3637843,18.2631345],[99.3653049,18.2622615],[99.3650697,18.2619162],[99.3657699,18.2612256],[99.3658033,18.2597085],[99.3662884,18.2595481],[99.3666996,18.2598784],[99.3675977,18.2593985],[99.3684324,18.258161],[99.3688272,18.2581688],[99.3688006,18.2571138],[99.369301,18.2569276],[99.368752,18.2551554],[99.3681591,18.2550086],[99.3683009,18.2546781],[99.3677338,18.2528765],[99.3680741,18.2525705],[99.3680173,18.2520036],[99.3662773,18.2516396],[99.3633229,18.2498088],[99.3653199,18.2469395],[99.3655708,18.2443569],[99.3632486,18.2414518],[99.3589551,18.2412027],[99.3580443,18.2380579],[99.3664151,18.2276278],[99.3672234,18.2274558],[99.3674663,18.2269761],[99.3690332,18.2261576],[99.3691707,18.2256281],[99.3683498,18.2250215],[99.3675493,18.2252626],[99.3660825,18.2248673],[99.3654711,18.2250436],[99.3642456,18.2242183],[99.3635869,18.2242937],[99.3632226,18.2235138],[99.3616506,18.2235008],[99.3601664,18.2243109],[99.3581837,18.2237137],[99.357409,18.224103],[99.3559263,18.2242008],[99.3584832,18.2164943],[99.3611614,18.2158914],[99.3779369,18.2137079],[99.379542,18.2127459],[99.3834661,18.2112554],[99.3840005,18.2106666],[99.3860905,18.2109132],[99.3865024,18.2099511],[99.3879444,18.2095435],[99.3884379,18.2097086]]]}},{"type":"Feature","properties":{"id":"TH-LAO-5520903","nameTh":"พระบาทวังตวง","type":"subdistrict_municipality"},"geometry":{"type":"Polygon","coordinates":[[[99.160202,17.510121],[99.1539294,17.5098109],[99.1499641,17.5100892],[99.1470415,17.5107113],[99.1454708,17.5106499],[99.1426642,17.5101342],[99.1402094,17.5072898],[99.1401048,17.5067249],[99.141181,17.5049561],[99.1423543,17.5045075],[99.1442016,17.5048268],[99.1455621,17.5046467],[99.1468195,17.503378],[99.1461028,17.5021542],[99.1454575,17.4998591],[99.1439315,17.4973447],[99.1442858,17.4937582],[99.1476647,17.4896454],[99.1504578,17.4888657],[99.1509182,17.4874834],[99.1501414,17.4851237],[99.1501457,17.4841475],[99.1490518,17.4813949],[99.1469404,17.4783134],[99.1445073,17.4771891],[99.1440693,17.476284],[99.1446505,17.4755774],[99.1470485,17.4743474],[99.149379,17.472274],[99.1507361,17.4706314],[99.150828,17.4693084],[99.1492843,17.46658],[99.1466863,17.4646356],[99.1387529,17.4630533],[99.1347193,17.4605105],[99.131454,17.4589429],[99.1305348,17.4591209],[99.1289992,17.460302],[99.1278611,17.4600312],[99.1273366,17.4593865],[99.1285451,17.455451],[99.1282341,17.4535244],[99.1290841,17.4521294],[99.1308858,17.4520211],[99.1335208,17.4531531],[99.1357631,17.4531675],[99.1382308,17.4525779],[99.1389646,17.4515667],[99.1388852,17.4501543],[99.1365077,17.4468299],[99.1305833,17.4473969],[99.1293888,17.4471376],[99.1286667,17.4462862],[99.1294229,17.4424972],[99.1301436,17.442192],[99.1310601,17.4396541],[99.1325389,17.438563],[99.13355,17.4373173],[99.1332445,17.4329892],[99.1338663,17.4281013],[99.1351802,17.4261255],[99.1381297,17.4229012],[99.1380702,17.4220087],[99.1375512,17.4215083],[99.1327655,17.4198503],[99.1306927,17.4183393],[99.1289074,17.4175286],[99.1192128,17.4151618],[99.1174361,17.41379],[99.1172044,17.4130447],[99.1174662,17.4116852],[99.1241695,17.4066485],[99.1273796,17.402537],[99.1274311,17.4019596],[99.1270663,17.4013945],[99.1264054,17.4010914],[99.1184413,17.4008493],[99.1127121,17.3989576],[99.1115509,17.3991846],[99.1087829,17.4005112],[99.1080799,17.4005267],[99.107642,17.4001242],[99.1071067,17.3979366],[99.1075933,17.3949543],[99.1076582,17.3919771],[99.1083665,17.3906407],[99.1142794,17.3887259],[99.1207682,17.388472],[99.1216437,17.3875342],[99.1208069,17.3855192],[99.1199657,17.3846509],[99.1138589,17.3846346],[99.1123912,17.3843438],[99.1117689,17.3837827],[99.1111767,17.3801049],[99.1127001,17.3730972],[99.1126283,17.3684011],[99.1132186,17.3650101],[99.1127937,17.3622126],[99.1120678,17.3609775],[99.1131134,17.3605955],[99.1142198,17.3613712],[99.1145513,17.3622118],[99.1144563,17.36367],[99.11535,17.3658649],[99.1159211,17.365982],[99.1171646,17.3674464],[99.1187752,17.3669503],[99.1190007,17.3664905],[99.1200078,17.3663785],[99.1204485,17.3656728],[99.1217226,17.3647726],[99.1228205,17.3647346],[99.1231372,17.3650813],[99.1237943,17.3648802],[99.1242161,17.3653458],[99.1250283,17.3651942],[99.1258656,17.3657857],[99.1269283,17.3652357],[99.1272052,17.3658832],[99.1280074,17.3653416],[99.1280495,17.3645],[99.1286247,17.3644716],[99.1297182,17.3637861],[99.1302692,17.3639793],[99.1312763,17.3632066],[99.1317699,17.3633223],[99.1325484,17.3622951],[99.1328629,17.3626218],[99.1333354,17.3622535],[99.1342688,17.362269],[99.1348037,17.3616118],[99.1359334,17.3616077],[99.137205,17.3620712],[99.1382514,17.3616691],[99.1387103,17.3608793],[99.1392974,17.3606632],[99.1403509,17.3605431],[99.1409078,17.3610377],[99.1418473,17.3609959],[99.1421874,17.3598127],[99.1427859,17.3597409],[99.1436039,17.3585087],[99.1439811,17.3570867],[99.1444371,17.3571594],[99.1449968,17.3567369],[99.1454754,17.355735],[99.1463507,17.3552094],[99.1467601,17.3553534],[99.1468033,17.3542263],[99.1473624,17.3536064],[99.147287,17.3532233],[99.1477636,17.3531159],[99.1479959,17.352031],[99.1488167,17.3514307],[99.1487874,17.3505002],[99.149308,17.350373],[99.1488578,17.349873],[99.1491104,17.3494252],[99.1489023,17.3483878],[99.1508856,17.3470599],[99.1526541,17.3429745],[99.1539815,17.3411441],[99.1549979,17.338293],[99.1561044,17.3372285],[99.1588055,17.3360352],[99.1599547,17.3332264],[99.1614158,17.332502],[99.1634976,17.3324153],[99.1695673,17.3339418],[99.1737566,17.3357047],[99.1736886,17.3363166],[99.174238,17.3370364],[99.1741612,17.3378157],[99.1748789,17.3383842],[99.1754731,17.3400485],[99.1760857,17.3438379],[99.1766415,17.3451419],[99.1760245,17.3472109],[99.177031,17.3488291],[99.1781296,17.3493626],[99.1824661,17.3500858],[99.1834247,17.3513845],[99.1847958,17.3510004],[99.186833,17.3524146],[99.1884235,17.3525829],[99.1891677,17.353991],[99.190635,17.3540227],[99.1912975,17.3543813],[99.1918911,17.3558537],[99.1930895,17.3573902],[99.1940216,17.3582198],[99.1954269,17.3587327],[99.1965685,17.3602506],[99.1966653,17.3620832],[99.1974931,17.3641483],[99.201142,17.3659288],[99.2023273,17.3680306],[99.2049603,17.3680121],[99.2061293,17.3686723],[99.2067989,17.3700088],[99.2081306,17.3710894],[99.2108999,17.3765379],[99.2079516,17.3819356],[99.2079285,17.3828425],[99.213827,17.3902425],[99.2119309,17.3954849],[99.2122503,17.3990619],[99.2106153,17.4018478],[99.2106649,17.4034396],[99.2114306,17.4067462],[99.2113129,17.4084183],[99.2085843,17.4125073],[99.2079154,17.414094],[99.2080599,17.4166926],[99.2077899,17.4197245],[99.2071519,17.4221294],[99.2064463,17.423185],[99.2044234,17.4248971],[99.2013007,17.4249017],[99.1972666,17.4263754],[99.1962306,17.4269316],[99.1948119,17.4296568],[99.1914663,17.4303742],[99.1909414,17.4326526],[99.1902456,17.4337018],[99.1887587,17.4346253],[99.1897388,17.4415956],[99.1894277,17.4426535],[99.1887574,17.4433309],[99.1870576,17.4441562],[99.184516,17.4445845],[99.1835508,17.4455823],[99.1779077,17.4487118],[99.1757126,17.4490064],[99.1704066,17.4485134],[99.1698579,17.4486603],[99.1691437,17.4496168],[99.1691911,17.4511177],[99.1728315,17.4583987],[99.1760147,17.4682846],[99.1757863,17.4699182],[99.1752349,17.4705809],[99.1705921,17.4738076],[99.1693514,17.4752654],[99.1691111,17.4761013],[99.1694163,17.4801687],[99.1699265,17.4818857],[99.1705681,17.4830061],[99.1716733,17.4838932],[99.1720841,17.4849911],[99.1720601,17.4895741],[99.1728289,17.4924544],[99.1728429,17.4937978],[99.1722665,17.4955286],[99.1750491,17.4992587],[99.1690304,17.5016793],[99.1675847,17.502733],[99.1645969,17.5035364],[99.1634854,17.5050322],[99.1633521,17.5070076],[99.1610367,17.5077713],[99.160202,17.510121]]]}},{"type":"Feature","properties":{"id":"TH-LAO-5521001","nameTh":"ป่าตันนาครัว","type":"subdistrict_municipality"},"geometry":{"type":"Polygon","coordinates":[[[99.4658507,18.137028],[99.4665387,18.1378016],[99.4670224,18.1371801],[99.4675831,18.137581],[99.4689883,18.1371712],[99.469057,18.1377667],[99.470248,18.1382688],[99.471789,18.1379554],[99.4723906,18.1371051],[99.472618,18.1377291],[99.4734399,18.1382593],[99.4745181,18.1404205],[99.4741558,18.1408059],[99.4742745,18.1411045],[99.4757273,18.1416532],[99.4759719,18.1421895],[99.4766028,18.1421345],[99.4765534,18.1426096],[99.4778666,18.1421589],[99.4784782,18.1429664],[99.4791133,18.1425382],[99.4798515,18.1428216],[99.4800156,18.1434176],[99.5001089,18.1371642],[99.5075933,18.1395704],[99.513377,18.1371282],[99.5191557,18.1398309],[99.5214477,18.1397432],[99.5216705,18.1310238],[99.5147022,18.1240216],[99.5084931,18.1189333],[99.509906,18.1179207],[99.5001882,18.1127468],[99.5207584,18.107276],[99.5194228,18.1064851],[99.5188649,18.1046087],[99.5182383,18.1038786],[99.5162303,18.1030665],[99.5120128,18.1028969],[99.5092039,18.1033234],[99.5069032,18.1043976],[99.5059056,18.1054177],[99.5061895,18.1066254],[99.5059056,18.1075017],[99.5052406,18.1078794],[99.5037591,18.1078743],[99.4974757,18.10603],[99.4969103,18.1042008],[99.4945157,18.1027763],[99.4928501,18.1037346],[99.4913752,18.1039548],[99.4909528,18.1045537],[99.490946,18.1078592],[99.4926457,18.1095233],[99.4922097,18.1109057],[99.4912322,18.1113428],[99.4882143,18.111291],[99.4850068,18.1101041],[99.4873093,18.1087897],[99.4856175,18.1081217],[99.4856948,18.1071958],[99.4850639,18.1064861],[99.4845645,18.1065789],[99.4840911,18.1062454],[99.4839446,18.1056109],[99.4829228,18.1046526],[99.4829091,18.1041216],[99.4819997,18.1033316],[99.480937,18.1028395],[99.480025,18.1032713],[99.4790842,18.1027085],[99.4790815,18.1035565],[99.4781001,18.1028961],[99.4772836,18.1030477],[99.4763239,18.1027779],[99.4761335,18.1022673],[99.4757859,18.102198],[99.4743446,18.1031361],[99.4730729,18.1033371],[99.4700091,18.1054602],[99.4687892,18.1077341],[99.4683872,18.1079866],[99.4662277,18.108537],[99.4641363,18.1083492],[99.4625013,18.1076175],[99.4604052,18.1050887],[99.4552141,18.1021101],[99.4530164,18.0977758],[99.4516131,18.0966384],[99.4500907,18.094321],[99.4499551,18.0936251],[99.4484381,18.0943389],[99.4454406,18.0947144],[99.4447321,18.0945461],[99.4434241,18.0935359],[99.4422524,18.0930826],[99.4398,18.0927588],[99.4389688,18.0904017],[99.4382742,18.0898014],[99.4342912,18.0882431],[99.4334308,18.0887458],[99.4326616,18.0905605],[99.4332138,18.0922734],[99.4326829,18.093585],[99.4328355,18.0961909],[99.4368947,18.0959639],[99.4374027,18.0966735],[99.4379107,18.0998496],[99.4387862,18.1014649],[99.4392669,18.1032597],[99.4401938,18.1043366],[99.4417731,18.1051198],[99.4424802,18.1058195],[99.4444581,18.1095402],[99.4463142,18.1109705],[99.4483713,18.111108],[99.4489035,18.1115404],[99.4506115,18.1111488],[99.4512982,18.1116872],[99.4525427,18.1117851],[99.4536148,18.1131871],[99.4532904,18.1138192],[99.4535716,18.1143742],[99.4544259,18.114775],[99.4548111,18.1154063],[99.454744,18.1162963],[99.4558267,18.1171151],[99.4559098,18.1183512],[99.4575012,18.1191045],[99.4595858,18.1210533],[99.4606732,18.1213752],[99.4629606,18.1232024],[99.4627138,18.1250931],[99.4630485,18.1255009],[99.4641716,18.1257183],[99.4642101,18.126193],[99.4651153,18.1262692],[99.4649907,18.1265141],[99.4658226,18.1268721],[99.4661002,18.1282568],[99.4670741,18.1286845],[99.4667635,18.129868],[99.466823,18.132874],[99.467407,18.135212],[99.4671042,18.1359365],[99.4658507,18.137028]]]}},{"type":"Feature","properties":{"id":"TH-LAO-4520103","nameTh":"เขลางค์นคร","type":"town_municipality"},"geometry":{"type":"Polygon","coordinates":[[[99.6289534,18.2585667],[99.6291754,18.2620832],[99.6289224,18.2630827],[99.6249033,18.2698901],[99.6251712,18.2717672],[99.6260545,18.2730701],[99.6261624,18.27491],[99.624551,18.2770302],[99.6249213,18.2780582],[99.6278271,18.2816769],[99.630494,18.2824154],[99.6318095,18.2839252],[99.6320568,18.2849295],[99.6317221,18.2883796],[99.6322287,18.2892567],[99.6337429,18.2906111],[99.6350374,18.2930943],[99.6352152,18.294271],[99.6348599,18.2967926],[99.6338414,18.2983712],[99.6316062,18.2994896],[99.6296344,18.3014859],[99.6271706,18.3060394],[99.626705,18.3086233],[99.6243704,18.3091463],[99.6229285,18.3099774],[99.61839,18.3136153],[99.6160738,18.3139904],[99.6144661,18.3136412],[99.6128175,18.3143396],[99.6120953,18.3142103],[99.6113743,18.3134249],[99.6109108,18.312219],[99.6074175,18.3099123],[99.6067832,18.3076028],[99.6035606,18.3058267],[99.602169,18.3032472],[99.601842,18.3021412],[99.601842,18.3002202],[99.5992016,18.2987842],[99.5990381,18.2970314],[99.5967186,18.2948659],[99.5965347,18.2936441],[99.5941394,18.2904805],[99.5939411,18.2879835],[99.5921565,18.2853212],[99.5906239,18.2838153],[99.5889724,18.2841308],[99.5883146,18.2838552],[99.587709,18.2825101],[99.586952,18.2816784],[99.5865519,18.2803743],[99.5853624,18.2793989],[99.585092,18.2788136],[99.5852874,18.2776641],[99.5874407,18.2764528],[99.5861106,18.2741219],[99.5829529,18.2720601],[99.5816412,18.2698971],[99.5795819,18.2694785],[99.577913,18.2683582],[99.5764855,18.2679372],[99.5746778,18.2657183],[99.5740831,18.2657491],[99.5731314,18.2664988],[99.5702549,18.2671765],[99.5686746,18.268046],[99.56671,18.2679629],[99.5633924,18.268778],[99.5624455,18.2684028],[99.5603064,18.2661645],[99.5580859,18.2655327],[99.5557249,18.2639087],[99.553613,18.2635464],[99.5510243,18.2651055],[99.5508949,18.2663799],[99.5468771,18.2682986],[99.5459714,18.269108],[99.5449631,18.2706325],[99.5446584,18.2719536],[99.5433838,18.2721166],[99.5427256,18.2725184],[99.5410955,18.272186],[99.5405087,18.2723705],[99.5392829,18.2739987],[99.5369412,18.2758578],[99.536723,18.2766789],[99.5359399,18.276653],[99.53564,18.2772148],[99.535022,18.2771456],[99.5335929,18.2761472],[99.5324945,18.2761572],[99.532801,18.2772149],[99.5314599,18.2777695],[99.5310057,18.2797513],[99.5298603,18.2804316],[99.5293282,18.2813118],[99.5282939,18.2813974],[99.52697,18.2823039],[99.5255462,18.2821357],[99.5242217,18.2829796],[99.5238553,18.2843454],[99.5233713,18.2846021],[99.5226754,18.2857347],[99.5227208,18.2865708],[99.5213412,18.2871828],[99.5213237,18.2879195],[99.5215967,18.2881624],[99.5210951,18.288501],[99.5187762,18.2845031],[99.5181432,18.2844904],[99.5170677,18.2851118],[99.516381,18.2849233],[99.5156944,18.2838435],[99.5159921,18.2824657],[99.5138517,18.2811184],[99.513782,18.2798857],[99.5156568,18.2775732],[99.5160082,18.2761265],[99.5155656,18.2754643],[99.5128351,18.2745067],[99.5122102,18.2728843],[99.5123765,18.2717229],[99.5052069,18.2711116],[99.5060491,18.2616926],[99.504016,18.2616264],[99.5038317,18.2652329],[99.4994938,18.2660125],[99.4971389,18.2651719],[99.4963342,18.2652636],[99.4978791,18.2722985],[99.4952238,18.2741221],[99.4849502,18.2657577],[99.4822472,18.2694458],[99.4734335,18.2631394],[99.4716766,18.2611042],[99.465639,18.2559003],[99.4544595,18.2657017],[99.4549477,18.2664404],[99.4563317,18.2674286],[99.4624364,18.2693949],[99.4649362,18.2710657],[99.4651294,18.2721355],[99.464829,18.2730014],[99.4618356,18.2764653],[99.4615567,18.277973],[99.4624793,18.282211],[99.4637048,18.2844527],[99.4226658,18.3070102],[99.4161497,18.3005917],[99.4120771,18.2927564],[99.4149304,18.2907943],[99.4149059,18.2897528],[99.4139853,18.2899228],[99.4130461,18.2889989],[99.4064091,18.2763124],[99.4053952,18.2734005],[99.4101012,18.2699475],[99.4054232,18.2646188],[99.4063934,18.2613542],[99.405688,18.2608401],[99.4056687,18.2601958],[99.4063596,18.2584653],[99.4069119,18.2553036],[99.4074721,18.2539421],[99.408115,18.2535498],[99.4082222,18.2531011],[99.4079429,18.2520037],[99.4084025,18.2503186],[99.408659,18.2443054],[99.4090678,18.2432244],[99.4101651,18.2428023],[99.4104236,18.2420382],[99.4110674,18.241863],[99.411441,18.2412433],[99.4115932,18.2400052],[99.4110581,18.2388068],[99.4121322,18.2378903],[99.4108782,18.2362924],[99.4114392,18.2353453],[99.4109158,18.2334461],[99.4113493,18.2315996],[99.4123453,18.2309356],[99.4173561,18.2257428],[99.4222722,18.2234313],[99.4275119,18.2218851],[99.4308941,18.2203798],[99.4324244,18.2190238],[99.43237,18.2176571],[99.4327426,18.2177301],[99.4328188,18.2173001],[99.4332255,18.2171064],[99.4333102,18.2162684],[99.4338043,18.215877],[99.432991,18.2160476],[99.4325838,18.2157905],[99.4330203,18.2148795],[99.432252,18.2140685],[99.4309182,18.2074427],[99.4306945,18.1998219],[99.4299226,18.1965294],[99.4276628,18.1898475],[99.4308138,18.1878819],[99.4321005,18.1861105],[99.4333715,18.1855864],[99.4346418,18.1845494],[99.4384406,18.1837074],[99.4512435,18.1860057],[99.4569184,18.1887794],[99.4583596,18.1827146],[99.4591401,18.1817605],[99.4658149,18.1798801],[99.4685938,18.1805744],[99.4704716,18.1804005],[99.4737747,18.1770736],[99.4742379,18.1774931],[99.4747621,18.177104],[99.4756345,18.1782305],[99.4765623,18.1784389],[99.4776163,18.1814408],[99.4786033,18.1820162],[99.4795473,18.1819787],[99.4800677,18.1814093],[99.4810511,18.1818616],[99.4818765,18.1812921],[99.4836517,18.1818341],[99.4847019,18.1816608],[99.4850344,18.1812949],[99.4862434,18.1818368],[99.4870563,18.1818192],[99.487215,18.1813071],[99.4877342,18.1812243],[99.4885467,18.181374],[99.4887574,18.1821008],[99.4897357,18.1824331],[99.4901665,18.1821611],[99.4902506,18.1816132],[99.4922176,18.1821759],[99.4932092,18.1815202],[99.4939319,18.1819671],[99.4947498,18.1819829],[99.495364,18.1825698],[99.496166,18.1824578],[99.4967986,18.181829],[99.4974414,18.1825823],[99.4982774,18.1824226],[99.499761,18.1833644],[99.5011522,18.182687],[99.5017546,18.181655],[99.5022778,18.1818914],[99.5027333,18.181696],[99.503332,18.1808186],[99.5054629,18.1807416],[99.5095286,18.1829622],[99.5127822,18.1818691],[99.5141338,18.1820163],[99.5146157,18.1825631],[99.5146557,18.1834986],[99.5154973,18.1835559],[99.5160878,18.1841798],[99.5184409,18.1848884],[99.5237931,18.1833878],[99.5261922,18.1835653],[99.5296875,18.1830588],[99.5308409,18.1868174],[99.5305956,18.1883544],[99.5334437,18.1927965],[99.5348795,18.1935537],[99.5367191,18.1953348],[99.5383614,18.1950085],[99.544083,18.1954894],[99.5553357,18.1990953],[99.5585554,18.2014005],[99.5629924,18.2076008],[99.5638336,18.2083231],[99.5694945,18.210448],[99.5737267,18.2132787],[99.5777857,18.2137517],[99.5791648,18.214447],[99.5932913,18.2335867],[99.5970445,18.2409231],[99.5990356,18.2433625],[99.6083366,18.2467678],[99.6126777,18.2490316],[99.6195379,18.2537147],[99.6289534,18.2585667]]]}}]}