{"type":"FeatureCollection","features":[{"type":"Feature","properties":{"provinceCode":"55","nameTh":"น่าน","nameEn":"Nan"},"geometry":{"type":"Polygon","coordinates":[[[100.3976281,18.1365601],[100.3922921,18.1184771],[100.4000578,18.1004661],[100.396526,18.0960324],[100.3979578,18.0905844],[100.396293,18.0893474],[100.3958372,18.085819],[100.3972202,18.0830177],[100.4012437,18.0832817],[100.40981,18.0753164],[100.40335,18.0649832],[100.409152,18.0570807],[100.4083723,18.0475859],[100.4157308,18.037238],[100.4177291,18.0302632],[100.414656,18.0205148],[100.4215012,18.0137296],[100.4262733,18.0131804],[100.427356,18.0160198],[100.4330855,18.0199685],[100.4464086,18.0255316],[100.4477429,18.0276753],[100.4469547,18.029998],[100.4518077,18.0344913],[100.453286,18.0393509],[100.4565896,18.0420273],[100.4615292,18.0425578],[100.4641724,18.0453283],[100.4730524,18.0450199],[100.4747614,18.0490174],[100.4817699,18.0555701],[100.4990326,18.0504011],[100.5032503,18.0533665],[100.5085049,18.0478077],[100.5144899,18.0464111],[100.5155007,18.0445593],[100.5267883,18.0422197],[100.5337032,18.038584],[100.5395947,18.0415521],[100.558014,18.0327051],[100.5658173,18.0360311],[100.5735126,18.035202],[100.5786235,18.044335],[100.589624,18.0399486],[100.5995463,18.0436128],[100.6090535,18.0502429],[100.6234866,18.0438788],[100.6323851,18.0443965],[100.6556516,18.0388654],[100.6653836,18.041004],[100.6704217,18.0446682],[100.6739355,18.0388074],[100.6814416,18.033443],[100.6817435,18.0296361],[100.6867919,18.0305131],[100.6888352,18.0265677],[100.6917973,18.0265843],[100.6917439,18.0244704],[100.6933587,18.023974],[100.6942969,18.0267629],[100.698443,18.0254982],[100.6988565,18.0275164],[100.7054779,18.0265612],[100.7086654,18.0312056],[100.7125,18.03173],[100.7144304,18.0292325],[100.7250004,18.0327502],[100.7311846,18.0296832],[100.7382072,18.0285461],[100.7451353,18.0295994],[100.7493368,18.0284125],[100.7531327,18.0298689],[100.7564112,18.0281917],[100.7595407,18.0290131],[100.7660745,18.02553],[100.7689941,18.0259484],[100.774399,18.0292519],[100.7855394,18.0435422],[100.7903398,18.0459703],[100.791667,18.0488296],[100.7955639,18.0496138],[100.7976639,18.0533593],[100.8008802,18.0542173],[100.8072452,18.0648291],[100.8093615,18.0769977],[100.8156474,18.0797821],[100.8190965,18.0832224],[100.8236439,18.0803529],[100.8310985,18.0819176],[100.833188,18.0800153],[100.8355342,18.0813303],[100.8430649,18.0794829],[100.8495433,18.0820135],[100.850992,18.0845302],[100.8489646,18.0867697],[100.8491698,18.0895475],[100.8546078,18.0975514],[100.855853,18.102367],[100.8658725,18.1135287],[100.8745682,18.1189882],[100.8743678,18.1232456],[100.871593,18.1265843],[100.8715274,18.1352583],[100.8731146,18.1393743],[100.8798092,18.1455269],[100.882703,18.1511059],[100.8872984,18.1478536],[100.8899057,18.1496479],[100.8934262,18.149305],[100.9131352,18.1591281],[100.9123354,18.1626282],[100.9091605,18.1651856],[100.909143,18.1699836],[100.9070087,18.1715886],[100.9056799,18.1767769],[100.9087118,18.1882019],[100.9075049,18.193863],[100.914238,18.1999334],[100.9186943,18.200988],[100.9247786,18.2083659],[100.9250999,18.2128233],[100.9219085,18.2168513],[100.9184676,18.217342],[100.9164025,18.2214656],[100.9140272,18.2222028],[100.9122784,18.2274571],[100.91619,18.2325677],[100.9187615,18.2426632],[100.9260832,18.2507005],[100.9301058,18.2507194],[100.9393595,18.2542868],[100.9441868,18.2621113],[100.9473077,18.2650853],[100.951427,18.2658851],[100.9524679,18.2688584],[100.9585236,18.2736902],[100.9590044,18.2774036],[100.9637097,18.2786602],[100.9653106,18.2836513],[100.9701976,18.2876727],[100.9713027,18.2911727],[100.9772768,18.295169],[100.9791708,18.2988316],[100.9780006,18.3023816],[100.97953,18.3057423],[100.9838116,18.3081828],[100.9990481,18.3091449],[101.0051565,18.3177627],[101.0179456,18.3216034],[101.0235306,18.3259355],[101.0274297,18.3321944],[101.034228,18.3336089],[101.0384911,18.3382255],[101.0432012,18.339672],[101.046002,18.3457472],[101.0517604,18.3492639],[101.0559554,18.3559503],[101.0659053,18.3561024],[101.0698348,18.3577076],[101.0737822,18.3564199],[101.0738966,18.3600405],[101.076968,18.3651087],[101.0818365,18.3689957],[101.0820552,18.3748537],[101.0847722,18.3770003],[101.0854165,18.3810164],[101.082788,18.384653],[101.083658,18.396263],[101.078194,18.405819],[101.069247,18.409302],[101.062573,18.418277],[101.052563,18.425332],[101.056577,18.435066],[101.054111,18.442121],[101.057447,18.444488],[101.063444,18.454847],[101.066345,18.45574],[101.067313,18.460072],[101.072971,18.462885],[101.074276,18.466368],[101.08066,18.471235],[101.082304,18.475075],[101.093282,18.479138],[101.093862,18.483425],[101.091106,18.491373],[101.091492,18.499232],[101.098165,18.50274],[101.098649,18.510599],[101.103581,18.521494],[101.108804,18.525603],[101.117025,18.527567],[101.127761,18.524531],[101.138594,18.528282],[101.139367,18.532479],[101.141979,18.53498],[101.141882,18.537927],[101.148266,18.541946],[101.148459,18.552395],[101.157647,18.555431],[101.160162,18.55436],[101.166449,18.557039],[101.170317,18.556503],[101.173896,18.559807],[101.179022,18.5582],[101.183278,18.560522],[101.18173,18.568292],[101.184729,18.571328],[101.18676,18.579634],[101.182601,18.586689],[101.179796,18.588029],[101.18202,18.602229],[101.179119,18.604819],[101.181924,18.612231],[101.190628,18.615535],[101.196238,18.615268],[101.202331,18.617947],[101.21239,18.618661],[101.219064,18.624377],[101.226124,18.624288],[101.234732,18.635005],[101.241696,18.639381],[101.242663,18.642596],[101.241212,18.650544],[101.24924,18.656081],[101.253737,18.665658],[101.257558,18.668426],[101.25925,18.678295],[101.265827,18.682537],[101.267471,18.686645],[101.272742,18.688609],[101.267568,18.698299],[101.260362,18.700755],[101.257122,18.705756],[101.253109,18.70589],[101.249337,18.710112],[101.244694,18.711988],[101.234249,18.711809],[101.232217,18.716453],[101.233281,18.721276],[101.223803,18.731903],[101.224287,18.734136],[101.235603,18.741013],[101.238504,18.750834],[101.237489,18.759051],[101.243679,18.770304],[101.250007,18.770313],[101.25266,18.771817],[101.249143,18.775841],[101.252238,18.785406],[101.250007,18.786798],[101.248901,18.790711],[101.252479,18.796433],[101.254289,18.803896],[101.258451,18.808685],[101.248079,18.817727],[101.247596,18.825542],[101.242808,18.83166],[101.24542,18.834294],[101.245951,18.838537],[101.250007,18.840485],[101.254289,18.847391],[101.251957,18.862802],[101.25447,18.865658],[101.251695,18.86822],[101.251997,18.871506],[101.24895,18.876717],[101.248515,18.884085],[101.246145,18.885558],[101.245758,18.88864],[101.253621,18.905976],[101.265043,18.91065],[101.274413,18.917344],[101.275918,18.92126],[101.274276,18.930227],[101.27838,18.931554],[101.279474,18.934206],[101.282894,18.936038],[101.290691,18.935217],[101.295342,18.939511],[101.29671,18.944753],[101.293153,18.950879],[101.29671,18.954542],[101.294179,18.963383],[101.292059,18.96572],[101.294316,18.971972],[101.291101,18.976835],[101.292606,18.98094],[101.30095,18.987382],[101.305259,18.988203],[101.305943,18.996981],[101.310149,19.002494],[101.327043,19.002431],[101.335455,19.00401],[101.339832,19.010515],[101.340448,19.021061],[101.345441,19.025798],[101.348724,19.036155],[101.355221,19.045628],[101.354332,19.048849],[101.357205,19.049923],[101.35057,19.051944],[101.347629,19.059333],[101.344141,19.061859],[101.340243,19.069879],[101.338259,19.070574],[101.332925,19.067795],[101.332377,19.071584],[101.326564,19.072911],[101.325333,19.080173],[101.320135,19.080994],[101.316373,19.079668],[101.296812,19.094699],[101.29818,19.097099],[101.293666,19.103982],[101.288879,19.104551],[101.284296,19.11055],[101.271643,19.113961],[101.266172,19.117245],[101.259469,19.124192],[101.256665,19.124507],[101.254202,19.131454],[101.258648,19.139727],[101.257896,19.149643],[101.254476,19.154],[101.253177,19.170168],[101.248595,19.174464],[101.245038,19.181221],[101.251877,19.190629],[101.252629,19.197576],[101.250441,19.205913],[101.253587,19.210839],[101.253792,19.220122],[101.259537,19.230795],[101.255297,19.234332],[101.253724,19.239258],[101.250099,19.242163],[101.248116,19.246901],[101.247364,19.255746],[101.242986,19.264019],[101.243192,19.267808],[101.238472,19.281576],[101.239909,19.283976],[101.229307,19.297112],[101.227324,19.30469],[101.227187,19.308921],[101.231291,19.317889],[101.236489,19.323257],[101.241892,19.324584],[101.240114,19.328625],[101.233138,19.334688],[101.228487,19.347193],[101.225204,19.344793],[101.2211,19.345298],[101.219595,19.343719],[101.213508,19.348014],[101.205096,19.350161],[101.204275,19.357803],[101.198803,19.370118],[101.190459,19.37757],[101.190459,19.38559],[101.18704,19.397905],[101.18745,19.400242],[101.190596,19.4022],[101.196341,19.399358],[101.194631,19.405736],[101.19894,19.40662],[101.204343,19.415904],[101.206806,19.417357],[101.208721,19.423483],[101.215218,19.43144],[101.210157,19.437629],[101.210636,19.441987],[101.212551,19.444386],[101.2079,19.448934],[101.209268,19.454238],[101.204959,19.458217],[101.21132,19.464154],[101.210499,19.473311],[101.213782,19.475837],[101.216381,19.472995],[101.219732,19.474258],[101.225409,19.472174],[101.228897,19.477037],[101.236489,19.477921],[101.238541,19.473121],[101.243465,19.472427],[101.246953,19.474385],[101.266351,19.470363],[101.265795,19.476136],[101.269893,19.484731],[101.266906,19.489862],[101.268538,19.500799],[101.267427,19.503429],[101.270414,19.507791],[101.270205,19.510934],[101.274721,19.512345],[101.278333,19.52062],[101.285071,19.526521],[101.284654,19.534539],[101.280417,19.537361],[101.273887,19.550574],[101.28785,19.56815],[101.280139,19.577258],[101.280834,19.582389],[101.261105,19.593615],[101.256243,19.590792],[101.24631,19.594513],[101.246032,19.60035],[101.24374,19.603621],[101.241725,19.602274],[101.237766,19.603365],[101.232972,19.602082],[101.227693,19.602723],[101.224914,19.604776],[101.217621,19.601825],[101.207479,19.605417],[101.203311,19.598811],[101.20463,19.595924],[101.202616,19.591755],[101.20463,19.588227],[101.19824,19.577002],[101.192752,19.57636],[101.187056,19.579054],[101.179136,19.578156],[101.169411,19.585854],[101.166841,19.580914],[101.163298,19.582711],[101.160311,19.580722],[101.153851,19.581043],[101.146279,19.577451],[101.141,19.578926],[101.12794,19.57527],[101.1228,19.572127],[101.116339,19.578477],[101.118007,19.581043],[101.116409,19.583801],[101.113352,19.585405],[101.106823,19.584635],[101.100848,19.58611],[101.097306,19.58425],[101.091748,19.58688],[101.09029,19.596437],[101.080287,19.603685],[101.077091,19.604776],[101.070561,19.602531],[101.06813,19.603493],[101.066254,19.605353],[101.067991,19.608368],[101.06688,19.612601],[101.06167,19.616771],[101.062851,19.618759],[101.055904,19.621517],[101.052361,19.619786],[101.042775,19.625174],[101.038815,19.624083],[101.035342,19.628509],[101.023741,19.629856],[101.01999,19.622736],[101.014711,19.61985],[101.006097,19.62357],[101.005125,19.622031],[101.00186,19.621838],[100.9977,19.626091],[100.98973,19.624933],[100.982208,19.627373],[100.973119,19.619228],[100.967835,19.620964],[100.967298,19.622618],[100.958254,19.625016],[100.947866,19.624065],[100.938373,19.62576],[100.934389,19.622329],[100.929777,19.625264],[100.92521,19.625802],[100.916792,19.621543],[100.913658,19.626463],[100.908956,19.627001],[100.908285,19.628944],[100.900046,19.632665],[100.892793,19.63407],[100.887285,19.623486],[100.882987,19.60608],[100.878285,19.605584],[100.878106,19.601077],[100.872957,19.600374],[100.873942,19.598101],[100.871211,19.59624],[100.869644,19.59041],[100.865211,19.589294],[100.866062,19.585573],[100.858584,19.581728],[100.861002,19.575857],[100.859883,19.573294],[100.847883,19.568208],[100.840361,19.558244],[100.838704,19.552828],[100.834719,19.550885],[100.831003,19.5446],[100.826973,19.543567],[100.824914,19.537034],[100.819361,19.53261],[100.81663,19.52521],[100.812197,19.523391],[100.801854,19.514915],[100.796661,19.513799],[100.792452,19.510822],[100.784034,19.501064],[100.78088,19.494718],[100.771432,19.487359],[100.7666246,19.4901852],[100.7642362,19.5011996],[100.7594672,19.5020457],[100.7566886,19.5042529],[100.7596546,19.5092116],[100.7578125,19.5121397],[100.7527002,19.5107566],[100.7415544,19.5163552],[100.740649,19.5205338],[100.7348419,19.5212915],[100.7295032,19.5262718],[100.7219088,19.5270295],[100.7142909,19.5309429],[100.7116996,19.5305236],[100.708039,19.5357317],[100.7022944,19.5345253],[100.6944814,19.5356655],[100.6916013,19.5395567],[100.6846664,19.5418957],[100.6819619,19.5451322],[100.6746719,19.5471843],[100.6728065,19.5495748],[100.6657467,19.5498028],[100.6609153,19.5476881],[100.658523,19.5517372],[100.6517325,19.5571799],[100.6448171,19.5548263],[100.636528,19.5565915],[100.628559,19.5558192],[100.6247813,19.5527706],[100.612812,19.5507479],[100.6079845,19.5471071],[100.6107866,19.5350255],[100.6028331,19.5302809],[100.6014906,19.5173851],[100.5985978,19.5100258],[100.5989827,19.4982885],[100.6034012,19.4851338],[100.6025159,19.4792138],[100.5879902,19.4749039],[100.5831359,19.4754556],[100.5753583,19.4658818],[100.5712406,19.4635842],[100.5695214,19.458284],[100.5653768,19.4539233],[100.5647548,19.4361953],[100.540651,19.4164987],[100.5191452,19.4060889],[100.5099977,19.4065285],[100.5061274,19.4030296],[100.4922121,19.3987894],[100.4880949,19.3995514],[100.4885828,19.3935013],[100.4873354,19.3911498],[100.4892721,19.3877436],[100.4847965,19.3830403],[100.4944742,19.3800996],[100.4959866,19.3713988],[100.5056883,19.3713284],[100.5152916,19.3789944],[100.5212104,19.3807367],[100.5262108,19.3713495],[100.5338855,19.3673438],[100.5325732,19.362449],[100.5339306,19.3611024],[100.5319582,19.3599273],[100.5299926,19.3532232],[100.5357089,19.3503085],[100.5461379,19.3489888],[100.5541515,19.3405802],[100.5596406,19.3409015],[100.5628855,19.3394745],[100.558195,19.3345491],[100.5594772,19.3283627],[100.558047,19.3212843],[100.5616197,19.3159094],[100.5611581,19.3116421],[100.565624,19.3105456],[100.5699802,19.3046023],[100.5741279,19.3081586],[100.5863046,19.3140175],[100.5876696,19.3180508],[100.5909564,19.3207258],[100.5916689,19.3269523],[100.5986277,19.3271391],[100.6088809,19.334171],[100.6097164,19.3310576],[100.6137775,19.3277021],[100.6163421,19.3196368],[100.612382,19.3158665],[100.6100433,19.2961053],[100.6118367,19.288358],[100.6098892,19.2855913],[100.6100835,19.2805812],[100.6077392,19.2782517],[100.6043748,19.2689392],[100.6057683,19.2647526],[100.6049287,19.2569964],[100.600139,19.2522046],[100.6114873,19.2329134],[100.6167403,19.2270098],[100.6156744,19.2230382],[100.6169206,19.2159633],[100.6187606,19.2137654],[100.6217118,19.1995496],[100.6181892,19.1928377],[100.6180326,19.1822785],[100.6222536,19.1768457],[100.6223766,19.1736817],[100.6257115,19.1719968],[100.6253274,19.1668557],[100.6281131,19.1602707],[100.6288688,19.151178],[100.6248224,19.1454293],[100.6245513,19.1412314],[100.6225771,19.1385641],[100.6259609,19.1232385],[100.623252,19.1113544],[100.6111577,19.104066],[100.6095755,19.1049643],[100.6095642,19.1015176],[100.6091786,19.1038769],[100.6064672,19.1037223],[100.605836,19.1020123],[100.603596,19.1039466],[100.6017942,19.1034121],[100.6018816,19.1047572],[100.5970061,19.1013916],[100.5933138,19.1014203],[100.5937202,19.0995495],[100.5912981,19.0980139],[100.5888949,19.0988951],[100.5872806,19.0965595],[100.5856479,19.0972454],[100.585483,19.0953108],[100.580056,19.0973145],[100.580658,19.101077],[100.5792264,19.1033389],[100.5761471,19.1053147],[100.5728728,19.1043453],[100.568524,19.0986742],[100.568439,19.0929407],[100.5722513,19.0917273],[100.5695348,19.0888959],[100.5699033,19.0869753],[100.5657582,19.0852194],[100.5665474,19.0841624],[100.5635119,19.0797006],[100.5682224,19.0786744],[100.5640074,19.0763722],[100.5639318,19.0746576],[100.566678,19.0742393],[100.5658642,19.0727404],[100.5807353,19.0641831],[100.584979,19.0580285],[100.5934771,19.0541123],[100.5988768,19.0495511],[100.6083847,19.0466327],[100.6135036,19.0432307],[100.6191402,19.0334122],[100.6042008,19.0204219],[100.5919329,19.0275214],[100.5863275,19.0278929],[100.583147,19.0311617],[100.5657975,19.0313659],[100.5618205,19.0347464],[100.5567884,19.0447367],[100.5538287,19.0447429],[100.551682,19.0412358],[100.5486551,19.0403448],[100.5431265,19.0462627],[100.5382573,19.0469191],[100.5356972,19.0462201],[100.5334461,19.0419048],[100.531388,19.0413177],[100.5213486,19.0444333],[100.5150567,19.0444967],[100.5116341,19.0483823],[100.4936939,19.0523613],[100.4931672,19.0427126],[100.4919573,19.0433027],[100.4899042,19.0390203],[100.4858292,19.0409034],[100.4846956,19.0378418],[100.4814233,19.0377219],[100.4825827,19.0360119],[100.4798754,19.0365428],[100.4819745,19.0351471],[100.4821852,19.0317498],[100.4777922,19.0291328],[100.4779005,19.0274675],[100.4798582,19.0271872],[100.4777271,19.0243083],[100.4714346,19.0214895],[100.4699418,19.017793],[100.4662572,19.0181],[100.4661436,19.0143092],[100.4603543,19.0127161],[100.4551706,19.0071035],[100.4595462,19.0028882],[100.4687192,19.0021582],[100.471716,19.0036234],[100.4740188,19.0020218],[100.4849164,19.0021717],[100.5043724,18.9955684],[100.4984639,18.9784849],[100.4912708,18.9741413],[100.4890871,18.9685765],[100.4812976,18.9659336],[100.480268,18.9597255],[100.482487,18.9523034],[100.4797482,18.950048],[100.4740122,18.9492513],[100.4585807,18.9424887],[100.4536881,18.9345531],[100.4419133,18.9442211],[100.4334352,18.946291],[100.4270943,18.9453303],[100.4238851,18.9485236],[100.4160912,18.9453014],[100.4051928,18.9447288],[100.4074326,18.9392327],[100.4067122,18.935679],[100.3985011,18.9324248],[100.3909831,18.9257322],[100.3916708,18.9096825],[100.3898303,18.9079148],[100.3882302,18.9009091],[100.3884658,18.8937797],[100.3823862,18.8852614],[100.3661702,18.8700564],[100.3629848,18.8608177],[100.3663082,18.8533307],[100.3640141,18.8485315],[100.3468513,18.8332583],[100.347113,18.828408],[100.3393909,18.8256764],[100.3399064,18.8226574],[100.336139,18.8194072],[100.3450603,18.8139174],[100.3417407,18.8068958],[100.339244,18.8049811],[100.3387521,18.7998961],[100.3360402,18.7953045],[100.3370295,18.7870289],[100.3418377,18.7846067],[100.3467859,18.7864053],[100.3560435,18.784598],[100.3623376,18.7780361],[100.3589839,18.7719022],[100.3612293,18.7675155],[100.3573093,18.7612108],[100.3580651,18.7508238],[100.3654349,18.7458924],[100.3693008,18.7452277],[100.3737013,18.740919],[100.3838662,18.7390945],[100.3902145,18.7412153],[100.3913692,18.739383],[100.3874176,18.7320111],[100.3883975,18.7274653],[100.3801488,18.7253981],[100.3806129,18.7243081],[100.3778147,18.7228669],[100.3763544,18.7170792],[100.3709021,18.7099345],[100.3677605,18.710093],[100.3633156,18.7072237],[100.3638725,18.7038018],[100.3601955,18.6995489],[100.3588956,18.6900051],[100.3515796,18.6805543],[100.3547499,18.6768341],[100.3544037,18.6741241],[100.3561755,18.6731715],[100.3545068,18.6695793],[100.3575685,18.6665358],[100.3542244,18.6619889],[100.3557061,18.6595938],[100.3597012,18.6585315],[100.3592644,18.6490604],[100.3613069,18.6436794],[100.364615,18.6437356],[100.3685783,18.6387641],[100.3750695,18.6370744],[100.3860402,18.6393918],[100.3889713,18.6374749],[100.392589,18.6383935],[100.3922306,18.6276864],[100.3897891,18.6251868],[100.3846734,18.6250528],[100.3819064,18.6231383],[100.3806515,18.6211407],[100.3812054,18.6168737],[100.3781845,18.6132035],[100.3781869,18.604521],[100.3768178,18.6027916],[100.3777778,18.593141],[100.3766276,18.592071],[100.3793233,18.5872704],[100.3768486,18.5836385],[100.3761518,18.575187],[100.3709544,18.5670021],[100.3875587,18.5584151],[100.386889,18.5427166],[100.3899441,18.5402985],[100.3931754,18.5338365],[100.3952836,18.5330213],[100.3957105,18.5282155],[100.3869164,18.5119827],[100.3895598,18.511638],[100.3959614,18.5035996],[100.3974374,18.4970704],[100.3955672,18.495862],[100.4004379,18.4929899],[100.3993154,18.4857502],[100.4111552,18.4836891],[100.4146663,18.4805206],[100.4187731,18.4861752],[100.4183269,18.4900793],[100.4216801,18.495589],[100.4295354,18.4977478],[100.4368491,18.5018979],[100.4387209,18.4955736],[100.4440602,18.4898746],[100.4467608,18.4960548],[100.4545688,18.4960582],[100.4601808,18.4905392],[100.4713204,18.4918231],[100.4767117,18.4947852],[100.477342,18.4886091],[100.48436,18.4803656],[100.4939293,18.4740612],[100.502974,18.4755037],[100.5050408,18.4729535],[100.5121272,18.4767887],[100.5162121,18.4755311],[100.5193551,18.4764696],[100.5238461,18.4800769],[100.5247812,18.483225],[100.5323381,18.485642],[100.5341705,18.4903185],[100.5370663,18.4912952],[100.5418649,18.4892251],[100.5431815,18.4694357],[100.5465546,18.4654506],[100.5457773,18.4619805],[100.549372,18.4582511],[100.5505991,18.4499272],[100.5473087,18.4385908],[100.5483295,18.4317346],[100.5512935,18.4294617],[100.5498777,18.4265626],[100.5512337,18.4227894],[100.5505776,18.4170436],[100.5477774,18.4141333],[100.5460008,18.4068391],[100.5411866,18.404861],[100.5363963,18.3908199],[100.5328534,18.3920074],[100.5269762,18.3905615],[100.5174731,18.3924447],[100.5129291,18.3877925],[100.5103151,18.3816125],[100.5105009,18.3761173],[100.505975,18.37015],[100.505675,18.3625634],[100.5013954,18.3582668],[100.498218,18.3574154],[100.4978019,18.3529821],[100.481456,18.3494055],[100.4835229,18.3466919],[100.4828142,18.341922],[100.4875119,18.3422134],[100.493086,18.3379718],[100.4893377,18.3340333],[100.4850286,18.3247474],[100.4810681,18.3235786],[100.4798335,18.3185183],[100.4823799,18.3055393],[100.4849946,18.3044065],[100.486361,18.2982996],[100.4833993,18.2955689],[100.4834335,18.2901403],[100.4888258,18.2852811],[100.4921519,18.284725],[100.4940101,18.2786936],[100.4877488,18.2753875],[100.4847806,18.2702817],[100.4811543,18.267659],[100.4783481,18.2675795],[100.4761958,18.2650254],[100.4758528,18.2578383],[100.4726409,18.2556673],[100.4700636,18.2460741],[100.4680911,18.2449092],[100.4678807,18.2371858],[100.4608144,18.2292143],[100.4618376,18.2231153],[100.4588448,18.2177286],[100.4540514,18.2146486],[100.4577686,18.2071127],[100.4600038,18.194833],[100.4555887,18.1907898],[100.4514186,18.1835866],[100.4526992,18.1808311],[100.4524369,18.173123],[100.4482492,18.1663956],[100.4469912,18.158547],[100.4413481,18.153424],[100.4367212,18.152319],[100.4212944,18.1538512],[100.4184979,18.1554837],[100.414549,18.1537642],[100.4139619,18.1492256],[100.4100301,18.1416068],[100.3994991,18.1379038],[100.3976281,18.1365601]]]}}]}