{"type":"FeatureCollection","name":"p55-subset","crs":{"type":"name","properties":{"name":"urn:ogc:def:crs:EPSG::32647"}},"features":[{"type":"Feature","properties":{"building":"retail","height":6,"heightSource":"default"},"geometry":{"type":"MultiPolygon","coordinates":[[[[682557.87,2078744.23],[682631.48,2078721.82],[682597.24,2078610.81],[682673.19,2078587.67],[682643.49,2078491.39],[682661.29,2078487.93],[682640.21,2078428.13],[682611.68,2078436.11],[682609.38,2078480.98],[682613.27,2078500.59],[682493.95,2078536.93],[682557.87,2078744.23]]]]}},{"type":"Feature","properties":{"building":"yes","height":6,"heightSource":"default"},"geometry":{"type":"MultiPolygon","coordinates":[[[[681667.9,2078833.56],[681672.4,2078878.38],[681655.31,2078880.08],[681650.81,2078835.24],[681667.9,2078833.56]]]]}},{"type":"Feature","properties":{"building":"industrial","height":6,"heightSource":"default"},"geometry":{"type":"MultiPolygon","coordinates":[[[[681617.03,2078870.41],[681625.11,2078870.27],[681625.61,2078876.74],[681638.07,2078876.02],[681637.52,2078870.48],[681644.89,2078871.03],[681642.05,2078843.17],[681636.4,2078843.68],[681635.62,2078840.12],[681623.17,2078840.26],[681623.3,2078849.29],[681616.07,2078849.78],[681617.03,2078870.41]]]]}},{"type":"Feature","properties":{"building":"yes","height":6,"heightSource":"default"},"geometry":{"type":"MultiPolygon","coordinates":[[[[682238.73,2078844.06],[682260.45,2078835.41],[682247.13,2078802.37],[682225.4,2078811.02],[682238.73,2078844.06]]]]}},{"type":"Feature","properties":{"building":"yes","height":6,"heightSource":"default"},"geometry":{"type":"MultiPolygon","coordinates":[[[[682241.09,2078890.31],[682263.87,2078882.5],[682267.38,2078891.41],[682279.66,2078887.15],[682276.27,2078878],[682298.12,2078869.78],[682293.8,2078857.77],[682271.96,2078865.14],[682270.59,2078860.91],[682256.41,2078864.99],[682259.09,2078870.81],[682236.75,2078879.98],[682241.09,2078890.31]]]]}},{"type":"Feature","properties":{"building":"yes","height":6,"heightSource":"default"},"geometry":{"type":"MultiPolygon","coordinates":[[[[682188.47,2078795.05],[682205.65,2078788.06],[682183.35,2078733.9],[682166.17,2078740.89],[682188.47,2078795.05]]]]}},{"type":"Feature","properties":{"building":"yes","height":6,"heightSource":"default"},"geometry":{"type":"MultiPolygon","coordinates":[[[[683776.13,2077954.41],[683791.99,2077951.76],[683785.58,2077938.85],[683799.01,2077928.77],[683804.83,2077936.79],[683824.52,2077922.28],[683830.63,2077933.59],[683800.95,2077960.84],[683812.14,2077972.76],[683841.47,2077949.51],[683851.88,2077957.96],[683875.27,2077937.96],[683857.37,2077916.98],[683847.15,2077920.81],[683836.22,2077908.43],[683844.79,2077899.51],[683803.63,2077829.4],[683791.42,2077836.5],[683800.84,2077856.27],[683739.35,2077897.27],[683776.13,2077954.41]]]]}},{"type":"Feature","properties":{"building":"yes","height":6,"heightSource":"default"},"geometry":{"type":"MultiPolygon","coordinates":[[[[683857.3,2077878.83],[683879.14,2077866.27],[683852.28,2077820.14],[683830.45,2077832.7],[683857.3,2077878.83]]]]}},{"type":"Feature","properties":{"building":"house","height":6,"heightSource":"default"},"geometry":{"type":"MultiPolygon","coordinates":[[[[678403.22,2083689.58],[678403.56,2083679.06],[678413.15,2083679.88],[678411.83,2083689.9],[678403.22,2083689.58]]]]}},{"type":"Feature","properties":{"building":"house","height":6,"heightSource":"default"},"geometry":{"type":"MultiPolygon","coordinates":[[[[678396.54,2083718.87],[678398.59,2083709.83],[678407.19,2083711.39],[678406.11,2083720.67],[678396.54,2083718.87]]]]}},{"type":"Feature","properties":{"building":"house","height":6,"heightSource":"default"},"geometry":{"type":"MultiPolygon","coordinates":[[[[678443.46,2083753.08],[678444.54,2083742.82],[678453.64,2083743.39],[678453.06,2083753.66],[678443.46,2083753.08]]]]}},{"type":"Feature","properties":{"building":"house","height":6,"heightSource":"default"},"geometry":{"type":"MultiPolygon","coordinates":[[[[678374.77,2083730.4],[678378.73,2083716.48],[678389.4,2083719.77],[678386.06,2083733.2],[678374.77,2083730.4]]]]}},{"type":"Feature","properties":{"building":"house","height":6,"heightSource":"default"},"geometry":{"type":"MultiPolygon","coordinates":[[[[678399.55,2083737.74],[678404.57,2083728.24],[678412.66,2083731.98],[678407.64,2083741.72],[678399.55,2083737.74]]]]}},{"type":"Feature","properties":{"building":"house","height":6,"heightSource":"default"},"geometry":{"type":"MultiPolygon","coordinates":[[[[678350.66,2083703.02],[678360.48,2083705.8],[678357.93,2083716.05],[678347.11,2083713.99],[678350.66,2083703.02]]]]}},{"type":"Feature","properties":{"building":"house","height":6,"heightSource":"default"},"geometry":{"type":"MultiPolygon","coordinates":[[[[678383.89,2083677.65],[678392.78,2083674.31],[678395.87,2083684.86],[678386.5,2083687.21],[678383.89,2083677.65]]]]}},{"type":"Feature","properties":{"building":"house","height":6,"heightSource":"default"},"geometry":{"type":"MultiPolygon","coordinates":[[[[678407.22,2083708.94],[678408.05,2083699.16],[678417.39,2083699.74],[678416.8,2083709.52],[678407.22,2083708.94]]]]}},{"type":"Feature","properties":{"building":"house","height":6,"heightSource":"default"},"geometry":{"type":"MultiPolygon","coordinates":[[[[678444.85,2083736.94],[678457.63,2083738.78],[678459.44,2083729.01],[678456.24,2083728.22],[678447.17,2083725.96],[678444.85,2083736.94]]]]}},{"type":"Feature","properties":{"building":"house","height":6,"heightSource":"default"},"geometry":{"type":"MultiPolygon","coordinates":[[[[678456.24,2083728.22],[678464.83,2083729.83],[678467.71,2083718.75],[678459.76,2083716.47],[678456.24,2083728.22]]]]}},{"type":"Feature","properties":{"building":"house","height":6,"heightSource":"default"},"geometry":{"type":"MultiPolygon","coordinates":[[[[678464.96,2083743.5],[678473.83,2083743.09],[678474.9,2083734.05],[678466.06,2083732.49],[678464.96,2083743.5]]]]}},{"type":"Feature","properties":{"building":"house","height":6,"heightSource":"default"},"geometry":{"type":"MultiPolygon","coordinates":[[[[678422.83,2083722.54],[678435.87,2083723.89],[678437.7,2083712.16],[678424.18,2083710.57],[678422.83,2083722.54]]]]}},{"type":"Feature","properties":{"building":"house","height":6,"heightSource":"default"},"geometry":{"type":"MultiPolygon","coordinates":[[[[678412.61,2083761.83],[678424.39,2083765.61],[678428.2,2083753.42],[678416.68,2083749.15],[678412.61,2083761.83]]]]}},{"type":"Feature","properties":{"building":"house","height":6,"heightSource":"default"},"geometry":{"type":"MultiPolygon","coordinates":[[[[678482.63,2083697.92],[678491.72,2083699.72],[678494.03,2083689.47],[678485.69,2083686.94],[678482.63,2083697.92]]]]}},{"type":"Feature","properties":{"building":"house","height":6,"heightSource":"default"},"geometry":{"type":"MultiPolygon","coordinates":[[[[678472.95,2083680.7],[678481.79,2083681.53],[678482.62,2083672.23],[678474.02,2083671.41],[678472.95,2083680.7]]]]}},{"type":"Feature","properties":{"building":"house","height":6,"heightSource":"default"},"geometry":{"type":"MultiPolygon","coordinates":[[[[678499.98,2083684.63],[678509.82,2083684.97],[678510.91,2083674.46],[678500.33,2083673.86],[678499.98,2083684.63]]]]}},{"type":"Feature","properties":{"building":"yes","height":6,"heightSource":"default"},"geometry":{"type":"MultiPolygon","coordinates":[[[[678512.29,2083684.26],[678524.84,2083685.11],[678524.94,2083674.6],[678513.38,2083673.5],[678512.29,2083684.26]]]]}},{"type":"Feature","properties":{"building":"house","height":6,"heightSource":"default"},"geometry":{"type":"MultiPolygon","coordinates":[[[[678515,2083658.35],[678523.86,2083658.68],[678524.21,2083647.18],[678515.61,2083646.13],[678515,2083658.35]]]]}},{"type":"Feature","properties":{"building":"house","height":6,"heightSource":"default"},"geometry":{"type":"MultiPolygon","coordinates":[[[[678493.8,2083661.57],[678502.91,2083661.66],[678503.02,2083649.43],[678493.92,2083649.1],[678493.8,2083661.57]]]]}},{"type":"Feature","properties":{"building":"house","height":6,"heightSource":"default"},"geometry":{"type":"MultiPolygon","coordinates":[[[[678462.56,2083660.79],[678472.13,2083663.08],[678473.95,2083653.56],[678464.36,2083651.5],[678462.56,2083660.79]]]]}},{"type":"Feature","properties":{"building":"house","height":6,"heightSource":"default"},"geometry":{"type":"MultiPolygon","coordinates":[[[[678394.04,2083670.4],[678409.04,2083672.26],[678409.28,2083668.38],[678409.63,2083662.48],[678396.11,2083660.39],[678394.04,2083670.4]]]]}},{"type":"Feature","properties":{"building":"house","height":6,"heightSource":"default"},"geometry":{"type":"MultiPolygon","coordinates":[[[[678423.65,2083662.37],[678432.01,2083663.68],[678434.85,2083649.27],[678425.27,2083648.68],[678424.01,2083659.33],[678423.65,2083662.37]]]]}},{"type":"Feature","properties":{"building":"house","height":6,"heightSource":"default"},"geometry":{"type":"MultiPolygon","coordinates":[[[[678418.71,2083690.71],[678429.04,2083691.54],[678431.1,2083681.77],[678421.27,2083679.72],[678418.71,2083690.71]]]]}},{"type":"Feature","properties":{"building":"house","height":6,"heightSource":"default"},"geometry":{"type":"MultiPolygon","coordinates":[[[[678434.84,2083677.65],[678447.62,2083678.75],[678448.94,2083669.22],[678436.15,2083667.87],[678434.84,2083677.65]]]]}},{"type":"Feature","properties":{"building":"house","height":6,"heightSource":"default"},"geometry":{"type":"MultiPolygon","coordinates":[[[[678367.39,2083652.54],[678377.63,2083662.66],[678387.1,2083650.52],[678376.59,2083642.11],[678367.39,2083652.54]]]]}},{"type":"Feature","properties":{"building":"house","height":6,"heightSource":"default"},"geometry":{"type":"MultiPolygon","coordinates":[[[[678305.91,2083725.83],[678315.96,2083728.86],[678319.27,2083717.64],[678308.72,2083714.61],[678305.91,2083725.83]]]]}},{"type":"Feature","properties":{"building":"house","height":6,"heightSource":"default"},"geometry":{"type":"MultiPolygon","coordinates":[[[[678293.13,2083723.26],[678302.45,2083727.02],[678305.76,2083715.31],[678296.19,2083712.04],[678293.13,2083723.26]]]]}},{"type":"Feature","properties":{"building":"house","height":6,"heightSource":"default"},"geometry":{"type":"MultiPolygon","coordinates":[[[[678296.73,2083707.64],[678306.3,2083710.42],[678309.33,2083701.15],[678300.76,2083697.65],[678296.73,2083707.64]]]]}},{"type":"Feature","properties":{"building":"house","height":6,"heightSource":"default"},"geometry":{"type":"MultiPolygon","coordinates":[[[[678308.25,2083712.16],[678320.04,2083714.72],[678323.08,2083705.69],[678311.29,2083702.4],[678308.25,2083712.16]]]]}},{"type":"Feature","properties":{"building":"house","height":6,"heightSource":"default"},"geometry":{"type":"MultiPolygon","coordinates":[[[[678326.49,2083683.46],[678333.82,2083689.16],[678343.01,2083680.2],[678335.19,2083674.25],[678326.49,2083683.46]]]]}},{"type":"Feature","properties":{"building":"house","height":6,"heightSource":"default"},"geometry":{"type":"MultiPolygon","coordinates":[[[[678325.45,2083741.18],[678336,2083744.71],[678342.28,2083731.31],[678331,2083727.05],[678325.45,2083741.18]]]]}},{"type":"Feature","properties":{"building":"house","height":6,"heightSource":"default"},"geometry":{"type":"MultiPolygon","coordinates":[[[[678315.92,2083760.42],[678325.47,2083763.94],[678328.56,2083750.02],[678319.98,2083746.76],[678315.92,2083760.42]]]]}},{"type":"Feature","properties":{"building":"house","height":6,"heightSource":"default"},"geometry":{"type":"MultiPolygon","coordinates":[[[[678309.84,2083777.97],[678318.68,2083779.77],[678320.51,2083767.8],[678311.18,2083766.25],[678309.84,2083777.97]]]]}},{"type":"Feature","properties":{"building":"house","height":6,"heightSource":"default"},"geometry":{"type":"MultiPolygon","coordinates":[[[[678298.73,2083807.75],[678313.68,2083808.04],[678314.12,2083796.33],[678298.89,2083796.19],[678298.73,2083807.75]]]]}},{"type":"Feature","properties":{"building":"house","height":6,"heightSource":"default"},"geometry":{"type":"MultiPolygon","coordinates":[[[[678273.04,2083765.64],[678282.62,2083767.44],[678286.44,2083754.76],[678274.88,2083752.93],[678273.04,2083765.64]]]]}},{"type":"Feature","properties":{"building":"house","height":6,"heightSource":"default"},"geometry":{"type":"MultiPolygon","coordinates":[[[[678480.45,2083757.68],[678489.69,2083759.46],[678491.54,2083745.58],[678482.84,2083743.96],[678480.45,2083757.68]]]]}},{"type":"Feature","properties":{"building":"house","height":6,"heightSource":"default"},"geometry":{"type":"MultiPolygon","coordinates":[[[[678457.97,2083779.88],[678468.55,2083780.71],[678469.16,2083768.73],[678459.33,2083767.17],[678457.97,2083779.88]]]]}},{"type":"Feature","properties":{"building":"house","height":6,"heightSource":"default"},"geometry":{"type":"MultiPolygon","coordinates":[[[[678328.04,2083804.57],[678324.44,2083794.75],[678338.02,2083789.74],[678341.87,2083799.08],[678328.04,2083804.57]]]]}},{"type":"Feature","properties":{"building":"house","height":6,"heightSource":"default"},"geometry":{"type":"MultiPolygon","coordinates":[[[[678323.83,2083781.78],[678324.45,2083768.32],[678334.52,2083769.89],[678333.9,2083783.34],[678323.83,2083781.78]]]]}},{"type":"Feature","properties":{"building":"house","height":6,"heightSource":"default"},"geometry":{"type":"MultiPolygon","coordinates":[[[[678380.68,2083781.59],[678379.54,2083771.54],[678397.03,2083770],[678397.17,2083780.6],[678380.68,2083781.59]]]]}},{"type":"Feature","properties":{"building":"house","height":6,"heightSource":"default"},"geometry":{"type":"MultiPolygon","coordinates":[[[[678254.03,2083743.91],[678263.64,2083744],[678265.09,2083734.8],[678255.15,2083734.02],[678254.03,2083743.91]]]]}},{"type":"Feature","properties":{"building":"house","height":6,"heightSource":"default"},"geometry":{"type":"MultiPolygon","coordinates":[[[[678238.7,2083730.8],[678250.03,2083730.56],[678249.8,2083718.62],[678238.48,2083718.17],[678238.7,2083730.8]]]]}},{"type":"Feature","properties":{"building":"house","height":6,"heightSource":"default"},"geometry":{"type":"MultiPolygon","coordinates":[[[[678238.86,2083713.74],[678250.17,2083715.9],[678252.69,2083703.29],[678241.75,2083699.44],[678238.86,2083713.74]]]]}},{"type":"Feature","properties":{"building":"house","height":6,"heightSource":"default"},"geometry":{"type":"MultiPolygon","coordinates":[[[[678249.36,2083693.02],[678259.66,2083692.1],[678258.09,2083678.44],[678247.78,2083679.03],[678249.36,2083693.02]]]]}},{"type":"Feature","properties":{"building":"house","height":6,"heightSource":"default"},"geometry":{"type":"MultiPolygon","coordinates":[[[[678234.56,2083696.98],[678246.91,2083697.78],[678246.33,2083686.86],[678237.07,2083686.43],[678234.56,2083696.98]]]]}},{"type":"Feature","properties":{"building":"house","height":6,"heightSource":"default"},"geometry":{"type":"MultiPolygon","coordinates":[[[[678269.37,2083682.3],[678277.6,2083683.06],[678278.77,2083669.43],[678269.15,2083669.33],[678269.37,2083682.3]]]]}},{"type":"Feature","properties":{"building":"house","height":6,"heightSource":"default"},"geometry":{"type":"MultiPolygon","coordinates":[[[[678388.23,2083888.49],[678400.97,2083884.52],[678397.67,2083870.15],[678385.29,2083873.11],[678388.23,2083888.49]]]]}},{"type":"Feature","properties":{"building":"school","height":6,"heightSource":"default"},"geometry":{"type":"MultiPolygon","coordinates":[[[[678466.55,2083551.26],[678507.24,2083551.93],[678508.23,2083540.1],[678479.6,2083538.42],[678466.98,2083537.68],[678466.55,2083551.26]]]]}},{"type":"Feature","properties":{"building":"yes","height":6,"heightSource":"default"},"geometry":{"type":"MultiPolygon","coordinates":[[[[678363.51,2083565.54],[678365.26,2083552.9],[678388.77,2083556.94],[678387.54,2083569.74],[678363.51,2083565.54]]]]}},{"type":"Feature","properties":{"building":"house","height":6,"heightSource":"default"},"geometry":{"type":"MultiPolygon","coordinates":[[[[678399.78,2083796.96],[678407.58,2083785.59],[678416.62,2083791.86],[678409.96,2083802.6],[678399.78,2083796.96]]]]}},{"type":"Feature","properties":{"building":"house","height":6,"heightSource":"default"},"geometry":{"type":"MultiPolygon","coordinates":[[[[678413.24,2083817.18],[678418.29,2083800.4],[678428.72,2083803.39],[678424.49,2083820.01],[678413.24,2083817.18]]]]}},{"type":"Feature","properties":{"building":"house","height":6,"heightSource":"default"},"geometry":{"type":"MultiPolygon","coordinates":[[[[678413.33,2083835.7],[678422.65,2083833.62],[678424.24,2083842.58],[678414.88,2083844.35],[678413.33,2083835.7]]]]}},{"type":"Feature","properties":{"building":"house","height":6,"heightSource":"default"},"geometry":{"type":"MultiPolygon","coordinates":[[[[678369.76,2083835.67],[678369.4,2083822.34],[678382.36,2083820.08],[678384.15,2083833.43],[678369.76,2083835.67]]]]}},{"type":"Feature","properties":{"building":"house","height":6,"heightSource":"default"},"geometry":{"type":"MultiPolygon","coordinates":[[[[678506.22,2083784.15],[678507.27,2083774.64],[678517.32,2083774.74],[678516.26,2083785.67],[678506.22,2083784.15]]]]}},{"type":"Feature","properties":{"building":"house","height":6,"heightSource":"default"},"geometry":{"type":"MultiPolygon","coordinates":[[[[678456.72,2083853.63],[678464.85,2083854.18],[678465.76,2083851.62],[678465.44,2083842.77],[678457.32,2083840.32],[678456.72,2083853.63]]]]}},{"type":"Feature","properties":{"building":"house","height":6,"heightSource":"default"},"geometry":{"type":"MultiPolygon","coordinates":[[[[678490.01,2083876.32],[678501.48,2083879.28],[678504.96,2083865.99],[678493.01,2083863.97],[678490.01,2083876.32]]]]}},{"type":"Feature","properties":{"building":"house","height":6,"heightSource":"default"},"geometry":{"type":"MultiPolygon","coordinates":[[[[678465.26,2083861.32],[678480.92,2083864.8],[678483.49,2083856.24],[678465.76,2083851.62],[678465.26,2083861.32]]]]}},{"type":"Feature","properties":{"building":"house","height":6,"heightSource":"default"},"geometry":{"type":"MultiPolygon","coordinates":[[[[678493.58,2083853.98],[678505.99,2083857.43],[678508.03,2083844.61],[678496.57,2083841.64],[678493.58,2083853.98]]]]}},{"type":"Feature","properties":{"building":"school","height":6,"heightSource":"default"},"geometry":{"type":"MultiPolygon","coordinates":[[[[678475.32,2083632.18],[678505.28,2083633.02],[678505.67,2083621.92],[678475.42,2083621.49],[678475.38,2083625.85],[678475.32,2083632.18]]]]}},{"type":"Feature","properties":{"building":"school","height":6,"heightSource":"default"},"geometry":{"type":"MultiPolygon","coordinates":[[[[678505.28,2083633.02],[678533.55,2083633.86],[678533.38,2083622.05],[678505.67,2083621.92],[678505.28,2083633.02]]]]}},{"type":"Feature","properties":{"building":"school","height":6,"heightSource":"default"},"geometry":{"type":"MultiPolygon","coordinates":[[[[678524.91,2083616.36],[678535.68,2083616.74],[678536.9,2083578.53],[678525.46,2083578.14],[678524.91,2083616.36]]]]}},{"type":"Feature","properties":{"building":"house","height":6,"heightSource":"default"},"geometry":{"type":"MultiPolygon","coordinates":[[[[678413.68,2083633.84],[678423.02,2083632.24],[678421.99,2083622.11],[678413.22,2083622.59],[678413.68,2083633.84]]]]}},{"type":"Feature","properties":{"building":"house","height":6,"heightSource":"default"},"geometry":{"type":"MultiPolygon","coordinates":[[[[678423.15,2083619.03],[678431.11,2083614.05],[678435,2083621.68],[678428.46,2083625.55],[678423.15,2083619.03]]]]}},{"type":"Feature","properties":{"building":"house","height":6,"heightSource":"default"},"geometry":{"type":"MultiPolygon","coordinates":[[[[678443.18,2083652.66],[678452.54,2083650.23],[678450.63,2083642.62],[678441.55,2083645.07],[678443.18,2083652.66]]]]}},{"type":"Feature","properties":{"building":"house","height":6,"heightSource":"default"},"geometry":{"type":"MultiPolygon","coordinates":[[[[678442.8,2083663.34],[678452.44,2083660.35],[678450.24,2083653.3],[678440.9,2083655.45],[678442.8,2083663.34]]]]}},{"type":"Feature","properties":{"building":"house","height":6,"heightSource":"default"},"geometry":{"type":"MultiPolygon","coordinates":[[[[678409.28,2083668.38],[678420.4,2083670.43],[678424.01,2083659.33],[678410.93,2083656.01],[678409.28,2083668.38]]]]}},{"type":"Feature","properties":{"building":"house","height":6,"heightSource":"default"},"geometry":{"type":"MultiPolygon","coordinates":[[[[678487.57,2083782.41],[678498.2,2083783.29],[678499.09,2083772.33],[678488.06,2083771.44],[678487.57,2083782.41]]]]}},{"type":"Feature","properties":{"building":"house","height":6,"heightSource":"default"},"geometry":{"type":"MultiPolygon","coordinates":[[[[678339.11,2083761.79],[678346.99,2083762.25],[678346.94,2083767.74],[678356.79,2083767.84],[678357.36,2083750.21],[678348.69,2083749.34],[678347.47,2083753.63],[678339.58,2083753.17],[678339.11,2083761.79]]]]}},{"type":"Feature","properties":{"building":"house","height":6,"heightSource":"default"},"geometry":{"type":"MultiPolygon","coordinates":[[[[678362.04,2083755.73],[678374.25,2083757.02],[678377.12,2083745.29],[678363.74,2083742.42],[678362.04,2083755.73]]]]}},{"type":"Feature","properties":{"building":"house","height":6,"heightSource":"default"},"geometry":{"type":"MultiPolygon","coordinates":[[[[678342.04,2083743.79],[678351.5,2083744.66],[678353.97,2083733.32],[678345.31,2083731.27],[678342.04,2083743.79]]]]}},{"type":"Feature","properties":{"building":"house","height":6,"heightSource":"default"},"geometry":{"type":"MultiPolygon","coordinates":[[[[678353.45,2083747.03],[678359.74,2083747.87],[678361.81,2083738.1],[678355.51,2083737.25],[678353.45,2083747.03]]]]}},{"type":"Feature","properties":{"building":"house","height":6,"heightSource":"default"},"geometry":{"type":"MultiPolygon","coordinates":[[[[678264.54,2083725.01],[678274,2083725.5],[678272.73,2083734.9],[678265.09,2083734.8],[678264.54,2083725.01]]]]}},{"type":"Feature","properties":{"building":"house","height":6,"heightSource":"default"},"geometry":{"type":"MultiPolygon","coordinates":[[[[678254.78,2083715.12],[678268.2,2083714.47],[678267.64,2083710.18],[678266.36,2083700.35],[678254.92,2083700.62],[678254.78,2083715.12]]]]}},{"type":"Feature","properties":{"building":"house","height":6,"heightSource":"default"},"geometry":{"type":"MultiPolygon","coordinates":[[[[678267.64,2083710.18],[678276.51,2083710.24],[678276.62,2083698.48],[678268.36,2083697.23],[678267.64,2083710.18]]]]}},{"type":"Feature","properties":{"building":"house","height":6,"heightSource":"default"},"geometry":{"type":"MultiPolygon","coordinates":[[[[678285.13,2083701.91],[678294.73,2083702.18],[678295.27,2083687.68],[678287.38,2083686.61],[678285.13,2083701.91]]]]}},{"type":"Feature","properties":{"building":"house","height":6,"heightSource":"default"},"geometry":{"type":"MultiPolygon","coordinates":[[[[678265.24,2083797.03],[678277.3,2083801.51],[678281.82,2083788.44],[678268.66,2083783.94],[678265.24,2083797.03]]]]}},{"type":"Feature","properties":{"building":"house","height":6,"heightSource":"default"},"geometry":{"type":"MultiPolygon","coordinates":[[[[678282.3,2083775.95],[678290.61,2083778.62],[678296.02,2083767.26],[678286.99,2083764.99],[678282.3,2083775.95]]]]}},{"type":"Feature","properties":{"building":"house","height":6,"heightSource":"default"},"geometry":{"type":"MultiPolygon","coordinates":[[[[678248.97,2083769.51],[678265.52,2083768.06],[678265.63,2083755.49],[678253.51,2083758.65],[678248.97,2083769.51]]]]}},{"type":"Feature","properties":{"building":"house","height":6,"heightSource":"default"},"geometry":{"type":"MultiPolygon","coordinates":[[[[678319.71,2083909.06],[678335.08,2083912.48],[678338.49,2083901.04],[678326.43,2083897.1],[678319.71,2083909.06]]]]}},{"type":"Feature","properties":{"building":"house","height":6,"heightSource":"default"},"geometry":{"type":"MultiPolygon","coordinates":[[[[678221.79,2083912.5],[678224.94,2083914.75],[678231.07,2083919.15],[678241.07,2083909.41],[678229.05,2083901.63],[678221.79,2083912.5]]]]}},{"type":"Feature","properties":{"building":"house","height":6,"heightSource":"default"},"geometry":{"type":"MultiPolygon","coordinates":[[[[678214.51,2083926.1],[678224.91,2083931.11],[678233.79,2083922.45],[678224.94,2083914.75],[678214.51,2083926.1]]]]}},{"type":"Feature","properties":{"building":"house","height":6,"heightSource":"default"},"geometry":{"type":"MultiPolygon","coordinates":[[[[678261.39,2083912.33],[678272.89,2083917.36],[678281.84,2083902.13],[678268.12,2083898.18],[678261.39,2083912.33]]]]}},{"type":"Feature","properties":{"building":"house","height":6,"heightSource":"default"},"geometry":{"type":"MultiPolygon","coordinates":[[[[678283.36,2083915.28],[678294.01,2083918.94],[678297.36,2083910.03],[678287.85,2083906.02],[678283.36,2083915.28]]]]}},{"type":"Feature","properties":{"building":"house","height":6,"heightSource":"default"},"geometry":{"type":"MultiPolygon","coordinates":[[[[678294.01,2083918.94],[678303.63,2083923.12],[678305,2083920.48],[678309.24,2083912.24],[678297.36,2083910.03],[678294.01,2083918.94]]]]}},{"type":"Feature","properties":{"building":"house","height":6,"heightSource":"default"},"geometry":{"type":"MultiPolygon","coordinates":[[[[678351.43,2083916.99],[678359.94,2083917.47],[678361.04,2083908.21],[678351.72,2083908.13],[678351.43,2083916.99]]]]}},{"type":"Feature","properties":{"building":"house","height":6,"heightSource":"default"},"geometry":{"type":"MultiPolygon","coordinates":[[[[678358.28,2083900.13],[678367.01,2083899.01],[678365.12,2083884.48],[678356.79,2083886.01],[678358.28,2083900.13]]]]}},{"type":"Feature","properties":{"building":"house","height":6,"heightSource":"default"},"geometry":{"type":"MultiPolygon","coordinates":[[[[678385.36,2083908.45],[678392.66,2083907.71],[678391.92,2083900.85],[678384.82,2083901.59],[678385.36,2083908.45]]]]}},{"type":"Feature","properties":{"building":"house","height":6,"heightSource":"default"},"geometry":{"type":"MultiPolygon","coordinates":[[[[678416.93,2083892.43],[678428.89,2083892.14],[678429.38,2083883.68],[678417.42,2083883.57],[678416.93,2083892.43]]]]}},{"type":"Feature","properties":{"building":"house","height":6,"heightSource":"default"},"geometry":{"type":"MultiPolygon","coordinates":[[[[678414.62,2083879.71],[678424.35,2083879.81],[678424.8,2083873.77],[678414.88,2083873.27],[678414.62,2083879.71]]]]}},{"type":"Feature","properties":{"building":"house","height":6,"heightSource":"default"},"geometry":{"type":"MultiPolygon","coordinates":[[[[678464.98,2083890.68],[678473.06,2083894.57],[678476.98,2083886.55],[678468.1,2083883.25],[678464.98,2083890.68]]]]}},{"type":"Feature","properties":{"building":"house","height":6,"heightSource":"default"},"geometry":{"type":"MultiPolygon","coordinates":[[[[678445.03,2083879.8],[678455.31,2083884.74],[678460.92,2083871.29],[678450.01,2083866.56],[678445.03,2083879.8]]]]}},{"type":"Feature","properties":{"building":"house","height":6,"heightSource":"default"},"geometry":{"type":"MultiPolygon","coordinates":[[[[678510.63,2083885.47],[678519.13,2083887.96],[678522.67,2083877.52],[678513.78,2083875.03],[678510.63,2083885.47]]]]}},{"type":"Feature","properties":{"building":"house","height":6,"heightSource":"default"},"geometry":{"type":"MultiPolygon","coordinates":[[[[678515.16,2083900.22],[678520.77,2083906.32],[678531,2083897.55],[678525.57,2083891.45],[678515.16,2083900.22]]]]}},{"type":"Feature","properties":{"building":"house","height":6,"heightSource":"default"},"geometry":{"type":"MultiPolygon","coordinates":[[[[678460.72,2083934.15],[678469.67,2083930.6],[678465.5,2083921.1],[678457.37,2083923.85],[678460.72,2083934.15]]]]}},{"type":"Feature","properties":{"building":"house","height":6,"heightSource":"default"},"geometry":{"type":"MultiPolygon","coordinates":[[[[678438.8,2083936.56],[678448.57,2083932.02],[678444.59,2083924.93],[678435.64,2083927.87],[678438.8,2083936.56]]]]}},{"type":"Feature","properties":{"building":"house","height":6,"heightSource":"default"},"geometry":{"type":"MultiPolygon","coordinates":[[[[678480.68,2083924.47],[678489.6,2083923.95],[678489.1,2083912.06],[678480.38,2083912.58],[678480.68,2083924.47]]]]}},{"type":"Feature","properties":{"building":"house","height":6,"heightSource":"default"},"geometry":{"type":"MultiPolygon","coordinates":[[[[678512.25,2083929],[678519.98,2083925.25],[678516.01,2083917.14],[678508.27,2083920.9],[678512.25,2083929]]]]}},{"type":"Feature","properties":{"building":"house","height":6,"heightSource":"default"},"geometry":{"type":"MultiPolygon","coordinates":[[[[678450.88,2083955.27],[678457.88,2083952.09],[678454.94,2083946.01],[678447.67,2083949.01],[678450.88,2083955.27]]]]}},{"type":"Feature","properties":{"building":"house","height":6,"heightSource":"default"},"geometry":{"type":"MultiPolygon","coordinates":[[[[678279.84,2083861.6],[678289.97,2083866.19],[678294.87,2083856.12],[678284.47,2083850.96],[678279.84,2083861.6]]]]}},{"type":"Feature","properties":{"building":"house","height":6,"heightSource":"default"},"geometry":{"type":"MultiPolygon","coordinates":[[[[678205.84,2083883.65],[678213.42,2083889.35],[678220.85,2083881.83],[678213.83,2083875.86],[678205.84,2083883.65]]]]}},{"type":"Feature","properties":{"building":"house","height":6,"heightSource":"default"},"geometry":{"type":"MultiPolygon","coordinates":[[[[678171.44,2083904.4],[678184.42,2083906.77],[678185.37,2083896.1],[678173.24,2083893.74],[678171.44,2083904.4]]]]}},{"type":"Feature","properties":{"building":"house","height":6,"heightSource":"default"},"geometry":{"type":"MultiPolygon","coordinates":[[[[678135.27,2083932.16],[678144.28,2083936.18],[678150.06,2083923.03],[678140.48,2083919.28],[678136.61,2083928.86],[678135.27,2083932.16]]]]}},{"type":"Feature","properties":{"building":"house","height":6,"heightSource":"default"},"geometry":{"type":"MultiPolygon","coordinates":[[[[678125.18,2083923.63],[678136.61,2083928.86],[678140.48,2083919.28],[678129.8,2083913.85],[678125.18,2083923.63]]]]}},{"type":"Feature","properties":{"building":"house","height":6,"heightSource":"default"},"geometry":{"type":"MultiPolygon","coordinates":[[[[678163.53,2083932.71],[678170.29,2083935.86],[678176.04,2083926.64],[678168.43,2083923.2],[678163.53,2083932.71]]]]}},{"type":"Feature","properties":{"building":"house","height":6,"heightSource":"default"},"geometry":{"type":"MultiPolygon","coordinates":[[[[678144.66,2083955.29],[678153.09,2083961.56],[678159.37,2083954.86],[678149.81,2083949.16],[678144.66,2083955.29]]]]}},{"type":"Feature","properties":{"building":"house","height":6,"heightSource":"default"},"geometry":{"type":"MultiPolygon","coordinates":[[[[678123.67,2083962.96],[678132.36,2083970.91],[678139.48,2083964.79],[678131.37,2083955.73],[678123.67,2083962.96]]]]}},{"type":"Feature","properties":{"building":"house","height":6,"heightSource":"default"},"geometry":{"type":"MultiPolygon","coordinates":[[[[678141.82,2083897.38],[678145.21,2083897.41],[678144.62,2083899.65],[678156.78,2083900.89],[678159.7,2083890.24],[678153.21,2083889.34],[678154.09,2083886.25],[678144.77,2083884.48],[678144.73,2083888.41],[678142.48,2083887.83],[678141.82,2083897.38]]]]}},{"type":"Feature","properties":{"building":"house","height":6,"heightSource":"default"},"geometry":{"type":"MultiPolygon","coordinates":[[[[678088.83,2083911.76],[678098.4,2083914.39],[678100.23,2083901.2],[678090.36,2083899.14],[678088.83,2083911.76]]]]}},{"type":"Feature","properties":{"building":"house","height":6,"heightSource":"default"},"geometry":{"type":"MultiPolygon","coordinates":[[[[678107.31,2083900.14],[678121.97,2083904.21],[678124.3,2083896.37],[678109.93,2083891.73],[678107.31,2083900.14]]]]}},{"type":"Feature","properties":{"building":"house","height":6,"heightSource":"default"},"geometry":{"type":"MultiPolygon","coordinates":[[[[678101.91,2083873.68],[678112.04,2083878.27],[678115.8,2083869.59],[678105.95,2083864.71],[678101.91,2083873.68]]]]}},{"type":"Feature","properties":{"building":"house","height":6,"heightSource":"default"},"geometry":{"type":"MultiPolygon","coordinates":[[[[678062.66,2083867.95],[678077.63,2083869.79],[678074.91,2083888.03],[678060.53,2083884.8],[678062.66,2083867.95]]]]}},{"type":"Feature","properties":{"building":"house","height":6,"heightSource":"default"},"geometry":{"type":"MultiPolygon","coordinates":[[[[678077.7,2083863.33],[678086.72,2083865.66],[678089.12,2083851.07],[678079.53,2083849.3],[678077.7,2083863.33]]]]}},{"type":"Feature","properties":{"building":"house","height":6,"heightSource":"default"},"geometry":{"type":"MultiPolygon","coordinates":[[[[678347.38,2083864.22],[678356.71,2083863.45],[678356.56,2083849.4],[678345.81,2083850.43],[678347.38,2083864.22]]]]}},{"type":"Feature","properties":{"building":"house","height":6,"heightSource":"default"},"geometry":{"type":"MultiPolygon","coordinates":[[[[678373.98,2083860.82],[678381.65,2083857.79],[678380.03,2083849.92],[678371.52,2083852.64],[678373.98,2083860.82]]]]}},{"type":"Feature","properties":{"building":"house","height":6,"heightSource":"default"},"geometry":{"type":"MultiPolygon","coordinates":[[[[678305,2083920.48],[678316.67,2083923.73],[678320.71,2083915.35],[678309.24,2083912.24],[678305,2083920.48]]]]}},{"type":"Feature","properties":{"building":"farm_auxiliary","height":6,"heightSource":"default"},"geometry":{"type":"MultiPolygon","coordinates":[[[[678340.15,2084144.22],[678354.17,2084149.81],[678377.38,2084108.92],[678361.66,2084101.43],[678340.15,2084144.22]]]]}},{"type":"Feature","properties":{"building":"house","height":6,"heightSource":"default"},"geometry":{"type":"MultiPolygon","coordinates":[[[[678431.67,2083542.09],[678442.67,2083543.19],[678446.5,2083527.3],[678434.5,2083524.53],[678431.67,2083542.09]]]]}},{"type":"Feature","properties":{"building":"house","height":6,"heightSource":"default"},"geometry":{"type":"MultiPolygon","coordinates":[[[[678450.19,2083561.19],[678462.21,2083560.64],[678461.73,2083540.72],[678449.71,2083539.94],[678450.19,2083561.19]]]]}},{"type":"Feature","properties":{"building":"house","height":6,"heightSource":"default"},"geometry":{"type":"MultiPolygon","coordinates":[[[[678410.54,2083571.1],[678428.68,2083574.92],[678432.2,2083556.37],[678417.55,2083552.25],[678410.54,2083571.1]]]]}},{"type":"Feature","properties":{"building":"house","height":6,"heightSource":"default"},"geometry":{"type":"MultiPolygon","coordinates":[[[[678354.56,2083505.51],[678364.37,2083509.75],[678367.95,2083501.67],[678357.99,2083496.92],[678354.56,2083505.51]]]]}},{"type":"Feature","properties":{"building":"house","height":6,"heightSource":"default"},"geometry":{"type":"MultiPolygon","coordinates":[[[[678353.58,2083537.69],[678372.6,2083538.87],[678370.51,2083548.81],[678352.49,2083547.31],[678353.58,2083537.69]]]]}},{"type":"Feature","properties":{"building":"house","height":6,"heightSource":"default"},"geometry":{"type":"MultiPolygon","coordinates":[[[[678354.7,2083525.43],[678364.36,2083528.51],[678367.82,2083515.6],[678358.5,2083512.19],[678354.7,2083525.43]]]]}},{"type":"Feature","properties":{"building":"house","height":6,"heightSource":"default"},"geometry":{"type":"MultiPolygon","coordinates":[[[[678369.79,2083511.23],[678379.84,2083515.38],[678383.59,2083507.78],[678373.28,2083503.37],[678369.79,2083511.23]]]]}},{"type":"Feature","properties":{"building":"house","height":6,"heightSource":"default"},"geometry":{"type":"MultiPolygon","coordinates":[[[[678389.49,2083519.13],[678397.73,2083521.83],[678400.21,2083514.58],[678392.23,2083511.52],[678389.49,2083519.13]]]]}},{"type":"Feature","properties":{"building":"house","height":6,"heightSource":"default"},"geometry":{"type":"MultiPolygon","coordinates":[[[[678394.68,2083535.44],[678404.34,2083536.19],[678406.8,2083523.6],[678397.04,2083522.45],[678394.68,2083535.44]]]]}},{"type":"Feature","properties":{"building":"house","height":6,"heightSource":"default"},"geometry":{"type":"MultiPolygon","coordinates":[[[[678382.03,2083530.34],[678391.38,2083532.8],[678393.79,2083523.48],[678384.46,2083521.06],[678382.03,2083530.34]]]]}},{"type":"Feature","properties":{"building":"house","height":6,"heightSource":"default"},"geometry":{"type":"MultiPolygon","coordinates":[[[[678373.09,2083523.28],[678379.08,2083525.66],[678382.82,2083517.41],[678376.63,2083514.79],[678373.09,2083523.28]]]]}},{"type":"Feature","properties":{"building":"house","height":6,"heightSource":"default"},"geometry":{"type":"MultiPolygon","coordinates":[[[[678396.13,2083494.53],[678405.41,2083499.11],[678411.18,2083487.93],[678401.32,2083484.19],[678396.13,2083494.53]]]]}},{"type":"Feature","properties":{"building":"house","height":6,"heightSource":"default"},"geometry":{"type":"MultiPolygon","coordinates":[[[[678364.6,2083480.74],[678373.9,2083483.92],[678379.09,2083473.01],[678369.22,2083470.11],[678364.6,2083480.74]]]]}},{"type":"Feature","properties":{"building":"house","height":6,"heightSource":"default"},"geometry":{"type":"MultiPolygon","coordinates":[[[[678408.1,2083484.53],[678417.95,2083489.68],[678423.42,2083478.5],[678413.29,2083474.46],[678408.1,2083484.53]]]]}},{"type":"Feature","properties":{"building":"house","height":6,"heightSource":"default"},"geometry":{"type":"MultiPolygon","coordinates":[[[[678416.46,2083468.59],[678424.33,2083473.45],[678432.34,2083463.41],[678423.61,2083458.83],[678416.46,2083468.59]]]]}},{"type":"Feature","properties":{"building":"house","height":6,"heightSource":"default"},"geometry":{"type":"MultiPolygon","coordinates":[[[[678452.67,2083494.79],[678463.97,2083496.02],[678465.23,2083482.83],[678462.6,2083482.73],[678453.92,2083482.44],[678452.67,2083494.79]]]]}},{"type":"Feature","properties":{"building":"house","height":6,"heightSource":"default"},"geometry":{"type":"MultiPolygon","coordinates":[[[[678476.66,2083500.07],[678487.12,2083499.05],[678485.83,2083486.4],[678475.64,2083487.14],[678476.66,2083500.07]]]]}},{"type":"Feature","properties":{"building":"house","height":6,"heightSource":"default"},"geometry":{"type":"MultiPolygon","coordinates":[[[[678470.58,2083455.06],[678481.31,2083456.28],[678483.68,2083445.07],[678472.95,2083443.56],[678470.58,2083455.06]]]]}},{"type":"Feature","properties":{"building":"house","height":6,"heightSource":"default"},"geometry":{"type":"MultiPolygon","coordinates":[[[[678478.32,2083531.84],[678490.77,2083531.69],[678489.78,2083516.21],[678478.19,2083517.23],[678478.32,2083531.84]]]]}},{"type":"Feature","properties":{"building":"house","height":6,"heightSource":"default"},"geometry":{"type":"MultiPolygon","coordinates":[[[[678453.99,2083474.85],[678464.18,2083474.1],[678462.6,2083482.73],[678452.88,2083482.12],[678453.99,2083474.85]]]]}},{"type":"Feature","properties":{"building":"house","height":6,"heightSource":"default"},"geometry":{"type":"MultiPolygon","coordinates":[[[[678376.09,2083489.96],[678385.1,2083493.13],[678389.71,2083483.9],[678379.86,2083479.87],[678376.09,2083489.96]]]]}},{"type":"Feature","properties":{"building":"house","height":6,"heightSource":"default"},"geometry":{"type":"MultiPolygon","coordinates":[[[[678574.05,2083538.81],[678584.93,2083538.74],[678583.43,2083520.13],[678572.93,2083520.57],[678574.05,2083538.81]]]]}},{"type":"Feature","properties":{"building":"house","height":6,"heightSource":"default"},"geometry":{"type":"MultiPolygon","coordinates":[[[[678434.39,2083429.43],[678447.63,2083433.49],[678451.15,2083420.59],[678439.88,2083416.28],[678434.39,2083429.43]]]]}},{"type":"Feature","properties":{"building":"yes","height":6,"heightSource":"default"},"geometry":{"type":"MultiPolygon","coordinates":[[[[678410.09,2083616.27],[678426.94,2083613.61],[678424.77,2083604.91],[678408.75,2083607.59],[678410.09,2083616.27]]]]}},{"type":"Feature","properties":{"building":"house","height":6,"heightSource":"default"},"geometry":{"type":"MultiPolygon","coordinates":[[[[678434.58,2083641.28],[678440.88,2083639.73],[678440.1,2083636.1],[678442.55,2083634.91],[678440.79,2083627.65],[678429.62,2083629.55],[678431.78,2083637.22],[678434.01,2083637.24],[678434.58,2083641.28]]]]}},{"type":"Feature","properties":{"building":"house","height":6,"heightSource":"default"},"geometry":{"type":"MultiPolygon","coordinates":[[[[678433.85,2083582.42],[678444.14,2083582.51],[678443.75,2083572.52],[678434.43,2083571.47],[678433.85,2083582.42]]]]}},{"type":"Feature","properties":{"building":"school","height":6,"heightSource":"default"},"geometry":{"type":"MultiPolygon","coordinates":[[[[678449.98,2083625.61],[678475.38,2083625.85],[678475.32,2083632.18],[678450.12,2083631.23],[678449.98,2083625.61]]]]}},{"type":"Feature","properties":{"building":"house","height":6,"heightSource":"default"},"geometry":{"type":"MultiPolygon","coordinates":[[[[678462.55,2083752.73],[678472.59,2083753.3],[678473.4,2083744.98],[678463.11,2083744.17],[678462.55,2083752.73]]]]}},{"type":"Feature","properties":{"building":"house","height":6,"heightSource":"default"},"geometry":{"type":"MultiPolygon","coordinates":[[[[678440.51,2083836.66],[678452.25,2083836.65],[678452,2083823.37],[678440.72,2083823.59],[678440.51,2083836.66]]]]}},{"type":"Feature","properties":{"building":"house","height":6,"heightSource":"default"},"geometry":{"type":"MultiPolygon","coordinates":[[[[678436.68,2083765.07],[678443.4,2083765.42],[678443.74,2083761.05],[678436.94,2083760.46],[678436.68,2083765.07]]]]}},{"type":"Feature","properties":{"building":"house","height":6,"heightSource":"default"},"geometry":{"type":"MultiPolygon","coordinates":[[[[678444.19,2083783.28],[678452.32,2083783.6],[678453.15,2083771.94],[678444.77,2083771.39],[678444.19,2083783.28]]]]}},{"type":"Feature","properties":{"building":"house","height":6,"heightSource":"default"},"geometry":{"type":"MultiPolygon","coordinates":[[[[678310.79,2083869.67],[678325.68,2083871.2],[678327.23,2083856.41],[678311.88,2083854.4],[678310.79,2083869.67]]]]}},{"type":"Feature","properties":{"building":"house","height":6,"heightSource":"default"},"geometry":{"type":"MultiPolygon","coordinates":[[[[678234.89,2083890.13],[678241.55,2083895.43],[678247.35,2083888.82],[678240.46,2083883.04],[678234.89,2083890.13]]]]}},{"type":"Feature","properties":{"building":"house","height":6,"heightSource":"default"},"geometry":{"type":"MultiPolygon","coordinates":[[[[678257.25,2083778.82],[678265.39,2083778.9],[678265.45,2083772.71],[678257.07,2083772.4],[678257.25,2083778.82]]]]}},{"type":"Feature","properties":{"building":"house","height":6,"heightSource":"default"},"geometry":{"type":"MultiPolygon","coordinates":[[[[678047.9,2084075.65],[678056.86,2084074.58],[678054.96,2084064.85],[678045.9,2084066.12],[678047.9,2084075.65]]]]}},{"type":"Feature","properties":{"building":"house","height":6,"heightSource":"default"},"geometry":{"type":"MultiPolygon","coordinates":[[[[678074.49,2084075.62],[678084.41,2084073.8],[678082.32,2084063.12],[678072.96,2084064.4],[678074.49,2084075.62]]]]}},{"type":"Feature","properties":{"building":"house","height":6,"heightSource":"default"},"geometry":{"type":"MultiPolygon","coordinates":[[[[678074.12,2084057.03],[678086.84,2084049.77],[678082.28,2084037.98],[678068.46,2084044.94],[678074.12,2084057.03]]]]}},{"type":"Feature","properties":{"building":"house","height":6,"heightSource":"default"},"geometry":{"type":"MultiPolygon","coordinates":[[[[678090.72,2084045.99],[678099.83,2084042.24],[678096.36,2084031.27],[678086.98,2084035.29],[678090.72,2084045.99]]]]}},{"type":"Feature","properties":{"building":"house","height":6,"heightSource":"default"},"geometry":{"type":"MultiPolygon","coordinates":[[[[678110.08,2084034.96],[678106.89,2084024],[678097.51,2084026.65],[678100.43,2084037.32],[678110.08,2084034.96]]]]}},{"type":"Feature","properties":{"building":"house","height":6,"heightSource":"default"},"geometry":{"type":"MultiPolygon","coordinates":[[[[678093.46,2084074.83],[678103.54,2084073.44],[678101.8,2084059.71],[678090.97,2084062.19],[678093.46,2084074.83]]]]}},{"type":"Feature","properties":{"building":"house","height":6,"heightSource":"default"},"geometry":{"type":"MultiPolygon","coordinates":[[[[678129.04,2084021.04],[678137.96,2084024.09],[678143.68,2084010.79],[678134,2084008.85],[678129.04,2084021.04]]]]}},{"type":"Feature","properties":{"building":"house","height":6,"heightSource":"default"},"geometry":{"type":"MultiPolygon","coordinates":[[[[678069.27,2084029.37],[678079.77,2084024.27],[678076.9,2084012.02],[678064.92,2084015.97],[678069.27,2084029.37]]]]}},{"type":"Feature","properties":{"building":"house","height":6,"heightSource":"default"},"geometry":{"type":"MultiPolygon","coordinates":[[[[678088.17,2084003.59],[678097.92,2083998.87],[678094.29,2083988.07],[678084.53,2083994.29],[678088.17,2084003.59]]]]}},{"type":"Feature","properties":{"building":"house","height":6,"heightSource":"default"},"geometry":{"type":"MultiPolygon","coordinates":[[[[678075.39,2084002.01],[678082.92,2083997.28],[678086.87,2084004.77],[678080.4,2084009.49],[678075.39,2084002.01]]]]}},{"type":"Feature","properties":{"building":"house","height":6,"heightSource":"default"},"geometry":{"type":"MultiPolygon","coordinates":[[[[678022.91,2084036.6],[678032.32,2084031.37],[678038.39,2084040.99],[678028.17,2084046.21],[678022.91,2084036.6]]]]}},{"type":"Feature","properties":{"building":"house","height":6,"heightSource":"default"},"geometry":{"type":"MultiPolygon","coordinates":[[[[677955.38,2083995.54],[677966.57,2083999.37],[677970.96,2083987.45],[677959.78,2083983.09],[677955.38,2083995.54]]]]}},{"type":"Feature","properties":{"building":"house","height":6,"heightSource":"default"},"geometry":{"type":"MultiPolygon","coordinates":[[[[677932.41,2084020.05],[677948.16,2084023.12],[677949.37,2084008.24],[677934.14,2084006.5],[677932.41,2084020.05]]]]}},{"type":"Feature","properties":{"building":"house","height":6,"heightSource":"default"},"geometry":{"type":"MultiPolygon","coordinates":[[[[677977.4,2084014.37],[677988.93,2084011.01],[677984.49,2083998.48],[677974.04,2084001.31],[677977.4,2084014.37]]]]}},{"type":"Feature","properties":{"building":"house","height":6,"heightSource":"default"},"geometry":{"type":"MultiPolygon","coordinates":[[[[678000.71,2084037.98],[678010.36,2084034.88],[678008.32,2084024.22],[677997.59,2084027.04],[678000.71,2084037.98]]]]}},{"type":"Feature","properties":{"building":"house","height":6,"heightSource":"default"},"geometry":{"type":"MultiPolygon","coordinates":[[[[677985.32,2084051.92],[677993.92,2084047.74],[677990.54,2084037.35],[677981.14,2084041.25],[677985.32,2084051.92]]]]}},{"type":"Feature","properties":{"building":"house","height":6,"heightSource":"default"},"geometry":{"type":"MultiPolygon","coordinates":[[[[677998.61,2084060.55],[678008.29,2084055.6],[678004.62,2084047.58],[677994.68,2084052.28],[677998.61,2084060.55]]]]}},{"type":"Feature","properties":{"building":"house","height":6,"heightSource":"default"},"geometry":{"type":"MultiPolygon","coordinates":[[[[677952.36,2084080.32],[677963.05,2084085.76],[677971.1,2084068.57],[677959.76,2084065.32],[677952.36,2084080.32]]]]}},{"type":"Feature","properties":{"building":"house","height":6,"heightSource":"default"},"geometry":{"type":"MultiPolygon","coordinates":[[[[677971.63,2084079.24],[677977.89,2084085.27],[677989.68,2084074.08],[677983.09,2084068.54],[677971.63,2084079.24]]]]}},{"type":"Feature","properties":{"building":"house","height":6,"heightSource":"default"},"geometry":{"type":"MultiPolygon","coordinates":[[[[677949.24,2084093.07],[677954.56,2084095.51],[677958.89,2084090.49],[677953.85,2084086.72],[677949.24,2084093.07]]]]}},{"type":"Feature","properties":{"building":"house","height":6,"heightSource":"default"},"geometry":{"type":"MultiPolygon","coordinates":[[[[677932.31,2084101.94],[677939.49,2084105.73],[677943.29,2084100.71],[677936.64,2084096.14],[677932.31,2084101.94]]]]}},{"type":"Feature","properties":{"building":"house","height":6,"heightSource":"default"},"geometry":{"type":"MultiPolygon","coordinates":[[[[677844.7,2084162.61],[677863.56,2084168.62],[677872.64,2084145.02],[677855.95,2084137.54],[677844.7,2084162.61]]]]}},{"type":"Feature","properties":{"building":"house","height":6,"heightSource":"default"},"geometry":{"type":"MultiPolygon","coordinates":[[[[678022.18,2084179.43],[678033.84,2084179.59],[678033.98,2084164.76],[678022.43,2084164.29],[678022.18,2084179.43]]]]}},{"type":"Feature","properties":{"building":"house","height":6,"heightSource":"default"},"geometry":{"type":"MultiPolygon","coordinates":[[[[678007.27,2084127.77],[678020.41,2084123.1],[678028.37,2084143.99],[678015.56,2084147.95],[678007.27,2084127.77]]]]}},{"type":"Feature","properties":{"building":"house","height":6,"heightSource":"default"},"geometry":{"type":"MultiPolygon","coordinates":[[[[677926.81,2084178.84],[677936.92,2084185.05],[677946.94,2084171.32],[677935.24,2084164.3],[677926.81,2084178.84]]]]}},{"type":"Feature","properties":{"building":"house","height":6,"heightSource":"default"},"geometry":{"type":"MultiPolygon","coordinates":[[[[677942.78,2084159.06],[677960.55,2084175.44],[677970.8,2084165.43],[677952.78,2084147.72],[677942.78,2084159.06]]]]}},{"type":"Feature","properties":{"building":"house","height":6,"heightSource":"default"},"geometry":{"type":"MultiPolygon","coordinates":[[[[678049.75,2084131.63],[678061.52,2084131.74],[678062.14,2084121.64],[678050.11,2084122.06],[678049.75,2084131.63]]]]}},{"type":"Feature","properties":{"building":"house","height":6,"heightSource":"default"},"geometry":{"type":"MultiPolygon","coordinates":[[[[678081.42,2084119.43],[678094.28,2084116.9],[678090.2,2084096.13],[678078.17,2084097.07],[678081.42,2084119.43]]]]}},{"type":"Feature","properties":{"building":"house","height":6,"heightSource":"default"},"geometry":{"type":"MultiPolygon","coordinates":[[[[678106.37,2084139.87],[678116.57,2084136.51],[678112.95,2084123.45],[678103.29,2084126.56],[678106.37,2084139.87]]]]}},{"type":"Feature","properties":{"building":"house","height":6,"heightSource":"default"},"geometry":{"type":"MultiPolygon","coordinates":[[[[678131,2084165.37],[678139.84,2084163.33],[678138.09,2084150.55],[678128.17,2084153.37],[678131,2084165.37]]]]}},{"type":"Feature","properties":{"building":"house","height":6,"heightSource":"default"},"geometry":{"type":"MultiPolygon","coordinates":[[[[678136.61,2084137.5],[678148.41,2084134.96],[678146.43,2084118.46],[678133.03,2084120.99],[678136.61,2084137.5]]]]}},{"type":"Feature","properties":{"building":"house","height":6,"heightSource":"default"},"geometry":{"type":"MultiPolygon","coordinates":[[[[678167.85,2084143.13],[678178.29,2084142.16],[678177.59,2084131.78],[678166.61,2084133.01],[678167.85,2084143.13]]]]}},{"type":"Feature","properties":{"building":"house","height":6,"heightSource":"default"},"geometry":{"type":"MultiPolygon","coordinates":[[[[677795.97,2084249.19],[677805.85,2084250.08],[677807.55,2084240],[677797.4,2084239.11],[677795.97,2084249.19]]]]}},{"type":"Feature","properties":{"building":"house","height":6,"heightSource":"default"},"geometry":{"type":"MultiPolygon","coordinates":[[[[677808.99,2084349.05],[677818.53,2084349.96],[677819.94,2084341.66],[677809.81,2084340.69],[677808.99,2084349.05]]]]}},{"type":"Feature","properties":{"building":"house","height":6,"heightSource":"default"},"geometry":{"type":"MultiPolygon","coordinates":[[[[677732.26,2084357.58],[677744,2084355.36],[677742.79,2084347.88],[677730.84,2084349.63],[677732.26,2084357.58]]]]}},{"type":"Feature","properties":{"building":"house","height":6,"heightSource":"default"},"geometry":{"type":"MultiPolygon","coordinates":[[[[678122.35,2084057.27],[678131.73,2084055.29],[678130.28,2084042.87],[678120.38,2084045.35],[678122.35,2084057.27]]]]}},{"type":"Feature","properties":{"building":"farm_auxiliary","height":6,"heightSource":"default"},"geometry":{"type":"MultiPolygon","coordinates":[[[[678282.67,2083976.14],[678293.66,2083978.87],[678303.17,2083950.5],[678291.3,2083948.63],[678282.67,2083976.14]]]]}},{"type":"Feature","properties":{"building":"house","height":6,"heightSource":"default"},"geometry":{"type":"MultiPolygon","coordinates":[[[[677951.62,2083944.54],[677964.43,2083940.28],[677969.15,2083953.9],[677955.89,2083958.15],[677951.62,2083944.54]]]]}},{"type":"Feature","properties":{"building":"house","height":6,"heightSource":"default"},"geometry":{"type":"MultiPolygon","coordinates":[[[[677954.22,2083902.52],[677965.66,2083902.63],[677967.1,2083891.7],[677953.89,2083890.7],[677954.22,2083902.52]]]]}},{"type":"Feature","properties":{"building":"house","height":6,"heightSource":"default"},"geometry":{"type":"MultiPolygon","coordinates":[[[[677985.21,2083978.58],[677998.44,2083977.38],[677997.68,2083963.36],[677984.03,2083964.11],[677985.21,2083978.58]]]]}},{"type":"Feature","properties":{"building":"house","height":6,"heightSource":"default"},"geometry":{"type":"MultiPolygon","coordinates":[[[[678028.09,2084085.02],[678038.83,2084081.14],[678035.71,2084071.53],[678024.44,2084075.94],[678028.09,2084085.02]]]]}},{"type":"Feature","properties":{"building":"farm_auxiliary","height":6,"heightSource":"default"},"geometry":{"type":"MultiPolygon","coordinates":[[[[677875.87,2084071.37],[677883.73,2084071.44],[677884.49,2084053.15],[677876.82,2084052.89],[677875.87,2084071.37]]]]}},{"type":"Feature","properties":{"building":"yes","height":6,"heightSource":"default"},"geometry":{"type":"MultiPolygon","coordinates":[[[[677557.23,2084128.03],[677564.47,2084130.61],[677563.64,2084133.11],[677571.39,2084135.71],[677572.35,2084132.89],[677579.27,2084135.77],[677583.12,2084128.27],[677575.58,2084124.75],[677576.88,2084121.31],[677570.27,2084118.74],[677568.66,2084121.86],[677561.11,2084118.96],[677557.23,2084128.03]]]]}},{"type":"Feature","properties":{"building":"house","height":6,"heightSource":"default"},"geometry":{"type":"MultiPolygon","coordinates":[[[[677539.8,2084225.77],[677550.69,2084230.68],[677553.8,2084225.19],[677542.74,2084220.28],[677539.8,2084225.77]]]]}},{"type":"Feature","properties":{"building":"yes","height":6,"heightSource":"default"},"geometry":{"type":"MultiPolygon","coordinates":[[[[677623.39,2083938.23],[677652.49,2083937.76],[677652.62,2083924.41],[677623.15,2083924.88],[677623.39,2083938.23]]]]}},{"type":"Feature","properties":{"building":"house","height":6,"heightSource":"default"},"geometry":{"type":"MultiPolygon","coordinates":[[[[677565.3,2083921.93],[677576.91,2083922.33],[677577.02,2083910.72],[677565.85,2083909.87],[677565.3,2083921.93]]]]}},{"type":"Feature","properties":{"building":"house","height":6,"heightSource":"default"},"geometry":{"type":"MultiPolygon","coordinates":[[[[677740.58,2083974.17],[677752.85,2083977.21],[677754.83,2083967.12],[677742.55,2083964.61],[677740.58,2083974.17]]]]}},{"type":"Feature","properties":{"building":"house","height":6,"heightSource":"default"},"geometry":{"type":"MultiPolygon","coordinates":[[[[678576.74,2083980.57],[678588.13,2083986.36],[678593.96,2083974.52],[678582.59,2083966.66],[678576.74,2083980.57]]]]}},{"type":"Feature","properties":{"building":"house","height":6,"heightSource":"default"},"geometry":{"type":"MultiPolygon","coordinates":[[[[678593.52,2083990.97],[678601.52,2083994.77],[678608.58,2083982.61],[678600.86,2083978.28],[678593.52,2083990.97]]]]}},{"type":"Feature","properties":{"building":"house","height":6,"heightSource":"default"},"geometry":{"type":"MultiPolygon","coordinates":[[[[678620.49,2084024.72],[678630.07,2084028.81],[678635.53,2084017.42],[678625.4,2084013.08],[678620.49,2084024.72]]]]}},{"type":"Feature","properties":{"building":"house","height":6,"heightSource":"default"},"geometry":{"type":"MultiPolygon","coordinates":[[[[678774.16,2084083.69],[678785.33,2084105.14],[678798.65,2084098.68],[678786.85,2084077.22],[678774.16,2084083.69]]]]}},{"type":"Feature","properties":{"building":"house","height":6,"heightSource":"default"},"geometry":{"type":"MultiPolygon","coordinates":[[[[678718.98,2084073.12],[678726.74,2084088.58],[678737.5,2084084.59],[678729.78,2084066.63],[678718.98,2084073.12]]]]}},{"type":"Feature","properties":{"building":"house","height":6,"heightSource":"default"},"geometry":{"type":"MultiPolygon","coordinates":[[[[678739.15,2084078.02],[678751.84,2084072.49],[678746.92,2084058.63],[678732.97,2084063.52],[678739.15,2084078.02]]]]}},{"type":"Feature","properties":{"building":"house","height":6,"heightSource":"default"},"geometry":{"type":"MultiPolygon","coordinates":[[[[678789.7,2084019.37],[678805.53,2084023.03],[678814.63,2083992.03],[678796.17,2083987.04],[678789.7,2084019.37]]]]}},{"type":"Feature","properties":{"building":"house","height":6,"heightSource":"default"},"geometry":{"type":"MultiPolygon","coordinates":[[[[678827.22,2084058.28],[678846.68,2084049.7],[678843.24,2084040.48],[678822.47,2084047.28],[678827.22,2084058.28]]]]}},{"type":"Feature","properties":{"building":"house","height":6,"heightSource":"default"},"geometry":{"type":"MultiPolygon","coordinates":[[[[678843.28,2084035.66],[678860.14,2084024.43],[678849.29,2084006.82],[678830.68,2084018.02],[678843.28,2084035.66]]]]}},{"type":"Feature","properties":{"building":"house","height":6,"heightSource":"default"},"geometry":{"type":"MultiPolygon","coordinates":[[[[678801.84,2084068.56],[678809.01,2084078.05],[678823.64,2084068.77],[678815.52,2084058.64],[678801.84,2084068.56]]]]}},{"type":"Feature","properties":{"building":"house","height":6,"heightSource":"default"},"geometry":{"type":"MultiPolygon","coordinates":[[[[678768.01,2084152.04],[678784.16,2084146.28],[678780.55,2084134.38],[678763.8,2084140.91],[678768.01,2084152.04]]]]}},{"type":"Feature","properties":{"building":"farm_auxiliary","height":6,"heightSource":"default"},"geometry":{"type":"MultiPolygon","coordinates":[[[[678627.39,2083822.2],[678654,2083808.74],[678648.88,2083799.05],[678622.26,2083812.15],[678627.39,2083822.2]]]]}},{"type":"Feature","properties":{"building":"yes","height":6,"heightSource":"default"},"geometry":{"type":"MultiPolygon","coordinates":[[[[677600.11,2083936.89],[677620.97,2083937.09],[677621.08,2083926.46],[677599.68,2083925.99],[677600.11,2083936.89]]]]}},{"type":"Feature","properties":{"building":"farm_auxiliary","height":6,"heightSource":"default"},"geometry":{"type":"MultiPolygon","coordinates":[[[[677635.07,2083977.1],[677655.59,2083977.3],[677657.25,2083969.16],[677635.15,2083968.01],[677635.07,2083977.1]]]]}},{"type":"Feature","properties":{"building":"roof","height":6,"heightSource":"default"},"geometry":{"type":"MultiPolygon","coordinates":[[[[674320.69,2083904.54],[674320.69,2083895.91],[674305.78,2083895.9],[674305.78,2083904.53],[674320.69,2083904.54]]]]}},{"type":"Feature","properties":{"building":"yes","height":6,"heightSource":"default"},"geometry":{"type":"MultiPolygon","coordinates":[[[[682106.7,2077910.43],[682125,2077903.78],[682131.58,2077921.64],[682113.27,2077928.31],[682106.7,2077910.43]]]]}},{"type":"Feature","properties":{"building":"yes","height":6,"heightSource":"default"},"geometry":{"type":"MultiPolygon","coordinates":[[[[682218.74,2077853.39],[682243.75,2077854.2],[682243.22,2077870.46],[682218.21,2077869.65],[682218.74,2077853.39]]]]}},{"type":"Feature","properties":{"building":"yes","height":6,"heightSource":"default"},"geometry":{"type":"MultiPolygon","coordinates":[[[[682533.61,2081079.15],[682545.26,2081067.88],[682539.79,2081062.28],[682528.13,2081073.56],[682533.61,2081079.15]]]]}},{"type":"Feature","properties":{"building":"yes","height":6,"heightSource":"default"},"geometry":{"type":"MultiPolygon","coordinates":[[[[682506.63,2081064.63],[682512.93,2081070.73],[682517.32,2081066.26],[682511.01,2081060.14],[682506.63,2081064.63]]]]}},{"type":"Feature","properties":{"building":"yes","height":6,"heightSource":"default"},"geometry":{"type":"MultiPolygon","coordinates":[[[[682548.56,2081057.46],[682554.32,2081051.77],[682547.86,2081045.31],[682542.11,2081051],[682548.56,2081057.46]]]]}},{"type":"Feature","properties":{"building":"residential","height":6,"heightSource":"default"},"geometry":{"type":"MultiPolygon","coordinates":[[[[682687.03,2077802.64],[682696.99,2077796.83],[682688.65,2077781.85],[682677.28,2077788.35],[682687.03,2077802.64]]]]}},{"type":"Feature","properties":{"building":"residential","height":6,"heightSource":"default"},"geometry":{"type":"MultiPolygon","coordinates":[[[[682706.94,2077791.03],[682699.3,2077776.9],[682690.35,2077781.31],[682698.27,2077796.14],[682706.94,2077791.03]]]]}},{"type":"Feature","properties":{"building":"residential","height":6,"heightSource":"default"},"geometry":{"type":"MultiPolygon","coordinates":[[[[682718.6,2077785.1],[682710.11,2077771.52],[682701.44,2077775.79],[682708.79,2077790.2],[682718.6,2077785.1]]]]}},{"type":"Feature","properties":{"building":"residential","height":6,"heightSource":"default"},"geometry":{"type":"MultiPolygon","coordinates":[[[[682745.96,2077790.98],[682738.04,2077777.7],[682748.56,2077771.19],[682755.79,2077785.03],[682745.96,2077790.98]]]]}},{"type":"Feature","properties":{"building":"residential","height":6,"heightSource":"default"},"geometry":{"type":"MultiPolygon","coordinates":[[[[682719.1,2077806.18],[682710.89,2077791.91],[682720.27,2077787.36],[682728.32,2077802.62],[682719.1,2077806.18]]]]}},{"type":"Feature","properties":{"building":"residential","height":6,"heightSource":"default"},"geometry":{"type":"MultiPolygon","coordinates":[[[[682708.02,2077811.7],[682699.95,2077798.12],[682709.05,2077792.73],[682717.53,2077807.01],[682708.02,2077811.7]]]]}},{"type":"Feature","properties":{"building":"residential","height":6,"heightSource":"default"},"geometry":{"type":"MultiPolygon","coordinates":[[[[682696.65,2077816.92],[682705.74,2077812.52],[682698.23,2077799.66],[682688.86,2077804.2],[682696.65,2077816.92]]]]}},{"type":"Feature","properties":{"building":"yes","height":6,"heightSource":"default"},"geometry":{"type":"MultiPolygon","coordinates":[[[[677052.14,2081377.39],[677072.93,2081377.15],[677072.71,2081358.45],[677051.93,2081358.68],[677052.14,2081377.39]]]]}},{"type":"Feature","properties":{"building":"yes","height":6,"heightSource":"default"},"geometry":{"type":"MultiPolygon","coordinates":[[[[677564.49,2081534.64],[677656.14,2081529.83],[677652.26,2081456.84],[677560.6,2081461.65],[677564.49,2081534.64]]]]}},{"type":"Feature","properties":{"building":"yes","height":6,"heightSource":"default"},"geometry":{"type":"MultiPolygon","coordinates":[[[[683211.31,2084175.79],[683217.4,2084170.49],[683199.4,2084150.05],[683193.31,2084155.36],[683211.31,2084175.79]]]]}},{"type":"Feature","properties":{"building":"yes","height":6,"heightSource":"default"},"geometry":{"type":"MultiPolygon","coordinates":[[[[683869.75,2087711.42],[683924.07,2087683.11],[683862.43,2087566.28],[683808.1,2087594.6],[683869.75,2087711.42]]]]}},{"type":"Feature","properties":{"building":"yes","height":6,"heightSource":"default"},"geometry":{"type":"MultiPolygon","coordinates":[[[[682888.39,2085647.61],[682901.83,2085647.55],[682901.81,2085643.35],[682888.38,2085643.41],[682888.39,2085647.61]]]]}},{"type":"Feature","properties":{"building":"yes","height":6,"heightSource":"default"},"geometry":{"type":"MultiPolygon","coordinates":[[[[682804.45,2085503.66],[682808.75,2085501.29],[682806.24,2085496.81],[682801.94,2085499.19],[682804.45,2085503.66]]]]}},{"type":"Feature","properties":{"building":"yes","height":6,"heightSource":"default"},"geometry":{"type":"MultiPolygon","coordinates":[[[[683732.46,2084419.6],[683734.69,2084364.55],[683822.26,2084371.59],[683814.09,2084426.03],[683732.46,2084419.6]]]]}},{"type":"Feature","properties":{"building":"yes","height":6,"heightSource":"default"},"geometry":{"type":"MultiPolygon","coordinates":[[[[674334.99,2084966.63],[674344.96,2084970.15],[674352.4,2084949.3],[674342.63,2084945.85],[674340.96,2084950.54],[674334.51,2084948.27],[674330.45,2084959.64],[674336.7,2084961.85],[674334.99,2084966.63]]]]}},{"type":"Feature","properties":{"building":"yes","height":6,"heightSource":"default"},"geometry":{"type":"MultiPolygon","coordinates":[[[[682942.66,2078608.48],[683065.64,2078574.47],[683025.18,2078429.88],[682998.81,2078437.17],[682986.71,2078393.94],[682890.08,2078420.66],[682942.66,2078608.48]]]]}},{"type":"Feature","properties":{"building":"yes","height":6,"heightSource":"default"},"geometry":{"type":"MultiPolygon","coordinates":[[[[683886.81,2077915.5],[683901.27,2077925.01],[683907.58,2077915.51],[683893.14,2077906.02],[683886.81,2077915.5]]]]}}]}