{"type":"FeatureCollection","features":[{"type":"Feature","properties":{"provinceCode":"50","nameTh":"เชียงใหม่","nameEn":"Chiang Mai"},"geometry":{"type":"Polygon","coordinates":[[[98.5347262,17.6159044],[98.5291261,17.6340568],[98.5322884,17.6386765],[98.5313969,17.6473534],[98.5273187,17.6574323],[98.528339,17.6606275],[98.5250049,17.6659311],[98.5219324,17.6807786],[98.5232696,17.6910969],[98.5217148,17.6978389],[98.5246897,17.7015808],[98.5254385,17.7068797],[98.5206095,17.7151051],[98.5192104,17.7259723],[98.5161218,17.7303536],[98.5170266,17.7367805],[98.5062616,17.751758],[98.5034755,17.7605644],[98.506056,17.7685097],[98.509419,17.7720377],[98.5083164,17.7824701],[98.5098695,17.7880312],[98.5023105,17.7948658],[98.4970282,17.7965158],[98.4928018,17.8029122],[98.4911885,17.8116613],[98.4953925,17.8160122],[98.5029429,17.8156305],[98.5087155,17.81252],[98.5155991,17.8168888],[98.5142101,17.8226517],[98.5177377,17.8248545],[98.5220022,17.824414],[98.5313194,17.8147276],[98.5395814,17.8144517],[98.5416018,17.8116351],[98.5440533,17.8114153],[98.5477087,17.8059857],[98.5604732,17.7954171],[98.5643171,17.7975611],[98.5714945,17.8088805],[98.5802641,17.8062704],[98.5815114,17.8011861],[98.589596,17.8014254],[98.5900628,17.8054166],[98.5963397,17.8036869],[98.6137011,17.7803588],[98.6183809,17.779007],[98.622233,17.7799444],[98.6238339,17.7771108],[98.6304593,17.7809788],[98.6332677,17.7853426],[98.6348558,17.791307],[98.6315151,17.8009726],[98.6351543,17.8044069],[98.6390157,17.8148227],[98.6466151,17.8162859],[98.651751,17.8206081],[98.6529464,17.8261959],[98.6563826,17.8274989],[98.6593032,17.8263638],[98.6602688,17.8295174],[98.6635997,17.8300282],[98.669114,17.8345414],[98.6729303,17.8300587],[98.6713929,17.8201045],[98.676519,17.814454],[98.6789197,17.8051336],[98.6819839,17.8023603],[98.6846958,17.7965036],[98.6853752,17.790962],[98.6976731,17.7919145],[98.712692,17.798791],[98.7246377,17.7970549],[98.7255304,17.7935849],[98.7270046,17.7935589],[98.7352756,17.7979794],[98.7428463,17.8056816],[98.7460676,17.8051597],[98.7497171,17.8012045],[98.7627558,17.801767],[98.7673145,17.8096362],[98.7687672,17.8165501],[98.7753282,17.8238708],[98.7750236,17.8264423],[98.7776058,17.8272019],[98.7774589,17.8310076],[98.7846263,17.8325609],[98.7895741,17.8303385],[98.7880004,17.829179],[98.7884602,17.8275656],[98.786263,17.8270721],[98.7874192,17.8250209],[98.7942856,17.8238321],[98.7923621,17.8166458],[98.794663,17.8140108],[98.7961422,17.8161102],[98.7973083,17.8142021],[98.7962817,17.812114],[98.7921382,17.812515],[98.7980693,17.8024439],[98.7971543,17.7982366],[98.7992428,17.7960725],[98.8017965,17.795958],[98.8032239,17.7982324],[98.8074385,17.7990052],[98.8142277,17.7972994],[98.8183715,17.7985441],[98.821015,17.7975291],[98.8243028,17.7998649],[98.8271319,17.799154],[98.8300897,17.8002977],[98.8331082,17.8052993],[98.8370954,17.8056831],[98.8490848,17.8124678],[98.8571147,17.8145833],[98.8571902,17.8174126],[98.8518232,17.8220494],[98.8549515,17.8304895],[98.8519891,17.8459546],[98.8597469,17.8556986],[98.8703616,17.8491622],[98.8695557,17.8598441],[98.8654395,17.8709527],[98.8670309,17.8778704],[98.8611444,17.8861811],[98.8607692,17.8953317],[98.8556827,17.8983883],[98.8543738,17.9035888],[98.8560632,17.9094067],[98.850077,17.9188525],[98.848949,17.924943],[98.8504382,17.9292903],[98.8420948,17.9437135],[98.8390745,17.9599288],[98.8406611,17.9637576],[98.8350643,17.969289],[98.8341791,17.973148],[98.8299748,17.975532],[98.830982,17.9816187],[98.8335667,17.9860911],[98.8327767,17.9882806],[98.823878,17.9944663],[98.8144289,18.0061982],[98.807503,18.0085612],[98.7921368,18.0028982],[98.7868432,17.9987754],[98.7841318,18.0003364],[98.7769087,18.0005667],[98.7790994,18.0043301],[98.7791078,18.0139827],[98.7849728,18.0179088],[98.7862891,18.0249304],[98.7942323,18.0301261],[98.791065,18.0368307],[98.797129,18.0458268],[98.7985672,18.0538429],[98.7968105,18.0569806],[98.8080681,18.0645703],[98.80653,18.072832],[98.8128105,18.0767139],[98.8135577,18.078689],[98.8034273,18.0854065],[98.798045,18.084889],[98.7969732,18.0861164],[98.7976122,18.088969],[98.8013562,18.0910494],[98.8014939,18.1048266],[98.8069369,18.1062946],[98.8092088,18.1126734],[98.8053599,18.1216932],[98.8073606,18.1243716],[98.8047698,18.1297364],[98.8048551,18.1355573],[98.8069484,18.1376215],[98.8038872,18.1393588],[98.8036861,18.1436608],[98.8058665,18.1454375],[98.8039476,18.146898],[98.8028616,18.1513624],[98.8052969,18.155555],[98.7994015,18.1605214],[98.7930994,18.1596957],[98.7911071,18.1626624],[98.7909172,18.1680003],[98.7859847,18.1729674],[98.7841261,18.1789908],[98.7827334,18.1792964],[98.7837655,18.1837047],[98.7816237,18.1875647],[98.7823854,18.1933254],[98.7801564,18.1957335],[98.7839401,18.1997301],[98.7814345,18.2062235],[98.7856476,18.214884],[98.7830896,18.217878],[98.7852149,18.2209656],[98.7750899,18.2243675],[98.7723756,18.2296471],[98.7754768,18.2321838],[98.776959,18.2370214],[98.7770911,18.2446613],[98.7754259,18.2496984],[98.7724329,18.251645],[98.7705391,18.255955],[98.7628017,18.2563669],[98.7517328,18.2621942],[98.7363714,18.2666985],[98.7342695,18.2706341],[98.7269936,18.2745261],[98.7201968,18.2859924],[98.7021973,18.291396],[98.6990991,18.296766],[98.6940323,18.2979132],[98.6866418,18.3027518],[98.6873994,18.3037769],[98.6838059,18.3099111],[98.6776872,18.3111251],[98.6724959,18.310098],[98.6751305,18.3125936],[98.6755699,18.316637],[98.6749586,18.3202015],[98.67114,18.3236098],[98.6719228,18.326775],[98.678547,18.3274642],[98.6882622,18.3345361],[98.691865,18.3341402],[98.697481,18.3299396],[98.7006524,18.3299203],[98.7035894,18.3322408],[98.703737,18.3364295],[98.6957124,18.3518399],[98.6814683,18.3689527],[98.6871426,18.3770791],[98.6899467,18.3909958],[98.69861,18.3964846],[98.7095286,18.4138301],[98.7092885,18.4158655],[98.7072023,18.4161335],[98.7013336,18.4111025],[98.6983011,18.4104188],[98.6950754,18.4119524],[98.6932689,18.4149806],[98.6939728,18.4190083],[98.7004555,18.4254436],[98.7033318,18.4344072],[98.7073977,18.440747],[98.7113784,18.4415676],[98.7132364,18.43596],[98.7165598,18.4330242],[98.7210594,18.435339],[98.7230548,18.4440583],[98.7253255,18.4453174],[98.7377467,18.4382284],[98.7427771,18.431342],[98.7536939,18.4355189],[98.7646923,18.4346818],[98.7766247,18.4490794],[98.7863562,18.4533747],[98.7979596,18.4525808],[98.8049736,18.4629097],[98.8143042,18.461639],[98.8143831,18.4696515],[98.8157507,18.4720457],[98.822249,18.475335],[98.8248107,18.4792882],[98.837751,18.4850582],[98.8427035,18.4897645],[98.8460497,18.4994031],[98.8522523,18.5012474],[98.8558393,18.4994639],[98.8593267,18.5005535],[98.8617508,18.5032831],[98.8621269,18.5105967],[98.867692,18.5153298],[98.8724306,18.5165669],[98.8767967,18.5108125],[98.8793877,18.5104707],[98.8818004,18.513803],[98.8951549,18.5230883],[98.9064019,18.5281635],[98.9146636,18.5361763],[98.9229398,18.5359542],[98.9285365,18.5404684],[98.9341122,18.5420352],[98.9347111,18.5432476],[98.9320386,18.5448849],[98.9335637,18.5491627],[98.9325119,18.5544417],[98.935756,18.5563544],[98.9380914,18.5635451],[98.9431973,18.5633196],[98.9478344,18.5705454],[98.9476789,18.5762002],[98.9534045,18.5795695],[98.9534027,18.5858499],[98.9561227,18.587944],[98.9568907,18.5918733],[98.9694351,18.6025996],[98.9650906,18.6090159],[98.9653897,18.6152],[98.9685356,18.6152993],[98.9675493,18.618806],[98.9706787,18.6208025],[98.9708934,18.6234761],[98.9748593,18.6289897],[98.9770221,18.6287025],[98.9783101,18.6355432],[98.9828459,18.6341453],[98.9834214,18.6383247],[98.9864573,18.6354875],[98.9907392,18.6397416],[98.9945746,18.6380977],[99.0004099,18.640343],[99.0020232,18.6434235],[99.0044677,18.6430886],[99.005862,18.6480211],[99.0042087,18.6620368],[99.0080157,18.667031],[99.0099287,18.6732848],[99.0133729,18.669952],[99.0179387,18.6733307],[99.0470209,18.6679093],[99.0644214,18.6616086],[99.0651942,18.659683],[99.0693499,18.6676326],[99.072589,18.6658795],[99.0739067,18.6670323],[99.077268,18.6749875],[99.0758406,18.6772572],[99.0762029,18.6818048],[99.0797955,18.6804865],[99.0893895,18.6807074],[99.0914615,18.6792792],[99.0961466,18.6789936],[99.1022186,18.6811455],[99.1043616,18.6793014],[99.1135172,18.6790897],[99.1144749,18.6823071],[99.1269613,18.6833891],[99.1258031,18.6844482],[99.1269614,18.6896224],[99.1357096,18.70055],[99.151434,18.7081352],[99.1612677,18.7060183],[99.1634151,18.7083296],[99.1704409,18.7060848],[99.1769808,18.7064084],[99.1800469,18.7083657],[99.1899016,18.7051362],[99.1900431,18.6969452],[99.1868528,18.6872208],[99.1888475,18.6837995],[99.1887485,18.6789102],[99.2058124,18.6677524],[99.2062909,18.6601373],[99.2126654,18.6605195],[99.2180773,18.6541049],[99.2255157,18.6527799],[99.2309769,18.6539502],[99.2338602,18.6510892],[99.2313485,18.6428931],[99.2338521,18.6345897],[99.2306872,18.6241308],[99.2352928,18.6168939],[99.2308577,18.6128264],[99.2267065,18.6113375],[99.2229375,18.6069725],[99.223212,18.6028779],[99.2175075,18.5920092],[99.2314905,18.58798],[99.2367151,18.5832177],[99.2440076,18.5837317],[99.2515293,18.5742335],[99.2637425,18.5715773],[99.2645911,18.5683901],[99.2727572,18.5627695],[99.2735639,18.5583207],[99.2883224,18.5476593],[99.2963256,18.5369644],[99.3064663,18.536049],[99.3117428,18.5327846],[99.3173374,18.5321719],[99.3190546,18.5359415],[99.3233483,18.5374635],[99.3284387,18.5455647],[99.3273323,18.5535336],[99.3298041,18.5583941],[99.327273,18.5617757],[99.3320956,18.5759729],[99.3388753,18.5771032],[99.3438666,18.574659],[99.3467137,18.5779119],[99.3534544,18.5793823],[99.3501279,18.5827131],[99.351759,18.5893215],[99.3488819,18.59188],[99.3487303,18.5939962],[99.3551671,18.5972893],[99.3566444,18.6026523],[99.3590136,18.6044628],[99.3582891,18.6076792],[99.3545292,18.6131395],[99.3498639,18.6143855],[99.3484307,18.617804],[99.3443407,18.6159696],[99.3371607,18.6156459],[99.326884,18.619523],[99.3307613,18.6273771],[99.3268782,18.6283311],[99.3286225,18.6330904],[99.3269834,18.6384941],[99.3325432,18.6501322],[99.3371763,18.6509559],[99.3424888,18.6495661],[99.3491394,18.6553556],[99.3393341,18.6657714],[99.3332061,18.6686073],[99.3345413,18.6719203],[99.3322294,18.6747384],[99.3313391,18.6798884],[99.3270748,18.6848059],[99.3368184,18.6936514],[99.3341149,18.6983564],[99.3340356,18.7021177],[99.3430231,18.7074713],[99.3406449,18.7159443],[99.3445904,18.7179158],[99.3452501,18.7214123],[99.3486049,18.7245964],[99.3482345,18.7352842],[99.3533857,18.737152],[99.3618309,18.7473891],[99.3664873,18.7485952],[99.371475,18.7534203],[99.3711863,18.7605541],[99.36622,18.7693681],[99.367051,18.7748879],[99.3710764,18.7796657],[99.3709931,18.7822012],[99.366219,18.7868761],[99.3643287,18.798099],[99.359003,18.801412],[99.3592751,18.8057263],[99.357194,18.8079253],[99.3573358,18.8170054],[99.3528789,18.8231398],[99.3553601,18.8281766],[99.3529701,18.8294625],[99.3504477,18.8362399],[99.3530655,18.8432403],[99.3526475,18.8474933],[99.3601797,18.8501326],[99.3618069,18.8524872],[99.3770337,18.8607417],[99.3872056,18.8729274],[99.3859431,18.879385],[99.391414,18.8843357],[99.3913863,18.8869288],[99.3861415,18.8885027],[99.387256,18.8957911],[99.3839385,18.9003821],[99.3853276,18.9036805],[99.3830738,18.9067474],[99.3836793,18.9105363],[99.3776414,18.9217162],[99.3849252,18.9341718],[99.3867268,18.9439071],[99.3837612,18.9526196],[99.3750421,18.9597359],[99.3776709,18.9674845],[99.3760519,18.9734446],[99.378082,18.9773937],[99.3774782,18.9824529],[99.3813057,18.9897287],[99.3906776,18.9939138],[99.3925495,18.9973875],[99.4018034,19.0001482],[99.3961898,19.0070059],[99.3952962,19.0183945],[99.3938155,19.0201761],[99.3893526,19.0206095],[99.385951,19.0386665],[99.3813172,19.0419029],[99.3818665,19.0515636],[99.3851362,19.0552021],[99.3826554,19.0592877],[99.3837861,19.0631043],[99.3811403,19.0654447],[99.3654833,19.0692391],[99.3639718,19.0731358],[99.3650658,19.0789423],[99.3602783,19.0830517],[99.3509902,19.0872209],[99.3469044,19.0856996],[99.3443696,19.0863904],[99.3435681,19.0938073],[99.3406598,19.0956496],[99.337867,19.1037924],[99.330046,19.1129908],[99.3296009,19.1173089],[99.325128,19.1189411],[99.3240674,19.1220162],[99.3210757,19.1236144],[99.3192338,19.1330007],[99.3227367,19.1342126],[99.3240668,19.1364307],[99.3229932,19.1467941],[99.3193112,19.1554546],[99.319435,19.1652411],[99.3148314,19.1716802],[99.3099924,19.1727627],[99.3062653,19.1758848],[99.3045739,19.1825046],[99.3066653,19.1881744],[99.3036418,19.1935622],[99.3066544,19.194383],[99.3089387,19.2051272],[99.3145485,19.2091144],[99.3109757,19.2128605],[99.3119582,19.2161982],[99.3100301,19.2182914],[99.3107676,19.2240628],[99.3175391,19.2286684],[99.3184625,19.2316124],[99.3221828,19.2341437],[99.3227533,19.2407204],[99.321254,19.2437015],[99.3336409,19.2510573],[99.3376086,19.2556064],[99.3360395,19.2623456],[99.3429798,19.2678368],[99.3392211,19.2746813],[99.3413733,19.2764486],[99.336475,19.2839822],[99.3402216,19.2859718],[99.3396683,19.2888881],[99.3368457,19.2913542],[99.3392702,19.2982549],[99.3328583,19.303341],[99.3319609,19.3107552],[99.3295853,19.3127692],[99.3272273,19.3193458],[99.3277628,19.3236996],[99.3325537,19.3273337],[99.3341213,19.3304881],[99.3343014,19.3522665],[99.3327288,19.3622862],[99.3298886,19.3646802],[99.332026,19.378145],[99.3296848,19.3802107],[99.3308306,19.3817738],[99.3258871,19.3870826],[99.3254707,19.3940954],[99.3230638,19.3965332],[99.3248986,19.3974628],[99.3275547,19.3961287],[99.3305735,19.3984211],[99.329631,19.4008059],[99.3261677,19.4013413],[99.3221876,19.40647],[99.3194476,19.4075404],[99.3187087,19.4141174],[99.3149115,19.4185538],[99.3151022,19.4238002],[99.3080595,19.4309563],[99.3113343,19.4323448],[99.3107264,19.4359957],[99.3120593,19.4359407],[99.3122227,19.4409002],[99.3135492,19.4407227],[99.3143435,19.4517087],[99.3186573,19.4547887],[99.3166372,19.4557795],[99.310562,19.4713158],[99.3053968,19.47462],[99.3075793,19.4786629],[99.3065197,19.4823458],[99.3078108,19.4831939],[99.3078439,19.4888257],[99.306168,19.4895966],[99.2986781,19.4870117],[99.2945116,19.4951859],[99.2949864,19.4996065],[99.2991922,19.5076146],[99.2992891,19.5126101],[99.3017819,19.5174086],[99.3070429,19.5212158],[99.3039685,19.5228297],[99.3059219,19.5266283],[99.309721,19.5269331],[99.3122951,19.529002],[99.3133518,19.534898],[99.3171412,19.5344249],[99.3189646,19.5359874],[99.3224587,19.5350115],[99.3262497,19.5391099],[99.3201927,19.5420735],[99.3204207,19.5458555],[99.3194263,19.5482598],[99.317126,19.5491098],[99.316789,19.5546167],[99.3153117,19.5556421],[99.312424,19.5545873],[99.3104946,19.5560782],[99.3102003,19.553853],[99.3076562,19.5540883],[99.2995541,19.5613505],[99.2970037,19.5611753],[99.2983729,19.5629879],[99.2946924,19.56769],[99.2957793,19.5747694],[99.2946387,19.577338],[99.288983,19.5809893],[99.2908193,19.5842835],[99.2896145,19.5869435],[99.2929067,19.5903063],[99.2927715,19.5924878],[99.2841976,19.6036103],[99.2804099,19.602771],[99.2756883,19.6069566],[99.2670449,19.6108129],[99.2679025,19.6205715],[99.2665807,19.6253099],[99.2585588,19.629133],[99.2614977,19.6355396],[99.2591649,19.6397691],[99.259762,19.6447279],[99.2579856,19.6495944],[99.2620147,19.6533521],[99.2654691,19.6648088],[99.2760238,19.6682016],[99.2816674,19.6734316],[99.28668,19.6751549],[99.2888458,19.6788831],[99.2928328,19.6788946],[99.2967854,19.6821229],[99.2967915,19.6853992],[99.3019444,19.6895889],[99.3048085,19.6966142],[99.3075398,19.6977127],[99.311009,19.7028435],[99.3140162,19.7027065],[99.3134173,19.7076303],[99.325804,19.7120535],[99.3362203,19.713302],[99.3468256,19.7122521],[99.3465477,19.7203152],[99.3489193,19.7246448],[99.3597996,19.726301],[99.3620759,19.7317957],[99.3623415,19.7404636],[99.3597928,19.7452223],[99.3604409,19.7489027],[99.3645319,19.7513179],[99.3647085,19.764087],[99.3661947,19.7681851],[99.3615252,19.7773262],[99.3674868,19.7747171],[99.3747392,19.7767726],[99.3770093,19.7791637],[99.3772112,19.7894819],[99.378724,19.7907817],[99.3774073,19.7973413],[99.381166,19.8000023],[99.3786061,19.8066486],[99.380374,19.8102258],[99.392769,19.8125304],[99.3992652,19.8117961],[99.4028804,19.8135542],[99.4065288,19.812394],[99.4199079,19.8140391],[99.420602,19.8231787],[99.4099228,19.8292311],[99.4080263,19.8318228],[99.4082748,19.8346632],[99.4149657,19.8453041],[99.4096573,19.8451023],[99.4080659,19.8478312],[99.4032296,19.8495259],[99.4024075,19.8524099],[99.3952711,19.8570631],[99.3875859,19.8652991],[99.3863323,19.8771501],[99.3814391,19.8795433],[99.3835909,19.8839619],[99.3813971,19.8894677],[99.3847541,19.8966295],[99.3983242,19.9061202],[99.3999282,19.9121714],[99.4029951,19.9147325],[99.4204152,19.9176177],[99.420969,19.9202558],[99.4172762,19.9223851],[99.4166242,19.9287901],[99.4146252,19.9315353],[99.4149549,19.9404149],[99.417386,19.9429917],[99.4185827,19.952976],[99.4271033,19.960703],[99.4378898,19.961072],[99.4413794,19.9631715],[99.4423187,19.9702313],[99.4488585,19.9765655],[99.454843,19.9877488],[99.459927,19.9923917],[99.459565,19.9964604],[99.4648008,19.9997328],[99.465502,20.0053731],[99.4732529,20.0114095],[99.4756432,20.0107849],[99.4783296,20.0132286],[99.4781429,20.015053],[99.4760896,20.0144707],[99.4726117,20.0177151],[99.4729045,20.0196371],[99.4707792,20.0221144],[99.4674172,20.0239461],[99.4677103,20.0261066],[99.4656712,20.0259023],[99.4701922,20.0301909],[99.4673381,20.0322938],[99.4674777,20.0340873],[99.4723628,20.0344275],[99.4762963,20.0393772],[99.4846097,20.0387067],[99.4864888,20.0419937],[99.4893767,20.042477],[99.4960731,20.0477571],[99.4983743,20.0520239],[99.505188,20.0537034],[99.5026633,20.0549797],[99.5046068,20.0571648],[99.502938,20.0594423],[99.4915423,20.0655295],[99.4894774,20.0724531],[99.4911901,20.0790347],[99.5022249,20.08308],[99.5085047,20.0881823],[99.5142925,20.0886804],[99.517646,20.0915616],[99.5302813,20.0936547],[99.5322529,20.0947558],[99.5320217,20.0965409],[99.5346845,20.096741],[99.5376515,20.0994869],[99.5469639,20.101489],[99.5501214,20.1039393],[99.5544122,20.1030381],[99.5575439,20.0981726],[99.5591624,20.0981172],[99.5603985,20.1009371],[99.5708247,20.1078052],[99.5729134,20.1192257],[99.5700209,20.1225609],[99.5645715,20.1241095],[99.5566441,20.1301114],[99.5459858,20.1308808],[99.5297361,20.1375255],[99.5206039,20.1380826],[99.513272,20.147538],[99.509858,20.147073],[99.500415,20.13514],[99.494633,20.13332],[99.498738,20.122953],[99.498172,20.116223],[99.491543,20.115591],[99.489231,20.112563],[99.483403,20.10958],[99.471749,20.109079],[99.462194,20.104526],[99.455187,20.097948],[99.444476,20.098297],[99.438201,20.090609],[99.42867,20.090152],[99.422253,20.093615],[99.417157,20.09368],[99.412533,20.088322],[99.405196,20.088605],[99.400595,20.086013],[99.396302,20.08928],[99.385685,20.087559],[99.378395,20.089302],[99.373865,20.094398],[99.365019,20.099255],[99.3510765,20.0964959],[99.344564,20.105137],[99.3416941,20.1057199],[99.3382662,20.1036948],[99.3357718,20.1098002],[99.3321562,20.1112409],[99.3204054,20.1094904],[99.3158323,20.1105155],[99.3130857,20.1141726],[99.3084347,20.1126261],[99.301284,20.1153966],[99.2824669,20.1139371],[99.2781955,20.1165678],[99.2654264,20.1135849],[99.2540315,20.1144118],[99.2463684,20.1128452],[99.2420983,20.1147695],[99.2356208,20.1230983],[99.2321125,20.1249544],[99.2258763,20.1199653],[99.2233148,20.1208367],[99.2184895,20.1284323],[99.215287,20.1283215],[99.2105341,20.132497],[99.2063928,20.1308198],[99.1981423,20.1309255],[99.1920161,20.1282863],[99.1875315,20.1318825],[99.181931,20.1288806],[99.175778,20.1293087],[99.1692683,20.1331341],[99.1634184,20.1311169],[99.1588989,20.133046],[99.1484946,20.1284399],[99.1416898,20.1231084],[99.1260955,20.1194188],[99.1256636,20.1151725],[99.1286386,20.1073336],[99.1192532,20.1010626],[99.1131484,20.1004203],[99.1116062,20.1015916],[99.1088569,20.0989669],[99.106223,20.0998082],[99.1004643,20.0976747],[99.0972349,20.1046469],[99.0935925,20.1071732],[99.0915111,20.104594],[99.0907728,20.0974795],[99.0839066,20.0972052],[99.0828603,20.1013059],[99.0777594,20.1019895],[99.072684,20.097189],[99.067298,20.087759],[99.069782,20.082039],[99.066963,20.06841],[99.056804,20.062922],[99.053902,20.050478],[99.04832,20.045995],[99.044441,20.038265],[99.045781,20.025718],[99.043464,20.017138],[99.046506,20.012681],[99.046283,20.009306],[99.0543586,20.0033582],[99.050914,19.998568],[99.04221,19.995942],[99.037036,19.990215],[99.036325,19.981115],[99.034045,19.979372],[99.031985,19.973848],[99.0392342,19.9656127],[99.0398544,19.9559639],[99.0452842,19.9491562],[99.0415469,19.9424146],[99.0410654,19.9369053],[99.042627,19.931267],[99.0404552,19.9298778],[99.0361074,19.9308083],[99.0303379,19.9248497],[99.0266472,19.9256566],[99.0256548,19.9297316],[99.021834,19.92717],[99.0233964,19.9193575],[99.027204,19.915647],[99.027621,19.90897],[99.023673,19.909128],[99.021981,19.907385],[99.022251,19.89876],[99.026444,19.895523],[99.025267,19.887486],[99.02767,19.880944],[99.025561,19.877367],[99.025021,19.868064],[99.022888,19.866615],[99.029313,19.858442],[99.033996,19.855545],[99.033236,19.849116],[99.029607,19.841782],[99.03071,19.834402],[99.027277,19.827249],[99.024776,19.827385],[99.0219722,19.8196959],[99.0234993,19.8182614],[99.02262,19.8141891],[99.0196122,19.8123381],[99.0162804,19.8060447],[99.017067,19.7980854],[99.014707,19.7937356],[99.0072785,19.7920392],[99.0057864,19.7879988],[98.9963652,19.7911055],[98.9901234,19.7877254],[98.9874923,19.7843702],[98.9818888,19.7840568],[98.9543881,19.769365],[98.9402041,19.7686545],[98.9334943,19.7731432],[98.9290981,19.7735134],[98.9272008,19.7687933],[98.9236839,19.7652764],[98.9187325,19.7651376],[98.9193341,19.7627775],[98.911421,19.7617132],[98.9086908,19.764027],[98.9057292,19.7633328],[98.9017958,19.7665721],[98.8984178,19.7658317],[98.89491,19.773173],[98.889456,19.775397],[98.883682,19.781623],[98.874848,19.78284],[98.87159,19.786029],[98.871227,19.79182],[98.856059,19.796843],[98.850195,19.801684],[98.849694,19.807979],[98.839148,19.813561],[98.832541,19.811224],[98.828071,19.802704],[98.829768,19.795836],[98.822662,19.78817],[98.819586,19.787274],[98.812797,19.780993],[98.807887,19.780126],[98.805326,19.776936],[98.795947,19.775957],[98.795916,19.773103],[98.787401,19.764527],[98.786719,19.761268],[98.781748,19.757911],[98.781021,19.754581],[98.778854,19.75279],[98.774596,19.752385],[98.76952,19.755295],[98.757322,19.757308],[98.751185,19.7604],[98.744822,19.755734],[98.74212,19.756257],[98.737678,19.7544],[98.73265,19.756895],[98.728691,19.761189],[98.722028,19.76086],[98.717063,19.762659],[98.711406,19.76881],[98.703676,19.757939],[98.699088,19.757282],[98.694479,19.754245],[98.68392,19.754322],[98.679604,19.749409],[98.672355,19.751885],[98.666216,19.74968],[98.663283,19.746585],[98.665274,19.741575],[98.6592276,19.7355204],[98.653458,19.740008],[98.645832,19.736275],[98.64359,19.733432],[98.636194,19.732039],[98.634812,19.729138],[98.625405,19.728383],[98.627898,19.720685],[98.6262292,19.7150388],[98.620838,19.713992],[98.616145,19.717261],[98.612646,19.710336],[98.6081,19.709137],[98.589957,19.71583],[98.580068,19.707396],[98.57173,19.704146],[98.572736,19.698808],[98.570201,19.696699],[98.570578,19.689214],[98.566828,19.681186],[98.56731,19.673642],[98.566032,19.672076],[98.559097,19.675461],[98.556751,19.681186],[98.548685,19.686757],[98.538084,19.68933],[98.538168,19.69372],[98.532846,19.69637],[98.532783,19.699078],[98.528845,19.705694],[98.526351,19.706177],[98.522622,19.710936],[98.519668,19.712232],[98.518495,19.715501],[98.510324,19.717512],[98.507287,19.716661],[98.508208,19.713799],[98.506197,19.710065],[98.501588,19.709098],[98.496934,19.705705],[98.485561,19.704601],[98.4759154,19.6986351],[98.472851,19.694625],[98.467661,19.694868],[98.466343,19.692398],[98.4701211,19.6852547],[98.4687494,19.6803461],[98.4720777,19.6746172],[98.4702741,19.6655789],[98.4687491,19.6642303],[98.4720083,19.6597924],[98.4720813,19.6562765],[98.4760369,19.6568003],[98.4813528,19.6546968],[98.4821996,19.651253],[98.4890061,19.646516],[98.4893909,19.6428325],[98.5014537,19.6364045],[98.5022144,19.632809],[98.5043178,19.6312255],[98.5103699,19.6299905],[98.5162197,19.625617],[98.5214891,19.6261904],[98.5217541,19.6197405],[98.5265762,19.6136524],[98.5342409,19.6143826],[98.5401848,19.6110563],[98.5395575,19.6069797],[98.5357391,19.6018121],[98.5397642,19.5991212],[98.5370934,19.5879139],[98.5378402,19.5845044],[98.5423285,19.578578],[98.5407881,19.5761583],[98.5420072,19.5662007],[98.5454416,19.5635315],[98.5422515,19.5585408],[98.5513623,19.5526478],[98.5589445,19.5496327],[98.562411,19.5497928],[98.565939,19.546894],[98.5641838,19.5450695],[98.5625479,19.5375632],[98.5642615,19.5351223],[98.5616086,19.5306683],[98.5657011,19.5249148],[98.5637898,19.5186929],[98.5682303,19.5075612],[98.5729107,19.512123],[98.5769643,19.5117786],[98.5843921,19.5056776],[98.5951745,19.4897279],[98.5925254,19.4837262],[98.59672,19.4799686],[98.5967728,19.4739201],[98.6001089,19.4701434],[98.5954887,19.4620645],[98.5912886,19.4628701],[98.5905109,19.4579342],[98.5923623,19.4556421],[98.5910125,19.4505626],[98.5890554,19.4478802],[98.5868087,19.4480847],[98.5847634,19.4436621],[98.5857871,19.4346811],[98.5845293,19.4322215],[98.5860832,19.4292211],[98.5845196,19.4263533],[98.5860346,19.4214573],[98.5847366,19.4182268],[98.5855911,19.4152015],[98.5893742,19.4138129],[98.592412,19.4088474],[98.5962501,19.4072965],[98.5946514,19.4037301],[98.5879041,19.3982077],[98.5812977,19.4001486],[98.577252,19.3987421],[98.5730032,19.3872536],[98.5755775,19.3847507],[98.5752115,19.3793536],[98.581514,19.3662277],[98.5923446,19.367462],[98.5965109,19.3625206],[98.5943748,19.3577893],[98.5953987,19.3541178],[98.5900941,19.3533154],[98.5909633,19.3429474],[98.5940476,19.3396705],[98.5890635,19.3323821],[98.5904851,19.3274591],[98.5937041,19.3260995],[98.5937187,19.3236608],[98.5979741,19.3179578],[98.6012441,19.316762],[98.6022598,19.3102661],[98.5983583,19.30182],[98.600709,19.2992717],[98.6002317,19.2970774],[98.598028,19.2958859],[98.5943296,19.2891914],[98.5990317,19.2836694],[98.6049449,19.2797704],[98.5993426,19.2763455],[98.5982783,19.2710154],[98.591638,19.2678452],[98.5896634,19.2623338],[98.5905505,19.2588052],[98.587271,19.2553975],[98.5923589,19.245999],[98.5922839,19.2427658],[98.5976662,19.2372053],[98.598876,19.2290071],[98.5853181,19.2175167],[98.577681,19.2148051],[98.5715691,19.2164337],[98.5679644,19.2099314],[98.5694757,19.2057181],[98.5775524,19.2009856],[98.57913,19.1951689],[98.5855914,19.1860968],[98.5919661,19.1865862],[98.6055751,19.1809441],[98.6086128,19.178367],[98.6075316,19.1730195],[98.6157607,19.1687607],[98.6227802,19.1680598],[98.6228609,19.157722],[98.6321946,19.1572784],[98.6382981,19.1546517],[98.6377629,19.1506514],[98.6392566,19.1482875],[98.6365268,19.1399302],[98.6413313,19.1287582],[98.6424242,19.1130085],[98.6459791,19.1102133],[98.6441008,19.1052311],[98.6486883,19.1012407],[98.6522228,19.0942828],[98.6489884,19.0810549],[98.6464216,19.0770236],[98.6412742,19.0755717],[98.6407456,19.0685789],[98.6388248,19.0664222],[98.6288984,19.0671987],[98.6257524,19.0644058],[98.6210163,19.0678617],[98.6171792,19.0657932],[98.612031,19.0557136],[98.6034922,19.0531196],[98.5950203,19.0433368],[98.5912765,19.04375],[98.5822277,19.0485534],[98.5691583,19.0462052],[98.5659858,19.0446992],[98.5660473,19.0399693],[98.5643284,19.0381622],[98.5607468,19.0372731],[98.5562347,19.0385944],[98.5522689,19.0320075],[98.5419155,19.0262044],[98.5298155,19.0252963],[98.525219,19.0263219],[98.5174836,19.032067],[98.5056411,19.0362049],[98.4914758,19.0383009],[98.4768198,19.042888],[98.4692527,19.0411309],[98.4540259,19.0468516],[98.4447365,19.0457666],[98.4396087,19.0485639],[98.4303986,19.0426908],[98.4233619,19.0292272],[98.4202153,19.0272229],[98.4071686,19.0351026],[98.4007755,19.0364278],[98.4003058,19.0433861],[98.3959704,19.0458329],[98.3929843,19.0552822],[98.3883299,19.056382],[98.3832569,19.0613254],[98.3810024,19.0586262],[98.3726827,19.0665576],[98.3729434,19.0725185],[98.3749154,19.075063],[98.3718059,19.0845885],[98.3658487,19.0883703],[98.3601993,19.0882666],[98.3527211,19.0912105],[98.3511675,19.0975874],[98.3535499,19.100313],[98.3525186,19.1034058],[98.3448431,19.1112566],[98.3461383,19.1143576],[98.3455856,19.1196637],[98.3429372,19.122519],[98.3447288,19.1290131],[98.3496819,19.1318532],[98.3421223,19.1380402],[98.3392433,19.1430641],[98.3418025,19.1516252],[98.3302822,19.1503198],[98.3252951,19.1557992],[98.320396,19.1559286],[98.3140465,19.1530614],[98.2933777,19.1557003],[98.2849234,19.1527608],[98.2701028,19.1560937],[98.2654441,19.1519888],[98.261452,19.1575336],[98.2519947,19.1608655],[98.2495539,19.1565375],[98.2431192,19.1535014],[98.2428061,19.145831],[98.2404591,19.1397045],[98.2441989,19.1320231],[98.2407566,19.1265693],[98.2470433,19.1227354],[98.2488029,19.1169418],[98.2519454,19.1151714],[98.2505755,19.108259],[98.2382111,19.1023164],[98.2368267,19.0943539],[98.2332138,19.0927383],[98.2318309,19.0898567],[98.2258051,19.0879327],[98.2244992,19.0793438],[98.2167953,19.0710063],[98.2126039,19.0631737],[98.2085959,19.0627409],[98.2051684,19.0487957],[98.1913182,19.0406625],[98.1911533,19.0323578],[98.1844085,19.0317513],[98.1835975,19.0273337],[98.1862727,19.0239702],[98.1859123,19.0147418],[98.1798426,19.0068981],[98.1691962,18.9988009],[98.1704586,18.9955465],[98.1692441,18.9891496],[98.1635596,18.9810111],[98.1651849,18.9752755],[98.1731383,18.9615568],[98.1726183,18.9513099],[98.1664025,18.9395012],[98.1566409,18.9369877],[98.1588006,18.9294483],[98.1572785,18.9202157],[98.1555746,18.9188513],[98.1503469,18.9189178],[98.1435883,18.91156],[98.1397334,18.912673],[98.1370281,18.9114088],[98.1297937,18.911828],[98.1245231,18.9076734],[98.1194963,18.8975271],[98.1108069,18.8927171],[98.1084567,18.8863594],[98.10232,18.8846006],[98.0949898,18.8714498],[98.0920524,18.8701661],[98.0912108,18.8646506],[98.0886973,18.8606918],[98.088036,18.8511438],[98.0814177,18.8364385],[98.0814717,18.8265016],[98.0784022,18.8213908],[98.0816042,18.8199948],[98.0796511,18.8163938],[98.0849837,18.8069506],[98.0882701,18.8044432],[98.0855625,18.7987195],[98.0861411,18.7929508],[98.0902157,18.7895573],[98.0913104,18.7855456],[98.0895986,18.7832543],[98.0931772,18.7765577],[98.0994288,18.7752759],[98.1075765,18.7801894],[98.1204626,18.777475],[98.1219077,18.7755218],[98.1178895,18.7672373],[98.1203795,18.7653988],[98.11836,18.7628182],[98.1206716,18.759054],[98.1148923,18.7539722],[98.111472,18.7539737],[98.107637,18.751558],[98.1080603,18.7469989],[98.1067807,18.7453125],[98.0937035,18.738305],[98.1021954,18.7354989],[98.1015551,18.7320554],[98.1040241,18.7273394],[98.1031943,18.7185378],[98.107679,18.7132849],[98.1048203,18.7085766],[98.1011194,18.7066481],[98.1002456,18.7039135],[98.100929,18.7009939],[98.1039934,18.6982872],[98.1073166,18.6881782],[98.104805,18.6770255],[98.1098514,18.6754396],[98.1126583,18.6702539],[98.1092146,18.6643012],[98.1054345,18.6486193],[98.1106577,18.6450787],[98.1181253,18.6345495],[98.1357366,18.6357954],[98.1437121,18.6394333],[98.1556093,18.6325192],[98.1610506,18.6263584],[98.1680326,18.6260131],[98.1736309,18.6280598],[98.1827639,18.6252187],[98.1811888,18.6206709],[98.1837542,18.6184551],[98.1824091,18.6097153],[98.2106582,18.6071813],[98.2129264,18.5909195],[98.2185754,18.5874129],[98.2234357,18.5884714],[98.2274325,18.5867162],[98.2304147,18.580392],[98.234498,18.5770071],[98.2371589,18.5692999],[98.2359758,18.5659355],[98.2314944,18.5636187],[98.2319602,18.5571901],[98.2252173,18.5549641],[98.2234207,18.5492824],[98.2187282,18.5490395],[98.2162668,18.5432474],[98.2113565,18.5418391],[98.209333,18.5380118],[98.2069138,18.5373385],[98.2003544,18.5419212],[98.1926457,18.5405628],[98.1847944,18.5482299],[98.1803658,18.5465923],[98.1751767,18.5471767],[98.1748594,18.5407919],[98.1703775,18.5297992],[98.170268,18.5251188],[98.1629162,18.5247885],[98.1625968,18.5217595],[98.1542818,18.512355],[98.1462355,18.5139226],[98.1422376,18.5097384],[98.1314405,18.5049067],[98.1316034,18.5024728],[98.1285674,18.5005909],[98.1224495,18.5025663],[98.1198321,18.4990019],[98.1189017,18.4895143],[98.1123143,18.4840665],[98.1055842,18.4583077],[98.0993098,18.456709],[98.0826983,18.4459161],[98.0802154,18.4361524],[98.0740357,18.4294453],[98.078546,18.4215054],[98.0825918,18.4178131],[98.0937408,18.4214468],[98.1006021,18.4186142],[98.1031882,18.4136788],[98.1074232,18.4131457],[98.110753,18.4091307],[98.1151079,18.4081856],[98.1173603,18.4093584],[98.1257807,18.4064072],[98.1269259,18.4027336],[98.1227645,18.394484],[98.128116,18.3924579],[98.1278725,18.3888471],[98.129652,18.3864461],[98.1355668,18.3857022],[98.1396532,18.3717572],[98.1438197,18.3681687],[98.1453859,18.3629943],[98.1491034,18.3626198],[98.1498761,18.359765],[98.1518168,18.3589243],[98.159156,18.3579061],[98.1608501,18.3549072],[98.1642743,18.3550102],[98.1660706,18.3514239],[98.1699226,18.3487167],[98.1696059,18.3460098],[98.1791902,18.3450581],[98.1896977,18.3364736],[98.1926281,18.3363509],[98.1939658,18.3339329],[98.1928788,18.3318968],[98.1950265,18.3302377],[98.1976256,18.3333433],[98.2011919,18.3248292],[98.1995813,18.3222502],[98.2020345,18.3222641],[98.2006459,18.3177323],[98.2024996,18.3174638],[98.202004,18.3141349],[98.2071635,18.3104156],[98.2066631,18.3082961],[98.2081665,18.3075668],[98.2070377,18.302838],[98.2020997,18.2969579],[98.2032236,18.293872],[98.2019843,18.294039],[98.201837,18.2914427],[98.1933293,18.28514],[98.1867755,18.2844519],[98.1812316,18.2862714],[98.1672014,18.2820643],[98.1616987,18.2837325],[98.1573515,18.2829612],[98.1527905,18.2863981],[98.1383869,18.281156],[98.1377082,18.2721702],[98.1355551,18.2681159],[98.1377313,18.262179],[98.1373492,18.2579486],[98.1428869,18.2522433],[98.1389775,18.2403852],[98.1422708,18.2379354],[98.1466222,18.2274586],[98.1504191,18.2244629],[98.1532525,18.2249569],[98.158352,18.2219276],[98.1661499,18.2247487],[98.1690123,18.2226784],[98.1698291,18.2202647],[98.167306,18.213979],[98.1661767,18.2046336],[98.1709477,18.2016549],[98.1760584,18.1920766],[98.1666043,18.1822465],[98.1657577,18.1732211],[98.1674204,18.1716696],[98.1670045,18.1682079],[98.1647003,18.1669698],[98.1589784,18.1675117],[98.1558222,18.1637224],[98.1577558,18.1574405],[98.159591,18.156267],[98.1584161,18.1554811],[98.1599892,18.1508001],[98.1626967,18.1496765],[98.1615131,18.1489744],[98.1623741,18.1459399],[98.164033,18.1432152],[98.1680337,18.1411997],[98.1628622,18.1338066],[98.163943,18.1283304],[98.1657475,18.1264832],[98.1643644,18.1228993],[98.1661779,18.1217605],[98.165417,18.1193679],[98.1705731,18.1163645],[98.1793744,18.1166611],[98.1819613,18.1128773],[98.1830958,18.1165044],[98.1867867,18.1152894],[98.18692,18.113615],[98.1906664,18.113961],[98.1901634,18.1100267],[98.1932563,18.1102528],[98.1916566,18.1083468],[98.1984029,18.1054349],[98.2013564,18.0999496],[98.2034522,18.0997917],[98.202399,18.0963474],[98.2040221,18.0966153],[98.2021914,18.094379],[98.2037294,18.0939232],[98.201705,18.0907278],[98.2062184,18.088327],[98.2142625,18.0872747],[98.2174685,18.0897467],[98.2196825,18.0886359],[98.223454,18.0901576],[98.2265485,18.0919537],[98.2256032,18.0955576],[98.2279442,18.095769],[98.2285429,18.0982457],[98.2302953,18.0987376],[98.2334774,18.0919118],[98.2285489,18.0885414],[98.2332062,18.0866291],[98.2330148,18.0890051],[98.2345361,18.0889116],[98.2376682,18.0858806],[98.2385978,18.0875856],[98.2426521,18.0879609],[98.2418866,18.0828191],[98.2437955,18.081004],[98.2411103,18.0791146],[98.247307,18.0759396],[98.249999,18.0794307],[98.2517029,18.0778918],[98.2539339,18.0791083],[98.2523999,18.0811328],[98.2555168,18.0815712],[98.2536017,18.0838021],[98.2560279,18.0838157],[98.256541,18.087727],[98.2589235,18.0841559],[98.2602201,18.0858363],[98.2723078,18.0871327],[98.2714899,18.0830564],[98.275981,18.0850068],[98.2818367,18.0820529],[98.2823026,18.0845702],[98.2867875,18.0849961],[98.2868634,18.0813437],[98.2894531,18.0782097],[98.2869896,18.0688717],[98.283622,18.0669906],[98.2826883,18.0606577],[98.2766707,18.0524784],[98.2726043,18.0484504],[98.2637528,18.0497301],[98.2569976,18.0369418],[98.2539715,18.0266317],[98.2430655,18.0192688],[98.2402996,18.0117003],[98.2448558,18.002805],[98.246195,17.9896198],[98.2433995,17.9901061],[98.2353286,17.9859497],[98.2330985,17.986901],[98.2298507,17.9855425],[98.2298711,17.9882037],[98.2267691,17.9903383],[98.2266719,17.9859047],[98.226118,17.9870295],[98.2180302,17.9848719],[98.2172363,17.9859278],[98.2119074,17.9811043],[98.2090276,17.9828602],[98.2080483,17.9819932],[98.2081487,17.9837368],[98.205462,17.9854335],[98.2044908,17.9818543],[98.1998553,17.982569],[98.1973183,17.9791213],[98.1925686,17.9795864],[98.1908346,17.9819915],[98.1890164,17.9781333],[98.1836568,17.9811549],[98.1846498,17.9784537],[98.1817574,17.9775486],[98.1798871,17.9718994],[98.1715202,17.9749311],[98.1665696,17.9719959],[98.1701294,17.9690006],[98.1615897,17.9704539],[98.1624838,17.9677888],[98.1581758,17.9641455],[98.1610227,17.9631613],[98.1603525,17.9616067],[98.1552979,17.9620882],[98.1558181,17.9605864],[98.1528116,17.9603182],[98.1551978,17.9584694],[98.1520232,17.9578403],[98.1541121,17.9555478],[98.1535787,17.9525477],[98.1501694,17.9530507],[98.1499687,17.9438495],[98.1485224,17.9425918],[98.1501842,17.940327],[98.1461044,17.9386646],[98.1436246,17.9354053],[98.1405959,17.9409139],[98.1327396,17.9434996],[98.134087,17.9443646],[98.1333834,17.9459637],[98.1291101,17.9439081],[98.1267897,17.9465784],[98.1222124,17.9460378],[98.1237151,17.9481163],[98.1209303,17.9505793],[98.1181187,17.9488416],[98.1103053,17.9543432],[98.1072263,17.9540692],[98.1025615,17.9570984],[98.1023193,17.9600379],[98.0998591,17.9602806],[98.0993126,17.9624737],[98.0946959,17.9615386],[98.0899929,17.9633421],[98.0859267,17.9597602],[98.0812839,17.9587657],[98.0799601,17.9564039],[98.0736196,17.9575453],[98.0678808,17.9546146],[98.0662424,17.9514406],[98.0631094,17.9517363],[98.062086,17.9498182],[98.0560107,17.9520273],[98.0527903,17.9495469],[98.052435,17.9465716],[98.0480074,17.945714],[98.0467722,17.9429979],[98.0437779,17.9451306],[98.0404854,17.9426856],[98.0346324,17.9425705],[98.0264923,17.9367116],[98.022762,17.936173],[98.0233705,17.9322148],[98.0188737,17.9300078],[98.0218195,17.9246527],[98.0167626,17.920119],[98.0146599,17.9194199],[98.0150793,17.9216289],[98.011937,17.9273349],[98.010917,17.9227529],[98.0080391,17.921877],[98.0112938,17.9200491],[98.0102944,17.9124163],[98.0115881,17.9087287],[98.0086809,17.9042076],[98.0103611,17.8958314],[98.0156777,17.8937673],[98.0200756,17.88856],[98.0269616,17.8885594],[98.0294873,17.8791167],[98.0324011,17.8761534],[98.0386425,17.8745085],[98.0477462,17.8686092],[98.0506708,17.871376],[98.0540986,17.8703861],[98.0595252,17.8576817],[98.0641495,17.8583587],[98.0696124,17.8533039],[98.0694107,17.8447424],[98.0727357,17.8380414],[98.0717552,17.8340408],[98.0732945,17.8291965],[98.0758328,17.8276295],[98.0829556,17.8165275],[98.0858205,17.8156971],[98.0878632,17.8083707],[98.1077122,17.7959019],[98.1086833,17.7934563],[98.1129868,17.7950618],[98.1147232,17.7984197],[98.1324645,17.7967266],[98.1351961,17.7893448],[98.1416336,17.7807724],[98.1472129,17.7766067],[98.1451334,17.7748981],[98.1422194,17.7637133],[98.14013,17.7612877],[98.1353115,17.7596508],[98.1398081,17.7489981],[98.1490785,17.745801],[98.1498158,17.7349318],[98.1534132,17.7297074],[98.149493,17.723451],[98.149183,17.7111913],[98.1508264,17.7005207],[98.1439855,17.6901567],[98.1453108,17.6831638],[98.1441433,17.6807132],[98.1395834,17.6780724],[98.1376087,17.6721147],[98.1339342,17.670645],[98.1330391,17.6665085],[98.12659,17.6638582],[98.126295,17.6602714],[98.1233312,17.657722],[98.1148593,17.6548272],[98.1145463,17.6519837],[98.1119698,17.6497234],[98.1084429,17.6515645],[98.1078738,17.6493806],[98.1052162,17.6487493],[98.1047394,17.6458483],[98.1015022,17.6467929],[98.099747,17.6442773],[98.1021479,17.642833],[98.0975625,17.6433161],[98.0947543,17.6374752],[98.0892146,17.6371783],[98.0930941,17.6330834],[98.0978304,17.6214322],[98.1015423,17.6226735],[98.0994834,17.6144812],[98.1071103,17.6112082],[98.104759,17.6082127],[98.1075067,17.6047251],[98.1041172,17.6036288],[98.1050549,17.6017826],[98.1030393,17.6003558],[98.1059806,17.5978156],[98.1057626,17.5949129],[98.1104702,17.5927306],[98.1061237,17.5876168],[98.1083346,17.5853218],[98.1087138,17.5820651],[98.1130838,17.5814287],[98.1114685,17.5786183],[98.1122521,17.5771646],[98.1153962,17.5761602],[98.1247321,17.567949],[98.1276133,17.5679297],[98.126273,17.5639526],[98.1273981,17.5608537],[98.1252339,17.55891],[98.1271694,17.5589535],[98.1266914,17.5574159],[98.1293872,17.5558806],[98.1288602,17.5526602],[98.1314042,17.5500133],[98.130903,17.5471509],[98.13598,17.5417293],[98.1424927,17.542608],[98.149499,17.5410485],[98.1674321,17.5477394],[98.1744607,17.5430963],[98.1784659,17.5372746],[98.180871,17.5389171],[98.1869715,17.5379089],[98.1886831,17.5405404],[98.1964221,17.5426003],[98.203379,17.5393808],[98.2089091,17.5401117],[98.2122416,17.5412515],[98.217813,17.5472432],[98.2261994,17.5457289],[98.2296072,17.5467052],[98.2329632,17.5500927],[98.2382825,17.5496604],[98.2412696,17.5560198],[98.2491436,17.5578831],[98.2497755,17.5652129],[98.2543811,17.5721533],[98.2617057,17.5741022],[98.2648249,17.5785766],[98.2701576,17.5801172],[98.2837352,17.575623],[98.28656,17.5764214],[98.2917882,17.57446],[98.2951405,17.5764058],[98.2980442,17.5753757],[98.3024524,17.566857],[98.301041,17.5617261],[98.298178,17.558223],[98.2982238,17.5540681],[98.3053226,17.5494101],[98.3078135,17.5425798],[98.3090006,17.5354203],[98.3058164,17.5339718],[98.3057734,17.5325575],[98.3143471,17.5273379],[98.3126786,17.5168537],[98.315479,17.5117485],[98.3152142,17.5051039],[98.319837,17.5006722],[98.3266273,17.4896873],[98.3296847,17.4695718],[98.3241869,17.4602409],[98.3235035,17.451626],[98.3194646,17.4449636],[98.3195117,17.4350771],[98.3262915,17.4292433],[98.3222679,17.4166506],[98.3088973,17.4135961],[98.3059688,17.4106981],[98.3034887,17.4132927],[98.2964019,17.4128726],[98.2917028,17.407443],[98.2942298,17.4056348],[98.2952299,17.4024923],[98.2991568,17.4000669],[98.302828,17.3919315],[98.314396,17.3815879],[98.3191921,17.3798548],[98.3209105,17.3758059],[98.317064,17.3725734],[98.3173877,17.3673883],[98.3197812,17.364282],[98.3233123,17.362853],[98.3235798,17.3594091],[98.3290208,17.3552914],[98.3341172,17.3479292],[98.3294182,17.3386564],[98.3321945,17.3296736],[98.328096,17.3260166],[98.3173668,17.3221252],[98.3216773,17.3180842],[98.3217043,17.3107231],[98.3271599,17.3067575],[98.3274877,17.3041785],[98.3397905,17.2958146],[98.3509289,17.2935891],[98.3563587,17.2887981],[98.3599861,17.2897536],[98.3625827,17.2884333],[98.358258,17.2835723],[98.3579721,17.2736432],[98.3616002,17.2701103],[98.3658621,17.2699872],[98.3701222,17.2675558],[98.3747521,17.2626253],[98.3777537,17.254629],[98.3836267,17.2495988],[98.3868677,17.2489925],[98.3917898,17.2422747],[98.398289,17.2521482],[98.4088795,17.2551978],[98.4138982,17.2522658],[98.4206523,17.2528037],[98.4279689,17.2575101],[98.4298723,17.2566484],[98.4309552,17.259048],[98.4351463,17.2607974],[98.4355417,17.266407],[98.4386827,17.265555],[98.4417115,17.2709986],[98.442705,17.2687177],[98.4450356,17.268254],[98.4498869,17.2720491],[98.4536706,17.2690049],[98.455503,17.2704063],[98.4557602,17.2732067],[98.4591237,17.2728005],[98.4606856,17.2759104],[98.4624875,17.2745392],[98.4649014,17.2764068],[98.4657941,17.2750169],[98.4742297,17.2748333],[98.4742675,17.2763255],[98.4786922,17.2775489],[98.4787892,17.2755977],[98.4819398,17.2731388],[98.4885915,17.2731556],[98.4898265,17.2703214],[98.4926029,17.2730894],[98.4943006,17.2718326],[98.4971548,17.2734636],[98.5023065,17.2800671],[98.5100634,17.2791762],[98.5179047,17.2815199],[98.5213767,17.2802358],[98.5234774,17.2773656],[98.532025,17.2745073],[98.5362266,17.2759105],[98.5382433,17.2789528],[98.5450036,17.283021],[98.5517598,17.2813793],[98.5607311,17.2839456],[98.5633942,17.2824142],[98.5669765,17.2854341],[98.5743942,17.2844957],[98.5755275,17.2913116],[98.5788542,17.2944018],[98.5777327,17.2998864],[98.5750651,17.2999081],[98.562843,17.292941],[98.5569677,17.2938373],[98.5569572,17.3046526],[98.5583833,17.3084927],[98.556149,17.3097164],[98.5557907,17.3143163],[98.5599577,17.3169351],[98.561108,17.3221238],[98.5584542,17.3256449],[98.5551567,17.338206],[98.5568299,17.3399025],[98.5572561,17.3453473],[98.5619097,17.3496198],[98.5619447,17.3518093],[98.5544138,17.3563192],[98.5480965,17.3538549],[98.542363,17.3565212],[98.5373709,17.3622204],[98.556142,17.3971303],[98.5542264,17.4088811],[98.5572644,17.4185831],[98.55765,17.4266064],[98.546159,17.433656],[98.5461714,17.4411828],[98.5475426,17.4433549],[98.5464974,17.4457829],[98.5404501,17.449297],[98.5374783,17.4484051],[98.5325662,17.4498849],[98.5283168,17.4536425],[98.5179797,17.4800331],[98.5196515,17.4864194],[98.5222546,17.4873014],[98.5243913,17.4959444],[98.5231961,17.5025258],[98.5187561,17.5114284],[98.5203908,17.5143687],[98.5245176,17.5152393],[98.5263398,17.5189724],[98.5242857,17.5223293],[98.5276009,17.5368341],[98.5343839,17.539315],[98.5381762,17.5444988],[98.5448114,17.5493596],[98.5496095,17.5592811],[98.554493,17.5616265],[98.5635402,17.5621772],[98.5663161,17.5670855],[98.5780039,17.5739441],[98.5781112,17.5753662],[98.5670157,17.5958848],[98.5493961,17.6124396],[98.5429853,17.6152625],[98.5347262,17.6159044]]]}}]}