{"type":"FeatureCollection","features":[{"type":"Feature","properties":{"id":"TH-LAO-3500102","nameTh":"เชียงใหม่","type":"city_municipality"},"geometry":{"type":"Polygon","coordinates":[[[98.985417,18.8441696],[98.9860725,18.8430212],[98.989284,18.840339],[98.992272,18.8331854],[98.996526,18.8304691],[98.9977813,18.8287834],[98.9977813,18.827514],[98.9972985,18.8264376],[98.9955068,18.8242645],[98.9951634,18.8226701],[98.9961827,18.8208219],[98.9987361,18.8188112],[99.0018046,18.8150943],[99.0027434,18.8133323],[99.0034783,18.8103871],[99.0104574,18.8098895],[99.0126058,18.8094096],[99.0148964,18.8083128],[99.016369,18.8071499],[99.0186551,18.8038572],[99.0198554,18.8047057],[99.0198344,18.8010791],[99.0228224,18.7939644],[99.0256119,18.7889722],[99.0267116,18.7859657],[99.0298122,18.7642988],[99.0137887,18.7590086],[99.0019763,18.7567216],[99.0009704,18.7568752],[98.9909229,18.7651369],[98.9763585,18.7677755],[98.9761358,18.7699723],[98.9734214,18.77143],[98.9707661,18.7720191],[98.9707714,18.7729131],[98.9727187,18.7729131],[98.9728045,18.7732991],[98.973341,18.7734616],[98.9737809,18.7758487],[98.9757818,18.7766156],[98.9760232,18.7770524],[98.9753178,18.7792567],[98.9759615,18.7837361],[98.9757442,18.7860546],[98.9728796,18.7863872],[98.9727777,18.7844065],[98.9732337,18.7831978],[98.9722413,18.7834111],[98.9716619,18.7815624],[98.9706534,18.7816437],[98.970243,18.7835635],[98.9651361,18.7835368],[98.9628187,18.787022],[98.9591145,18.7868443],[98.9605214,18.7909566],[98.950561,18.7940558],[98.946079,18.7950765],[98.9459181,18.7986466],[98.9426458,18.7976919],[98.9441264,18.8014853],[98.9432466,18.8041209],[98.945843,18.8035318],[98.9453548,18.8067615],[98.9463955,18.8102805],[98.9474094,18.8111793],[98.9476508,18.8107578],[98.9488363,18.8107273],[98.9520979,18.8097828],[98.9677674,18.8015107],[98.9696047,18.8048572],[98.9733624,18.8084651],[98.9777157,18.8107553],[98.9820582,18.8117556],[98.9788234,18.8200831],[98.9767581,18.8278821],[98.9709353,18.8418593],[98.9727641,18.8425094],[98.9731496,18.8415873],[98.9752607,18.8424538],[98.9756262,18.8418114],[98.9766991,18.8415575],[98.9776647,18.8404558],[98.985417,18.8441696]]]}},{"type":"Feature","properties":{"id":"TH-LAO-4501401","nameTh":"แม่โจ้","type":"town_municipality"},"geometry":{"type":"Polygon","coordinates":[[[99.0315526,18.8705444],[99.0318036,18.8708896],[99.0321971,18.8708432],[99.0322695,18.8717999],[99.035346,18.8738086],[99.0360736,18.873375],[99.0361126,18.8729347],[99.0366664,18.8729681],[99.0369453,18.873495],[99.0375798,18.8734745],[99.0381598,18.8747691],[99.0387882,18.8747079],[99.0398459,18.876255],[99.0404879,18.8761357],[99.0413497,18.8771026],[99.0427736,18.8770622],[99.0440036,18.8762477],[99.0445777,18.8767655],[99.0344231,18.8860922],[99.0352882,18.8892742],[99.0334124,18.8944614],[99.0288709,18.8927861],[99.0276668,18.8931487],[99.026725,18.8943862],[99.0260063,18.8947374],[99.0253523,18.8945296],[99.0245715,18.8934939],[99.0238291,18.8933927],[99.0230953,18.8939205],[99.0214108,18.8967424],[99.0192071,18.8981391],[99.018881,18.8988842],[99.0197867,18.9011159],[99.019704,18.9017899],[99.0149588,18.9049371],[99.0137224,18.9073024],[99.012377,18.908698],[99.0113794,18.9143272],[99.0114673,18.9151481],[99.0124121,18.9168795],[99.0121391,18.9180483],[99.0116335,18.9184537],[99.0105886,18.9183424],[99.0092937,18.9168437],[99.0079906,18.9165445],[99.006163,18.917634],[99.0046111,18.9178087],[99.001944,18.9190416],[99.0010342,18.9201539],[99.0009516,18.9239948],[99.0004373,18.9254463],[98.9969204,18.9290711],[98.9964452,18.930268],[98.9971094,18.9327296],[98.9970954,18.9356005],[98.995709,18.9384692],[98.9875846,18.9359942],[98.9863851,18.9361505],[98.9829094,18.9356613],[98.9826825,18.9355156],[98.9832989,18.9347638],[98.9816077,18.9347897],[98.9809811,18.9342361],[98.9804566,18.9327427],[98.9808675,18.931817],[98.9804247,18.9310987],[98.9809772,18.929913],[98.9804631,18.9293073],[98.9807862,18.9289418],[98.980385,18.9277869],[98.980868,18.9246316],[98.9810451,18.924358],[98.9828178,18.9240478],[98.9835675,18.9223815],[98.9848658,18.9217689],[98.9849615,18.9200215],[98.9854123,18.9196269],[98.9855701,18.9181638],[98.9868836,18.9150146],[98.9868535,18.9143797],[98.988587,18.9127428],[98.9896064,18.9111374],[98.9914068,18.9098648],[98.9939885,18.906556],[98.9951285,18.9003753],[98.9942904,18.899335],[98.9946291,18.8984735],[98.9944041,18.8962589],[98.992363,18.8952936],[98.9918189,18.8944025],[98.9930904,18.8929527],[98.9932799,18.8915823],[98.9940903,18.8911597],[98.9945005,18.890352],[98.9956832,18.8897432],[98.9957504,18.8890574],[98.9966644,18.8894661],[98.9971878,18.8884478],[98.9978681,18.8883726],[98.9979359,18.8870463],[98.9982885,18.8864293],[98.9990296,18.8861199],[98.9991578,18.8855936],[99.0005856,18.8841477],[98.9998767,18.8832921],[99.0003183,18.8828366],[99.0011746,18.8805117],[98.9995343,18.8794943],[98.9994476,18.8791304],[98.9998862,18.878628],[98.9993122,18.8777683],[99.0000256,18.8748321],[99.001117,18.8735894],[99.0008489,18.8723055],[99.0155364,18.8711994],[99.0315526,18.8705444]]]}},{"type":"Feature","properties":{"id":"TH-LAO-4500103","nameTh":"แม่เหียะ","type":"town_municipality"},"geometry":{"type":"Polygon","coordinates":[[[98.9702561,18.7362276],[98.970977,18.7399416],[98.9713707,18.7406396],[98.9714241,18.7422342],[98.9737721,18.7551531],[98.9736319,18.7564235],[98.9686611,18.7566038],[98.9706791,18.7595491],[98.9668134,18.7583128],[98.9605697,18.7572531],[98.9594199,18.7576504],[98.958763,18.7574083],[98.9589302,18.7564242],[98.9584431,18.7558009],[98.9568834,18.7547363],[98.9557217,18.7547441],[98.9543297,18.7572892],[98.9466322,18.7577059],[98.9463231,18.7572425],[98.9436184,18.7574303],[98.9433272,18.7568745],[98.941454,18.7564243],[98.94093,18.7568027],[98.941273,18.7580228],[98.9379736,18.7594832],[98.9374004,18.7602011],[98.9343057,18.7615193],[98.9338394,18.7620569],[98.9312902,18.7634317],[98.9297344,18.7634806],[98.922159,18.7658428],[98.915449,18.7670339],[98.8925042,18.7659762],[98.8939149,18.7649016],[98.8952318,18.7630114],[98.8943261,18.7587604],[98.8943878,18.7577126],[98.89526,18.7556298],[98.8951826,18.751531],[98.8954959,18.7496565],[98.8976073,18.7464681],[98.8994456,18.744853],[98.9003143,18.7446109],[98.9027226,18.7449416],[98.9036585,18.7457001],[98.904314,18.7477857],[98.9064522,18.7485045],[98.9087248,18.7478458],[98.9098435,18.7463646],[98.9115815,18.7456361],[98.9135512,18.7432408],[98.9144141,18.7428939],[98.9161761,18.7427442],[98.9181986,18.7437336],[98.9205205,18.7436953],[98.9234099,18.7425086],[98.9240931,18.7414553],[98.9268972,18.7416123],[98.9287439,18.7425074],[98.9289989,18.7440072],[98.9295042,18.7443831],[98.9303326,18.7435938],[98.9306934,18.7422901],[98.9321908,18.7411655],[98.9346264,18.7419645],[98.9352223,18.7416455],[98.936687,18.7424724],[98.9369981,18.7420883],[98.9370589,18.7407934],[98.9383243,18.7386032],[98.9381523,18.7374348],[98.9409695,18.735884],[98.9427521,18.7339495],[98.9456459,18.7323257],[98.9485891,18.7344474],[98.9516122,18.7350458],[98.9522168,18.7341679],[98.952941,18.7340646],[98.9531475,18.7333566],[98.9573197,18.7324906],[98.9579955,18.7317337],[98.9588104,18.7314419],[98.9589307,18.7307932],[98.9598482,18.7307136],[98.9608675,18.7310781],[98.9614683,18.7307868],[98.9633869,18.7307907],[98.9643853,18.7316295],[98.9647648,18.7325305],[98.9663494,18.7320194],[98.9686019,18.7330981],[98.969343,18.7331678],[98.9699452,18.7344271],[98.9699267,18.735735],[98.9702561,18.7362276]]]}},{"type":"Feature","properties":{"id":"TH-LAO-5500105","nameTh":"ช้างเผือก","type":"subdistrict_municipality"},"geometry":{"type":"Polygon","coordinates":[[[98.9467565,18.8145661],[98.9464304,18.812933],[98.947522,18.8108238],[98.9520979,18.8097828],[98.9677674,18.8015107],[98.9696047,18.8048572],[98.9733624,18.8084651],[98.9777157,18.8107553],[98.9820582,18.8117556],[98.980041,18.8168896],[98.9771913,18.8174676],[98.9643091,18.8229486],[98.9522371,18.8268863],[98.9509604,18.8209368],[98.9510515,18.8190208],[98.9500896,18.8174263],[98.9503647,18.8164684],[98.9478066,18.8159686],[98.9473536,18.8149659],[98.9467565,18.8145661]]]}},{"type":"Feature","properties":{"id":"TH-LAO-6500112","nameTh":"ช้างเผือก","type":"subdistrict_admin_org"},"geometry":{"type":"Polygon","coordinates":[[[98.980041,18.8168896],[98.9788234,18.8200831],[98.9767581,18.8278821],[98.9709353,18.8418593],[98.9650193,18.8397564],[98.9635267,18.8334587],[98.9616313,18.8338858],[98.9586519,18.8354869],[98.9572141,18.8370177],[98.9547196,18.8375195],[98.9531175,18.8374871],[98.9527241,18.8378844],[98.9528417,18.8387529],[98.9525512,18.8396099],[98.9518333,18.8403601],[98.9501178,18.8411658],[98.9489475,18.8400572],[98.9482648,18.8398526],[98.9446727,18.8402296],[98.942525,18.8415281],[98.9416567,18.8412462],[98.9411858,18.8415686],[98.9397018,18.8395918],[98.9389681,18.8391855],[98.9333501,18.8387703],[98.9316093,18.8393783],[98.9303001,18.8394746],[98.9267525,18.8379251],[98.9260251,18.837048],[98.9251745,18.8378894],[98.9208801,18.8381399],[98.9186113,18.8397796],[98.9145312,18.8389663],[98.9136151,18.8381461],[98.9126132,18.83442],[98.9114012,18.8343352],[98.9108478,18.8338583],[98.9088243,18.8333514],[98.9068389,18.8335365],[98.905417,18.8323524],[98.9047215,18.8322032],[98.9035724,18.8324557],[98.9023537,18.8349433],[98.9011874,18.835276],[98.899541,18.8368551],[98.8986447,18.8369156],[98.896259,18.8349115],[98.8942478,18.8337871],[98.889149,18.8320952],[98.8880757,18.8320539],[98.8960246,18.8317946],[98.8990882,18.8303039],[98.8981927,18.8277492],[98.8926415,18.8237622],[98.8910632,18.8232068],[98.8910117,18.8228819],[98.8927626,18.8214602],[98.8930115,18.8200384],[98.8928141,18.8185842],[98.8931145,18.8183648],[98.8958354,18.8185192],[98.8964619,18.8188361],[98.8973632,18.8186979],[98.8973975,18.818243],[98.8959298,18.8167075],[98.8963675,18.8160819],[98.8976654,18.815287],[98.9023447,18.815673],[98.9072947,18.8174483],[98.9109168,18.8156934],[98.9188647,18.8154009],[98.9256968,18.8161321],[98.9325461,18.8150922],[98.9346576,18.8118749],[98.9360137,18.8113712],[98.9364257,18.8119236],[98.9366317,18.8133536],[98.9378079,18.8142341],[98.9390623,18.8129852],[98.9404465,18.8139167],[98.9417009,18.8126474],[98.9426177,18.8131735],[98.942662,18.8148307],[98.9432615,18.8153917],[98.9434522,18.816891],[98.9448522,18.8183451],[98.9455164,18.8181065],[98.9455232,18.8163493],[98.9463874,18.8161422],[98.9468509,18.8155572],[98.9467565,18.8145661],[98.9473536,18.8149659],[98.9478066,18.8159686],[98.9503647,18.8164684],[98.9500896,18.8174263],[98.9510515,18.8190208],[98.9509604,18.8209368],[98.9522371,18.8268863],[98.9643091,18.8229486],[98.9771913,18.8174676],[98.980041,18.8168896]]]}},{"type":"Feature","properties":{"id":"TH-LAO-5500104","nameTh":"หนองป่าครั่ง","type":"subdistrict_municipality"},"geometry":{"type":"Polygon","coordinates":[[[99.0198554,18.8047057],[99.0239848,18.8076889],[99.0250469,18.8067165],[99.0261624,18.8072133],[99.0270107,18.8053693],[99.02607,18.8012337],[99.0269927,18.7998549],[99.0270119,18.798865],[99.027517,18.7979582],[99.0269028,18.7972501],[99.0278739,18.7968618],[99.0283971,18.7958936],[99.0300423,18.7946953],[99.0304792,18.792692],[99.0308823,18.7926536],[99.0313906,18.7932717],[99.0367492,18.7943292],[99.036982,18.7939486],[99.0387667,18.7933641],[99.0394181,18.7915615],[99.0404047,18.7908075],[99.0412828,18.789553],[99.0423166,18.7892247],[99.0423721,18.7883422],[99.0430511,18.7876563],[99.0431807,18.7858576],[99.0440933,18.785102],[99.0441275,18.7839257],[99.0459533,18.7809136],[99.0455791,18.7797169],[99.0271514,18.7834961],[99.0267116,18.7859657],[99.0256119,18.7889722],[99.0228224,18.7939644],[99.0198344,18.8010791],[99.0198554,18.8047057]]]}},{"type":"Feature","properties":{"id":"TH-LAO-5501405","nameTh":"สันพระเนตร","type":"subdistrict_municipality"},"geometry":{"type":"Polygon","coordinates":[[[99.0334214,18.8148005],[99.0335679,18.8129529],[99.0326412,18.8126735],[99.0321815,18.8106038],[99.0316512,18.8103795],[99.0310434,18.808904],[99.0305601,18.8086476],[99.0304153,18.8080552],[99.0299413,18.8080044],[99.0298035,18.8073943],[99.0298259,18.8064941],[99.030439,18.805902],[99.0301232,18.8054646],[99.0302727,18.8049746],[99.0312624,18.8038726],[99.0313104,18.8029704],[99.0320036,18.8020459],[99.0320283,18.8012204],[99.0311401,18.8010232],[99.0310507,18.8007578],[99.0322538,18.7974787],[99.0319857,18.796507],[99.0327624,18.7952408],[99.0322464,18.7946317],[99.0325379,18.7933386],[99.0367492,18.7943292],[99.036982,18.7939486],[99.0387572,18.7933547],[99.0389467,18.7940142],[99.0384351,18.7952002],[99.0390833,18.7962552],[99.0391633,18.7974748],[99.0400757,18.7976439],[99.0415189,18.7987701],[99.0472268,18.7993148],[99.0486898,18.7986422],[99.0498268,18.7986088],[99.0496148,18.7975664],[99.050098,18.7974658],[99.050846,18.7956768],[99.0514821,18.7950852],[99.0515274,18.7927568],[99.0522827,18.7926286],[99.0525376,18.7917098],[99.0530616,18.7916286],[99.0543269,18.7905103],[99.0551569,18.7896561],[99.0551465,18.7892235],[99.056176,18.7892129],[99.0561315,18.7902009],[99.0565641,18.7905109],[99.0567625,18.7912996],[99.057474,18.7915767],[99.0566183,18.7932367],[99.0570074,18.7943362],[99.0564623,18.7952592],[99.0567183,18.7974088],[99.0573974,18.7979833],[99.0560031,18.7986758],[99.0558982,18.8001388],[99.0562232,18.8009217],[99.0549564,18.8013902],[99.054863,18.8020423],[99.0543291,18.8021175],[99.0542471,18.8030282],[99.0545118,18.803532],[99.0555889,18.8039456],[99.0551356,18.8045216],[99.0563453,18.8056189],[99.0549852,18.806735],[99.0541349,18.8068792],[99.0538525,18.8100284],[99.053949,18.8162727],[99.05359,18.8165247],[99.0528719,18.816345],[99.0518894,18.8170471],[99.0511694,18.8181806],[99.0496684,18.8187671],[99.0500195,18.8195334],[99.0487362,18.8202057],[99.0487039,18.8219015],[99.0480269,18.8227368],[99.0478591,18.8236015],[99.0479706,18.8263532],[99.0334214,18.8148005]]]}},{"type":"Feature","properties":{"id":"TH-LAO-5501402","nameTh":"สันทรายหลวง","type":"subdistrict_municipality"},"geometry":{"type":"Polygon","coordinates":[[[99.0172299,18.8241207],[99.0170438,18.8232134],[99.0174614,18.8226339],[99.0165921,18.8226259],[99.0156104,18.8216367],[99.0147411,18.8212532],[99.0144378,18.8203931],[99.0147092,18.8200115],[99.0157438,18.8199933],[99.016278,18.8188061],[99.0161061,18.8172556],[99.0173484,18.8167427],[99.0165194,18.8161209],[99.0166508,18.8153941],[99.017202,18.8152446],[99.0177554,18.8157756],[99.0187137,18.8158885],[99.019532,18.8154483],[99.0194449,18.8141764],[99.0179587,18.813193],[99.0188065,18.8117034],[99.0185011,18.8108492],[99.0186368,18.8102175],[99.019594,18.8092267],[99.0205211,18.8094779],[99.0214784,18.8090184],[99.0226317,18.8089213],[99.0250469,18.8067165],[99.0259234,18.8072437],[99.02627,18.8070957],[99.0270107,18.8053693],[99.0260893,18.8009376],[99.0269927,18.7998549],[99.0270119,18.798865],[99.027517,18.7979582],[99.0269028,18.7972501],[99.0278739,18.7968618],[99.0283971,18.7958936],[99.0300423,18.7946953],[99.0304646,18.7926968],[99.0308823,18.7926536],[99.0313906,18.7932717],[99.0325379,18.7933386],[99.0322464,18.7946317],[99.0327624,18.7952408],[99.0319857,18.796507],[99.0322538,18.7974787],[99.0310507,18.8007578],[99.0311401,18.8010232],[99.0320283,18.8012204],[99.0320036,18.8020459],[99.0313104,18.8029704],[99.0312624,18.8038726],[99.0302727,18.8049746],[99.0301232,18.8054646],[99.030439,18.805902],[99.0298259,18.8064941],[99.0299086,18.8079513],[99.0304153,18.8080552],[99.0305601,18.8086476],[99.0310434,18.808904],[99.0312583,18.8098267],[99.0321815,18.8106038],[99.0326412,18.8126735],[99.0335679,18.8129529],[99.0334214,18.8148005],[99.0479706,18.8263532],[99.0483797,18.8273385],[99.0478488,18.8291039],[99.0479885,18.8294615],[99.0471037,18.8298567],[99.0469445,18.8308215],[99.0479256,18.833788],[99.0477121,18.8374353],[99.0479643,18.8378817],[99.048821,18.8379067],[99.0487579,18.838303],[99.048128,18.8397999],[99.047096,18.8401557],[99.0466465,18.8405426],[99.0468005,18.8409276],[99.0450647,18.8414814],[99.0455581,18.8418982],[99.0448782,18.8422773],[99.0458826,18.8430807],[99.0477775,18.8430544],[99.048817,18.8448464],[99.0493846,18.8447575],[99.0513146,18.8495022],[99.0525669,18.8493018],[99.0530812,18.8507734],[99.0541606,18.8506291],[99.0554595,18.8523508],[99.0568806,18.853326],[99.0592248,18.8538613],[99.0614537,18.8556753],[99.0629687,18.8555616],[99.0636498,18.8561037],[99.0605202,18.878398],[99.0581921,18.877464],[99.0571693,18.8764432],[99.0547692,18.8761161],[99.0477348,18.8801705],[99.0470945,18.8799512],[99.0461328,18.8778027],[99.0440036,18.8762477],[99.0427736,18.8770622],[99.0413497,18.8771026],[99.0404879,18.8761357],[99.0398459,18.876255],[99.0387882,18.8747079],[99.0381598,18.8747691],[99.0375798,18.8734745],[99.0369453,18.873495],[99.0366664,18.8729681],[99.0361126,18.8729347],[99.0360736,18.873375],[99.0354646,18.8738555],[99.0321854,18.8717137],[99.0321971,18.8708432],[99.0318036,18.8708896],[99.0313845,18.8702252],[99.0328011,18.8681944],[99.0323317,18.8676182],[99.0321305,18.8658796],[99.0310094,18.8653695],[99.030371,18.8642705],[99.0294888,18.8644966],[99.0288316,18.8640068],[99.0286414,18.8644125],[99.0281022,18.8643979],[99.0278804,18.8636792],[99.0269156,18.8632533],[99.0269086,18.8623725],[99.0261512,18.8620844],[99.0269341,18.8614571],[99.0276379,18.860201],[99.0285593,18.85984],[99.0295471,18.8589081],[99.0289421,18.857935],[99.0292969,18.8578404],[99.0292802,18.8571034],[99.029899,18.8567507],[99.0298121,18.8564965],[99.0336279,18.8560722],[99.0344428,18.8555125],[99.0344128,18.8552384],[99.0359964,18.8547693],[99.0365693,18.8549013],[99.0369963,18.8545724],[99.0368355,18.8534122],[99.037172,18.8527823],[99.0363994,18.8522509],[99.0371204,18.851595],[99.037203,18.8500366],[99.0384548,18.8498669],[99.0387876,18.8491912],[99.038407,18.8488088],[99.0381664,18.8476941],[99.0378257,18.84778],[99.0365745,18.8452352],[99.0357887,18.8449098],[99.0352335,18.8437009],[99.0336731,18.8437522],[99.0331281,18.8433702],[99.0323956,18.8419565],[99.0299159,18.8413375],[99.0293452,18.8394239],[99.0286411,18.8390864],[99.0278482,18.8370745],[99.0263275,18.8348757],[99.0263504,18.8338752],[99.0241018,18.8320299],[99.0235279,18.8291578],[99.0238175,18.828143],[99.0224218,18.8268744],[99.0206005,18.825796],[99.018351,18.8251383],[99.0172299,18.8241207]]]}},{"type":"Feature","properties":{"id":"TH-LAO-5500108","nameTh":"หนองหอย","type":"subdistrict_municipality"},"geometry":{"type":"Polygon","coordinates":[[[98.9949826,18.7544825],[98.9953897,18.7552151],[98.9954833,18.757655],[98.9971476,18.7600888],[99.0001309,18.7573705],[99.0019763,18.7567216],[99.0150359,18.7593388],[99.0251997,18.7628868],[99.0256397,18.7606233],[99.0247153,18.7574955],[99.0251608,18.7554738],[99.02565,18.7554074],[99.0273243,18.7539747],[99.0289227,18.7531129],[99.0294368,18.7512021],[99.0288897,18.7499763],[99.027929,18.7496224],[99.0250088,18.749481],[99.0221813,18.7483384],[99.020312,18.7479782],[99.020184,18.7470212],[99.0205227,18.7462827],[99.0202933,18.7447701],[99.0166141,18.746804],[99.0149855,18.7469145],[99.011229,18.7494455],[99.0092489,18.7486713],[99.0014485,18.7508238],[98.9981211,18.7546433],[98.9974115,18.754191],[98.9949826,18.7544825]]]}},{"type":"Feature","properties":{"id":"TH-LAO-5500109","nameTh":"ท่าศาลา","type":"subdistrict_municipality"},"geometry":{"type":"Polygon","coordinates":[[[99.0251997,18.7628868],[99.0256397,18.7606233],[99.0247153,18.7574955],[99.0251608,18.7554738],[99.02565,18.7554074],[99.0273243,18.7539747],[99.0289227,18.7531129],[99.0294368,18.7512021],[99.0302977,18.7542732],[99.0309055,18.7551331],[99.0340089,18.7575135],[99.035689,18.759782],[99.037499,18.7590553],[99.038085,18.7600402],[99.0415881,18.7608631],[99.0418968,18.7620397],[99.0433082,18.7620074],[99.0437293,18.763547],[99.0450683,18.7645344],[99.0450241,18.765607],[99.0441843,18.7676753],[99.0453394,18.7680737],[99.0462486,18.7680108],[99.0463664,18.7684302],[99.0468427,18.768385],[99.046889,18.768689],[99.0485707,18.7688672],[99.0485362,18.7697447],[99.0473708,18.7722135],[99.0472655,18.7732786],[99.0464883,18.7743941],[99.0468106,18.777091],[99.0455791,18.7797169],[99.0271514,18.7834961],[99.0298122,18.7642988],[99.0251997,18.7628868]]]}},{"type":"Feature","properties":{"id":"TH-LAO-5500106","nameTh":"ป่าแดด","type":"subdistrict_municipality"},"geometry":{"type":"Polygon","coordinates":[[[98.9949826,18.7544825],[98.9953897,18.7552151],[98.9954833,18.757655],[98.9971476,18.7600888],[98.9913252,18.7648778],[98.9763585,18.7677755],[98.9686611,18.7566038],[98.9736319,18.7564235],[98.9737721,18.7551531],[98.9714241,18.7422342],[98.9713707,18.7406396],[98.9701545,18.7363872],[98.9704048,18.7358295],[98.9716488,18.7354276],[98.9737431,18.7355035],[98.9769736,18.7346211],[98.9775797,18.7347301],[98.977605,18.7351261],[98.9782678,18.7350562],[98.9785676,18.733845],[98.9779555,18.7332413],[98.9779771,18.7320464],[98.9789661,18.7306313],[98.9799335,18.7304397],[98.9800064,18.7295384],[98.9810338,18.7286943],[98.9813678,18.7275238],[98.9814964,18.7263125],[98.9795949,18.7211334],[98.9797748,18.7201959],[98.9794912,18.7180188],[98.9798698,18.7165494],[98.9787253,18.7141198],[98.9789714,18.7133536],[98.9784275,18.7125061],[98.9779246,18.7104885],[98.9776131,18.7101812],[98.9766212,18.7105005],[98.9770968,18.7092262],[98.9762185,18.7064959],[98.9767271,18.7033279],[98.9785847,18.7026046],[98.9793468,18.7007468],[98.9792481,18.7000993],[98.9830236,18.7008911],[98.9837665,18.6998039],[98.9846659,18.6991899],[98.9862398,18.6993561],[98.9841879,18.7024013],[98.9843786,18.7054625],[98.9829427,18.7082859],[98.9826671,18.7094551],[98.9831261,18.7107277],[98.9853629,18.7128913],[98.9871656,18.7165103],[98.9864209,18.7217469],[98.9872642,18.7261364],[98.9887056,18.7288315],[98.9878515,18.7302511],[98.9878695,18.7314053],[98.9890755,18.7335918],[98.9884303,18.7350807],[98.9870083,18.7359159],[98.9868267,18.7373778],[98.9873114,18.7380634],[98.989385,18.7394492],[98.9895809,18.7407887],[98.9889589,18.7413245],[98.9883495,18.7431104],[98.9901453,18.7452715],[98.9906594,18.7469315],[98.9903666,18.7477342],[98.9907379,18.7484213],[98.990395,18.7499452],[98.9904235,18.7518977],[98.9911875,18.7525644],[98.9914327,18.7533708],[98.9949826,18.7544825]]]}}]}