{"type":"FeatureCollection","features":[{"type":"Feature","properties":{"provinceCode":"13","nameTh":"ปทุมธานี","nameEn":"Pathum Thani"},"geometry":{"type":"Polygon","coordinates":[[[100.6868292,13.9162736],[100.7526675,13.9184792],[100.7925452,13.9315608],[100.9141408,13.9462063],[100.9140203,14.2215155],[100.9466119,14.2372244],[100.9455582,14.2496252],[100.9494803,14.2548914],[100.9483361,14.2575909],[100.9508867,14.2599821],[100.9499586,14.2664479],[100.9516557,14.2720003],[100.8915769,14.2436202],[100.891523,14.2760439],[100.8231236,14.2433866],[100.8231256,14.2455593],[100.8212008,14.2425134],[100.6933331,14.1817468],[100.6208181,14.1437291],[100.6197289,14.1431055],[100.6198515,14.1297766],[100.6130343,14.130765],[100.6073883,14.1356887],[100.6022448,14.1351126],[100.5974635,14.1323162],[100.5818085,14.1285273],[100.5734222,14.1224423],[100.5629535,14.1223389],[100.560321,14.1179772],[100.5549921,14.119738],[100.5519109,14.117897],[100.5540843,14.1149889],[100.553483,14.1111848],[100.5493849,14.1103576],[100.5456712,14.1145443],[100.5297303,14.1203033],[100.5251727,14.124259],[100.5215145,14.1314918],[100.5001599,14.1158183],[100.4992282,14.108244],[100.4967804,14.1075305],[100.4963636,14.1088059],[100.4908054,14.1082424],[100.488891,14.1126714],[100.4758308,14.1105641],[100.4702242,14.1125742],[100.4516995,14.1105748],[100.4467264,14.1162195],[100.4282462,14.1156576],[100.4172228,14.1131657],[100.4057778,14.1159658],[100.3697752,14.1162569],[100.3534776,14.1191081],[100.3448072,14.1169226],[100.3406585,14.0938638],[100.3323873,14.0668355],[100.3317111,14.0557907],[100.3366743,14.0377492],[100.3451803,14.0192244],[100.3545116,14.0027264],[100.3634346,13.9929468],[100.3851272,13.9878442],[100.3855605,13.9901696],[100.3810888,13.9948071],[100.4347991,13.9811654],[100.4526227,13.9679382],[100.4565855,13.9710078],[100.4577587,13.9773017],[100.4606471,13.976436],[100.4622653,13.9716732],[100.4672101,13.9728995],[100.4668741,13.9687231],[100.4861783,13.9501754],[100.4891012,13.9424207],[100.501809,13.9362612],[100.5083692,13.9430848],[100.5309633,13.9448831],[100.5376685,13.9506984],[100.5393757,13.9557869],[100.542022,13.9555827],[100.5421022,13.9536213],[100.5442558,13.954464],[100.5446404,13.9529257],[100.5613711,13.9494589],[100.5665666,13.9503692],[100.574005,13.9546099],[100.5899958,13.9509244],[100.6057013,13.9440959],[100.6044037,13.9534211],[100.6128168,13.9551693],[100.6245989,13.9487696],[100.6248299,13.9379817],[100.6397807,13.9373707],[100.6396316,13.9323762],[100.6408959,13.9314009],[100.6897725,13.9310455],[100.6868292,13.9162736]]]}}]}