{"type":"FeatureCollection","features":[{"type":"Feature","properties":{"id":"TH-LAO-5130105","nameTh":"บางเดื่อ","type":"subdistrict_municipality"},"geometry":{"type":"Polygon","coordinates":[[[100.4688929,13.9979424],[100.4693495,13.9977308],[100.4688415,13.9900544],[100.4716417,13.9896275],[100.4719501,13.9889639],[100.473538,13.9878057],[100.4726288,13.986572],[100.4738472,13.985481],[100.4758202,13.9846215],[100.4792373,13.9835758],[100.4801163,13.9840986],[100.4794013,13.9845575],[100.4807599,13.985298],[100.4802945,13.9858693],[100.4822445,13.9878551],[100.4828721,13.986939],[100.4837519,13.9872617],[100.4838784,13.9866475],[100.4853348,13.9872069],[100.4887783,13.9875064],[100.4914659,13.9869129],[100.492048,13.9889456],[100.4936358,13.9891851],[100.4936117,13.9886906],[100.4950601,13.9888155],[100.4951137,13.9873528],[100.4972179,13.9873229],[100.4972738,13.9863178],[100.4982197,13.9864184],[100.4984826,13.9854554],[100.4988849,13.9855179],[100.5007538,13.9841024],[100.503598,13.9834167],[100.5037558,13.9818637],[100.5056977,13.978048],[100.5066928,13.9752767],[100.5074331,13.9745551],[100.5090559,13.9747893],[100.5092812,13.9742037],[100.5110648,13.9747112],[100.5116066,13.9745967],[100.5119071,13.9735425],[100.5123832,13.9736239],[100.5125186,13.9731808],[100.5142895,13.9730702],[100.5143096,13.9733766],[100.5152431,13.9734372],[100.5154405,13.9739915],[100.5165675,13.9744159],[100.5164795,13.9747464],[100.5168517,13.974853],[100.5171125,13.9744131],[100.5180272,13.9744826],[100.5181653,13.9736011],[100.523926,13.9741674],[100.5238826,13.9745855],[100.5248647,13.9747909],[100.5255278,13.9747842],[100.5256478,13.974509],[100.5281296,13.9750059],[100.5266823,13.9792689],[100.5264795,13.9820875],[100.5267029,13.9835466],[100.513055,13.9854632],[100.5135526,13.9891043],[100.5154234,13.9944364],[100.5147524,13.9954758],[100.5132933,13.995861],[100.5126281,13.9963711],[100.5107613,13.9962982],[100.5106325,13.99736],[100.5084224,13.9988071],[100.5078109,13.9997336],[100.504957,13.9994109],[100.503294,13.998172],[100.4984875,13.9974537],[100.4961271,13.9998689],[100.4955049,14.0001187],[100.4906018,13.9986405],[100.4890247,13.9985468],[100.487587,13.9991506],[100.4856343,13.9982033],[100.4850764,13.9990257],[100.4808922,14.0007433],[100.4794331,14.0022944],[100.4781134,14.0044805],[100.4720624,14.0085196],[100.4603899,14.011351],[100.4502727,14.0154575],[100.4489905,14.0108824],[100.4486484,14.0080282],[100.4489288,14.0078974],[100.448218,14.0048968],[100.4515395,14.0042816],[100.4512991,14.0036746],[100.4575279,14.0002877],[100.4576603,14.0005583],[100.4593441,13.9998221],[100.4601694,14.0018496],[100.4644346,14.0001238],[100.4643756,13.9998922],[100.4682112,13.9989006],[100.4684606,13.9994914],[100.4695422,13.9990434],[100.4688929,13.9979424]]]}},{"type":"Feature","properties":{"id":"TH-LAO-6130114","nameTh":"บางหลวง","type":"subdistrict_admin_org"},"geometry":{"type":"Polygon","coordinates":[[[100.4582628,14.0279364],[100.4498667,14.0156542],[100.4603899,14.011351],[100.4720624,14.0085196],[100.4781134,14.0044805],[100.4794331,14.0022944],[100.4808922,14.0007433],[100.4850764,13.9990257],[100.4856343,13.9982033],[100.487587,13.9991506],[100.4890247,13.9985468],[100.4906018,13.9986405],[100.4955049,14.0001187],[100.4961271,13.9998689],[100.4984875,13.9974537],[100.503294,13.998172],[100.504957,13.9994109],[100.5078109,13.9997336],[100.5084224,13.9988071],[100.5106325,13.99736],[100.5107613,13.9962982],[100.5126281,13.9963711],[100.5132933,13.995861],[100.5147524,13.9954758],[100.5154234,13.9944364],[100.5189569,14.0042895],[100.517054,14.0071247],[100.5160562,14.0075827],[100.5146025,14.0111532],[100.513889,14.0117934],[100.5139909,14.0129645],[100.5131702,14.0138805],[100.4896194,14.0260059],[100.4862126,14.0190825],[100.4854002,14.0193846],[100.485575,14.0198622],[100.4837882,14.0207067],[100.4834377,14.0196574],[100.4816418,14.0203257],[100.4822384,14.0215303],[100.4813533,14.0219348],[100.4796948,14.0185202],[100.4731695,14.0213544],[100.4725326,14.0201705],[100.4651578,14.0237645],[100.4582628,14.0279364]]]}},{"type":"Feature","properties":{"id":"TH-LAO-5130109","nameTh":"บางหลวง","type":"subdistrict_municipality"},"geometry":{"type":"Polygon","coordinates":[[[100.5231938,14.0110256],[100.5272064,14.0072],[100.5288318,14.0040614],[100.531683,13.9999833],[100.5322435,13.9980261],[100.5328551,13.9970476],[100.5351103,13.9946457],[100.5295033,13.990445],[100.5280784,13.9880526],[100.5267029,13.9835466],[100.513055,13.9854632],[100.5136972,13.9896092],[100.5175002,14.0007985],[100.5196881,14.0060419],[100.5206604,14.0097517],[100.5213545,14.0110795],[100.5208937,14.0118687],[100.5229497,14.0107263],[100.5231938,14.0110256]]]}},{"type":"Feature","properties":{"id":"TH-LAO-4130102","nameTh":"ปทุมธานี","type":"town_municipality"},"geometry":{"type":"Polygon","coordinates":[[[100.5245527,14.0245821],[100.524424,14.0319144],[100.5316502,14.0313512],[100.5342183,14.0323324],[100.5354574,14.0318649],[100.5387827,14.0315053],[100.5414278,14.0306782],[100.5427624,14.0298352],[100.5378445,14.025067],[100.5366546,14.0232959],[100.5362588,14.0220465],[100.5362739,14.0201808],[100.5372662,14.0149498],[100.5373692,14.0110698],[100.5393853,14.004707],[100.5398743,14.0017065],[100.5394184,13.9990776],[100.5388059,13.9979768],[100.5379057,13.9968081],[100.5351103,13.9946457],[100.5323106,13.9978752],[100.531683,13.9999833],[100.5288935,14.0039625],[100.5270401,14.0074004],[100.5231938,14.0110256],[100.5229497,14.0107263],[100.5208937,14.0118687],[100.5181033,14.0153147],[100.5161583,14.0140183],[100.5159906,14.0143718],[100.5156219,14.0143306],[100.5144498,14.0166233],[100.5138687,14.0171271],[100.5156707,14.0188823],[100.5152642,14.0192358],[100.5166331,14.0208598],[100.5157589,14.0212279],[100.5162818,14.0225677],[100.5171993,14.0234834],[100.5169251,14.023876],[100.5173065,14.0251966],[100.5214217,14.024795],[100.5229066,14.0251447],[100.5245527,14.0245821]]]}},{"type":"Feature","properties":{"id":"TH-LAO-6130113","nameTh":"บ้านกระแชง","type":"subdistrict_admin_org"},"geometry":{"type":"Polygon","coordinates":[[[100.5659719,14.0380229],[100.5661333,14.0377273],[100.564768,14.0362675],[100.5641431,14.0327729],[100.564255,14.0314096],[100.5633062,14.0313052],[100.5632939,14.0316817],[100.5628556,14.0317242],[100.5628073,14.0314484],[100.5622392,14.0314633],[100.5622009,14.0311059],[100.5610233,14.030995],[100.5613229,14.0291316],[100.5607527,14.0290621],[100.5605677,14.0284038],[100.5609003,14.0283622],[100.5608466,14.0280863],[100.5601844,14.0280574],[100.559917,14.0273068],[100.5596909,14.0273516],[100.5597284,14.0266421],[100.5588584,14.0265272],[100.5591145,14.025043],[100.5567524,14.0251056],[100.5569395,14.0245227],[100.5557255,14.0243739],[100.5554249,14.023885],[100.5549796,14.0240415],[100.5542082,14.0225073],[100.5511317,14.023574],[100.5507186,14.0233398],[100.5490443,14.0238599],[100.5444591,14.0260615],[100.5440083,14.0260184],[100.5437409,14.0254642],[100.542385,14.0261165],[100.542275,14.0258536],[100.5402233,14.0272188],[100.5419826,14.0288852],[100.546781,14.0349656],[100.5528328,14.0395137],[100.5545639,14.0420195],[100.5632748,14.0380763],[100.5659719,14.0380229]]]}},{"type":"Feature","properties":{"id":"TH-LAO-6130112","nameTh":"บางพูด","type":"subdistrict_admin_org"},"geometry":{"type":"Polygon","coordinates":[[[100.5695416,14.031181],[100.5717035,14.0315458],[100.5744669,14.0310141],[100.5752246,14.0299977],[100.5764973,14.0301101],[100.576543,14.0307935],[100.5770651,14.030802],[100.5770951,14.0311198],[100.5789113,14.0308343],[100.5784163,14.0290023],[100.5791086,14.0293348],[100.5794549,14.0285069],[100.5794808,14.0269768],[100.580189,14.0269115],[100.5802135,14.0265886],[100.5819293,14.0270324],[100.5823127,14.026666],[100.5832713,14.0267014],[100.5842317,14.027013],[100.5841199,14.0272993],[100.5871104,14.0278761],[100.5869574,14.0270453],[100.5882776,14.0265796],[100.5889713,14.0263862],[100.5909343,14.0266904],[100.5917414,14.0283907],[100.5940742,14.0278107],[100.5941145,14.0275197],[100.5975124,14.0272489],[100.5930995,14.0490996],[100.5893678,14.0735896],[100.5888214,14.073485],[100.5889066,14.0719737],[100.5880612,14.0718346],[100.5881842,14.0709275],[100.5863318,14.0705372],[100.5872537,14.0668158],[100.5871234,14.0658329],[100.5879073,14.0642699],[100.587485,14.0627079],[100.5879216,14.0620032],[100.5874131,14.0604145],[100.5876763,14.0594675],[100.5875129,14.0532102],[100.5871999,14.0514845],[100.58743,14.0488771],[100.5860616,14.0463672],[100.5833045,14.0433732],[100.579631,14.0408691],[100.5775282,14.040066],[100.5736466,14.039334],[100.5680113,14.0389667],[100.5659719,14.0380229],[100.5661333,14.0377273],[100.564768,14.0362675],[100.5641431,14.0327729],[100.564255,14.0314096],[100.5654189,14.0316752],[100.5695416,14.031181]]]}},{"type":"Feature","properties":{"id":"TH-LAO-6130116","nameTh":"สวนพริกไทย","type":"subdistrict_admin_org"},"geometry":{"type":"Polygon","coordinates":[[[100.5695416,14.031181],[100.5717035,14.0315458],[100.5744669,14.0310141],[100.5752246,14.0299977],[100.5764973,14.0301101],[100.576543,14.0307935],[100.5770651,14.030802],[100.5770951,14.0311198],[100.5789113,14.0308343],[100.5784163,14.0290023],[100.5791086,14.0293348],[100.5794549,14.0285069],[100.5794808,14.0269768],[100.580189,14.0269115],[100.5802135,14.0265886],[100.5819293,14.0270324],[100.5823127,14.026666],[100.5832713,14.0267014],[100.5842317,14.027013],[100.5841199,14.0272993],[100.5871104,14.0278761],[100.5869574,14.0270453],[100.5882776,14.0265796],[100.5889713,14.0263862],[100.5909343,14.0266904],[100.5917414,14.0283907],[100.5940742,14.0278107],[100.5941145,14.0275197],[100.5975124,14.0272489],[100.5986582,14.0189284],[100.5992506,14.0113621],[100.6007306,14.0013965],[100.5969902,14.000511],[100.5957078,13.9994427],[100.5947756,13.9980721],[100.5939059,13.9982688],[100.5932614,13.9974442],[100.5916585,13.9967368],[100.5907111,13.9974517],[100.5907053,14.0013487],[100.5896317,14.0026269],[100.5896052,14.0038557],[100.5881576,14.0055322],[100.5876875,14.0054745],[100.5877008,14.0045689],[100.584615,14.0050894],[100.5837138,14.0042934],[100.5819252,14.0041597],[100.5812551,14.0045079],[100.5799085,14.0045623],[100.579915,14.0025168],[100.5735151,14.0021292],[100.5711753,14.0027225],[100.5714011,14.0032117],[100.5704302,14.0033431],[100.5699956,14.0045871],[100.5693519,14.0046027],[100.5690562,14.0049337],[100.5689909,14.0051549],[100.5694043,14.0052331],[100.5693378,14.0056724],[100.5703605,14.0058649],[100.5702261,14.0064782],[100.5697534,14.0063802],[100.5693906,14.0071665],[100.5683512,14.0072156],[100.5682029,14.0064178],[100.5676219,14.0063672],[100.5676192,14.0070448],[100.5672325,14.006991],[100.5668699,14.0074948],[100.5663738,14.0073556],[100.5658914,14.0082481],[100.5652182,14.0085636],[100.5642772,14.0083737],[100.5633531,14.01473],[100.5610934,14.0144607],[100.5610786,14.0139468],[100.5585963,14.0133573],[100.5567294,14.0137502],[100.5571747,14.0153663],[100.5565437,14.0152251],[100.5567339,14.0157359],[100.5576234,14.01631],[100.5578081,14.0177023],[100.5562507,14.0186304],[100.5561593,14.0183907],[100.5550569,14.0185806],[100.5551425,14.0197624],[100.5574892,14.0199436],[100.5573929,14.0204614],[100.556733,14.0207145],[100.5571327,14.0217151],[100.5574441,14.0215905],[100.5578611,14.0224426],[100.5582122,14.0238799],[100.5587819,14.0234894],[100.5590944,14.023955],[100.5596195,14.0239202],[100.559795,14.0246728],[100.5592181,14.0246272],[100.5588584,14.0265272],[100.5597284,14.0266421],[100.5596909,14.0273516],[100.559917,14.0273068],[100.5601844,14.0280574],[100.5608466,14.0280863],[100.5609003,14.0283622],[100.5605677,14.0284038],[100.5607527,14.0290621],[100.5613229,14.0291316],[100.5610233,14.030995],[100.5622009,14.0311059],[100.5622392,14.0314633],[100.5628073,14.0314484],[100.5628556,14.0317242],[100.5632939,14.0316817],[100.5633062,14.0313052],[100.5654189,14.0316752],[100.5695416,14.031181]]]}},{"type":"Feature","properties":{"id":"TH-LAO-5130107","nameTh":"บ้านกลาง","type":"subdistrict_municipality"},"geometry":{"type":"Polygon","coordinates":[[[100.5673872,13.9897511],[100.5712679,13.9909291],[100.5733106,13.9920618],[100.5755165,13.9940523],[100.5781946,13.9973997],[100.579915,14.0025168],[100.5735151,14.0021292],[100.5711753,14.0027225],[100.5714011,14.0032117],[100.5704302,14.0033431],[100.5699956,14.0045871],[100.5693519,14.0046027],[100.5690562,14.0049337],[100.5689909,14.0051549],[100.5694043,14.0052331],[100.5693378,14.0056724],[100.5703605,14.0058649],[100.5702261,14.0064782],[100.5697534,14.0063802],[100.5693906,14.0071665],[100.5683512,14.0072156],[100.5682029,14.0064178],[100.5676219,14.0063672],[100.5676192,14.0070448],[100.5672325,14.006991],[100.5668699,14.0074948],[100.5663738,14.0073556],[100.5658914,14.0082481],[100.5652182,14.0085636],[100.5642772,14.0083737],[100.5633531,14.01473],[100.5610934,14.0144607],[100.5610786,14.0139468],[100.5585963,14.0133573],[100.5567294,14.0137502],[100.5571747,14.0153663],[100.5565437,14.0152251],[100.5567339,14.0157359],[100.5576234,14.01631],[100.5578081,14.0177023],[100.5562507,14.0186304],[100.5561593,14.0183907],[100.5550569,14.0185806],[100.5551425,14.0197624],[100.5574892,14.0199436],[100.5573929,14.0204614],[100.556733,14.0207145],[100.5571327,14.0217151],[100.5574441,14.0215905],[100.5582122,14.0238799],[100.5587819,14.0234894],[100.5590944,14.023955],[100.5596195,14.0239202],[100.559795,14.0246728],[100.5592181,14.0246272],[100.5591145,14.025043],[100.5569167,14.0251704],[100.5569395,14.0245227],[100.5557255,14.0243739],[100.5554249,14.023885],[100.5549796,14.0240415],[100.5542082,14.0225073],[100.5511317,14.023574],[100.5507186,14.0233398],[100.5490443,14.0238599],[100.5444591,14.0260615],[100.5440083,14.0260184],[100.5437409,14.0254642],[100.542385,14.0261165],[100.542275,14.0258536],[100.5402233,14.0272188],[100.5372083,14.0242272],[100.5364456,14.0228039],[100.5362052,14.0212554],[100.5372662,14.0149498],[100.5373692,14.0110698],[100.5393853,14.004707],[100.5398567,14.0018834],[100.5447641,14.0027029],[100.5476689,14.0017634],[100.5501768,13.9998635],[100.5536468,13.9949434],[100.5588052,13.9910957],[100.5610197,13.989938],[100.5673872,13.9897511]]]}},{"type":"Feature","properties":{"id":"TH-LAO-5130106","nameTh":"บางพูน","type":"subdistrict_municipality"},"geometry":{"type":"Polygon","coordinates":[[[100.5673872,13.9897511],[100.5712679,13.9909291],[100.5730016,13.9918536],[100.5766926,13.9953988],[100.5781946,13.9973997],[100.5788915,13.9989129],[100.5799112,14.0022467],[100.5799085,14.0045623],[100.5812551,14.0045079],[100.5819252,14.0041597],[100.5837138,14.0042934],[100.584615,14.0050894],[100.5877008,14.0045689],[100.5876875,14.0054745],[100.5881576,14.0055322],[100.5896052,14.0038557],[100.5896317,14.0026269],[100.5907053,14.0013487],[100.5907111,13.9974517],[100.591265,13.9968573],[100.5927696,13.9971202],[100.5939059,13.9982688],[100.5947756,13.9980721],[100.5957078,13.9994427],[100.5969902,14.000511],[100.6007306,14.0013965],[100.6032733,13.9807662],[100.5716428,13.9727995],[100.5673872,13.9897511]]]}},{"type":"Feature","properties":{"id":"TH-LAO-5130111","nameTh":"หลักหก","type":"subdistrict_municipality"},"geometry":{"type":"Polygon","coordinates":[[[100.5716428,13.9727995],[100.5721493,13.9705492],[100.567605,13.9513734],[100.574005,13.9546099],[100.5899958,13.9509244],[100.6057013,13.9440959],[100.6044037,13.9534211],[100.6066119,13.9536483],[100.6032733,13.9807662],[100.5716428,13.9727995]]]}},{"type":"Feature","properties":{"id":"TH-LAO-4130110","nameTh":"บางกะดี","type":"town_municipality"},"geometry":{"type":"Polygon","coordinates":[[[100.5338976,13.9663645],[100.5372056,13.9681234],[100.5385682,13.9683551],[100.538477,13.9687116],[100.5396582,13.9686446],[100.5398658,13.9675746],[100.5451759,13.9674234],[100.5451662,13.9682184],[100.5449299,13.9682633],[100.5451485,13.9709369],[100.5433683,13.9702441],[100.5418318,13.970157],[100.5417708,13.9721605],[100.5419639,13.9735582],[100.5430186,13.9735573],[100.5434927,13.9744874],[100.5444254,13.9742173],[100.5445737,13.9745902],[100.5441646,13.974736],[100.5448889,13.9772334],[100.545904,13.9770471],[100.5489205,13.9755357],[100.5494553,13.9756684],[100.5524352,13.9747425],[100.5525613,13.9752839],[100.5533096,13.9751563],[100.553205,13.9746566],[100.5537313,13.9745739],[100.5534717,13.973703],[100.5558202,13.972996],[100.5567777,13.9748401],[100.5583788,13.9736046],[100.5587518,13.9758721],[100.5598777,13.9757388],[100.5600015,13.9781022],[100.5602618,13.9781033],[100.5602568,13.9784758],[100.5614502,13.9786496],[100.5614056,13.9789581],[100.5624163,13.9792675],[100.563018,13.97543],[100.5638905,13.9754438],[100.563939,13.9737903],[100.5660021,13.9737698],[100.5662836,13.9756142],[100.5657573,13.9756524],[100.5657549,13.9766941],[100.5680417,13.9769208],[100.5689523,13.9776316],[100.568743,13.9779778],[100.5694056,13.9785087],[100.5705729,13.9772963],[100.5673872,13.9897511],[100.5610197,13.989938],[100.5588052,13.9910957],[100.5536468,13.9949434],[100.5501768,13.9998635],[100.5476689,14.0017634],[100.5447641,14.0027029],[100.5398567,14.0018834],[100.5394184,13.9990776],[100.5379057,13.9968081],[100.5295033,13.990445],[100.5280784,13.9880526],[100.5267077,13.9835777],[100.5264795,13.9807445],[100.5271232,13.9774546],[100.5277606,13.9758593],[100.52974,13.9718561],[100.5338976,13.9663645]]]}},{"type":"Feature","properties":{"id":"TH-LAO-5130108","nameTh":"บ้านใหม่","type":"subdistrict_municipality"},"geometry":{"type":"Polygon","coordinates":[[[100.5705729,13.9772963],[100.5721493,13.9705492],[100.567605,13.9513734],[100.5667884,13.951105],[100.5665666,13.9503692],[100.5658367,13.9507508],[100.5628276,13.9496337],[100.5619851,13.9500073],[100.5617094,13.9494753],[100.5613711,13.9494589],[100.5601236,13.950734],[100.5582442,13.9505647],[100.5570819,13.9498491],[100.5559633,13.9502667],[100.555053,13.9515508],[100.5544648,13.9513988],[100.5541744,13.950435],[100.5532834,13.9514463],[100.5524242,13.9511831],[100.5513574,13.9517214],[100.5490612,13.9522004],[100.5482847,13.9527262],[100.545812,13.9525884],[100.5455184,13.9534003],[100.5446404,13.9529257],[100.5439983,13.9533549],[100.5442558,13.954464],[100.5421022,13.9536213],[100.5415182,13.9545073],[100.5422415,13.9553696],[100.542022,13.9555827],[100.5393757,13.9557869],[100.5391012,13.9576468],[100.5379521,13.9606045],[100.5338976,13.9663645],[100.5372056,13.9681234],[100.5385682,13.9683551],[100.538477,13.9687116],[100.5396582,13.9686446],[100.5398658,13.9675746],[100.5451759,13.9674234],[100.5451662,13.9682184],[100.5449299,13.9682633],[100.5451485,13.9709369],[100.5433683,13.9702441],[100.5418318,13.970157],[100.5417708,13.9721605],[100.5419639,13.9735582],[100.5430186,13.9735573],[100.5434927,13.9744874],[100.5444254,13.9742173],[100.5445737,13.9745902],[100.5441646,13.974736],[100.5448889,13.9772334],[100.545904,13.9770471],[100.5489205,13.9755357],[100.5494553,13.9756684],[100.5524352,13.9747425],[100.5525613,13.9752839],[100.5533096,13.9751563],[100.553205,13.9746566],[100.5537313,13.9745739],[100.5534717,13.973703],[100.5558202,13.972996],[100.5567777,13.9748401],[100.5583788,13.9736046],[100.5587518,13.9758721],[100.5598777,13.9757388],[100.5600015,13.9781022],[100.5602618,13.9781033],[100.5602568,13.9784758],[100.5614502,13.9786496],[100.5614056,13.9789581],[100.5618137,13.9791289],[100.5624163,13.9792675],[100.563018,13.97543],[100.5638905,13.9754438],[100.563939,13.9737903],[100.5660021,13.9737698],[100.5662836,13.9756142],[100.5657573,13.9756524],[100.5657549,13.9766941],[100.5680417,13.9769208],[100.5689523,13.9776316],[100.568743,13.9779778],[100.5694056,13.9785087],[100.5705729,13.9772963]]]}},{"type":"Feature","properties":{"id":"TH-LAO-4130103","nameTh":"บางคูวัด","type":"town_municipality"},"geometry":{"type":"Polygon","coordinates":[[[100.501809,13.9362612],[100.4983476,13.9382779],[100.4978067,13.9390657],[100.497222,13.9389251],[100.4963208,13.939503],[100.495441,13.9395811],[100.4951835,13.9402423],[100.4941589,13.9406901],[100.4935259,13.9403569],[100.4929143,13.9404974],[100.4924047,13.9411014],[100.4915464,13.9408567],[100.4904778,13.9419684],[100.4891012,13.9424207],[100.4879092,13.9439389],[100.4874806,13.9451629],[100.4887527,13.9460656],[100.4873328,13.9475517],[100.4861783,13.9501754],[100.4846211,13.9511438],[100.4762597,13.9604557],[100.4738076,13.9622464],[100.4668741,13.9687231],[100.4673153,13.973402],[100.4670578,13.9743859],[100.4695157,13.9749956],[100.4698499,13.9742935],[100.4733556,13.9763718],[100.4724062,13.9780705],[100.4720682,13.977819],[100.471344,13.9788185],[100.4721272,13.9793442],[100.4705822,13.9809319],[100.4714026,13.9812354],[100.4712977,13.9814352],[100.4721945,13.9820715],[100.4714459,13.9838261],[100.4727453,13.9846176],[100.4708755,13.9871267],[100.4692418,13.9860293],[100.4671203,13.9874202],[100.4679508,13.9891148],[100.4688415,13.9900544],[100.4716417,13.9896275],[100.4719501,13.9889639],[100.473538,13.9878057],[100.4726288,13.986572],[100.4738472,13.985481],[100.4792373,13.9835758],[100.4801163,13.9840986],[100.4794013,13.9845575],[100.4807599,13.985298],[100.4802945,13.9858693],[100.4822445,13.9878551],[100.4828721,13.986939],[100.4837519,13.9872617],[100.4838784,13.9866475],[100.4853348,13.9872069],[100.4887783,13.9875064],[100.4914659,13.9869129],[100.492048,13.9889456],[100.4936358,13.9891851],[100.4936117,13.9886906],[100.4950601,13.9888155],[100.4951137,13.9873528],[100.4972179,13.9873229],[100.4972738,13.9863178],[100.4982197,13.9864184],[100.4984826,13.9854554],[100.4988849,13.9855179],[100.5007538,13.9841024],[100.503598,13.9834167],[100.5037558,13.9818637],[100.5056977,13.978048],[100.506776,13.9751563],[100.5078247,13.9744588],[100.5090559,13.9747893],[100.5106169,13.9721448],[100.5108583,13.9722073],[100.5115369,13.9708929],[100.5117944,13.9709787],[100.512245,13.9695862],[100.51455,13.9696789],[100.5144202,13.9668298],[100.5138087,13.9661321],[100.5137712,13.9655491],[100.519149,13.9616655],[100.5189773,13.9613584],[100.5197401,13.9605064],[100.5223154,13.959535],[100.5239569,13.9574942],[100.5250613,13.95696],[100.5246701,13.9559079],[100.5248836,13.9555629],[100.5234518,13.9527039],[100.5232153,13.9510801],[100.5230386,13.9490894],[100.5235996,13.9463094],[100.5223973,13.9450618],[100.5222613,13.9434658],[100.5139053,13.9439907],[100.5083692,13.9430848],[100.506835,13.9423351],[100.503906,13.9397527],[100.501809,13.9362612]]]}},{"type":"Feature","properties":{"id":"TH-LAO-5130104","nameTh":"บางขะแยง","type":"subdistrict_municipality"},"geometry":{"type":"Polygon","coordinates":[[[100.5092812,13.9742037],[100.5110648,13.9747112],[100.5116066,13.9745967],[100.5119071,13.9735425],[100.5123832,13.9736239],[100.5125186,13.9731808],[100.5142895,13.9730702],[100.5143096,13.9733766],[100.5152431,13.9734372],[100.5154405,13.9739915],[100.5165675,13.9744159],[100.5164795,13.9747464],[100.5168517,13.974853],[100.5171125,13.9744131],[100.5180272,13.9744826],[100.5181653,13.9736011],[100.523926,13.9741674],[100.5238826,13.9745855],[100.5248647,13.9747909],[100.5255278,13.9747842],[100.5256478,13.974509],[100.5281296,13.9750059],[100.5312565,13.9696461],[100.5371322,13.9620483],[100.5391012,13.9576468],[100.5393746,13.9557289],[100.5387862,13.9528951],[100.5376685,13.9506984],[100.5351894,13.9477698],[100.5323533,13.9456299],[100.5293807,13.9442069],[100.5262157,13.9436186],[100.5222613,13.9434658],[100.5223973,13.9450618],[100.5235996,13.9463094],[100.5230386,13.9490894],[100.5234518,13.9527039],[100.5248836,13.9555629],[100.5246701,13.9559079],[100.5250807,13.9569229],[100.5239569,13.9574942],[100.5223154,13.959535],[100.5197401,13.9605064],[100.5189773,13.9613584],[100.519149,13.9616655],[100.5137712,13.9655491],[100.5138087,13.9661321],[100.5144202,13.9668298],[100.51455,13.9696789],[100.512245,13.9695862],[100.5117944,13.9709787],[100.5115369,13.9708929],[100.5092812,13.9742037]]]}},{"type":"Feature","properties":{"id":"TH-LAO-6130508","nameTh":"ระแหง","type":"subdistrict_admin_org"},"geometry":{"type":"Polygon","coordinates":[[[100.3831494,14.0481826],[100.3759861,14.050571],[100.3771247,14.05281],[100.3749776,14.0535424],[100.3706646,14.0546248],[100.3698888,14.0528048],[100.3660995,14.0537662],[100.3666547,14.0549604],[100.3669142,14.0567293],[100.3680755,14.0585935],[100.3706539,14.0677017],[100.3690445,14.0685342],[100.3605366,14.0704179],[100.3569317,14.0726554],[100.3574467,14.073873],[100.3537828,14.0757566],[100.3531122,14.0741748],[100.3476405,14.0782126],[100.3436279,14.0794301],[100.3471202,14.0864024],[100.3474098,14.0863191],[100.3486919,14.0888999],[100.3490567,14.0888062],[100.3511917,14.0936138],[100.3490996,14.0948209],[100.3448725,14.0961112],[100.3462465,14.099214],[100.3499901,14.0979842],[100.3505909,14.0975056],[100.352152,14.0972636],[100.3526965,14.0979946],[100.3605258,14.0966757],[100.3610167,14.0971544],[100.3644955,14.0963401],[100.3645787,14.0958784],[100.3698492,14.0940144],[100.3714693,14.0939364],[100.3732663,14.0931299],[100.3843519,14.0900367],[100.3899336,14.0880206],[100.3924441,14.0864232],[100.3927016,14.0867614],[100.3966606,14.0851745],[100.4029557,14.0820864],[100.4043585,14.0810978],[100.4037255,14.0801222],[100.4071641,14.0779082],[100.4078239,14.0781553],[100.4122442,14.0740707],[100.4168576,14.0716849],[100.4170749,14.0721402],[100.4193467,14.0711724],[100.4190141,14.0708654],[100.4224366,14.0670044],[100.4253119,14.0630861],[100.4261649,14.0593498],[100.4298878,14.0547601],[100.429303,14.0542631],[100.4303867,14.0523741],[100.4273597,14.0493858],[100.4240459,14.0539775],[100.4237113,14.0577048],[100.4223775,14.0620227],[100.4214456,14.0634998],[100.4200273,14.0647373],[100.4147097,14.0666404],[100.4108096,14.0684741],[100.4025488,14.0656787],[100.4006224,14.0662185],[100.3995146,14.0633928],[100.3986468,14.0599373],[100.3978275,14.0559693],[100.398164,14.0555983],[100.3926818,14.046604],[100.3990866,14.0430772],[100.3996842,14.0405503],[100.3993441,14.039479],[100.4007437,14.0386339],[100.4004533,14.0347432],[100.40134,14.0297353],[100.4038071,14.0291062],[100.4042769,14.0286811],[100.404284,14.0277206],[100.4033178,14.0249142],[100.3900838,14.0293068],[100.3910065,14.0341364],[100.3906202,14.0342613],[100.3910655,14.0358486],[100.3901535,14.0362389],[100.3907007,14.0388775],[100.3870314,14.0406235],[100.3874016,14.0415732],[100.3863555,14.0420208],[100.3865486,14.0426218],[100.3854114,14.0431344],[100.3849435,14.0407587],[100.3834462,14.0410733],[100.3831494,14.0481826]]]}},{"type":"Feature","properties":{"id":"TH-LAO-5130502","nameTh":"ระแหง","type":"subdistrict_municipality"},"geometry":{"type":"Polygon","coordinates":[[[100.3993441,14.039479],[100.3996842,14.0405503],[100.3990595,14.0431208],[100.3926818,14.046604],[100.398164,14.0555983],[100.3978275,14.0559693],[100.3986468,14.0599373],[100.3995146,14.0633928],[100.4006224,14.0662185],[100.4025488,14.0656787],[100.4108096,14.0684741],[100.4147097,14.0666404],[100.4200273,14.0647373],[100.4214456,14.0634998],[100.4223775,14.0620227],[100.4237113,14.0577048],[100.4240459,14.0539775],[100.4279941,14.0486663],[100.4336536,14.0432177],[100.4413086,14.0422341],[100.4434878,14.0404144],[100.4430092,14.036135],[100.4432667,14.0246333],[100.4422674,14.0167005],[100.4114819,14.0243252],[100.4065955,14.0264391],[100.4042727,14.027683],[100.4042769,14.0286811],[100.4038071,14.0291062],[100.40134,14.0297353],[100.4004533,14.0347432],[100.4007437,14.0386339],[100.3993441,14.039479]]]}},{"type":"Feature","properties":{"id":"TH-LAO-6130506","nameTh":"คูบางหลวง","type":"subdistrict_admin_org"},"geometry":{"type":"Polygon","coordinates":[[[100.4805163,14.0572476],[100.4829767,14.0610905],[100.4865679,14.0644549],[100.4848239,14.0658443],[100.4812684,14.0699339],[100.4704862,14.0782538],[100.4602616,14.0836028],[100.4521399,14.0872554],[100.4510129,14.0771195],[100.446936,14.0477401],[100.4462922,14.0448983],[100.4433633,14.0400694],[100.4430092,14.036135],[100.4432667,14.0246333],[100.4425976,14.0188625],[100.4498667,14.0156542],[100.4582628,14.0279364],[100.4651578,14.0237645],[100.4725326,14.0201705],[100.4731695,14.0213544],[100.4796948,14.0185202],[100.4813533,14.0219348],[100.4822384,14.0215303],[100.4816418,14.0203257],[100.4834377,14.0196574],[100.4837882,14.0207067],[100.485575,14.0198622],[100.4854002,14.0193846],[100.4862126,14.0190825],[100.4956116,14.0384071],[100.4935715,14.0396555],[100.4935902,14.0400978],[100.4930109,14.040574],[100.4966809,14.0472108],[100.4805163,14.0572476]]]}},{"type":"Feature","properties":{"id":"TH-LAO-6130505","nameTh":"หน้าไม้","type":"subdistrict_admin_org"},"geometry":{"type":"Polygon","coordinates":[[[100.3777473,14.0356872],[100.3789103,14.0267498],[100.3785043,14.0269794],[100.3744599,14.0191866],[100.3775042,14.0184579],[100.37781,14.0168679],[100.3780836,14.0121784],[100.3773031,13.9993585],[100.3810888,13.9948071],[100.3810321,13.9942119],[100.3855605,13.9901696],[100.3856662,13.9896015],[100.3851272,13.9878442],[100.3647655,13.9922324],[100.3612185,13.9944441],[100.3545116,14.0027264],[100.3502576,14.009912],[100.3451803,14.0192244],[100.3430862,14.0237018],[100.3415048,14.0281039],[100.3366743,14.0377492],[100.3337869,14.0462196],[100.3317111,14.0557907],[100.3318718,14.0624697],[100.3323873,14.0668355],[100.3351819,14.0786421],[100.3380004,14.0858391],[100.3406585,14.0938638],[100.3414529,14.0972922],[100.3415922,14.101018],[100.3462465,14.099214],[100.3448725,14.0961112],[100.3490996,14.0948209],[100.3511917,14.0936138],[100.3490567,14.0888062],[100.3486919,14.0888999],[100.3474098,14.0863191],[100.3471202,14.0864024],[100.3436279,14.0794301],[100.3476405,14.0782126],[100.3531122,14.0741748],[100.3537828,14.0757566],[100.3574467,14.073873],[100.3569317,14.0726554],[100.3605366,14.0704179],[100.3690445,14.0685342],[100.3706539,14.0677017],[100.3680755,14.0585935],[100.3669142,14.0567293],[100.3666547,14.0549604],[100.3660995,14.0537662],[100.3698888,14.0528048],[100.3706646,14.0546248],[100.3749776,14.0535424],[100.3771247,14.05281],[100.3759861,14.050571],[100.3831494,14.0481826],[100.3834462,14.0410733],[100.3849435,14.0407587],[100.3854114,14.0431344],[100.3865486,14.0426218],[100.3863555,14.0420208],[100.3874016,14.0415732],[100.3870314,14.0406235],[100.3907007,14.0388775],[100.3901535,14.0362389],[100.3910655,14.0358486],[100.3906202,14.0342613],[100.3910065,14.0341364],[100.3900838,14.0293068],[100.3871763,14.0308134],[100.38403,14.0331892],[100.3777473,14.0356872]]]}},{"type":"Feature","properties":{"id":"TH-LAO-6130507","nameTh":"ลาดหลุมแก้ว","type":"subdistrict_admin_org"},"geometry":{"type":"Polygon","coordinates":[[[100.3810888,13.9948071],[100.4234079,13.983896],[100.4243261,13.9912942],[100.4276428,13.9904764],[100.4303358,13.9980169],[100.4392111,13.9956661],[100.4422674,14.0167005],[100.4114819,14.0243252],[100.4042727,14.027683],[100.4033178,14.0249142],[100.4021484,14.0251224],[100.3954536,14.027683],[100.3892952,14.0296034],[100.38403,14.0331892],[100.3777473,14.0356872],[100.3789103,14.0267498],[100.3785043,14.0269794],[100.3744599,14.0191866],[100.3775042,14.0184579],[100.3780836,14.0121784],[100.3773031,13.9993585],[100.3810888,13.9948071]]]}},{"type":"Feature","properties":{"id":"TH-LAO-5130503","nameTh":"คลองพระอุดม","type":"subdistrict_municipality"},"geometry":{"type":"Polygon","coordinates":[[[100.4695422,13.9990434],[100.4688929,13.9979424],[100.4693495,13.9977308],[100.4690366,13.9957135],[100.4690695,13.9910615],[100.4688415,13.9900544],[100.4679508,13.9891148],[100.4671203,13.9874202],[100.4692418,13.9860293],[100.4708755,13.9871267],[100.4727453,13.9846176],[100.4714459,13.9838261],[100.4721945,13.9820715],[100.4712977,13.9814352],[100.4714026,13.9812354],[100.4705822,13.9809319],[100.4721272,13.9793442],[100.471344,13.9788185],[100.4720682,13.977819],[100.4724062,13.9780705],[100.4733556,13.9763718],[100.4698499,13.9742935],[100.4695157,13.9749956],[100.4670578,13.9743859],[100.4672101,13.9728995],[100.4649362,13.9717998],[100.4645209,13.9725898],[100.4622653,13.9716732],[100.4616507,13.9750132],[100.4610926,13.974857],[100.4606471,13.976436],[100.4584211,13.9762833],[100.4580885,13.9773388],[100.4577587,13.9773017],[100.4567011,13.9750446],[100.4565855,13.9710078],[100.4553235,13.9693907],[100.4538824,13.9697405],[100.4526227,13.9679382],[100.4370815,13.9797249],[100.4347991,13.9811654],[100.4234079,13.983896],[100.4243261,13.9912942],[100.4276428,13.9904764],[100.4303358,13.9980169],[100.4392111,13.9956661],[100.4425976,14.0188625],[100.4502727,14.0154575],[100.4489905,14.0108824],[100.4486484,14.0080282],[100.4489288,14.0078974],[100.448218,14.0048968],[100.4515395,14.0042816],[100.4512991,14.0036746],[100.4575279,14.0002877],[100.4576603,14.0005583],[100.4593441,13.9998221],[100.4601694,14.0018496],[100.4644346,14.0001238],[100.4643756,13.9998922],[100.4682112,13.9989006],[100.4684606,13.9994914],[100.4695422,13.9990434]]]}},{"type":"Feature","properties":{"id":"TH-LAO-6130504","nameTh":"บ่อเงิน","type":"subdistrict_admin_org"},"geometry":{"type":"Polygon","coordinates":[[[100.3448072,14.1169226],[100.3423861,14.1074482],[100.3415922,14.101018],[100.3499901,14.0979842],[100.3505909,14.0975056],[100.352152,14.0972636],[100.3526965,14.0979946],[100.3605258,14.0966757],[100.3610167,14.0971544],[100.3644955,14.0963401],[100.3645787,14.0958784],[100.3698492,14.0940144],[100.3714693,14.0939364],[100.3732663,14.0931299],[100.3843519,14.0900367],[100.3899336,14.0880206],[100.3924441,14.0864232],[100.3927016,14.0867614],[100.3966606,14.0851745],[100.4035699,14.0817182],[100.403523,14.0814828],[100.4043585,14.0810978],[100.4037255,14.0801222],[100.4071641,14.0779082],[100.4078239,14.0781553],[100.4122442,14.0740707],[100.4168576,14.0716849],[100.4170749,14.0721402],[100.4193467,14.0711724],[100.4216132,14.0729676],[100.421294,14.0732954],[100.4238826,14.0767576],[100.4256391,14.0800233],[100.427919,14.0873442],[100.427088,14.0927402],[100.4255486,14.0941072],[100.4279101,14.0973457],[100.4274579,14.0976517],[100.4297448,14.1008772],[100.4291342,14.1012397],[100.4285912,14.1004707],[100.4275016,14.1014163],[100.4259588,14.1021501],[100.4274858,14.1048505],[100.4222674,14.1079578],[100.4227407,14.1087442],[100.4205003,14.1110201],[100.4163501,14.1133792],[100.4057778,14.1159658],[100.3971943,14.1153194],[100.3803581,14.1164433],[100.3697752,14.1162569],[100.3534776,14.1191081],[100.3460615,14.1165629],[100.3448072,14.1169226]]]}},{"type":"Feature","properties":{"id":"TH-LAO-5130501","nameTh":"คูขวาง","type":"subdistrict_municipality"},"geometry":{"type":"Polygon","coordinates":[[[100.4216132,14.0729676],[100.4190141,14.0708654],[100.4224366,14.0670044],[100.4253119,14.0630861],[100.4261649,14.0593498],[100.4298878,14.0547601],[100.429303,14.0542631],[100.4303867,14.0523741],[100.4273966,14.049413],[100.4336536,14.0432177],[100.4413086,14.0422341],[100.4434878,14.0404144],[100.4462922,14.0448983],[100.446936,14.0477401],[100.4510129,14.0771195],[100.4521399,14.0872554],[100.4469195,14.0896418],[100.4299017,14.0957388],[100.4276574,14.0922345],[100.427088,14.0927402],[100.427919,14.0873442],[100.4256391,14.0800233],[100.4238826,14.0767576],[100.421294,14.0732954],[100.4216132,14.0729676]]]}},{"type":"Feature","properties":{"id":"TH-LAO-6130705","nameTh":"เชียงรากน้อย","type":"subdistrict_admin_org"},"geometry":{"type":"Polygon","coordinates":[[[100.5846441,14.0961127],[100.5846986,14.0957151],[100.5860619,14.0961375],[100.5822118,14.1286615],[100.5762686,14.1246443],[100.5740938,14.1226749],[100.5728945,14.1224268],[100.5700428,14.1225664],[100.5684864,14.1221838],[100.5665142,14.1224681],[100.5629535,14.1223389],[100.5616476,14.1214498],[100.5610773,14.1205917],[100.560321,14.1179772],[100.5578478,14.1192631],[100.5573966,14.119802],[100.5559771,14.1200742],[100.5545024,14.1194552],[100.5539082,14.1187935],[100.5530664,14.1186494],[100.5528188,14.1179717],[100.5519989,14.1181532],[100.5519109,14.1172407],[100.5528518,14.1170966],[100.5530884,14.1160721],[100.5540843,14.1149889],[100.5536276,14.1144179],[100.5536056,14.1137295],[100.5528683,14.113292],[100.553358,14.1118618],[100.5539151,14.1116097],[100.553483,14.1111848],[100.5493849,14.1103576],[100.549761,14.1073908],[100.5495679,14.1058924],[100.5481389,14.102064],[100.5460167,14.0983276],[100.5431723,14.0954419],[100.5448204,14.0939546],[100.5448982,14.092979],[100.5444181,14.0926044],[100.5448312,14.0902527],[100.5446112,14.0892745],[100.5497189,14.080509],[100.5606027,14.0864599],[100.5682606,14.0899024],[100.5688262,14.0913349],[100.5698347,14.0920737],[100.5696952,14.0927917],[100.573166,14.094363],[100.5731177,14.0947792],[100.5737883,14.095081],[100.5749953,14.0952527],[100.5776775,14.0942329],[100.5789435,14.0950446],[100.5789274,14.0958797],[100.5806091,14.0958042],[100.5806447,14.0963969],[100.5828878,14.096323],[100.5828647,14.0959372],[100.5846441,14.0961127]]]}},{"type":"Feature","properties":{"id":"TH-LAO-6130710","nameTh":"บ้านงิ้ว","type":"subdistrict_admin_org"},"geometry":{"type":"Polygon","coordinates":[[[100.5240351,14.0767747],[100.5254066,14.0728219],[100.5264673,14.0711082],[100.5285713,14.0690914],[100.5307381,14.0675982],[100.5326767,14.0692856],[100.5328741,14.0702396],[100.5337573,14.0709627],[100.533964,14.0716432],[100.5436895,14.0768417],[100.5445226,14.0777167],[100.5497189,14.080509],[100.5446112,14.0892745],[100.5448312,14.0902527],[100.5444181,14.0926044],[100.5448982,14.092979],[100.5448204,14.0939546],[100.5431723,14.0954419],[100.539258,14.0924142],[100.5360067,14.0904296],[100.5294378,14.0871377],[100.5276378,14.0858318],[100.5256104,14.0836395],[100.524359,14.0813159],[100.5238724,14.0791049],[100.5240351,14.0767747]]]}},{"type":"Feature","properties":{"id":"TH-LAO-6130711","nameTh":"บ้านปทุม","type":"subdistrict_admin_org"},"geometry":{"type":"Polygon","coordinates":[[[100.5846441,14.0961127],[100.5846986,14.0957151],[100.5860619,14.0961375],[100.5893678,14.0735896],[100.5888214,14.073485],[100.5889066,14.0719737],[100.5880612,14.0718346],[100.5881842,14.0709275],[100.5863318,14.0705372],[100.5857643,14.0724384],[100.5851502,14.0731552],[100.5836719,14.0764598],[100.5802078,14.0800103],[100.576302,14.082409],[100.5727559,14.0830558],[100.5713869,14.0828511],[100.5693082,14.0795414],[100.5681123,14.0758468],[100.5663671,14.0724811],[100.566507,14.0679953],[100.5656062,14.0613682],[100.5642162,14.0582717],[100.5623355,14.0560207],[100.5596028,14.053941],[100.5534772,14.0509547],[100.534848,14.0652664],[100.5307381,14.0675982],[100.5326767,14.0692856],[100.5328741,14.0702396],[100.5337573,14.0709627],[100.533964,14.0716432],[100.5606027,14.0864599],[100.5682606,14.0899024],[100.5688262,14.0913349],[100.5698347,14.0920737],[100.5696952,14.0927917],[100.573166,14.094363],[100.5731177,14.0947792],[100.5749953,14.0952527],[100.5776775,14.0942329],[100.5789435,14.0950446],[100.5789274,14.0958797],[100.5806091,14.0958042],[100.5806447,14.0963969],[100.5828878,14.096323],[100.5828647,14.0959372],[100.5846441,14.0961127]]]}},{"type":"Feature","properties":{"id":"TH-LAO-5130706","nameTh":"เชียงรากใหญ่","type":"subdistrict_municipality"},"geometry":{"type":"Polygon","coordinates":[[[100.5871284,14.066084],[100.5879073,14.0642699],[100.587485,14.0627079],[100.5879216,14.0620032],[100.5874131,14.0604145],[100.5876763,14.0594675],[100.5875129,14.0532102],[100.5871999,14.0514845],[100.58743,14.0488771],[100.5860616,14.0463672],[100.5819659,14.0423158],[100.579631,14.0408691],[100.5775282,14.040066],[100.5736466,14.039334],[100.5692864,14.0392318],[100.5659719,14.0380229],[100.5658428,14.03822],[100.5645807,14.0379424],[100.5632748,14.0380763],[100.5545639,14.0420195],[100.5549431,14.046616],[100.5542217,14.0497904],[100.5534772,14.0509547],[100.5596028,14.053941],[100.5623355,14.0560207],[100.5642162,14.0582717],[100.5659579,14.0627364],[100.566507,14.0679953],[100.5663671,14.0724811],[100.5681123,14.0758468],[100.5693082,14.0795414],[100.5713869,14.0828511],[100.5727559,14.0830558],[100.5769988,14.082152],[100.5802078,14.0800103],[100.5822882,14.0779923],[100.5836719,14.0764598],[100.5851502,14.0731552],[100.5857643,14.0724384],[100.5872537,14.0668158],[100.5871284,14.066084]]]}},{"type":"Feature","properties":{"id":"TH-LAO-6130707","nameTh":"ท้ายเกาะ","type":"subdistrict_admin_org"},"geometry":{"type":"Polygon","coordinates":[[[100.534874,14.1155748],[100.5325869,14.1138237],[100.5331394,14.1127598],[100.5329758,14.1122825],[100.5326539,14.1125153],[100.5317447,14.1123696],[100.526973,14.1098022],[100.526855,14.1101351],[100.5208763,14.1072945],[100.5207449,14.107552],[100.5180171,14.1063138],[100.5138207,14.1050548],[100.5136102,14.1044617],[100.5110058,14.1033795],[100.5111359,14.1029854],[100.5063415,14.1013036],[100.501492,14.0987386],[100.5018541,14.0976642],[100.5003137,14.0968414],[100.4874329,14.0983844],[100.4820136,14.1113361],[100.4853558,14.1120679],[100.4855651,14.1116881],[100.488891,14.1126714],[100.4895553,14.1110741],[100.4897973,14.1111646],[100.4899734,14.1107086],[100.4903768,14.1107791],[100.4906967,14.1098511],[100.4903243,14.109723],[100.4908054,14.1082424],[100.4918588,14.1076148],[100.4923615,14.1074492],[100.4963636,14.1088059],[100.4967804,14.1075305],[100.4992282,14.108244],[100.4987439,14.1107594],[100.5005801,14.1128483],[100.5000544,14.1148148],[100.5003199,14.1153142],[100.5001599,14.1158183],[100.509646,14.1225092],[100.5116683,14.1231906],[100.5123496,14.1240386],[100.5122209,14.1247305],[100.5154649,14.1267142],[100.5165949,14.1284181],[100.5166438,14.1289833],[100.5215145,14.1314918],[100.5251727,14.124259],[100.5264795,14.122738],[100.5297303,14.1203033],[100.5362674,14.1181251],[100.5358836,14.1168158],[100.5353234,14.11653],[100.534874,14.1155748]]]}},{"type":"Feature","properties":{"id":"TH-LAO-6130708","nameTh":"บางกระบือ","type":"subdistrict_admin_org"},"geometry":{"type":"Polygon","coordinates":[[[100.534874,14.1155748],[100.5325869,14.1138237],[100.5331394,14.1127598],[100.5329758,14.1122825],[100.5326539,14.1125153],[100.5317447,14.1123696],[100.526973,14.1098022],[100.526855,14.1101351],[100.5208763,14.1072945],[100.5207449,14.107552],[100.5180171,14.1063138],[100.5138207,14.1050548],[100.5136102,14.1044617],[100.5110058,14.1033795],[100.5111359,14.1029854],[100.5063415,14.1013036],[100.501492,14.0987386],[100.5018541,14.0976642],[100.5003137,14.0968414],[100.5019587,14.0967563],[100.5088413,14.0952267],[100.5109441,14.0951539],[100.5132079,14.0958406],[100.5134064,14.0961528],[100.5144712,14.0960618],[100.5151954,14.095492],[100.5154476,14.0956872],[100.5213323,14.093939],[100.5227995,14.0932262],[100.5249989,14.0910201],[100.526002,14.0911554],[100.5265599,14.0919566],[100.5271826,14.0916925],[100.5276543,14.0907808],[100.5275041,14.0897662],[100.5283731,14.0890404],[100.5294378,14.0871377],[100.5360067,14.0904296],[100.5424118,14.0947793],[100.5460167,14.0983276],[100.5481389,14.102064],[100.5495679,14.1058924],[100.549761,14.1073908],[100.5493849,14.1103576],[100.5488371,14.1114599],[100.5479157,14.1127806],[100.5456712,14.1145443],[100.5401311,14.1169407],[100.5362674,14.1181251],[100.5358836,14.1168158],[100.5353234,14.11653],[100.534874,14.1155748]]]}},{"type":"Feature","properties":{"id":"TH-LAO-5130702","nameTh":"บางเตย","type":"subdistrict_municipality"},"geometry":{"type":"Polygon","coordinates":[[[100.5285713,14.0690914],[100.5325242,14.0665989],[100.5318117,14.0656449],[100.5306509,14.0650294],[100.5241331,14.0593054],[100.5224058,14.0582126],[100.5148205,14.0520258],[100.51455,14.0516372],[100.5157694,14.0498112],[100.5141494,14.0488094],[100.5111468,14.0475535],[100.5069871,14.0520728],[100.5054883,14.0505642],[100.5049239,14.0507142],[100.5047374,14.0504404],[100.5038538,14.0510413],[100.5019648,14.0500817],[100.5015599,14.0493456],[100.497495,14.0499892],[100.4973315,14.0513685],[100.4954754,14.0519695],[100.4953786,14.0515545],[100.4932023,14.0520923],[100.4933455,14.0524675],[100.4923377,14.0531614],[100.4928803,14.0553853],[100.4908075,14.054999],[100.4893988,14.0570552],[100.4898327,14.0577077],[100.4883391,14.0582486],[100.4856634,14.0600029],[100.4859227,14.0603315],[100.4837648,14.0618638],[100.4865679,14.0644549],[100.485216,14.0654436],[100.4819443,14.0692678],[100.4797932,14.0711567],[100.4738494,14.0758242],[100.4689627,14.0791592],[100.4602616,14.0836028],[100.452298,14.0871943],[100.4583748,14.0964615],[100.4603297,14.094917],[100.4612037,14.0937017],[100.4792963,14.0817717],[100.4932785,14.076659],[100.4934949,14.0749269],[100.49507,14.0732505],[100.5015511,14.0729057],[100.5032684,14.073728],[100.5040067,14.0735635],[100.5047943,14.0741524],[100.5058444,14.0743858],[100.5062053,14.0741948],[100.5058608,14.0733354],[100.50626,14.073033],[100.5092572,14.0740197],[100.5123363,14.074025],[100.5133864,14.0743911],[100.5152569,14.0756855],[100.5213277,14.0761099],[100.5240351,14.0767747],[100.5254066,14.0728219],[100.5264673,14.0711082],[100.5285713,14.0690914]]]}},{"type":"Feature","properties":{"id":"TH-LAO-5130701","nameTh":"สามโคก","type":"subdistrict_municipality"},"geometry":{"type":"Polygon","coordinates":[[[100.5461602,14.0501117],[100.5473417,14.0498008],[100.5475804,14.0500922],[100.5494365,14.0496863],[100.5512427,14.0528379],[100.5367148,14.0638956],[100.5325242,14.0665989],[100.5318117,14.0656449],[100.5268207,14.0619281],[100.5241331,14.0593054],[100.5224058,14.0582126],[100.5148205,14.0520258],[100.51455,14.0516372],[100.5157694,14.0498112],[100.5111468,14.0475535],[100.5116871,14.0465405],[100.5129006,14.0459278],[100.5185204,14.0477043],[100.5189807,14.0458689],[100.5199785,14.0444097],[100.5252117,14.0419381],[100.5310588,14.0406445],[100.531993,14.0416619],[100.5332266,14.0414332],[100.5346546,14.0421718],[100.5367402,14.0415741],[100.5373102,14.0434415],[100.5401614,14.0469776],[100.5421328,14.0461996],[100.544402,14.0490202],[100.5461602,14.0501117]]]}},{"type":"Feature","properties":{"id":"TH-LAO-6130703","nameTh":"กระแชง","type":"subdistrict_admin_org"},"geometry":{"type":"Polygon","coordinates":[[[100.546106,14.0342504],[100.5446139,14.0354088],[100.5436617,14.0352553],[100.5424565,14.0340393],[100.5412114,14.0339882],[100.5341695,14.0361605],[100.5295075,14.0370286],[100.5252628,14.0373924],[100.5252117,14.0419381],[100.5310588,14.0406445],[100.531993,14.0416619],[100.5332266,14.0414332],[100.5346546,14.0421718],[100.5367402,14.0415741],[100.5373102,14.0434415],[100.5401614,14.0469776],[100.5421328,14.0461996],[100.5438924,14.048531],[100.5461602,14.0501117],[100.5494365,14.0496863],[100.5512427,14.0528379],[100.5534772,14.0509547],[100.5546856,14.0483333],[100.5549756,14.0451825],[100.5545639,14.0420195],[100.5528328,14.0395137],[100.5474865,14.0356193],[100.546106,14.0342504]]]}},{"type":"Feature","properties":{"id":"TH-LAO-6130709","nameTh":"บางโพธิ์เหนือ","type":"subdistrict_admin_org"},"geometry":{"type":"Polygon","coordinates":[[[100.546106,14.0342504],[100.5446139,14.0354088],[100.5436617,14.0352553],[100.5424565,14.0340393],[100.5412114,14.0339882],[100.5341695,14.0361605],[100.5295075,14.0370286],[100.5252628,14.0373924],[100.5252117,14.0419381],[100.5199785,14.0444097],[100.5189807,14.0458689],[100.5185204,14.0477043],[100.5129006,14.0459278],[100.5116871,14.0465405],[100.5109403,14.0478998],[100.5069871,14.0520728],[100.5054883,14.0505642],[100.5049239,14.0507142],[100.5047374,14.0504404],[100.5038538,14.0510413],[100.5019648,14.0500817],[100.5015599,14.0493456],[100.497495,14.0499892],[100.4973315,14.0513685],[100.4954754,14.0519695],[100.4953786,14.0515545],[100.4932023,14.0520923],[100.4933455,14.0524675],[100.4923377,14.0531614],[100.4928803,14.0553853],[100.4908075,14.054999],[100.4893988,14.0570552],[100.4898327,14.0577077],[100.4883391,14.0582486],[100.4856634,14.0600029],[100.4859227,14.0603315],[100.4837648,14.0618638],[100.4805163,14.0572476],[100.5216302,14.0319206],[100.5316502,14.0313512],[100.5342183,14.0323324],[100.5354574,14.0318649],[100.5387827,14.0315053],[100.5414278,14.0306782],[100.5427624,14.0298352],[100.546106,14.0342504]]]}},{"type":"Feature","properties":{"id":"TH-LAO-4130303","nameTh":"สนั่นรักษ์","type":"town_municipality"},"geometry":{"type":"Polygon","coordinates":[[[100.8012151,14.060145],[100.8915619,14.0918181],[100.9141872,14.0996227],[100.9149347,14.0842664],[100.9148325,14.0682402],[100.8004888,14.0283832],[100.8013073,14.0444759],[100.8012151,14.060145]]]}},{"type":"Feature","properties":{"id":"TH-LAO-5130304","nameTh":"ธัญบุรี","type":"subdistrict_municipality"},"geometry":{"type":"Polygon","coordinates":[[[100.7554885,14.044849],[100.8012151,14.060145],[100.8013073,14.0444759],[100.8005349,14.0292284],[100.7784782,14.0219803],[100.7555875,14.0137159],[100.7199767,13.9997282],[100.7194011,13.9969756],[100.7150682,13.9950168],[100.7063677,13.9948925],[100.7069132,13.998752],[100.7098505,14.0087649],[100.7098399,14.0255427],[100.7131664,14.025351],[100.7211006,14.0306391],[100.7224047,14.0311481],[100.7316086,14.031232],[100.7315832,14.0340546],[100.7318906,14.0340568],[100.732198,14.0350752],[100.7554885,14.044849]]]}},{"type":"Feature","properties":{"id":"TH-LAO-4130302","nameTh":"บึงยี่โถ","type":"town_municipality"},"geometry":{"type":"Polygon","coordinates":[[[100.6872954,13.9834179],[100.6971994,13.9876186],[100.6972437,13.991378],[100.7062463,13.9940335],[100.7069132,13.998752],[100.7098505,14.0087649],[100.7098399,14.0255427],[100.7091097,14.0255439],[100.7091272,14.0207922],[100.6979869,14.0207929],[100.6979869,14.0204601],[100.687411,14.0159453],[100.6874138,14.0150137],[100.6640161,14.0098019],[100.6640504,13.9947002],[100.6635229,13.9792377],[100.6873209,13.9845491],[100.6872954,13.9834179]]]}},{"type":"Feature","properties":{"id":"TH-LAO-3130301","nameTh":"รังสิต","type":"city_municipality"},"geometry":{"type":"Polygon","coordinates":[[[100.6014457,13.9955253],[100.6212577,14.0002814],[100.6640161,14.0098019],[100.6640504,13.9947002],[100.6635282,13.9794318],[100.6051065,13.965786],[100.6014457,13.9955253]]]}},{"type":"Feature","properties":{"id":"TH-LAO-6130609","nameTh":"พืชอุดม","type":"subdistrict_admin_org"},"geometry":{"type":"Polygon","coordinates":[[[100.8816124,14.0064334],[100.8821887,13.9719392],[100.8809012,13.9719913],[100.8803392,13.9568551],[100.8799252,13.9568021],[100.8795603,13.9419952],[100.8950191,13.9442683],[100.9141408,13.9462063],[100.9144839,14.0084726],[100.9040728,14.0085532],[100.9035605,14.0090217],[100.8943362,14.0087651],[100.8943973,14.0068385],[100.8816124,14.0064334]]]}},{"type":"Feature","properties":{"id":"TH-LAO-6130606","nameTh":"บึงคอไห","type":"subdistrict_admin_org"},"geometry":{"type":"Polygon","coordinates":[[[100.8816124,14.0064334],[100.8815872,14.0058154],[100.8667098,14.0064607],[100.866796,14.0083557],[100.8443264,14.0093964],[100.8459423,14.0441271],[100.9148325,14.0682402],[100.9144839,14.0084726],[100.9040728,14.0085532],[100.9035605,14.0090217],[100.8943362,14.0087651],[100.8943973,14.0068385],[100.8816124,14.0064334]]]}},{"type":"Feature","properties":{"id":"TH-LAO-6130610","nameTh":"ลำไทร","type":"subdistrict_admin_org"},"geometry":{"type":"Polygon","coordinates":[[[100.8395146,13.9365499],[100.8795603,13.9419952],[100.8799252,13.9568021],[100.8803392,13.9568551],[100.8809012,13.9719913],[100.8821887,13.9719392],[100.8815872,14.0058154],[100.8667098,14.0064607],[100.866796,14.0083557],[100.8443264,14.0093964],[100.8415425,13.9517467],[100.8395146,13.9365499]],[[100.8517413,13.9530623],[100.8510389,13.9529717],[100.851016,13.9631076],[100.8555731,13.9632742],[100.8724008,13.9626458],[100.8766773,13.9627869],[100.8764629,13.9563653],[100.8769744,13.9564298],[100.8767826,13.9492668],[100.8640489,13.9475362],[100.8640652,13.9478953],[100.8546996,13.9466567],[100.8508441,13.9466035],[100.8517413,13.9530623]]]}},{"type":"Feature","properties":{"id":"TH-LAO-5130604","nameTh":"ลำไทร","type":"subdistrict_municipality"},"geometry":{"type":"Polygon","coordinates":[[[100.8769744,13.9564298],[100.8764629,13.9563653],[100.8766773,13.9627869],[100.8724008,13.9626458],[100.8555731,13.9632742],[100.851016,13.9631076],[100.8510389,13.9529717],[100.8517413,13.9530623],[100.8508441,13.9466035],[100.8546996,13.9466567],[100.8640652,13.9478953],[100.8640489,13.9475362],[100.8767826,13.9492668],[100.8769744,13.9564298]]]}},{"type":"Feature","properties":{"id":"TH-LAO-6130608","nameTh":"บึงทองหลาง","type":"subdistrict_admin_org"},"geometry":{"type":"Polygon","coordinates":[[[100.8004888,14.0283832],[100.7928908,13.9485265],[100.792465,13.9315445],[100.8395146,13.9365499],[100.8415425,13.9517467],[100.8459423,14.0441271],[100.8004888,14.0283832]]]}},{"type":"Feature","properties":{"id":"TH-LAO-6130611","nameTh":"ลำลูกกา","type":"subdistrict_admin_org"},"geometry":{"type":"Polygon","coordinates":[[[100.8005349,14.0292284],[100.7928908,13.9485265],[100.792465,13.9315445],[100.7701965,13.9243388],[100.7707322,13.9400286],[100.7723243,13.9548488],[100.7623997,13.9515018],[100.7624904,13.9524964],[100.74949,13.9476416],[100.7497841,13.9569281],[100.7487819,13.968286],[100.748967,13.9726343],[100.7493686,13.9743264],[100.7534807,13.9828552],[100.7541596,13.9977675],[100.7555875,14.0137159],[100.7784782,14.0219803],[100.8005349,14.0292284]]]}},{"type":"Feature","properties":{"id":"TH-LAO-6130607","nameTh":"บึงคำพร้อย","type":"subdistrict_admin_org"},"geometry":{"type":"Polygon","coordinates":[[[100.7063677,13.9948925],[100.7056315,13.988648],[100.7058859,13.9727154],[100.7065626,13.9707175],[100.7057781,13.9644017],[100.7054958,13.9556548],[100.7063337,13.9210582],[100.7055424,13.9210231],[100.7053104,13.9201991],[100.7053669,13.9168203],[100.7285293,13.9175496],[100.7284096,13.9229821],[100.7264113,13.9248631],[100.7260144,13.9257834],[100.7257381,13.9319143],[100.7265852,13.9469649],[100.7287478,13.9470027],[100.7287613,13.9472847],[100.7411554,13.9471327],[100.74949,13.9476416],[100.7497841,13.9569281],[100.7487819,13.968286],[100.748967,13.9726343],[100.7493686,13.9743264],[100.7534807,13.9828552],[100.7541596,13.9977675],[100.7555875,14.0137159],[100.7199767,13.9997282],[100.7194011,13.9969756],[100.7150682,13.9950168],[100.7063677,13.9948925]]]}},{"type":"Feature","properties":{"id":"TH-LAO-5130605","nameTh":"ลำลูกกา","type":"subdistrict_municipality"},"geometry":{"type":"Polygon","coordinates":[[[100.7285293,13.9175496],[100.7526675,13.9184792],[100.7701965,13.9243388],[100.7707322,13.9400286],[100.7723243,13.9548488],[100.7623997,13.9515018],[100.7624904,13.9524964],[100.7495522,13.9476436],[100.7411554,13.9471327],[100.7287613,13.9472847],[100.7287478,13.9470027],[100.7265852,13.9469649],[100.7257381,13.9319143],[100.7260144,13.9257834],[100.7264113,13.9248631],[100.7284096,13.9229821],[100.7285293,13.9175496]]]}},{"type":"Feature","properties":{"id":"TH-LAO-4130603","nameTh":"ลาดสวาย","type":"town_municipality"},"geometry":{"type":"Polygon","coordinates":[[[100.686978,13.916278],[100.7053669,13.9168203],[100.7053104,13.9201991],[100.7055424,13.9210231],[100.7063337,13.9210582],[100.7054958,13.9556548],[100.7057781,13.9644017],[100.7065626,13.9707175],[100.7058859,13.9727154],[100.7056315,13.988648],[100.7062463,13.9940335],[100.6972437,13.991378],[100.6971994,13.9876186],[100.6872954,13.9834179],[100.6873209,13.9845491],[100.6635229,13.9792377],[100.6625687,13.9304317],[100.6897725,13.9310455],[100.6893239,13.9258125],[100.6886831,13.9250461],[100.688542,13.923872],[100.6878677,13.9228967],[100.6871442,13.9208368],[100.6875195,13.9173209],[100.686978,13.916278]]]}},{"type":"Feature","properties":{"id":"TH-LAO-4130602","nameTh":"ลำสามแก้ว","type":"town_municipality"},"geometry":{"type":"Polygon","coordinates":[[[100.6231759,13.9700974],[100.6238086,13.9666838],[100.6245469,13.9658854],[100.6391453,13.9584947],[100.640364,13.9572654],[100.6403947,13.9577505],[100.6520002,13.9603946],[100.6509227,13.930897],[100.6625687,13.9304317],[100.6635282,13.9794318],[100.6231759,13.9700974]]]}},{"type":"Feature","properties":{"id":"TH-LAO-4130601","nameTh":"คูคต","type":"town_municipality"},"geometry":{"type":"Polygon","coordinates":[[[100.6397807,13.9373707],[100.6396316,13.9323762],[100.6402879,13.9316996],[100.6413121,13.9313114],[100.6509227,13.930897],[100.6520002,13.9603946],[100.6403947,13.9577505],[100.640364,13.9572654],[100.6391453,13.9584947],[100.6245469,13.9658854],[100.6238086,13.9666838],[100.6231759,13.9700974],[100.6051065,13.965786],[100.6066119,13.9536483],[100.6074576,13.9537291],[100.6073299,13.9550185],[100.6128168,13.9551693],[100.6226141,13.9501896],[100.6245989,13.9487696],[100.6250812,13.947359],[100.6248299,13.9379817],[100.6397807,13.9373707]]]}},{"type":"Feature","properties":{"id":"TH-LAO-6130203","nameTh":"คลองเจ็ด","type":"subdistrict_admin_org"},"geometry":{"type":"Polygon","coordinates":[[[100.7441707,14.0401491],[100.7555719,14.0448475],[100.7551769,14.2111236],[100.7433889,14.2055383],[100.7436641,14.2040254],[100.7437893,14.0810685],[100.7441707,14.0401491]]]}},{"type":"Feature","properties":{"id":"TH-LAO-6130206","nameTh":"คลองหก","type":"subdistrict_admin_org"},"geometry":{"type":"Polygon","coordinates":[[[100.7433889,14.2055383],[100.720867,14.1946398],[100.7209306,14.0305258],[100.7224047,14.0311481],[100.7316086,14.031232],[100.7315832,14.0340546],[100.7318906,14.0340568],[100.732198,14.0350752],[100.7441707,14.0401491],[100.7437893,14.0810685],[100.7436641,14.2040254],[100.7433889,14.2055383]]]}},{"type":"Feature","properties":{"id":"TH-LAO-6130207","nameTh":"คลองห้า","type":"subdistrict_admin_org"},"geometry":{"type":"Polygon","coordinates":[[[100.6986898,14.1842913],[100.6988836,14.0207928],[100.7091272,14.0207922],[100.7091097,14.0255439],[100.7131664,14.025351],[100.7209306,14.0305258],[100.720867,14.1946398],[100.6986898,14.1842913]]]}},{"type":"Feature","properties":{"id":"TH-LAO-6130205","nameTh":"คลองสี่","type":"subdistrict_admin_org"},"geometry":{"type":"Polygon","coordinates":[[[100.6986898,14.1842913],[100.6988836,14.0207928],[100.6979869,14.0207929],[100.6979869,14.0204601],[100.687411,14.0159453],[100.6874138,14.0150137],[100.6756346,14.0124551],[100.6746251,14.170884],[100.6743851,14.1717904],[100.6986898,14.1842913]]]}},{"type":"Feature","properties":{"id":"TH-LAO-6130204","nameTh":"คลองสาม","type":"subdistrict_admin_org"},"geometry":{"type":"Polygon","coordinates":[[[100.6532765,14.0073971],[100.6756346,14.0124551],[100.6746251,14.170884],[100.6743851,14.1717904],[100.6524608,14.1602311],[100.6532765,14.0073971]]]}},{"type":"Feature","properties":{"id":"TH-LAO-4130201","nameTh":"ท่าโขลง","type":"town_municipality"},"geometry":{"type":"Polygon","coordinates":[[[100.6524608,14.1602311],[100.6197289,14.1431055],[100.6198515,14.1297766],[100.6184417,14.1298936],[100.6184363,14.1307806],[100.6130343,14.130765],[100.608775,14.1348122],[100.6073883,14.1356887],[100.6062544,14.1356807],[100.6051459,14.1350987],[100.6032575,14.1353452],[100.6017704,14.1349627],[100.6012214,14.1342752],[100.5974635,14.1323162],[100.5933965,14.1323472],[100.5894521,14.1311221],[100.5885993,14.1306828],[100.5875865,14.1295714],[100.5864139,14.1291372],[100.583349,14.129039],[100.5822118,14.1286615],[100.5868392,14.0897822],[100.5905035,14.0662032],[100.5929797,14.0664367],[100.5960105,14.0658394],[100.6178704,14.0651181],[100.6530158,14.0657763],[100.6524608,14.1602311]]]}},{"type":"Feature","properties":{"id":"TH-LAO-4130202","nameTh":"คลองหลวง","type":"town_municipality"},"geometry":{"type":"Polygon","coordinates":[[[100.6014457,13.9955253],[100.6532765,14.0073971],[100.6530158,14.0657763],[100.6178704,14.0651181],[100.5960105,14.0658394],[100.5929797,14.0664367],[100.5905035,14.0662032],[100.5930995,14.0490996],[100.597348,14.028596],[100.5986582,14.0189284],[100.5992506,14.0113621],[100.6014457,13.9955253]]]}},{"type":"Feature","properties":{"id":"TH-LAO-6130402","nameTh":"นพรัตน์","type":"subdistrict_admin_org"},"geometry":{"type":"Polygon","coordinates":[[[100.891523,14.2760439],[100.8915329,14.2219706],[100.8872545,14.2218166],[100.8869954,14.2230136],[100.8798659,14.2230314],[100.8799839,14.1940189],[100.8574077,14.1940501],[100.8575982,14.1485711],[100.846242,14.1484995],[100.8460438,14.2542561],[100.891523,14.2760439]]]}},{"type":"Feature","properties":{"id":"TH-LAO-6130407","nameTh":"ศาลาครุ","type":"subdistrict_admin_org"},"geometry":{"type":"Polygon","coordinates":[[[100.8915769,14.2436202],[100.8915329,14.2219706],[100.8872545,14.2218166],[100.8869954,14.2230136],[100.8798659,14.2230314],[100.8799839,14.1940189],[100.8574077,14.1940501],[100.8576035,14.1479937],[100.8687889,14.1480478],[100.8687954,14.1682481],[100.8800107,14.1682248],[100.8800255,14.1819752],[100.8921745,14.1819817],[100.8921638,14.1824391],[100.9138058,14.1823951],[100.9140203,14.2215155],[100.9466119,14.2372244],[100.946864,14.2394897],[100.9466379,14.2443881],[100.9457751,14.2461939],[100.9460792,14.2486192],[100.9455582,14.2496252],[100.9471018,14.2501977],[100.9472864,14.252529],[100.9484107,14.2541964],[100.9494803,14.2548914],[100.9483361,14.2575909],[100.9497263,14.2580481],[100.9508867,14.2599821],[100.9510024,14.261389],[100.9514141,14.2621089],[100.9506669,14.2627227],[100.9508935,14.2633369],[100.9503793,14.2642214],[100.9499586,14.2664479],[100.9503724,14.2682874],[100.9520756,14.2703535],[100.9516557,14.2720003],[100.8922322,14.2436424],[100.8915769,14.2436202]]]}},{"type":"Feature","properties":{"id":"TH-LAO-6130408","nameTh":"หนองสามวัง","type":"subdistrict_municipality"},"geometry":{"type":"Polygon","coordinates":[[[100.9138058,14.1823951],[100.9136818,14.1141699],[100.9141872,14.0996227],[100.8465769,14.075906],[100.846242,14.1484995],[100.8575982,14.1485711],[100.8576035,14.1479937],[100.8687889,14.1480478],[100.8687954,14.1682481],[100.8800107,14.1682248],[100.8800255,14.1819752],[100.8921745,14.1819817],[100.8921638,14.1824391],[100.9138058,14.1823951]]]}},{"type":"Feature","properties":{"id":"TH-LAO-6130403","nameTh":"บึงกาสาม","type":"subdistrict_admin_org"},"geometry":{"type":"Polygon","coordinates":[[[100.8231256,14.2455593],[100.8231236,14.2433866],[100.8460438,14.2542561],[100.8462115,14.1570952],[100.8235171,14.1573312],[100.8235195,14.1568147],[100.8119691,14.1566881],[100.811978,14.1549964],[100.8007517,14.1549274],[100.8003956,14.2325698],[100.8212008,14.2425134],[100.8225367,14.2439885],[100.8231256,14.2455593]]]}},{"type":"Feature","properties":{"id":"TH-LAO-6130406","nameTh":"บึงบา","type":"subdistrict_admin_org"},"geometry":{"type":"Polygon","coordinates":[[[100.8007517,14.1549274],[100.801289,14.0601707],[100.8465769,14.075906],[100.8462115,14.1570952],[100.8346733,14.1571173],[100.835018,14.1116998],[100.8122581,14.111402],[100.811978,14.1549964],[100.8007517,14.1549274]]]}},{"type":"Feature","properties":{"id":"TH-LAO-5130401","nameTh":"หนองเสือ","type":"subdistrict_municipality"},"geometry":{"type":"Polygon","coordinates":[[[100.8235171,14.1573312],[100.8346733,14.1574112],[100.835018,14.1116998],[100.8122581,14.111402],[100.8119691,14.1566881],[100.8235195,14.1568147],[100.8235171,14.1573312]]]}},{"type":"Feature","properties":{"id":"TH-LAO-6130404","nameTh":"บึงชำอ้อ","type":"subdistrict_admin_org"},"geometry":{"type":"Polygon","coordinates":[[[100.7897457,14.1243812],[100.7897311,14.128385],[100.7955058,14.128463],[100.7955238,14.1309028],[100.8008818,14.1309725],[100.8003956,14.2325698],[100.7551769,14.2111236],[100.7554413,14.1157903],[100.7670524,14.1158035],[100.7670338,14.1199388],[100.778315,14.1200569],[100.7783031,14.1243694],[100.7897457,14.1243812]]]}},{"type":"Feature","properties":{"id":"TH-LAO-6130405","nameTh":"บึงบอน","type":"subdistrict_admin_org"},"geometry":{"type":"Polygon","coordinates":[[[100.7897457,14.1243812],[100.7897311,14.128385],[100.7955058,14.128463],[100.7955238,14.1309028],[100.8008818,14.1309725],[100.801289,14.0601707],[100.7555719,14.0448475],[100.7554413,14.1157903],[100.7670524,14.1158035],[100.7670338,14.1199388],[100.778315,14.1200569],[100.7783031,14.1243694],[100.7897457,14.1243812]]]}}]}