{"type":"FeatureCollection","features":[{"type":"Feature","properties":{"provinceCode":"36","nameTh":"ชัยภูมิ","nameEn":"Chaiyaphum"},"geometry":{"type":"Polygon","coordinates":[[[102.1834825,16.5041597],[102.1907569,16.5031857],[102.1906577,16.5013135],[102.1892013,16.5013753],[102.1922429,16.4986646],[102.1943565,16.4990581],[102.1937288,16.501581],[102.1958058,16.500386],[102.196057,16.5019719],[102.1979131,16.5017482],[102.1984924,16.5043893],[102.2058631,16.5031677],[102.2040392,16.500362],[102.206649,16.4980757],[102.2091033,16.4978648],[102.2128178,16.501714],[102.2142454,16.5013816],[102.2123916,16.499017],[102.2179787,16.4977928],[102.2170265,16.4935956],[102.2287451,16.4866695],[102.2281228,16.4841104],[102.2316878,16.4840757],[102.2348133,16.4864026],[102.2420274,16.480255],[102.2404507,16.4787458],[102.2426126,16.4772772],[102.2420144,16.4741675],[102.244297,16.4729612],[102.2440663,16.4694477],[102.2569499,16.4666713],[102.2553306,16.4610706],[102.2591076,16.4598641],[102.2593356,16.4614795],[102.2645954,16.4618679],[102.2666768,16.4602782],[102.2658345,16.4593368],[102.2678435,16.4588429],[102.2669852,16.4568596],[102.2680742,16.4574847],[102.2692356,16.4556146],[102.270802,16.4582333],[102.271207,16.4568236],[102.2734198,16.4560185],[102.2739616,16.457832],[102.2765687,16.4558744],[102.2755549,16.457567],[102.2766942,16.4605202],[102.278856,16.4604508],[102.2774532,16.4587479],[102.2780943,16.4568367],[102.279894,16.4589254],[102.2830993,16.4581974],[102.2844742,16.455784],[102.2831124,16.4549291],[102.287247,16.4532302],[102.287706,16.4547072],[102.2887871,16.4530738],[102.2893219,16.4541252],[102.291302,16.4487228],[102.2931796,16.4487047],[102.2925695,16.4465282],[102.2951578,16.4458529],[102.2962884,16.4473517],[102.3007688,16.4450508],[102.3009617,16.4482428],[102.3045788,16.448165],[102.3069802,16.4512948],[102.3117737,16.4504838],[102.3111426,16.4547599],[102.3134799,16.4534276],[102.3173616,16.4559021],[102.3182073,16.4518656],[102.3195899,16.4523155],[102.3179315,16.4490505],[102.3199863,16.4476153],[102.3191489,16.4457712],[102.3212896,16.4460295],[102.3218941,16.4480636],[102.3236236,16.4452564],[102.325168,16.4477135],[102.3297904,16.445448],[102.3320259,16.4472247],[102.3324277,16.4448476],[102.3344624,16.4465884],[102.3359925,16.4447468],[102.3359831,16.4478654],[102.3392745,16.4457841],[102.3410919,16.4475496],[102.3432924,16.4462053],[102.3422693,16.4488176],[102.3455093,16.4496667],[102.3460396,16.451645],[102.3485017,16.4502223],[102.3499033,16.4520482],[102.3520618,16.4504957],[102.3538418,16.4512081],[102.35522,16.449129],[102.3565118,16.4505449],[102.3579134,16.4478274],[102.359329,16.4501708],[102.3626718,16.4502067],[102.3622654,16.4527203],[102.3651667,16.4529713],[102.3659072,16.4509863],[102.364279,16.4494606],[102.3684347,16.4473994],[102.3659212,16.4464921],[102.3667809,16.4417715],[102.365405,16.438171],[102.370649,16.4389781],[102.3734328,16.4355924],[102.3763031,16.4347613],[102.3757415,16.438177],[102.3777368,16.4383402],[102.3774081,16.4400813],[102.3818961,16.4428854],[102.3824544,16.445181],[102.3838749,16.4417986],[102.3848643,16.4452],[102.3905796,16.4428791],[102.3915987,16.4453616],[102.3930094,16.4452364],[102.3925782,16.447006],[102.3942466,16.4457608],[102.3947256,16.4469997],[102.3971521,16.445699],[102.3991458,16.4467715],[102.4001055,16.4492524],[102.3980271,16.4490843],[102.3993587,16.45127],[102.397381,16.4527742],[102.3962841,16.4505607],[102.3947655,16.4528978],[102.3969032,16.4534496],[102.3943479,16.4546789],[102.397496,16.4578692],[102.3941937,16.4588821],[102.3988798,16.4590314],[102.3980895,16.4606149],[102.3993205,16.462004],[102.3952308,16.4630324],[102.3975048,16.4638156],[102.3967586,16.46645],[102.3987975,16.4654977],[102.4008747,16.4675178],[102.4009834,16.4647201],[102.4033484,16.4657935],[102.4018552,16.4631291],[102.4052934,16.4621031],[102.4039457,16.4604561],[102.4053393,16.4601804],[102.4052263,16.4565779],[102.4083166,16.4530173],[102.4078297,16.4504826],[102.4097779,16.4473412],[102.4089971,16.4450637],[102.4062516,16.4437733],[102.4054598,16.4394678],[102.4065736,16.4400416],[102.4077077,16.4351433],[102.4154315,16.4267883],[102.4157341,16.4224854],[102.4178831,16.420375],[102.4220896,16.4196143],[102.4253581,16.4146815],[102.4304847,16.4130467],[102.4350215,16.4091218],[102.4432842,16.4077924],[102.449307,16.3971557],[102.4588677,16.3946878],[102.4469663,16.3786708],[102.446666,16.3581547],[102.444155,16.3465694],[102.4358716,16.335097],[102.4372895,16.3278044],[102.4300096,16.3222482],[102.4226587,16.3084483],[102.4171906,16.292467],[102.4168353,16.2861523],[102.4108183,16.2712462],[102.4131953,16.260546],[102.4178343,16.2531207],[102.4083146,16.2478577],[102.4031242,16.242879],[102.3848453,16.2133606],[102.3647666,16.1883736],[102.3453171,16.1605562],[102.3394794,16.1468227],[102.334301,16.1395234],[102.3150994,16.1151342],[102.2830894,16.085872],[102.2807035,16.0775332],[102.279913,16.072024],[102.2828,16.0700702],[102.2864049,16.0700264],[102.2856895,16.067715],[102.2878963,16.0623038],[102.2869803,16.0608899],[102.2977378,16.0489139],[102.2995294,16.0436604],[102.3025089,16.0408805],[102.3023483,16.0383131],[102.3125696,16.0424068],[102.3127954,16.0401882],[102.3161363,16.0378165],[102.3216615,16.0371185],[102.3212654,16.0359175],[102.3267124,16.0300794],[102.332392,16.0348498],[102.3350621,16.0351737],[102.3366255,16.0387693],[102.3376461,16.0374641],[102.3384789,16.0386454],[102.3419922,16.0350599],[102.3441971,16.0353189],[102.3447669,16.0301068],[102.3483489,16.0298962],[102.3480894,16.0281595],[102.3503239,16.0283602],[102.34944,16.0267213],[102.3521802,16.0261636],[102.349558,16.0230132],[102.3519898,16.022375],[102.3527478,16.0200697],[102.3532404,16.0159206],[102.3514196,16.0096918],[102.3558146,16.009149],[102.3540798,16.0080468],[102.3565971,16.0069012],[102.3550931,16.0051445],[102.3595386,16.0052635],[102.3592995,16.0025565],[102.3641093,16.001271],[102.3648242,16.0026323],[102.3671764,16.0019258],[102.3683407,16.0069344],[102.3696378,16.0033571],[102.3717323,16.0026449],[102.3693425,15.9996195],[102.3710379,15.9979931],[102.3725999,15.9988567],[102.3732049,15.9959962],[102.3751056,15.9962954],[102.373768,15.9987679],[102.3749068,15.9999793],[102.3755383,15.9977921],[102.378783,15.996383],[102.3768701,15.9952335],[102.3779388,15.9943265],[102.3797854,15.9953037],[102.3825284,15.9937421],[102.3820498,15.9959401],[102.3844431,15.9972661],[102.3854259,15.9958058],[102.3834404,15.9952279],[102.3833734,15.9923866],[102.3867604,15.9934072],[102.3829607,15.9901502],[102.3854209,15.9870344],[102.3834223,15.9826661],[102.3859047,15.980879],[102.3835143,15.9787016],[102.3810813,15.9804179],[102.3800848,15.9777321],[102.3717329,15.9750792],[102.3723091,15.967779],[102.3695791,15.9653931],[102.3655429,15.9654354],[102.3683032,15.9644604],[102.3662862,15.9618886],[102.3670436,15.9551557],[102.3707569,15.9585377],[102.3716034,15.9574458],[102.3691739,15.9531726],[102.3742709,15.9543341],[102.373875,15.9505844],[102.3706799,15.9491329],[102.3746579,15.946327],[102.3703645,15.9459162],[102.3688743,15.9483381],[102.3656706,15.944702],[102.3675286,15.9438065],[102.3653187,15.9404024],[102.3658796,15.9388261],[102.3624842,15.9361013],[102.3645516,15.9342936],[102.3637196,15.9325217],[102.3577053,15.93267],[102.3549837,15.9307503],[102.3558685,15.928267],[102.3570919,15.9305548],[102.3621749,15.9286108],[102.3608947,15.9264866],[102.3582543,15.9267097],[102.3606868,15.9242937],[102.3584874,15.9226128],[102.3615022,15.9202968],[102.3588965,15.9192988],[102.358949,15.9148409],[102.3559034,15.9113582],[102.3559476,15.9087932],[102.3530031,15.9082007],[102.353235,15.9005122],[102.3495764,15.8998415],[102.3492975,15.8956522],[102.3458535,15.8888418],[102.3406822,15.8874178],[102.3434181,15.881928],[102.3381078,15.879957],[102.3367024,15.8761594],[102.3382151,15.8738066],[102.3355544,15.8714124],[102.325652,15.8704007],[102.325931,15.8665513],[102.3203412,15.8653852],[102.3211985,15.8611869],[102.3197511,15.8593994],[102.3221329,15.8568502],[102.3185388,15.8553125],[102.3192413,15.8531141],[102.3171591,15.8511811],[102.3207916,15.8479124],[102.3194129,15.8469938],[102.3183038,15.8493068],[102.3156087,15.8469391],[102.3190688,15.8448336],[102.3191396,15.8416474],[102.3218111,15.842277],[102.3246965,15.8291684],[102.319493,15.8257828],[102.3213239,15.825181],[102.3226795,15.8269905],[102.3260698,15.8213339],[102.326971,15.8170914],[102.3249752,15.8184127],[102.3243958,15.8160075],[102.3285908,15.8111352],[102.328902,15.8088847],[102.3267025,15.8094319],[102.3259408,15.8079247],[102.3276907,15.8035363],[102.3243747,15.8013604],[102.3234429,15.8026626],[102.3249556,15.8048512],[102.319065,15.8043752],[102.3180405,15.8074245],[102.3123941,15.8081507],[102.312325,15.8003061],[102.3107384,15.799114],[102.3091329,15.8011418],[102.308031,15.8005904],[102.3074344,15.7928514],[102.3025768,15.790079],[102.2955967,15.7892683],[102.2930615,15.7851661],[102.285962,15.7873351],[102.2844522,15.7864105],[102.2852211,15.7835259],[102.2828167,15.7827969],[102.2797586,15.7844888],[102.2764985,15.7808983],[102.2695918,15.7852326],[102.2680579,15.7824951],[102.2656626,15.7833558],[102.2637937,15.7812149],[102.261503,15.7830707],[102.2593564,15.7812225],[102.2564966,15.7815729],[102.2558654,15.7748081],[102.2582844,15.7723214],[102.2521401,15.7700125],[102.2525782,15.7644983],[102.2505603,15.7627344],[102.2523585,15.7597986],[102.2482757,15.7595421],[102.2467559,15.7574607],[102.252682,15.7552237],[102.2529573,15.7528866],[102.2480003,15.7494242],[102.2438256,15.752004],[102.2415206,15.7489522],[102.2376562,15.7485151],[102.2323747,15.7433922],[102.2305463,15.7457418],[102.2277453,15.7454419],[102.227053,15.7484584],[102.2196412,15.7467836],[102.2232811,15.7508375],[102.2185816,15.7526627],[102.2159213,15.7499459],[102.2143114,15.7546354],[102.2075908,15.7539746],[102.2050449,15.7572734],[102.2029036,15.7518598],[102.2001889,15.7497736],[102.2013062,15.7484921],[102.2034491,15.749942],[102.2053374,15.7491874],[102.2015367,15.739065],[102.1993202,15.7402582],[102.1960622,15.7388867],[102.1931771,15.7416034],[102.1915226,15.7388599],[102.1877368,15.7388027],[102.1873108,15.7411004],[102.1849558,15.7400985],[102.1829498,15.7431563],[102.187278,15.7456001],[102.1861585,15.7475411],[102.1819938,15.7445027],[102.1797684,15.7477761],[102.1783677,15.7440375],[102.1758789,15.7466131],[102.1729608,15.744023],[102.1644473,15.7444687],[102.1632189,15.7428258],[102.1667216,15.7411239],[102.1631284,15.7371949],[102.1630508,15.7405529],[102.1560499,15.7412498],[102.1576136,15.7347034],[102.1547367,15.7338954],[102.1566115,15.7317859],[102.1554071,15.7306125],[102.1575674,15.7290731],[102.1604099,15.7307191],[102.1624628,15.7269672],[102.1575355,15.7240407],[102.1535088,15.7261773],[102.1560069,15.7234931],[102.1563236,15.7197954],[102.1538449,15.7185568],[102.1529499,15.7222834],[102.1508667,15.7218597],[102.1532239,15.7165424],[102.1501014,15.7125599],[102.1512334,15.7100263],[102.1469481,15.710112],[102.1496003,15.709246],[102.1498097,15.7070902],[102.1478896,15.7059359],[102.1432262,15.7068104],[102.1449197,15.7009953],[102.1430969,15.6974654],[102.1447768,15.6900768],[102.1438831,15.6875145],[102.1469051,15.684872],[102.1433738,15.6822693],[102.1444166,15.678739],[102.1411611,15.6796748],[102.1431624,15.6767371],[102.1407292,15.6774158],[102.1371117,15.671459],[102.1348578,15.6712154],[102.1356712,15.6738301],[102.1323698,15.6749844],[102.1322364,15.6717742],[102.1276959,15.6707525],[102.1322314,15.6672983],[102.1314308,15.6664378],[102.1296448,15.6680541],[102.1281982,15.665411],[102.1254341,15.6662919],[102.1276556,15.6634874],[102.1239113,15.6625632],[102.1257749,15.658885],[102.1287069,15.6595687],[102.1279866,15.6510529],[102.1243182,15.6527914],[102.1239316,15.6551132],[102.1189657,15.6531368],[102.1194661,15.6515934],[102.1215809,15.6514883],[102.1212648,15.6460674],[102.1198489,15.6480344],[102.11769,15.6460342],[102.1146779,15.6474349],[102.1132173,15.6444936],[102.1151291,15.6430656],[102.1129073,15.6394419],[102.1113127,15.6401463],[102.1116869,15.6457357],[102.1110104,15.6440064],[102.1081922,15.6441524],[102.1068619,15.6402439],[102.1051803,15.6408664],[102.1018877,15.6383692],[102.1035027,15.6370544],[102.1063945,15.6384572],[102.1051968,15.6360794],[102.1059816,15.633238],[102.0994202,15.6361194],[102.0991939,15.633129],[102.1009817,15.6320554],[102.0999732,15.6302621],[102.0954751,15.6294665],[102.0981466,15.6317172],[102.0953197,15.6339618],[102.0917617,15.6274492],[102.0903951,15.6335504],[102.0886049,15.6342835],[102.0859037,15.6302363],[102.0897297,15.6269321],[102.0833105,15.6269185],[102.0869696,15.6255372],[102.0837584,15.6212204],[102.0828334,15.6220973],[102.0850874,15.6243638],[102.080723,15.6259215],[102.0799808,15.6244102],[102.0820341,15.6230007],[102.0807681,15.6219231],[102.0746176,15.6240563],[102.0720553,15.6036538],[102.0669975,15.5948915],[102.0605457,15.588443],[102.0620881,15.5819269],[102.0541676,15.5746259],[102.0379844,15.5487719],[102.0426262,15.5286594],[102.0358213,15.512053],[102.0323543,15.4985383],[102.0357337,15.4819878],[102.034962,15.4779731],[102.0096509,15.4579662],[102.0014347,15.4604346],[101.9995862,15.4624508],[101.9891498,15.4646213],[101.9648156,15.4562274],[101.953303,15.4546918],[101.9373626,15.4564322],[101.9368119,15.4553894],[101.9385858,15.4545514],[101.9367856,15.4492426],[101.9352978,15.4492451],[101.9358952,15.4474136],[101.9332154,15.4485515],[101.9314563,15.4448916],[101.9317305,15.4361706],[101.9211302,15.4350684],[101.9149265,15.4370206],[101.9123898,15.4355902],[101.9110148,15.4334491],[101.9107369,15.4216705],[101.8988493,15.4090606],[101.894286,15.4015938],[101.8907095,15.3986732],[101.8799017,15.3944391],[101.8787526,15.3891033],[101.8387498,15.414639],[101.827919,15.4139544],[101.8227388,15.4155599],[101.817856,15.4195318],[101.8051107,15.4209995],[101.802267,15.420468],[101.8057016,15.4126215],[101.8018166,15.4032574],[101.7952963,15.3993024],[101.7835001,15.3867282],[101.7785815,15.3839811],[101.7616734,15.3813658],[101.7202607,15.3848337],[101.7167812,15.3865895],[101.714326,15.3903068],[101.7024762,15.3944034],[101.6862651,15.3921269],[101.6667582,15.4005219],[101.6568362,15.4016754],[101.64737,15.3918399],[101.6191016,15.3704396],[101.6122566,15.373556],[101.6057609,15.3806914],[101.5946172,15.377443],[101.5911457,15.3782563],[101.5897675,15.3768601],[101.590143,15.3740268],[101.5892978,15.3748704],[101.5882962,15.3734999],[101.5660552,15.3719606],[101.5513263,15.3856797],[101.5431558,15.4024319],[101.5396319,15.400878],[101.5367858,15.4038789],[101.535677,15.4023628],[101.5309192,15.4030407],[101.5288371,15.3987155],[101.5281373,15.4014519],[101.5246871,15.4004019],[101.5232539,15.4019555],[101.5229213,15.3989115],[101.5176591,15.3982682],[101.5158936,15.3995519],[101.51655,15.3952652],[101.5151081,15.3963278],[101.5074446,15.3902931],[101.5055128,15.3843341],[101.5033466,15.3817778],[101.500748,15.3815731],[101.4977719,15.3757903],[101.4957554,15.3756508],[101.4945022,15.3715406],[101.5006999,15.356444],[101.4615299,15.3505565],[101.4438434,15.3507511],[101.4354332,15.3481409],[101.4336002,15.3450267],[101.435229,15.3443869],[101.43153,15.3400669],[101.431549,15.3376981],[101.4283619,15.3386529],[101.428598,15.3415214],[101.4283076,15.3398603],[101.4234904,15.3375468],[101.4207512,15.3380941],[101.4222825,15.3353911],[101.419577,15.3353642],[101.4188687,15.3328201],[101.4169155,15.3320733],[101.3820211,15.3314025],[101.3825058,15.3390091],[101.3858006,15.3461943],[101.3825363,15.3460332],[101.381072,15.3440013],[101.3792566,15.3460779],[101.3758454,15.3766696],[101.3764516,15.3801921],[101.3822308,15.3878337],[101.3775542,15.3904463],[101.3776702,15.4305384],[101.3847517,15.4677754],[101.3857071,15.4865448],[101.3736854,15.5275856],[101.3731803,15.556391],[101.3699575,15.5658509],[101.3714441,15.5686003],[101.3698343,15.5730498],[101.3699748,15.5931951],[101.3793269,15.6370544],[101.388977,15.6565669],[101.3947558,15.678352],[101.3952773,15.6911645],[101.4005575,15.7057994],[101.4002523,15.7131856],[101.3969444,15.7212482],[101.404429,15.7392873],[101.3910128,15.7455828],[101.3883404,15.7438387],[101.3863667,15.7380978],[101.3814274,15.7367759],[101.3631917,15.7428443],[101.3603552,15.7459758],[101.3550747,15.7463335],[101.3510295,15.7486435],[101.3501284,15.7521484],[101.3457011,15.7522442],[101.34093,15.7561286],[101.3360204,15.7528994],[101.3361629,15.7653526],[101.339034,15.7671353],[101.3344388,15.7704573],[101.332625,15.7737682],[101.3343065,15.7757851],[101.3303182,15.7800066],[101.3294772,15.7841216],[101.3196341,15.7887395],[101.3175753,15.791789],[101.3205354,15.7968031],[101.3298364,15.8009473],[101.3314261,15.8046357],[101.326706,15.8060398],[101.3230549,15.8113095],[101.3305154,15.8301353],[101.3250579,15.8312551],[101.3245429,15.8371227],[101.3297445,15.8406749],[101.3324724,15.849095],[101.3318088,15.850622],[101.3275987,15.850715],[101.3256369,15.8524551],[101.3268829,15.8588116],[101.3287799,15.8581481],[101.3306977,15.8658218],[101.3324651,15.8816696],[101.3385888,15.8868718],[101.3482922,15.8862762],[101.3522458,15.8885801],[101.3577601,15.8972184],[101.3616343,15.900195],[101.3624103,15.9073848],[101.3698275,15.9097025],[101.3725489,15.9169632],[101.3745811,15.9183893],[101.3739785,15.9217102],[101.3670915,15.9213622],[101.3606285,15.9234945],[101.3662196,15.9351014],[101.3708553,15.9394889],[101.3719767,15.9542234],[101.3758478,15.9610733],[101.3751243,15.972913],[101.3778124,15.9893986],[101.376302,16.0129706],[101.3668192,16.0472316],[101.3649755,16.0750041],[101.3530551,16.0673907],[101.3460464,16.0692452],[101.3336385,16.0934506],[101.336273,16.0964675],[101.3347268,16.1026026],[101.339172,16.1048686],[101.3366591,16.1170129],[101.3397443,16.1213775],[101.3413653,16.1400971],[101.3441677,16.1425506],[101.34231,16.1454566],[101.3420361,16.150301],[101.3448986,16.1526684],[101.3444759,16.1571041],[101.3533725,16.163447],[101.3565104,16.1737854],[101.3592812,16.1758064],[101.3623049,16.182752],[101.3712689,16.1826374],[101.3724084,16.1855625],[101.3772548,16.1853662],[101.3799587,16.188204],[101.375197,16.1967778],[101.372866,16.2049292],[101.3751037,16.214405],[101.3669082,16.2269914],[101.3706584,16.2326022],[101.3735691,16.2414926],[101.3645663,16.2458853],[101.3610966,16.2534943],[101.3562076,16.2568844],[101.3546831,16.2599198],[101.3581397,16.2684767],[101.3629274,16.2680655],[101.3682958,16.2735586],[101.3716999,16.2744998],[101.3700004,16.2766632],[101.3710305,16.2802797],[101.3679661,16.2850793],[101.3691817,16.2875171],[101.3678596,16.2943943],[101.3735453,16.3018791],[101.3749348,16.3110924],[101.3792915,16.3183888],[101.3763785,16.3233867],[101.3783826,16.3280386],[101.3764368,16.329811],[101.3789342,16.343367],[101.3773388,16.3473553],[101.3822761,16.3546053],[101.3816355,16.3582894],[101.3843277,16.3617096],[101.3925134,16.3656671],[101.3936044,16.3735554],[101.3993822,16.3770101],[101.4053089,16.3778823],[101.4090719,16.3830797],[101.4097317,16.3899431],[101.4084422,16.3932889],[101.4010305,16.3976656],[101.4009144,16.4016383],[101.4056234,16.4034894],[101.4069589,16.4078568],[101.4105816,16.407088],[101.4170842,16.4086946],[101.4198077,16.4126493],[101.4168186,16.4163538],[101.4188633,16.4180106],[101.4190076,16.4237587],[101.4227953,16.4241915],[101.4240903,16.4292375],[101.4311523,16.4344169],[101.4443425,16.4383165],[101.4501702,16.4483356],[101.4488146,16.449904],[101.4509306,16.4563867],[101.4558705,16.460466],[101.4603106,16.4611469],[101.4657469,16.4690927],[101.4677785,16.475282],[101.473507,16.4771999],[101.4748734,16.4807581],[101.4727254,16.4821448],[101.4732986,16.4890282],[101.4643285,16.4979384],[101.4636862,16.5006871],[101.4668735,16.5028677],[101.4646923,16.5084432],[101.4660145,16.5192091],[101.471349,16.5235529],[101.4720856,16.5290024],[101.475455,16.5298313],[101.4778861,16.5240405],[101.480738,16.5253298],[101.4800855,16.5274101],[101.483067,16.5242794],[101.4833499,16.5279389],[101.488644,16.5318178],[101.4902859,16.530903],[101.4895266,16.5331151],[101.4939077,16.5324273],[101.4950641,16.5357963],[101.4939288,16.5374833],[101.4960091,16.5396297],[101.4972472,16.5378482],[101.500396,16.5387152],[101.5009275,16.5365666],[101.5029108,16.5394423],[101.505129,16.5390728],[101.5045568,16.5423726],[101.50214,16.5406779],[101.5032498,16.5456748],[101.5064158,16.543042],[101.5081689,16.5447915],[101.5096327,16.5425128],[101.5130728,16.5436546],[101.5152687,16.542738],[101.5149215,16.5456941],[101.5195368,16.5495882],[101.5169679,16.5508313],[101.5172587,16.5526836],[101.5148224,16.5518653],[101.514963,16.5556778],[101.5124091,16.5548238],[101.5102379,16.5592742],[101.5082843,16.5553814],[101.4999994,16.5616067],[101.4970162,16.5608317],[101.4992527,16.5656461],[101.4963733,16.5668344],[101.4987252,16.567698],[101.4996313,16.5717635],[101.4964527,16.5693155],[101.4941879,16.570942],[101.4971447,16.5720707],[101.4995444,16.5788348],[101.4986395,16.5834557],[101.5008395,16.5884766],[101.5018465,16.5988804],[101.5000855,16.6095357],[101.5071226,16.6166418],[101.5101385,16.6149443],[101.5119274,16.6175717],[101.5185686,16.6191861],[101.5212653,16.6167745],[101.524554,16.6180759],[101.5262635,16.6207956],[101.5231064,16.6328858],[101.5141882,16.6409764],[101.5135019,16.6449611],[101.5107463,16.6470406],[101.5117567,16.6494411],[101.5087765,16.6566612],[101.5122356,16.663855],[101.5121204,16.6701837],[101.5141419,16.6721115],[101.5108592,16.6759437],[101.5111632,16.6789867],[101.5134272,16.6811312],[101.5186162,16.6794333],[101.5259992,16.6800456],[101.5359585,16.6705999],[101.5375148,16.6661756],[101.5424752,16.6662374],[101.5442565,16.6684488],[101.5460234,16.6681254],[101.5540359,16.6568525],[101.5610168,16.6540258],[101.5625436,16.6494776],[101.5649258,16.6479158],[101.5682244,16.6498727],[101.570179,16.6478456],[101.5717488,16.6482555],[101.5727706,16.6547737],[101.5771068,16.6609667],[101.5787721,16.669741],[101.5748367,16.6730395],[101.5718118,16.6803422],[101.5708864,16.691208],[101.5607773,16.6979319],[101.5585029,16.7055946],[101.5530928,16.7113954],[101.5519692,16.7153497],[101.5532489,16.7275942],[101.5598648,16.7288341],[101.5638875,16.7250517],[101.5700547,16.722927],[101.5740433,16.7223896],[101.5761313,16.7241],[101.5813228,16.7219622],[101.5855486,16.7226861],[101.591382,16.7170922],[101.5904328,16.7083949],[101.6037947,16.7070348],[101.6138687,16.6909191],[101.6201943,16.6848669],[101.626908,16.6832933],[101.6301499,16.6842831],[101.6359503,16.6805083],[101.6458143,16.6832149],[101.6497211,16.6868802],[101.6525706,16.6867245],[101.6551935,16.6887618],[101.6581146,16.6876194],[101.6661113,16.6883649],[101.665404,16.6852561],[101.6687842,16.6867898],[101.6703802,16.6854561],[101.671904,16.6878582],[101.6728664,16.6867178],[101.6744345,16.6878448],[101.6749271,16.6864367],[101.678333,16.6882282],[101.6786888,16.6843326],[101.6816467,16.6882836],[101.6858774,16.6845209],[101.6885905,16.6866934],[101.6899494,16.6845895],[101.6943354,16.6836474],[101.6952469,16.6806025],[101.6991956,16.680017],[101.6979053,16.6774501],[101.6999181,16.677474],[101.7014258,16.6795695],[101.7026744,16.6689099],[101.7068311,16.6704339],[101.7078723,16.6660661],[101.7109061,16.6667263],[101.7137057,16.6617554],[101.7170146,16.660482],[101.7169631,16.6569716],[101.7186753,16.6572615],[101.7245938,16.6520222],[101.7315191,16.6529279],[101.7308497,16.6576297],[101.7356035,16.6592753],[101.7372708,16.661887],[101.7387385,16.6603059],[101.7413241,16.6606785],[101.7440234,16.6695881],[101.7508564,16.6678236],[101.7517643,16.6656552],[101.749996,16.6640791],[101.7521748,16.6615971],[101.7500307,16.6560898],[101.7537221,16.65401],[101.7537411,16.6522325],[101.757793,16.6536978],[101.7602631,16.6520434],[101.7648422,16.6554545],[101.7676541,16.6530646],[101.7700041,16.6536126],[101.7699276,16.6518613],[101.7728312,16.6523481],[101.7722463,16.6479721],[101.7791007,16.646903],[101.7769073,16.6442057],[101.777659,16.642229],[101.7743088,16.6398397],[101.7763267,16.6383931],[101.7743876,16.6365667],[101.7741816,16.6287375],[101.7764887,16.6326719],[101.7853629,16.635972],[101.7863627,16.6402378],[101.7912132,16.6396536],[101.7946684,16.6422694],[101.7951929,16.6451903],[101.7997907,16.6451667],[101.8003291,16.6495533],[101.8042512,16.6472481],[101.8060172,16.6490533],[101.8056052,16.6529768],[101.8091538,16.6505217],[101.8134357,16.6533083],[101.8183988,16.6530294],[101.8198902,16.6548056],[101.8226093,16.6500638],[101.8223484,16.6522031],[101.8273774,16.6553529],[101.825691,16.6573922],[101.8322581,16.6584394],[101.843184,16.6542398],[101.8528554,16.6578373],[101.8539006,16.6560635],[101.8524288,16.6549045],[101.8549041,16.6511109],[101.8537638,16.6503696],[101.8597698,16.6491351],[101.8602375,16.6503186],[101.8617722,16.6479203],[101.8638189,16.6491809],[101.8643236,16.6465867],[101.8689095,16.6496479],[101.8703507,16.6451902],[101.8737775,16.6424707],[101.8755418,16.6454402],[101.8751362,16.6439725],[101.8801918,16.6461555],[101.8831621,16.643768],[101.8850126,16.6451772],[101.8897211,16.6449515],[101.8932499,16.6391878],[101.8945343,16.64039],[101.899102,16.6396003],[101.8988731,16.6366459],[101.8996515,16.6384675],[101.9016588,16.6386758],[101.9031137,16.6367659],[101.9013316,16.6352085],[101.9039667,16.6341962],[101.9040408,16.6364526],[101.9057326,16.6349182],[101.9041767,16.6294984],[101.9053793,16.628034],[101.9065983,16.6309075],[101.9086984,16.6284023],[101.9112543,16.630016],[101.9094946,16.6316164],[101.9099042,16.6336311],[101.9139128,16.6338971],[101.9198019,16.6272451],[101.9197429,16.6311943],[101.9226939,16.6312239],[101.9256659,16.6340409],[101.9299448,16.6339827],[101.9308776,16.6310236],[101.9340919,16.6341377],[101.9357461,16.6335499],[101.9350323,16.6320473],[101.9366561,16.6322071],[101.9387144,16.6336728],[101.9383209,16.6361984],[101.9408074,16.6350031],[101.9434004,16.6361443],[101.9454755,16.633255],[101.9482431,16.6347322],[101.952329,16.6308812],[101.954784,16.6304854],[101.9563572,16.6271908],[101.9505499,16.6228031],[101.952545,16.620408],[101.9523793,16.6228932],[101.9550225,16.6224534],[101.9541163,16.6208284],[101.9556018,16.6192747],[101.9545336,16.620198],[101.9533393,16.6190292],[101.9550509,16.6170905],[101.9568611,16.616616],[101.9571375,16.619875],[101.9591278,16.6198545],[101.9608016,16.6158565],[101.9632752,16.6175541],[101.963965,16.6147832],[101.9656175,16.6162927],[101.9643184,16.6191043],[101.9680599,16.6167076],[101.9690049,16.6179538],[101.970589,16.6151734],[101.9678123,16.6139906],[101.9689564,16.6115018],[101.9720135,16.6151084],[101.977371,16.609972],[101.9767984,16.6076703],[101.9786017,16.6073218],[101.9750899,16.6037493],[101.9797571,16.6029052],[101.9788466,16.6000523],[101.9808825,16.5995039],[101.9799674,16.5975403],[101.9817129,16.5987937],[101.9831301,16.5952883],[101.97916,16.59198],[101.9832893,16.5898866],[101.9806353,16.590453],[101.9793346,16.5894996],[101.9801442,16.5886174],[101.9771371,16.5872103],[101.9816886,16.587457],[101.981216,16.5847413],[101.9840301,16.5856129],[101.9833671,16.5831021],[101.9872288,16.583438],[101.9869472,16.5858854],[101.9884531,16.5838891],[101.9920511,16.584632],[101.9911872,16.5811793],[101.9878496,16.5820565],[101.988569,16.5791504],[101.9904912,16.5807764],[101.9921106,16.578398],[101.9866128,16.5776006],[101.98918,16.5756874],[101.9864843,16.5735265],[101.9887489,16.573311],[101.9888446,16.571064],[101.9909789,16.5698894],[101.9880935,16.5675859],[101.9882471,16.5660206],[101.990493,16.5673895],[101.990443,16.5642089],[101.992127,16.5655198],[101.9949666,16.5642295],[101.9943879,16.5614785],[101.9973047,16.5630203],[101.9978726,16.5655456],[101.9980937,16.5624432],[102.000058,16.5635147],[102.0029343,16.5624578],[102.0009378,16.5618354],[102.0013356,16.5606014],[102.0049917,16.5598986],[102.0061875,16.5575026],[102.0106138,16.5599],[102.0110787,16.5580379],[102.0152661,16.558478],[102.0145418,16.5571447],[102.0190266,16.5597535],[102.0189046,16.557807],[102.0220282,16.5558629],[102.0212632,16.5574391],[102.0234846,16.5584965],[102.0229635,16.5571663],[102.024946,16.5569178],[102.0220257,16.5537945],[102.0237337,16.55196],[102.0239498,16.5482559],[102.0261927,16.5464263],[102.0256356,16.545024],[102.0272063,16.546068],[102.0290898,16.5422537],[102.0304161,16.5436664],[102.0323535,16.5411649],[102.0324496,16.5329071],[102.0339952,16.5317631],[102.0300845,16.5270286],[102.0314586,16.5210744],[102.0377872,16.5143953],[102.0380617,16.5121364],[102.0427917,16.5083593],[102.0446852,16.5080962],[102.0442048,16.5100749],[102.0461517,16.5099969],[102.0457628,16.5085177],[102.0479384,16.5087419],[102.0491355,16.5063733],[102.0529505,16.5085494],[102.0524676,16.5061442],[102.0559166,16.5042167],[102.0561021,16.5059469],[102.0580185,16.5052402],[102.059912,16.5077038],[102.0604755,16.5032238],[102.0624057,16.5038855],[102.0633906,16.5066046],[102.0634373,16.5049849],[102.0650655,16.5057879],[102.0659857,16.504175],[102.0695293,16.5036905],[102.0691023,16.5013145],[102.0727648,16.503247],[102.0739873,16.5013292],[102.0716033,16.5018385],[102.0688431,16.4992017],[102.0716541,16.4978833],[102.0676104,16.4952514],[102.0676434,16.4938135],[102.0726563,16.4954943],[102.0756478,16.4926576],[102.0756503,16.494461],[102.0788578,16.496703],[102.0823907,16.4924334],[102.0852246,16.4922116],[102.0870799,16.4948265],[102.0911796,16.4938005],[102.0945396,16.4985965],[102.099577,16.494188],[102.1008631,16.4962351],[102.1034632,16.4958476],[102.1055778,16.4978849],[102.1115252,16.4946096],[102.1142676,16.4970125],[102.1227041,16.4942806],[102.1268341,16.4962487],[102.1313836,16.4958369],[102.132235,16.4972528],[102.1340879,16.4957297],[102.1349851,16.4992048],[102.1376854,16.4992718],[102.1376868,16.4977426],[102.1384391,16.5000041],[102.1404419,16.4998384],[102.141606,16.5031624],[102.144328,16.5015394],[102.1448364,16.4987808],[102.1467959,16.4991585],[102.1461529,16.5005524],[102.1485395,16.4986906],[102.1500139,16.4990356],[102.1500327,16.5008911],[102.153714,16.5011303],[102.1535718,16.5025691],[102.1583126,16.5032879],[102.1573551,16.4982923],[102.1607265,16.5013562],[102.164939,16.5016497],[102.1659248,16.4998212],[102.1634275,16.4975423],[102.1655169,16.4979461],[102.1657154,16.4965882],[102.1672979,16.4984707],[102.1670726,16.4965367],[102.1693391,16.4957806],[102.1707124,16.4972697],[102.1700123,16.4955672],[102.1726021,16.4916454],[102.1743543,16.4937216],[102.1729837,16.4960568],[102.1767153,16.4945902],[102.17764,16.4997525],[102.1820086,16.5011123],[102.1805187,16.5019506],[102.1805227,16.5054147],[102.183219,16.5062101],[102.1834825,16.5041597]]]}}]}