{"type":"FeatureCollection","features":[{"type":"Feature","properties":{"provinceCode":"24","nameTh":"ฉะเชิงเทรา","nameEn":"Chachoengsao"},"geometry":{"type":"Polygon","coordinates":[[[101.2553483,13.5652447],[101.2468717,13.5660167],[101.2458841,13.569654],[101.2372112,13.5703707],[101.2326354,13.5739219],[101.2246156,13.5762163],[101.2184053,13.575643],[101.2117148,13.5774183],[101.2122502,13.5785404],[101.2037624,13.5829393],[101.1878399,13.5851112],[101.1875026,13.5872818],[101.1844523,13.5880633],[101.1723944,13.585941],[101.1709471,13.5881532],[101.1680963,13.5870542],[101.1681085,13.5885563],[101.1635587,13.5869729],[101.1623271,13.588573],[101.154927,13.5860354],[101.1518315,13.5880331],[101.1493281,13.5857254],[101.1474286,13.5892116],[101.1445599,13.5879968],[101.1436216,13.5894002],[101.1385799,13.5861082],[101.1352755,13.5801932],[101.1293559,13.5781315],[101.1298765,13.5698485],[101.1221791,13.5650825],[101.118474,13.5648156],[101.1142493,13.5699144],[101.110289,13.5693331],[101.1024767,13.5617879],[101.1043744,13.5591541],[101.1035793,13.557933],[101.0997756,13.5568795],[101.0971252,13.5581819],[101.0970523,13.5560461],[101.0940892,13.5536356],[101.0904464,13.5533885],[101.0900897,13.5559053],[101.0883044,13.5562875],[101.0874982,13.5534337],[101.0831878,13.5524283],[101.0826496,13.5551799],[101.0716707,13.5544472],[101.0683339,13.5573452],[101.0549984,13.5522073],[101.0518427,13.557529],[101.0443768,13.5592215],[101.0406604,13.5511086],[101.0416702,13.5498863],[101.0561583,13.5477688],[101.0551126,13.5425316],[101.0570573,13.5387433],[101.0603472,13.5396871],[101.0649174,13.5376746],[101.0640714,13.5358909],[101.0659386,13.5341595],[101.0684936,13.536107],[101.0708991,13.5354296],[101.0690168,13.5326247],[101.0709681,13.5308427],[101.0697981,13.5285709],[101.0716897,13.5256482],[101.0672462,13.5252778],[101.0708264,13.5176964],[101.0680958,13.5154351],[101.0738765,13.506591],[101.0724771,13.503832],[101.0673366,13.5045338],[101.0664993,13.5097458],[101.0622458,13.5080535],[101.0526699,13.5105185],[101.0490613,13.5088731],[101.048312,13.5075821],[101.0509197,13.5035827],[101.0400675,13.4936508],[101.0411826,13.4897205],[101.0356928,13.4856657],[101.0392696,13.480234],[101.0318673,13.4745432],[101.0275931,13.473646],[101.0220138,13.4767858],[101.0192102,13.4746041],[101.016206,13.4745295],[101.014951,13.4711487],[101.0111772,13.4729121],[101.0091167,13.4681366],[101.010844,13.4666863],[101.0144489,13.4685748],[101.0134618,13.4617928],[101.0111249,13.46262],[101.0085568,13.4604242],[101.0049212,13.4603891],[101.0031161,13.4637567],[101.000281,13.4635402],[100.9956178,13.4660821],[100.9905767,13.463128],[100.9857601,13.4629523],[100.9803904,13.4663224],[100.9743242,13.473835],[100.9709269,13.4710385],[100.7462755,13.2189544],[100.8495555,13.4823222],[100.8501778,13.4834808],[100.8599988,13.4844013],[100.8631122,13.4896215],[100.8696145,13.48821],[100.871571,13.4906174],[100.8727668,13.5014853],[100.87156,13.5129052],[100.874094,13.5205991],[100.872049,13.5238062],[100.8794476,13.5480772],[100.8840181,13.5516182],[100.8863034,13.5570523],[100.8896079,13.5580379],[100.8900816,13.5646306],[100.9040752,13.5541119],[100.9151749,13.5718357],[100.913264,13.5777463],[100.9069142,13.5805703],[100.9071653,13.5920521],[100.9144866,13.5925221],[100.9186297,13.5947159],[100.9233871,13.5935314],[100.9444758,13.6184062],[100.9594134,13.6323244],[100.9638955,13.6445846],[100.9539601,13.6470862],[100.9525598,13.6549227],[100.9530587,13.6586348],[100.9557835,13.6623709],[100.8797383,13.6890439],[100.855154,13.6993591],[100.8905185,13.7561251],[100.9099158,13.7905482],[100.9283095,13.8011879],[100.9386039,13.8143019],[100.9077202,13.8381544],[100.9126747,13.846822],[100.905233,13.8482488],[100.9067993,13.8549035],[100.905594,13.8591946],[100.9065237,13.8809376],[100.9141408,13.9462063],[100.914197,13.9612445],[100.9830629,13.9705248],[101.0211622,13.9709842],[101.0440607,13.9766666],[101.1008885,13.9744886],[101.1378315,13.9697495],[101.137422,13.9676869],[101.1411247,13.9634312],[101.148149,13.961892],[101.1485397,13.956696],[101.1544122,13.9447994],[101.1548979,13.9379992],[101.15218,13.9317344],[101.1547098,13.9299967],[101.1600926,13.9342907],[101.1609801,13.9250261],[101.152115,13.9119488],[101.1522744,13.9033961],[101.1558121,13.897346],[101.1538624,13.895939],[101.1475308,13.8965621],[101.1457218,13.8932858],[101.1479625,13.8891599],[101.1509954,13.8888873],[101.1601523,13.8962447],[101.1615602,13.895554],[101.162182,13.8915231],[101.1527216,13.8796421],[101.1497834,13.8800338],[101.1432494,13.887911],[101.1394858,13.8840913],[101.1407745,13.8773407],[101.1441929,13.8716836],[101.161094,13.8628609],[101.1596501,13.8587138],[101.1488711,13.8554902],[101.1479504,13.8527787],[101.1496212,13.8516267],[101.1590289,13.8541303],[101.161948,13.8530808],[101.1662868,13.8584641],[101.1740258,13.8579845],[101.1757813,13.8602719],[101.1750738,13.8620082],[101.1814803,13.8611404],[101.1886163,13.8672899],[101.1892346,13.8696101],[101.1947559,13.8712714],[101.1944997,13.874098],[101.2007157,13.8747633],[101.2011543,13.8782292],[101.2086269,13.8782787],[101.2106453,13.8760888],[101.2224343,13.8771669],[101.2234466,13.8829728],[101.2207322,13.8862589],[101.2254378,13.8860831],[101.2404079,13.8798896],[101.2456705,13.8761675],[101.2515351,13.8681003],[101.2619855,13.8700768],[101.2654039,13.8743567],[101.2704327,13.8765703],[101.2737808,13.8757525],[101.2784667,13.8786249],[101.296332,13.8712653],[101.2980115,13.8727658],[101.3006957,13.8716124],[101.3050372,13.8750785],[101.3083871,13.8742655],[101.3170482,13.8679109],[101.3322931,13.8668469],[101.3359225,13.8702514],[101.3362383,13.8612367],[101.3424181,13.8590649],[101.3494293,13.8698137],[101.3524459,13.8698729],[101.3565683,13.8643376],[101.3603761,13.8692727],[101.3654711,13.8655465],[101.3694534,13.8654856],[101.3701028,13.8671224],[101.377916,13.8640031],[101.3775805,13.8597464],[101.3794129,13.8560503],[101.3919716,13.8436768],[101.3930525,13.8454704],[101.4184225,13.8361499],[101.4281462,13.8372056],[101.4372799,13.8307569],[101.4377412,13.8281889],[101.4395953,13.8272511],[101.45829,13.8281579],[101.4636792,13.8248476],[101.4698873,13.8240626],[101.4758523,13.819919],[101.4761365,13.8166907],[101.4795129,13.8151443],[101.4811007,13.8124823],[101.484466,13.8122404],[101.4883548,13.8096012],[101.4893806,13.8054101],[101.4938064,13.8041381],[101.501374,13.7987386],[101.5066604,13.7974279],[101.5200686,13.7889088],[101.5204224,13.7902352],[101.5230386,13.7886887],[101.523348,13.7816208],[101.5249578,13.7808493],[101.5239812,13.7778678],[101.5275187,13.7787202],[101.529433,13.7767407],[101.531921,13.7770487],[101.5328392,13.7738713],[101.5350243,13.7768618],[101.5339068,13.7800664],[101.5365303,13.7845243],[101.5457244,13.7859591],[101.5461463,13.7918248],[101.5510394,13.7933881],[101.553153,13.7851318],[101.554989,13.7840403],[101.5582779,13.7757976],[101.5560048,13.7748622],[101.5579992,13.7706349],[101.5610808,13.7703923],[101.5627468,13.7654778],[101.5657276,13.7644833],[101.5662115,13.7627805],[101.572499,13.7609237],[101.5759772,13.7543977],[101.5808256,13.7522197],[101.5822318,13.7483284],[101.5870928,13.74547],[101.5890719,13.7382243],[101.5948135,13.7353172],[101.595862,13.7391021],[101.5985984,13.7373985],[101.5989698,13.7388786],[101.6026773,13.7378285],[101.6037602,13.7401251],[101.609203,13.7391783],[101.611583,13.7350271],[101.6130754,13.7371715],[101.6233117,13.7422347],[101.6241456,13.7442361],[101.6264227,13.7433061],[101.6288882,13.7461324],[101.6322794,13.7463591],[101.6326227,13.7484324],[101.6438728,13.7463443],[101.6441313,13.7448386],[101.6645774,13.7335453],[101.6704452,13.7396587],[101.6743298,13.7486193],[101.6816007,13.7560799],[101.6920897,13.7574206],[101.696872,13.7554323],[101.6997688,13.7575355],[101.7254255,13.7551078],[101.7310373,13.7661644],[101.7390436,13.7695957],[101.7584922,13.7727308],[101.7596467,13.7698482],[101.766304,13.7680246],[101.7666339,13.7623639],[101.7679254,13.762254],[101.7693324,13.7574396],[101.7675176,13.7560949],[101.7642398,13.7568768],[101.7626358,13.7542454],[101.764396,13.751139],[101.7675653,13.7507937],[101.7767219,13.7438326],[101.7832227,13.7416759],[101.7902834,13.7366068],[101.7894621,13.7336788],[101.7925636,13.7329776],[101.7918532,13.7257448],[101.7892663,13.7207445],[101.7911616,13.7200525],[101.7910613,13.7173745],[101.7934532,13.7166232],[101.7921008,13.7159511],[101.7935282,13.7050247],[101.7953327,13.7040587],[101.7990901,13.7054875],[101.8070954,13.7037001],[101.8115679,13.6986078],[101.8127055,13.7022286],[101.8171297,13.7029637],[101.8178455,13.7056884],[101.8214219,13.7044888],[101.8282644,13.7052372],[101.8320315,13.7018257],[101.8329958,13.6939987],[101.8372907,13.6913403],[101.8412686,13.6801875],[101.8357409,13.6742738],[101.8365861,13.6701716],[101.8387474,13.6686538],[101.8366995,13.6642436],[101.8383295,13.6634494],[101.8380252,13.6562157],[101.8351127,13.6546792],[101.8330913,13.649231],[101.8327296,13.6470451],[101.8350312,13.6441726],[101.8319845,13.6360662],[101.8593935,13.6359164],[101.8615671,13.6328068],[101.8632389,13.6334125],[101.8657213,13.6312579],[101.8646102,13.6204046],[101.8702717,13.6109828],[101.8712067,13.6037702],[101.8746201,13.6011947],[101.8789,13.6018638],[101.8815999,13.5985672],[101.8852645,13.5971653],[101.8894316,13.5823409],[101.8923756,13.584824],[101.8974335,13.5827169],[101.9013489,13.5857714],[101.9064263,13.5871316],[101.9150715,13.5855964],[101.9123711,13.5786101],[101.9100691,13.577091],[101.9087459,13.5715508],[101.9064995,13.5702857],[101.9067409,13.5680442],[101.904288,13.5667973],[101.9053147,13.5654593],[101.9024612,13.5548216],[101.8942549,13.5465404],[101.892269,13.5432419],[101.8927425,13.5402893],[101.8882751,13.5378995],[101.8860632,13.5384163],[101.8821148,13.5340109],[101.8788442,13.5347144],[101.8746466,13.5286264],[101.8736302,13.5236922],[101.8850771,13.5253926],[101.896158,13.5158988],[101.8962065,13.5114549],[101.8985021,13.5110361],[101.8918207,13.5054686],[101.8862494,13.4959795],[101.8835883,13.4951319],[101.8820641,13.4913318],[101.88233,13.4853121],[101.8869422,13.481066],[101.8920928,13.4727097],[101.895066,13.4712117],[101.9125716,13.4746981],[101.9253672,13.4730677],[101.9272149,13.4751782],[101.9333846,13.4751799],[101.9371728,13.4779866],[101.9356563,13.4714177],[101.9409272,13.4671014],[101.9434928,13.4606382],[101.9386356,13.452816],[101.9385159,13.4434314],[101.9482218,13.4327309],[101.9531873,13.4324091],[101.9624969,13.4276473],[101.9665146,13.4137867],[101.976831,13.4085457],[101.9773434,13.400631],[101.9732818,13.3959747],[101.9728647,13.3899594],[101.9773082,13.3834213],[101.9821253,13.3804196],[101.9830787,13.3716435],[101.9805019,13.3642307],[101.9829708,13.3547912],[101.9857135,13.3525539],[101.9900661,13.3523711],[101.9891347,13.3467034],[101.9843016,13.3417307],[101.9860498,13.3356899],[101.9889031,13.3332549],[101.9671882,13.3240205],[101.9604342,13.3083231],[101.956033,13.3030925],[101.9561072,13.3000018],[101.9501443,13.2961164],[101.9455179,13.2952166],[101.941523,13.2915813],[101.9380508,13.293964],[101.9311414,13.286236],[101.9279747,13.2871023],[101.9255634,13.2933967],[101.919937,13.2858646],[101.91055,13.2880384],[101.9046844,13.2872187],[101.9055646,13.2710916],[101.902054,13.2627382],[101.8984084,13.2618456],[101.8964526,13.2522076],[101.8963316,13.2438728],[101.9003091,13.2414048],[101.9000524,13.2383336],[101.9019017,13.2352445],[101.8918755,13.2268],[101.8898005,13.227206],[101.8884052,13.235397],[101.88348,13.2366237],[101.8798888,13.2340639],[101.8785389,13.2238575],[101.8751352,13.2222574],[101.8716519,13.223235],[101.8730192,13.2385318],[101.8705795,13.2437711],[101.8705089,13.2522512],[101.8684732,13.2527888],[101.8623632,13.2478235],[101.8565787,13.2539894],[101.8545563,13.254319],[101.8456993,13.2404966],[101.8393599,13.2379291],[101.8367793,13.2338538],[101.8329565,13.2386906],[101.8272953,13.2376405],[101.8239465,13.2255229],[101.8182698,13.2173316],[101.7960424,13.2032371],[101.7902502,13.2033694],[101.7732883,13.1847471],[101.7675365,13.1847546],[101.758594,13.1890644],[101.7554748,13.1872923],[101.7530193,13.1821356],[101.74092,13.186655],[101.7370632,13.1845155],[101.7366395,13.1824167],[101.7334684,13.181958],[101.7323271,13.178831],[101.725285,13.1790228],[101.7166039,13.1826187],[101.7124938,13.1929212],[101.7128712,13.2055209],[101.7048867,13.2087375],[101.7018727,13.2159119],[101.694243,13.2218162],[101.6890107,13.2304418],[101.6845027,13.2499047],[101.6735063,13.2568578],[101.6680595,13.2734084],[101.657194,13.2754476],[101.650693,13.2844201],[101.6463152,13.2857915],[101.6390875,13.2929211],[101.6352321,13.2926239],[101.6312544,13.2959154],[101.624471,13.2958396],[101.6185033,13.3019751],[101.5970317,13.3114184],[101.5923079,13.3113584],[101.5902648,13.3169693],[101.5824833,13.3223201],[101.5826333,13.3299862],[101.5804819,13.3327356],[101.5759725,13.3332496],[101.5726719,13.3297832],[101.5644116,13.3313644],[101.5647815,13.3384037],[101.5614226,13.3401296],[101.5582147,13.3467324],[101.5581173,13.3539036],[101.5558841,13.3610768],[101.5566046,13.3666946],[101.5620011,13.3736455],[101.56243,13.3788221],[101.5496031,13.3956607],[101.5447593,13.3985439],[101.5387523,13.4115931],[101.5366452,13.4139096],[101.5331465,13.4146728],[101.5319761,13.4212609],[101.5337958,13.4246119],[101.5324008,13.4269692],[101.5181946,13.4229081],[101.5153758,13.4192307],[101.5070203,13.4200081],[101.4999397,13.4179494],[101.490833,13.4282947],[101.4953549,13.4351925],[101.4931473,13.4411774],[101.490611,13.439878],[101.487556,13.4433701],[101.4802575,13.4400499],[101.4799888,13.4362232],[101.4785155,13.4373473],[101.4753541,13.4356462],[101.4720079,13.4277453],[101.4681786,13.4248752],[101.4639055,13.4305009],[101.4583711,13.4339701],[101.457093,13.4328008],[101.4521169,13.4388935],[101.4472655,13.4404542],[101.4449841,13.4433734],[101.429064,13.4431881],[101.4272297,13.4479128],[101.4175904,13.4533035],[101.4124826,13.4500223],[101.4093744,13.4516523],[101.4023186,13.4503183],[101.4027299,13.4555933],[101.4095816,13.464437],[101.4093391,13.4696733],[101.3949132,13.4749212],[101.3912423,13.4742269],[101.3842285,13.4694822],[101.3720941,13.4687832],[101.3657212,13.4631384],[101.3612258,13.4637958],[101.3575371,13.4697405],[101.3568746,13.4740874],[101.3540402,13.4751633],[101.3515364,13.4806141],[101.3488032,13.4809232],[101.3478409,13.4831318],[101.340208,13.4871876],[101.3354873,13.4935934],[101.3300586,13.4944906],[101.3218832,13.4992687],[101.3212609,13.5020124],[101.3146855,13.5054707],[101.3149249,13.5075173],[101.3097757,13.5167945],[101.3026357,13.5181037],[101.2992722,13.5250771],[101.2951469,13.5254109],[101.2942028,13.5342043],[101.2902988,13.5364404],[101.2905376,13.5387189],[101.2885487,13.5397483],[101.2878352,13.5432243],[101.2839125,13.5484623],[101.274244,13.5521687],[101.2724566,13.5552598],[101.2667939,13.5577959],[101.2618572,13.5626485],[101.2553483,13.5652447]]]}}]}