{"type":"FeatureCollection","features":[{"type":"Feature","properties":{"provinceCode":"58","nameTh":"แม่ฮ่องสอน","nameEn":"Mae Hong Son"},"geometry":{"type":"Polygon","coordinates":[[[97.742169,17.7858722],[97.7344592,17.7963132],[97.7229885,17.7996669],[97.7215546,17.8041968],[97.7180023,17.8070529],[97.7200643,17.815794],[97.7181551,17.81937],[97.7088645,17.8188891],[97.7034879,17.8156378],[97.699472,17.8191955],[97.6911523,17.8336403],[97.6931011,17.8360715],[97.692377,17.8418776],[97.6757312,17.8674641],[97.67174,17.8790434],[97.6763749,17.8936237],[97.6859879,17.9104079],[97.6855481,17.9194834],[97.6872396,17.9254355],[97.7077308,17.9463944],[97.7245176,17.9500704],[97.732329,17.9542657],[97.7353784,17.9581369],[97.7375309,17.9746202],[97.7362826,17.9865224],[97.7281295,18.0024822],[97.7208292,18.0128959],[97.7209693,18.0161686],[97.7235827,18.0197783],[97.7234734,18.0241608],[97.7154607,18.0340021],[97.7085049,18.0480805],[97.7081001,18.0565797],[97.6978058,18.0668666],[97.6922965,18.0660404],[97.6871252,18.0594665],[97.6820075,18.0636536],[97.6801713,18.0750623],[97.6829455,18.0778916],[97.6903184,18.0807669],[97.6907387,18.0853845],[97.6896518,18.0925021],[97.6776474,18.115098],[97.6780713,18.1354361],[97.6759457,18.1476869],[97.6773713,18.1553687],[97.6758599,18.1620258],[97.6661718,18.1712565],[97.6584792,18.1725154],[97.6511353,18.1785092],[97.6421446,18.1936406],[97.6277089,18.2069056],[97.6141155,18.2240727],[97.609309,18.2375952],[97.6089603,18.2447738],[97.6109826,18.2501385],[97.6338619,18.2718961],[97.6394945,18.281233],[97.6394601,18.2876689],[97.6202298,18.317873],[97.5941155,18.3318174],[97.5827564,18.332463],[97.5759567,18.338724],[97.5674572,18.3361422],[97.5594332,18.3393696],[97.5512102,18.33408],[97.5497155,18.3309199],[97.5365882,18.2861707],[97.5299209,18.2789356],[97.5205335,18.2726055],[97.506724,18.2662102],[97.5018183,18.2674396],[97.4840666,18.2909478],[97.4665867,18.3034111],[97.4622677,18.3087706],[97.4527452,18.3283978],[97.4476453,18.3303345],[97.4441063,18.3403469],[97.4420659,18.3601044],[97.4510713,18.375332],[97.4520617,18.3897974],[97.4467378,18.3946979],[97.4420518,18.4032877],[97.4366783,18.4066699],[97.4305008,18.4056594],[97.4263947,18.4080374],[97.4235172,18.4171856],[97.4200552,18.4211273],[97.4182182,18.4355775],[97.4138531,18.442395],[97.4037877,18.4486591],[97.398567,18.4587153],[97.3867695,18.5054293],[97.3735234,18.5230457],[97.3634009,18.5263636],[97.3534818,18.5342663],[97.3505654,18.5420087],[97.3462187,18.5461024],[97.3438072,18.5761446],[97.3576049,18.5911148],[97.3600724,18.5986711],[97.361891,18.599493],[97.363286,18.593268],[97.361762,18.569062],[97.363054,18.559904],[97.388266,18.559976],[97.39431,18.561716],[97.397953,18.565604],[97.403248,18.566724],[97.409164,18.555206],[97.412936,18.552678],[97.418102,18.552845],[97.421589,18.548457],[97.426678,18.545404],[97.428383,18.525515],[97.435848,18.520769],[97.436468,18.50696],[97.443365,18.502143],[97.444948,18.498214],[97.443973,18.49501],[97.454345,18.493534],[97.45879,18.499546],[97.463702,18.497062],[97.466393,18.497782],[97.470292,18.501382],[97.470799,18.504046],[97.479221,18.506962],[97.481755,18.511137],[97.484485,18.508618],[97.491035,18.509877],[97.497746,18.496433],[97.501753,18.493459],[97.510149,18.492777],[97.510967,18.495166],[97.518756,18.4977],[97.52195,18.494361],[97.528208,18.495945],[97.534386,18.491094],[97.536842,18.492727],[97.539936,18.501343],[97.538744,18.503921],[97.542877,18.513785],[97.543845,18.526021],[97.545967,18.529458],[97.54928,18.530764],[97.554008,18.527499],[97.557992,18.527292],[97.563427,18.52169],[97.566964,18.524611],[97.571692,18.535026],[97.58178,18.532758],[97.586025,18.533479],[97.588407,18.537913],[97.591199,18.537982],[97.594252,18.535542],[97.603447,18.53616],[97.606537,18.543619],[97.613052,18.545749],[97.618711,18.542794],[97.619865,18.539254],[97.622062,18.540903],[97.62262,18.544272],[97.614504,18.55496],[97.614132,18.561216],[97.623774,18.565512],[97.627311,18.565615],[97.635278,18.558673],[97.640378,18.562556],[97.640378,18.565031],[97.644734,18.570014],[97.649723,18.571286],[97.651101,18.577232],[97.655642,18.577988],[97.658248,18.575617],[97.667704,18.575204],[97.670832,18.573451],[97.674964,18.577129],[97.678612,18.574998],[97.682632,18.575685],[97.683973,18.573795],[97.693094,18.570015],[97.69987,18.569568],[97.709139,18.572386],[97.71491,18.571527],[97.716734,18.573555],[97.722392,18.573623],[97.723323,18.577817],[97.722243,18.579569],[97.725482,18.584416],[97.731216,18.586512],[97.734268,18.585481],[97.738363,18.579466],[97.74767,18.578435],[97.751285,18.576169],[97.769151,18.578813],[97.767014,18.582189],[97.769196,18.586765],[97.766685,18.58886],[97.770232,18.592053],[97.77206,18.597809],[97.771091,18.605497],[97.77391,18.610297],[97.772853,18.611578],[97.773558,18.619225],[97.769064,18.622419],[97.771178,18.6285],[97.766927,18.632974],[97.77098,18.637083],[97.76827,18.643713],[97.771597,18.64589],[97.770628,18.650323],[97.772302,18.655652],[97.76816,18.662872],[97.767345,18.669339],[97.77239,18.673896],[97.77261,18.677983],[97.77065,18.680729],[97.77402,18.68919],[97.772082,18.695902],[97.76631,18.702512],[97.765187,18.70843],[97.762939,18.710769],[97.758071,18.711989],[97.7547,18.720552],[97.754766,18.730172],[97.751572,18.737067],[97.753687,18.741643],[97.757763,18.744145],[97.759487,18.751065],[97.75817,18.75446],[97.763048,18.757105],[97.763513,18.758893],[97.761693,18.763718],[97.75395,18.766685],[97.75457,18.77126],[97.75244,18.773798],[97.75395,18.777873],[97.753795,18.785414],[97.749207,18.79099],[97.748529,18.798498],[97.752673,18.808612],[97.747692,18.809723],[97.745061,18.812741],[97.74255,18.823084],[97.738922,18.828421],[97.746337,18.834273],[97.7464076,18.8397787],[97.7490053,18.8451153],[97.743865,18.850173],[97.744902,18.8547],[97.747613,18.857092],[97.743985,18.857792],[97.740676,18.861288],[97.739161,18.866515],[97.741274,18.881642],[97.736889,18.886979],[97.731905,18.886795],[97.730231,18.885175],[97.719666,18.8865],[97.712131,18.893972],[97.710895,18.897211],[97.705035,18.899934],[97.703918,18.897358],[97.696942,18.904646],[97.696145,18.910829],[97.688849,18.915724],[97.690284,18.921318],[97.689088,18.925551],[97.674138,18.930888],[97.670869,18.929599],[97.66748,18.931697],[97.668437,18.935231],[97.665527,18.937917],[97.669872,18.942114],[97.66752,18.947083],[97.670311,18.948224],[97.674417,18.946972],[97.684144,18.952861],[97.692277,18.948555],[97.70033,18.957683],[97.704277,18.958934],[97.707267,18.957867],[97.707387,18.962983],[97.704636,18.967657],[97.711135,18.966663],[97.71564,18.969276],[97.717194,18.967141],[97.721978,18.967289],[97.725925,18.974392],[97.730151,18.971595],[97.738324,18.978735],[97.738922,18.98098],[97.734895,18.984109],[97.737566,18.992206],[97.73552,19.014947],[97.738957,19.020983],[97.739272,19.026003],[97.737295,19.029757],[97.738688,19.035317],[97.735587,19.040482],[97.743608,19.042058],[97.747539,19.038677],[97.751583,19.041602],[97.759716,19.038387],[97.768973,19.045025],[97.771242,19.055998],[97.767894,19.062864],[97.764367,19.066038],[97.76895,19.073236],[97.779689,19.076119],[97.783621,19.072718],[97.78717,19.074128],[97.792046,19.073568],[97.79618,19.0767],[97.796988,19.08087],[97.803167,19.085993],[97.80784,19.086325],[97.810873,19.090785],[97.8297,19.091719],[97.835698,19.093129],[97.837046,19.094955],[97.83817,19.100058],[97.837338,19.107297],[97.840663,19.117358],[97.834395,19.136483],[97.837249,19.140093],[97.837451,19.144802],[97.843382,19.146316],[97.844438,19.148764],[97.842101,19.154427],[97.843022,19.160567],[97.839765,19.163139],[97.841495,19.167205],[97.838821,19.171042],[97.844011,19.179257],[97.844393,19.182597],[97.840349,19.188052],[97.840461,19.191247],[97.837855,19.196018],[97.839046,19.198465],[97.844999,19.202531],[97.845179,19.215869],[97.841742,19.225017],[97.829453,19.229249],[97.825543,19.229145],[97.826532,19.237629],[97.817455,19.238169],[97.809433,19.253262],[97.792963,19.260842],[97.791776,19.26277],[97.78366,19.263866],[97.782711,19.267459],[97.785939,19.271227],[97.785606,19.273812],[97.788501,19.274426],[97.790637,19.283365],[97.795811,19.283102],[97.799798,19.285775],[97.801649,19.289149],[97.805778,19.287397],[97.806537,19.283409],[97.810334,19.27929],[97.81266,19.282971],[97.816789,19.284636],[97.821393,19.282007],[97.824953,19.282489],[97.831265,19.290946],[97.839619,19.291165],[97.842657,19.289588],[97.842894,19.292874],[97.840711,19.300805],[97.833829,19.299885],[97.828845,19.303128],[97.828655,19.310269],[97.823719,19.31544],[97.825475,19.32416],[97.822295,19.326219],[97.822058,19.328936],[97.81603,19.330076],[97.814748,19.332792],[97.811473,19.3338],[97.810476,19.3377],[97.812707,19.338357],[97.813467,19.340592],[97.798801,19.35273],[97.798753,19.356761],[97.801554,19.363466],[97.80013,19.371835],[97.806252,19.376436],[97.803262,19.378233],[97.803594,19.387741],[97.79994,19.388267],[97.791823,19.395103],[97.786887,19.395191],[97.785416,19.398389],[97.787694,19.403516],[97.80331,19.40483],[97.806822,19.411096],[97.812945,19.412542],[97.815318,19.415566],[97.815176,19.418064],[97.822248,19.423278],[97.827041,19.430201],[97.828323,19.442032],[97.833164,19.447729],[97.836344,19.449],[97.838432,19.45439],[97.841138,19.457369],[97.844128,19.458026],[97.84446,19.461313],[97.850108,19.466659],[97.857608,19.469068],[97.857797,19.47218],[97.860266,19.473845],[97.859649,19.479497],[97.862686,19.483441],[97.87085,19.484537],[97.874314,19.488305],[97.87289,19.495754],[97.87944,19.496542],[97.888172,19.50061],[97.880462,19.506849],[97.876242,19.506264],[97.873831,19.508958],[97.874529,19.514612],[97.868945,19.51593],[97.868374,19.523341],[97.86279,19.528935],[97.855175,19.531425],[97.855017,19.547798],[97.858538,19.557786],[97.863361,19.564407],[97.859173,19.571173],[97.863742,19.577207],[97.874402,19.57829],[97.879732,19.580897],[97.89163,19.575771],[97.902449,19.577587],[97.909842,19.583387],[97.920914,19.584647],[97.926149,19.588865],[97.927958,19.588132],[97.933922,19.590622],[97.943187,19.597183],[97.95242,19.592995],[97.955719,19.594313],[97.960732,19.592673],[97.961145,19.598882],[97.970282,19.599761],[97.975041,19.602046],[97.975739,19.605238],[97.973709,19.612473],[97.976342,19.617013],[97.972693,19.621963],[97.975263,19.62955],[97.972567,19.634383],[97.981038,19.634588],[97.983417,19.640417],[97.986812,19.637693],[97.993221,19.638015],[97.999757,19.635877],[98.000817,19.632972],[98.003831,19.636578],[98.014102,19.636778],[98.01444,19.639872],[98.019069,19.637446],[98.025904,19.637372],[98.026519,19.641371],[98.038109,19.643506],[98.039881,19.649731],[98.043104,19.65198],[98.044851,19.655796],[98.042169,19.666019],[98.032326,19.671381],[98.03208,19.674561],[98.034197,19.677628],[98.029964,19.683853],[98.029029,19.688397],[98.031711,19.692713],[98.031096,19.697007],[98.034566,19.700597],[98.029078,19.706094],[98.02551,19.714159],[98.026642,19.717817],[98.024747,19.72211],[98.031711,19.724814],[98.030579,19.727472],[98.031391,19.732516],[98.029127,19.734447],[98.033901,19.741943],[98.032474,19.744897],[98.034664,19.749372],[98.032778,19.753733],[98.0378,19.765325],[98.036614,19.76964],[98.03365,19.772345],[98.034905,19.779944],[98.032917,19.783132],[98.035289,19.793629],[98.040381,19.798749],[98.034661,19.80168],[98.033893,19.804835],[98.043136,19.807894],[98.047496,19.811565],[98.048019,19.814238],[98.051751,19.811984],[98.051891,19.808796],[98.054297,19.807186],[98.053809,19.803],[98.063471,19.804223],[98.066749,19.810019],[98.073655,19.809343],[98.080562,19.810857],[98.083701,19.810116],[98.085898,19.805221],[98.083596,19.800585],[98.082898,19.792341],[98.0912,19.79057],[98.095699,19.781715],[98.095559,19.779204],[98.100372,19.772216],[98.113312,19.774019],[98.115056,19.779171],[98.123672,19.779944],[98.129357,19.785643],[98.136891,19.787929],[98.139542,19.78252],[98.144913,19.780845],[98.150842,19.774051],[98.156562,19.771218],[98.161829,19.772345],[98.168282,19.770799],[98.178606,19.760172],[98.183628,19.760366],[98.183343,19.74969],[98.192964,19.737854],[98.1988857,19.7372337],[98.201355,19.734242],[98.2012558,19.7302023],[98.207286,19.732016],[98.210411,19.731221],[98.217645,19.725154],[98.222222,19.725177],[98.225667,19.728494],[98.228817,19.727721],[98.230761,19.718544],[98.234354,19.715749],[98.238021,19.708502],[98.236347,19.7043],[98.2319401,19.7005463],[98.231983,19.6970469],[98.2365572,19.6882728],[98.242253,19.684512],[98.248528,19.676379],[98.253425,19.679148],[98.260581,19.678736],[98.267655,19.683771],[98.277873,19.681862],[98.287705,19.685006],[98.29105,19.684201],[98.292429,19.681674],[98.296402,19.681993],[98.300659,19.687196],[98.307957,19.687813],[98.323202,19.698836],[98.33058,19.69717],[98.333053,19.693839],[98.337392,19.693952],[98.339317,19.697133],[98.345115,19.698443],[98.348359,19.697002],[98.349109,19.694401],[98.356549,19.696104],[98.358454,19.693989],[98.365165,19.693483],[98.369503,19.689104],[98.372321,19.690732],[98.376923,19.697807],[98.380997,19.69848],[98.383998,19.700895],[98.38787,19.700165],[98.391215,19.70417],[98.402648,19.700857],[98.406662,19.694775],[98.41471,19.692941],[98.419717,19.696047],[98.422738,19.695636],[98.425251,19.692679],[98.428779,19.696178],[98.434009,19.69674],[98.437557,19.695991],[98.44003,19.693222],[98.442321,19.694588],[98.445382,19.693296],[98.453167,19.696759],[98.460627,19.697769],[98.462289,19.693222],[98.4680743,19.6908104],[98.4700667,19.6855832],[98.4687494,19.6803461],[98.4720777,19.6746172],[98.4702741,19.6655789],[98.4687491,19.6642303],[98.4720083,19.6597924],[98.4720813,19.6562765],[98.4760369,19.6568003],[98.4813528,19.6546968],[98.4821996,19.651253],[98.4890061,19.646516],[98.4893909,19.6428325],[98.5014537,19.6364045],[98.5022144,19.632809],[98.5043178,19.6312255],[98.5103699,19.6299905],[98.5162197,19.625617],[98.5214891,19.6261904],[98.5217541,19.6197405],[98.5265762,19.6136524],[98.5342409,19.6143826],[98.5401848,19.6110563],[98.5395575,19.6069797],[98.5357391,19.6018121],[98.5397642,19.5991212],[98.5370934,19.5879139],[98.5378402,19.5845044],[98.5423285,19.578578],[98.5407881,19.5761583],[98.5420072,19.5662007],[98.5454416,19.5635315],[98.5422515,19.5585408],[98.5513623,19.5526478],[98.5589445,19.5496327],[98.562411,19.5497928],[98.565939,19.546894],[98.5641838,19.5450695],[98.5625479,19.5375632],[98.5642615,19.5351223],[98.5615699,19.5313668],[98.5657011,19.5249148],[98.5637145,19.5192865],[98.5650231,19.5144313],[98.5682303,19.5075612],[98.5729107,19.512123],[98.5753362,19.5124321],[98.5843921,19.5056776],[98.5887844,19.4977998],[98.5941362,19.4925548],[98.5952005,19.4891225],[98.5925254,19.4837262],[98.59672,19.4799686],[98.5967728,19.4739201],[98.6000952,19.4707255],[98.5954887,19.4620645],[98.5912886,19.4628701],[98.5905109,19.4579342],[98.5923623,19.4556421],[98.5910125,19.4505626],[98.5890554,19.4478802],[98.5868087,19.4480847],[98.584375,19.4398009],[98.5857871,19.4346811],[98.5845795,19.4317559],[98.5860827,19.429419],[98.5845196,19.4263533],[98.5860346,19.4214573],[98.5847366,19.4182268],[98.5854923,19.4154458],[98.5893742,19.4138129],[98.5922994,19.4089563],[98.5961773,19.406982],[98.5946514,19.4037301],[98.5879041,19.3982077],[98.5812977,19.4001486],[98.577252,19.3987421],[98.5730032,19.3872536],[98.5755775,19.3847507],[98.5752115,19.3793536],[98.581514,19.3662277],[98.5923446,19.367462],[98.5965823,19.3622744],[98.5943748,19.3577893],[98.5953987,19.3541178],[98.5900941,19.3533154],[98.5909633,19.3429474],[98.5940476,19.3396705],[98.5890635,19.3323821],[98.5904851,19.3274591],[98.5937041,19.3260995],[98.5937187,19.3236608],[98.5979741,19.3179578],[98.6012441,19.316762],[98.6022598,19.3102661],[98.5983583,19.30182],[98.600709,19.2992717],[98.6002317,19.2970774],[98.598028,19.2958859],[98.5943296,19.2891914],[98.5990317,19.2836694],[98.6049449,19.2797704],[98.5993426,19.2763455],[98.5982783,19.2710154],[98.591638,19.2678452],[98.5896634,19.2623338],[98.5905505,19.2588052],[98.587271,19.2553975],[98.5923589,19.245999],[98.5922839,19.2427658],[98.5976662,19.2372053],[98.5972886,19.2331566],[98.5991598,19.2297087],[98.5853181,19.2175167],[98.577681,19.2148051],[98.5715691,19.2164337],[98.5682422,19.2112683],[98.5683772,19.2074379],[98.5766115,19.202201],[98.57913,19.1951689],[98.5855914,19.1860968],[98.5919661,19.1865862],[98.6023203,19.1828079],[98.6086128,19.178367],[98.6075316,19.1730195],[98.6157607,19.1687607],[98.6227802,19.1680598],[98.6228609,19.157722],[98.6321946,19.1572784],[98.6382981,19.1546517],[98.6377629,19.1506514],[98.6392566,19.1482875],[98.6365268,19.1399302],[98.6413313,19.1287582],[98.6424242,19.1130085],[98.6459791,19.1102133],[98.6441008,19.1052311],[98.6486883,19.1012407],[98.6522228,19.0942828],[98.6489884,19.0810549],[98.6464216,19.0770236],[98.6412742,19.0755717],[98.6407456,19.0685789],[98.6388248,19.0664222],[98.6288984,19.0671987],[98.6257524,19.0644058],[98.6210163,19.0678617],[98.6171792,19.0657932],[98.612031,19.0557136],[98.6034922,19.0531196],[98.5944544,19.0431482],[98.5822277,19.0485534],[98.5682235,19.0458752],[98.5659858,19.0446992],[98.5660473,19.0399693],[98.5643284,19.0381622],[98.5607468,19.0372731],[98.5562347,19.0385944],[98.5527055,19.0324249],[98.5442838,19.0268885],[98.5298155,19.0252963],[98.525219,19.0263219],[98.5174836,19.032067],[98.5056411,19.0362049],[98.4914758,19.0383009],[98.4768198,19.042888],[98.4692527,19.0411309],[98.4540259,19.0468516],[98.4447365,19.0457666],[98.4396087,19.0485639],[98.4303986,19.0426908],[98.4233619,19.0292272],[98.4202153,19.0272229],[98.4071686,19.0351026],[98.4007755,19.0364278],[98.4003058,19.0433861],[98.3959704,19.0458329],[98.3929843,19.0552822],[98.3883299,19.056382],[98.3832569,19.0613254],[98.3810024,19.0586262],[98.3726827,19.0665576],[98.3729434,19.0725185],[98.3749154,19.075063],[98.3718059,19.0845885],[98.3658487,19.0883703],[98.3601993,19.0882666],[98.3527211,19.0912105],[98.3511675,19.0975874],[98.3535499,19.100313],[98.3525186,19.1034058],[98.3448431,19.1112566],[98.3461383,19.1143576],[98.3455856,19.1196637],[98.3429372,19.122519],[98.3447288,19.1290131],[98.3496819,19.1318532],[98.3421223,19.1380402],[98.3392433,19.1430641],[98.3418025,19.1516252],[98.3302822,19.1503198],[98.3252951,19.1557992],[98.320396,19.1559286],[98.3140465,19.1530614],[98.2933777,19.1557003],[98.2849234,19.1527608],[98.2701028,19.1560937],[98.2654441,19.1519888],[98.261452,19.1575336],[98.2519947,19.1608655],[98.2495539,19.1565375],[98.2431192,19.1535014],[98.2428061,19.145831],[98.2404591,19.1397045],[98.2441989,19.1320231],[98.2407566,19.1265693],[98.2470433,19.1227354],[98.2488029,19.1169418],[98.2519454,19.1151714],[98.2505755,19.108259],[98.2382111,19.1023164],[98.2368267,19.0943539],[98.2332138,19.0927383],[98.2318309,19.0898567],[98.2258051,19.0879327],[98.2244992,19.0793438],[98.2167953,19.0710063],[98.2126039,19.0631737],[98.2085959,19.0627409],[98.2051684,19.0487957],[98.1913182,19.0406625],[98.1911533,19.0323578],[98.1844085,19.0317513],[98.1835975,19.0273337],[98.1862727,19.0239702],[98.1859123,19.0147418],[98.1798426,19.0068981],[98.1691962,18.9988009],[98.1704586,18.9955465],[98.1692441,18.9891496],[98.1635596,18.9810111],[98.1651849,18.9752755],[98.1731383,18.9615568],[98.1726183,18.9513099],[98.1664025,18.9395012],[98.1566409,18.9369877],[98.1588006,18.9294483],[98.1572785,18.9202157],[98.1555746,18.9188513],[98.1503469,18.9189178],[98.1435883,18.91156],[98.1303925,18.9119991],[98.1245231,18.9076734],[98.1194963,18.8975271],[98.1108069,18.8927171],[98.1084567,18.8863594],[98.1021166,18.8843609],[98.0949898,18.8714498],[98.0920524,18.8701661],[98.0912108,18.8646506],[98.0888914,18.8614092],[98.088036,18.8511438],[98.0814177,18.8364385],[98.0816599,18.8272808],[98.0784022,18.8213908],[98.0816042,18.8199948],[98.0796511,18.8163938],[98.0849837,18.8069506],[98.0882701,18.8044432],[98.0854123,18.7966007],[98.0862311,18.7927937],[98.0888709,18.7919457],[98.0912638,18.7863869],[98.0895986,18.7832543],[98.0925738,18.7769768],[98.0983034,18.7752072],[98.1070093,18.7801866],[98.1204626,18.777475],[98.1219077,18.7755218],[98.1178895,18.7672373],[98.1203795,18.7653988],[98.11836,18.7628182],[98.1206716,18.759054],[98.1148923,18.7539722],[98.111472,18.7539737],[98.107637,18.751558],[98.1080603,18.7469989],[98.1067807,18.7453125],[98.0937035,18.738305],[98.1021954,18.7354989],[98.1015551,18.7320554],[98.1040241,18.7273394],[98.1031943,18.7185378],[98.107679,18.7132849],[98.1048203,18.7085766],[98.1011194,18.7066481],[98.1002456,18.7039135],[98.100929,18.7009939],[98.1039934,18.6982872],[98.1073166,18.6881782],[98.104805,18.6770255],[98.1098514,18.6754396],[98.1126583,18.6702539],[98.1092146,18.6643012],[98.1054345,18.6486193],[98.1106577,18.6450787],[98.1181253,18.6345495],[98.1357366,18.6357954],[98.1437121,18.6394333],[98.1556093,18.6325192],[98.1610506,18.6263584],[98.1680326,18.6260131],[98.1736309,18.6280598],[98.1827639,18.6252187],[98.1811888,18.6206709],[98.1837542,18.6184551],[98.1824091,18.6097153],[98.2106582,18.6071813],[98.2129264,18.5909195],[98.2185754,18.5874129],[98.2234357,18.5884714],[98.2274325,18.5867162],[98.2304147,18.580392],[98.234498,18.5770071],[98.2371589,18.5692999],[98.2359758,18.5659355],[98.2314944,18.5636187],[98.2319602,18.5571901],[98.2252173,18.5549641],[98.2234207,18.5492824],[98.2187282,18.5490395],[98.2162668,18.5432474],[98.2113565,18.5418391],[98.209333,18.5380118],[98.2069138,18.5373385],[98.2003544,18.5419212],[98.1926457,18.5405628],[98.1847944,18.5482299],[98.1803658,18.5465923],[98.1751767,18.5471767],[98.1748594,18.5407919],[98.1703775,18.5297992],[98.170268,18.5251188],[98.1629162,18.5247885],[98.1625968,18.5217595],[98.1542818,18.512355],[98.1462355,18.5139226],[98.1422376,18.5097384],[98.1314405,18.5049067],[98.1316034,18.5024728],[98.1285674,18.5005909],[98.1224495,18.5025663],[98.1198321,18.4990019],[98.1189017,18.4895143],[98.1123143,18.4840665],[98.1055842,18.4583077],[98.0993098,18.456709],[98.0826983,18.4459161],[98.0802154,18.4361524],[98.0740357,18.4294453],[98.078546,18.4215054],[98.0825918,18.4178131],[98.0937408,18.4214468],[98.1006021,18.4186142],[98.1031882,18.4136788],[98.1074232,18.4131457],[98.110753,18.4091307],[98.1151079,18.4081856],[98.1173603,18.4093584],[98.1257807,18.4064072],[98.1269259,18.4027336],[98.1227645,18.394484],[98.128116,18.3924579],[98.1278725,18.3888471],[98.129652,18.3864461],[98.1355668,18.3857022],[98.1396532,18.3717572],[98.1438197,18.3681687],[98.1453859,18.3629943],[98.1491034,18.3626198],[98.1498761,18.359765],[98.1518168,18.3589243],[98.159156,18.3579061],[98.1608501,18.3549072],[98.1642743,18.3550102],[98.1660706,18.3514239],[98.1699226,18.3487167],[98.1696059,18.3460098],[98.1791902,18.3450581],[98.1896977,18.3364736],[98.1926281,18.3363509],[98.1939658,18.3339329],[98.1928788,18.3318968],[98.1950265,18.3302377],[98.1976256,18.3333433],[98.2011919,18.3248292],[98.1995813,18.3222502],[98.2020345,18.3222641],[98.2006459,18.3177323],[98.2024996,18.3174638],[98.202004,18.3141349],[98.2071635,18.3104156],[98.2066631,18.3082961],[98.2081665,18.3075668],[98.2070377,18.302838],[98.2020997,18.2969579],[98.2032236,18.293872],[98.2019843,18.294039],[98.201837,18.2914427],[98.1933293,18.28514],[98.1867755,18.2844519],[98.1812316,18.2862714],[98.1672014,18.2820643],[98.1616987,18.2837325],[98.1573515,18.2829612],[98.1527905,18.2863981],[98.1383869,18.281156],[98.1377082,18.2721702],[98.1355551,18.2681159],[98.1377313,18.262179],[98.1373492,18.2579486],[98.1428869,18.2522433],[98.1389775,18.2403852],[98.1422708,18.2379354],[98.1466222,18.2274586],[98.1504191,18.2244629],[98.1532525,18.2249569],[98.158352,18.2219276],[98.1661499,18.2247487],[98.1690123,18.2226784],[98.1698291,18.2202647],[98.167306,18.213979],[98.1661767,18.2046336],[98.1709477,18.2016549],[98.1760584,18.1920766],[98.1666043,18.1822465],[98.1657577,18.1732211],[98.1674204,18.1716696],[98.1670045,18.1682079],[98.1647003,18.1669698],[98.1589784,18.1675117],[98.1558222,18.1637224],[98.1577558,18.1574405],[98.159591,18.156267],[98.1584161,18.1554811],[98.1599892,18.1508001],[98.1626967,18.1496765],[98.1615131,18.1489744],[98.1623741,18.1459399],[98.164033,18.1432152],[98.1680337,18.1411997],[98.1628622,18.1338066],[98.163943,18.1283304],[98.1657475,18.1264832],[98.1643644,18.1228993],[98.1661779,18.1217605],[98.165417,18.1193679],[98.1705731,18.1163645],[98.1793744,18.1166611],[98.1819613,18.1128773],[98.1830958,18.1165044],[98.1867867,18.1152894],[98.18692,18.113615],[98.1906664,18.113961],[98.1901634,18.1100267],[98.1932563,18.1102528],[98.1916566,18.1083468],[98.1984029,18.1054349],[98.2013564,18.0999496],[98.2034522,18.0997917],[98.202399,18.0963474],[98.2040221,18.0966153],[98.2021914,18.094379],[98.2037294,18.0939232],[98.201705,18.0907278],[98.2062184,18.088327],[98.2142625,18.0872747],[98.2174685,18.0897467],[98.2196825,18.0886359],[98.223454,18.0901576],[98.2265485,18.0919537],[98.2256032,18.0955576],[98.2279442,18.095769],[98.2285429,18.0982457],[98.2302953,18.0987376],[98.2334774,18.0919118],[98.2285489,18.0885414],[98.2332062,18.0866291],[98.2330148,18.0890051],[98.2345361,18.0889116],[98.2376682,18.0858806],[98.2385978,18.0875856],[98.2426521,18.0879609],[98.2418866,18.0828191],[98.2437955,18.081004],[98.2411103,18.0791146],[98.247307,18.0759396],[98.249999,18.0794307],[98.2517029,18.0778918],[98.2539339,18.0791083],[98.2523999,18.0811328],[98.2555168,18.0815712],[98.2536017,18.0838021],[98.2560279,18.0838157],[98.256541,18.087727],[98.2589235,18.0841559],[98.2602201,18.0858363],[98.2723078,18.0871327],[98.2714899,18.0830564],[98.275981,18.0850068],[98.2818367,18.0820529],[98.2823026,18.0845702],[98.2867875,18.0849961],[98.2868634,18.0813437],[98.2894531,18.0782097],[98.2869896,18.0688717],[98.283622,18.0669906],[98.2826883,18.0606577],[98.2766707,18.0524784],[98.2726043,18.0484504],[98.2637528,18.0497301],[98.2569976,18.0369418],[98.2539715,18.0266317],[98.2430655,18.0192688],[98.2402996,18.0117003],[98.2448558,18.002805],[98.246195,17.9896198],[98.2433995,17.9901061],[98.2353286,17.9859497],[98.2330985,17.986901],[98.2298507,17.9855425],[98.2298711,17.9882037],[98.2267691,17.9903383],[98.2266719,17.9859047],[98.226118,17.9870295],[98.2180302,17.9848719],[98.2172363,17.9859278],[98.2119074,17.9811043],[98.2090276,17.9828602],[98.2080483,17.9819932],[98.2081487,17.9837368],[98.205462,17.9854335],[98.2044908,17.9818543],[98.1998553,17.982569],[98.1973183,17.9791213],[98.1925686,17.9795864],[98.1908346,17.9819915],[98.1890164,17.9781333],[98.1836568,17.9811549],[98.1846498,17.9784537],[98.1817574,17.9775486],[98.1798871,17.9718994],[98.1715202,17.9749311],[98.1665696,17.9719959],[98.1701294,17.9690006],[98.1615897,17.9704539],[98.1624838,17.9677888],[98.1581758,17.9641455],[98.1610227,17.9631613],[98.1603525,17.9616067],[98.1552979,17.9620882],[98.1558181,17.9605864],[98.1528116,17.9603182],[98.1551978,17.9584694],[98.1520232,17.9578403],[98.1541121,17.9555478],[98.1535787,17.9525477],[98.1501694,17.9530507],[98.1499687,17.9438495],[98.1485224,17.9425918],[98.1501842,17.940327],[98.1461044,17.9386646],[98.1436246,17.9354053],[98.1405959,17.9409139],[98.1327396,17.9434996],[98.134087,17.9443646],[98.1333834,17.9459637],[98.1291101,17.9439081],[98.1267897,17.9465784],[98.1222124,17.9460378],[98.1237151,17.9481163],[98.1209303,17.9505793],[98.1181187,17.9488416],[98.1103053,17.9543432],[98.1072263,17.9540692],[98.1025615,17.9570984],[98.1023193,17.9600379],[98.0998591,17.9602806],[98.0993126,17.9624737],[98.0946959,17.9615386],[98.0899929,17.9633421],[98.0859267,17.9597602],[98.0812839,17.9587657],[98.0799601,17.9564039],[98.0736196,17.9575453],[98.0678808,17.9546146],[98.0662424,17.9514406],[98.0631094,17.9517363],[98.062086,17.9498182],[98.0560107,17.9520273],[98.0527903,17.9495469],[98.052435,17.9465716],[98.0480074,17.945714],[98.0467722,17.9429979],[98.0437779,17.9451306],[98.0404854,17.9426856],[98.0346324,17.9425705],[98.0264923,17.9367116],[98.022762,17.936173],[98.0233705,17.9322148],[98.0188737,17.9300078],[98.0218195,17.9246527],[98.0167626,17.920119],[98.0146599,17.9194199],[98.0150793,17.9216289],[98.011937,17.9273349],[98.010917,17.9227529],[98.0080391,17.921877],[98.0112938,17.9200491],[98.0102944,17.9124163],[98.0115881,17.9087287],[98.0086809,17.9042076],[98.0103611,17.8958314],[98.0156777,17.8937673],[98.0200756,17.88856],[98.0269616,17.8885594],[98.0294873,17.8791167],[98.0324011,17.8761534],[98.0386425,17.8745085],[98.0477462,17.8686092],[98.0506708,17.871376],[98.0540986,17.8703861],[98.0595252,17.8576817],[98.0641495,17.8583587],[98.0696124,17.8533039],[98.0694107,17.8447424],[98.0727357,17.8380414],[98.0717552,17.8340408],[98.0732945,17.8291965],[98.0758328,17.8276295],[98.0829556,17.8165275],[98.0858205,17.8156971],[98.0878632,17.8083707],[98.1077122,17.7959019],[98.1086833,17.7934563],[98.1129868,17.7950618],[98.1147232,17.7984197],[98.1324645,17.7967266],[98.1351961,17.7893448],[98.1416336,17.7807724],[98.1472129,17.7766067],[98.1451334,17.7748981],[98.1422194,17.7637133],[98.14013,17.7612877],[98.1353115,17.7596508],[98.1398081,17.7489981],[98.1490785,17.745801],[98.1498158,17.7349318],[98.1534132,17.7297074],[98.149435,17.7230819],[98.1507253,17.6997939],[98.1439855,17.6901567],[98.145731,17.6851077],[98.1442834,17.6808901],[98.1395834,17.6780724],[98.1376087,17.6721147],[98.1340568,17.6708011],[98.1328282,17.6662877],[98.1263451,17.6636212],[98.1261113,17.6600899],[98.1193769,17.6556621],[98.1148593,17.6548272],[98.1145463,17.6519837],[98.1119698,17.6497234],[98.1084429,17.6515645],[98.1078738,17.6493806],[98.1052162,17.6487493],[98.1048539,17.645923],[98.1015022,17.6467929],[98.099747,17.6442773],[98.1021479,17.642833],[98.0975625,17.6433161],[98.0946008,17.6374118],[98.0859859,17.6372717],[98.0733526,17.6455517],[98.0727876,17.6477957],[98.0666507,17.6499544],[98.061603,17.6484268],[98.0632176,17.6510113],[98.0620192,17.6559354],[98.0589398,17.6579138],[98.0571897,17.6629453],[98.0515587,17.6673427],[98.0462896,17.6645752],[98.0472218,17.6697689],[98.0449864,17.6702475],[98.0430277,17.6754035],[98.0408501,17.6744733],[98.0401823,17.6757035],[98.0432021,17.6796559],[98.0387333,17.6871348],[98.040623,17.6892373],[98.038577,17.6947418],[98.0305539,17.7025568],[98.0308292,17.7106176],[98.0248556,17.7092598],[98.023064,17.7102562],[98.024147,17.7162998],[98.0275436,17.7208059],[98.0213546,17.7259705],[98.0201215,17.7322506],[98.0149907,17.7330382],[98.0141806,17.7401652],[98.020832,17.7360944],[98.0219456,17.7380105],[98.0159374,17.747478],[98.0126057,17.7483347],[98.0122808,17.7514693],[98.0146484,17.7558697],[98.0103441,17.756739],[98.0077201,17.7629611],[98.0079176,17.764264],[98.0102683,17.7645532],[98.0105881,17.7680723],[98.0064166,17.7749283],[97.9966688,17.7763249],[97.9964207,17.7780777],[97.9993298,17.7806255],[97.996264,17.785901],[97.9920423,17.7835993],[97.9896913,17.7857571],[97.9896332,17.7873293],[97.9936988,17.786737],[97.995579,17.7880518],[97.9920557,17.7911201],[97.9904753,17.7966581],[97.9867331,17.7980618],[97.9875003,17.8017452],[97.9854196,17.806837],[97.9914823,17.8102491],[97.9796878,17.8139138],[97.9811459,17.8178409],[97.9798591,17.8231955],[97.9752153,17.8228741],[97.9774128,17.8309469],[97.9816054,17.8327613],[97.9823816,17.8386882],[97.9748005,17.8479559],[97.9722048,17.8465241],[97.9704085,17.8479485],[97.9703534,17.8518163],[97.9670406,17.8568305],[97.9734973,17.8633272],[97.9722831,17.8660253],[97.9687201,17.8679172],[97.9657073,17.8644967],[97.9630338,17.8661005],[97.9560103,17.8638228],[97.9542402,17.8604953],[97.9497093,17.8593444],[97.9366341,17.8576605],[97.9183403,17.8583029],[97.9125606,17.8546962],[97.9078214,17.8450215],[97.9074148,17.8399177],[97.9018906,17.8364205],[97.8991765,17.8316392],[97.8995912,17.8282591],[97.9059684,17.8201232],[97.9059013,17.8149758],[97.9024534,17.8097152],[97.8946096,17.803958],[97.8857734,17.8012768],[97.8776912,17.7952975],[97.8704086,17.7945113],[97.8679209,17.7890373],[97.8622073,17.7904857],[97.8612161,17.7857419],[97.8565932,17.7854494],[97.8495087,17.7799989],[97.8458248,17.778901],[97.8401404,17.7803769],[97.8326157,17.7799269],[97.8162564,17.7865723],[97.805335,17.7802376],[97.795443,17.7771371],[97.7851484,17.7851029],[97.7737549,17.7791933],[97.7656079,17.778597],[97.762307,17.7765217],[97.7589972,17.7789221],[97.7521965,17.7782604],[97.748409,17.7832467],[97.7452199,17.7824297],[97.7458164,17.7868107],[97.742169,17.7858722]]]}}]}