{"type":"FeatureCollection","features":[{"type":"Feature","properties":{"provinceCode":"91","nameTh":"สตูล","nameEn":"Satun"},"geometry":{"type":"Polygon","coordinates":[[[100.0572198,7.1075797],[100.0545568,7.0951429],[100.0575002,7.0903309],[100.06007,7.0891014],[100.0594052,7.0857487],[100.0630267,7.0762312],[100.061279,7.0755366],[100.0604722,7.0713911],[100.0637273,7.0677476],[100.0636858,7.057133],[100.0738695,7.0499192],[100.0736224,7.0473982],[100.0707947,7.0458194],[100.0712541,7.0438437],[100.0775371,7.0441723],[100.0791418,7.0413654],[100.0781718,7.0372306],[100.0750399,7.0332586],[100.0705435,7.0317949],[100.0677083,7.0332522],[100.0656537,7.031342],[100.0667928,7.025312],[100.0632065,7.018408],[100.0662537,7.012782],[100.077843,7.0053446],[100.0830108,6.9980259],[100.0832932,6.9948134],[100.0797754,6.9886139],[100.0810176,6.9800821],[100.0790306,6.9632498],[100.0948184,6.965088],[100.0995288,6.9570248],[100.1017644,6.9486985],[100.1058192,6.9487513],[100.1078469,6.9452101],[100.1123239,6.9431381],[100.1199403,6.9360413],[100.1217455,6.9238646],[100.1378095,6.9220821],[100.1416054,6.9250567],[100.1461697,6.9251803],[100.1573255,6.9194157],[100.163477,6.9137991],[100.1659626,6.9143731],[100.1677972,6.9117704],[100.1736201,6.9134129],[100.1776047,6.9117624],[100.181565,6.9133341],[100.1985994,6.9074987],[100.2008748,6.8993023],[100.2071612,6.8957555],[100.2087939,6.8884357],[100.2115548,6.8877101],[100.212932,6.883268],[100.2187026,6.8795444],[100.2185998,6.8719206],[100.2206192,6.8707843],[100.2176706,6.8685987],[100.2148172,6.861653],[100.2109742,6.8571871],[100.2107956,6.8438721],[100.2032689,6.8408386],[100.1990029,6.8361953],[100.195243,6.827089],[100.1961939,6.8144034],[100.1912292,6.8097241],[100.1914106,6.7997905],[100.1956552,6.7955648],[100.1930176,6.7911015],[100.1930922,6.787853],[100.1989475,6.7833897],[100.199506,6.7761607],[100.2127585,6.7687516],[100.2156498,6.7559929],[100.2073497,6.7486223],[100.2059394,6.7378899],[100.2068081,6.7300629],[100.205056,6.726082],[100.198936,6.72169],[100.196531,6.722381],[100.195836,6.720679],[100.185841,6.71678],[100.186215,6.713276],[100.178732,6.699854],[100.1786271,6.6965088],[100.171463,6.693389],[100.175205,6.682878],[100.178812,6.682558],[100.179828,6.680411],[100.179855,6.67328],[100.17785,6.668963],[100.180576,6.660179],[100.180683,6.654281],[100.175178,6.650013],[100.171597,6.650309],[100.168283,6.64757],[100.169005,6.632642],[100.166092,6.631606],[100.168444,6.627189],[100.167134,6.623538],[100.168711,6.621638],[100.169753,6.608512],[100.175659,6.604145],[100.178358,6.604613],[100.180977,6.601677],[100.180977,6.597359],[100.178706,6.595977],[100.178278,6.592301],[100.181244,6.587144],[100.18087,6.583344],[100.184291,6.579544],[100.182474,6.575868],[100.18357,6.572808],[100.177423,6.572438],[100.175686,6.56664],[100.171784,6.573968],[100.16986,6.574609],[100.165691,6.569847],[100.163179,6.571599],[100.162297,6.576238],[100.156846,6.579322],[100.156044,6.57493],[100.158262,6.574535],[100.159678,6.570464],[100.158583,6.568283],[100.159652,6.562557],[100.153772,6.557375],[100.15754,6.522925],[100.154574,6.52179],[100.157246,6.515719],[100.158396,6.506268],[100.160587,6.503282],[100.159438,6.495434],[100.160373,6.488993],[100.159438,6.487216],[100.154627,6.486747],[100.154895,6.483243],[100.158957,6.480997],[100.158235,6.478949],[100.155616,6.477419],[100.153959,6.478702],[100.15126,6.475839],[100.151741,6.472434],[100.150404,6.470361],[100.145647,6.468732],[100.144498,6.463007],[100.148026,6.452371],[100.144204,6.450939],[100.142735,6.447534],[100.140035,6.448398],[100.13584,6.444499],[100.136481,6.440501],[100.134183,6.439069],[100.135225,6.435318],[100.133355,6.429075],[100.127796,6.425348],[100.124883,6.425225],[100.123814,6.422881],[100.1204201,6.422647],[100.0845323,6.4256518],[99.9974493,6.4260102],[99.8804465,6.5358853],[99.6510213,6.4779203],[99.554019,6.5059695],[99.5089094,6.4844035],[99.4561875,6.3070079],[99.3196068,6.2726905],[99.1116667,6.3],[99.0681705,6.3256496],[99.009394,6.3817],[98.9690821,6.4489383],[98.9586342,6.4866996],[98.9602712,6.5482341],[98.978385,6.6106137],[99.0040096,6.6630074],[99.0388618,6.7050492],[99.0712736,6.7336559],[99.1125691,6.7599846],[99.1761587,6.7752506],[99.2686351,6.7804885],[99.3088552,6.7675632],[99.305104,6.8299485],[99.7393356,7.1318643],[99.7534265,7.1251908],[99.7637241,7.1238533],[99.7668597,7.1257351],[99.7711433,7.1250318],[99.780197,7.1278925],[99.784759,7.1272112],[99.7845948,7.1293434],[99.7880198,7.1320453],[99.7875907,7.1381091],[99.789373,7.1395677],[99.7914852,7.1348858],[99.7988307,7.1287166],[99.8034435,7.128834],[99.8055646,7.1311925],[99.8147414,7.1317907],[99.8266138,7.1377971],[99.8312693,7.138032],[99.8310357,7.1423708],[99.8383325,7.1502356],[99.8410302,7.1510708],[99.8444248,7.1615358],[99.8543131,7.1643745],[99.8598614,7.1726389],[99.8634764,7.1733961],[99.8679101,7.1708298],[99.8713745,7.1709197],[99.8761947,7.1778504],[99.8905299,7.1867767],[99.8966801,7.1867207],[99.8998964,7.1887206],[99.9075675,7.1891567],[99.9174839,7.1923953],[99.9247231,7.1900626],[99.9294011,7.1920844],[99.9349363,7.1904047],[99.9419679,7.1961232],[99.9460578,7.2034989],[99.9485621,7.2036988],[99.9591435,7.1983913],[99.9597122,7.1952216],[99.9565977,7.1899284],[99.9606051,7.1820163],[99.958525,7.1776847],[99.9608323,7.1750277],[99.961421,7.1698076],[99.964494,7.1670638],[99.969383,7.1658546],[99.97185,7.1569413],[99.9716013,7.1506264],[99.9787468,7.1474906],[99.9802004,7.1420999],[99.9865115,7.1363452],[99.9899996,7.1248766],[100.0003122,7.1121091],[100.0026371,7.1135213],[100.0039656,7.1106323],[100.0094536,7.1105689],[100.0107854,7.1088301],[100.0129413,7.1093416],[100.0258099,7.1029823],[100.0268712,7.099105],[100.0253093,7.0926119],[100.0282283,7.0903324],[100.0308863,7.0929242],[100.0342429,7.1007351],[100.0369362,7.1014104],[100.0382547,7.1086954],[100.0453889,7.1090031],[100.0491117,7.1075886],[100.0522637,7.1100168],[100.0572198,7.1075797]]]}}]}