{"type":"FeatureCollection","features":[{"type":"Feature","properties":{"provinceCode":"82","nameTh":"พังงา","nameEn":"Phangnga"},"geometry":{"type":"Polygon","coordinates":[[[98.5060601,9.308902],[98.5002539,9.3069843],[98.4855993,9.3076302],[98.4803279,9.3037965],[98.4818659,9.311228],[98.4779283,9.3156178],[98.4759675,9.314953],[98.4739434,9.3165639],[98.4713202,9.3216856],[98.4661433,9.3141825],[98.4600492,9.3163484],[98.4561545,9.3159637],[98.451126,9.3220567],[98.44732,9.3236547],[98.4476143,9.330346],[98.439958,9.3330265],[98.4399388,9.3303499],[98.4369914,9.326771],[98.4357896,9.3289438],[98.4225024,9.3348393],[98.4172389,9.3353595],[98.4135108,9.3381456],[98.4133607,9.3413448],[98.4096148,9.3433349],[98.4073402,9.3484848],[98.4021545,9.3470022],[98.4014858,9.329735],[98.395245,9.3298746],[98.3931599,9.3329174],[98.3905979,9.3322236],[98.2989566,9.3580375],[97.913968,9.4849416],[97.6650928,9.5238288],[97.6459826,9.4918485],[97.6336053,9.4443916],[97.6339772,9.4033594],[97.6376961,9.366542],[97.6486428,9.3434847],[97.6737697,9.2994774],[97.7171572,9.2492718],[97.6874212,9.2324735],[97.6489344,9.1820612],[97.6183377,9.1261679],[97.6127062,9.108438],[97.6111101,9.074009],[97.6182172,9.0212477],[97.6345997,8.959211],[97.5942458,8.8913923],[97.5891865,8.874528],[97.5888251,8.8654935],[97.5589511,8.8528452],[97.5291374,8.8342342],[97.503359,8.8108651],[97.4703531,8.7691861],[97.4608368,8.7505149],[97.4480681,8.6932966],[97.4515614,8.6706502],[97.446984,8.6321031],[97.4392746,8.6082521],[97.4348176,8.5606104],[97.4468635,8.4720726],[97.4680644,8.4058199],[97.4874584,8.3581179],[97.5013112,8.3417354],[97.5404606,8.3069226],[97.5610592,8.2919856],[97.5761166,8.2848785],[97.6015336,8.2781328],[97.6381533,8.2737962],[97.6620042,8.2737962],[97.7139223,8.2793374],[97.7462055,8.2929493],[97.7659608,8.3035497],[97.7952325,8.3272803],[97.8529326,8.3864259],[97.8752176,8.4175045],[97.8881068,8.4432828],[97.8985868,8.4985737],[97.891841,8.5402527],[97.8766631,8.5836182],[97.8573595,8.6277967],[97.8976833,8.6426735],[97.926172,8.6584537],[97.9617076,8.6868821],[97.9850767,8.7136241],[98.0008569,8.7374751],[98.0109755,8.7640967],[98.0174803,8.7944525],[98.0208532,8.8532367],[98.0150712,8.8891337],[97.9960385,8.9223805],[97.9757308,8.9499386],[98.0083254,8.9879105],[98.0216098,9.027364],[98.0615053,9.0276808],[98.0675915,9.0199527],[98.0486794,8.989356],[98.0366334,8.9515317],[98.0310923,8.9175621],[98.0307309,8.885279],[98.0428973,8.8386611],[98.0521416,8.8174157],[98.0363925,8.7732516],[98.0314536,8.7441004],[98.0291649,8.7196471],[98.0292854,8.6970007],[98.0383198,8.6625493],[98.0173599,8.6185816],[98.0115778,8.5791913],[98.0084459,8.5447399],[98.0086868,8.498122],[98.0547023,8.381999],[98.0696091,8.2921362],[98.0653028,8.2615395],[98.0647005,8.2313041],[98.0713258,8.1876978],[98.0903725,8.1444525],[98.2775637,8.2010818],[98.298349,8.2021889],[98.3450581,8.1700545],[98.3680552,8.132708],[98.3810649,8.1225894],[98.3980497,8.119066],[98.4253338,8.1218667],[98.437711,8.1136453],[98.4555089,8.1050625],[98.4912176,8.1229056],[98.4924989,7.3660273],[98.5060642,7.4151908],[98.512569,7.4502445],[98.5334085,7.4724091],[98.548466,7.4946941],[98.5666554,7.5310728],[98.5713533,7.548419],[98.5984567,7.5458894],[98.6295353,7.5087878],[98.6553736,7.4870852],[98.6547623,8.1235937],[98.6727768,8.1960742],[98.6453547,8.196136],[98.5996448,8.3045695],[98.6344901,8.3746649],[98.6579651,8.3805919],[98.6624047,8.3847865],[98.6618453,8.3893576],[98.6583555,8.395934],[98.6456238,8.4073331],[98.6440956,8.4112966],[98.6451463,8.4155966],[98.6491296,8.4206212],[98.6552058,8.424221],[98.6624761,8.4248982],[98.6646506,8.4268744],[98.6660404,8.4347727],[98.6635087,8.4407103],[98.6637978,8.4457656],[98.6658138,8.449051],[98.6649394,8.4545938],[98.6670522,8.45471],[98.6670097,8.4571529],[98.6687586,8.4563168],[98.6712872,8.4591949],[98.670184,8.4606931],[98.6654772,8.4591148],[98.6667351,8.460613],[98.6642882,8.4639002],[98.6657286,8.4638129],[98.6653358,8.4662097],[98.6632833,8.4655964],[98.6639067,8.4673656],[98.6613025,8.467617],[98.6598013,8.4716439],[98.6577451,8.4704766],[98.6552569,8.4758734],[98.6542088,8.4743031],[98.6535226,8.4771243],[98.6508403,8.4782916],[98.6514266,8.4796068],[98.6492006,8.4828004],[98.654076,8.4824352],[98.6571205,8.4875045],[98.6621312,8.4904022],[98.6624046,8.4982866],[98.6670399,8.5013135],[98.6732252,8.5196832],[98.6742577,8.5213572],[98.6775275,8.5205249],[98.6775619,8.5280985],[98.681185,8.5368909],[98.6812668,8.5491901],[98.685566,8.5621456],[98.6917679,8.5713104],[98.6910639,8.5760066],[98.7027625,8.588486],[98.7038517,8.5930112],[98.7077538,8.597983],[98.7069395,8.6030226],[98.7030358,8.6046891],[98.7039908,8.6097384],[98.7021396,8.612648],[98.7035994,8.6175716],[98.7014743,8.6226626],[98.7034381,8.6319787],[98.6989275,8.6329793],[98.6984736,8.6421556],[98.694199,8.6460793],[98.6879634,8.647861],[98.68514,8.6558557],[98.6776587,8.6587783],[98.6748911,8.6616506],[98.6700586,8.6613105],[98.6629855,8.656396],[98.6483174,8.6593099],[98.6381206,8.6437112],[98.6346253,8.6425647],[98.629829,8.6439352],[98.6225743,8.6395872],[98.6204795,8.6366194],[98.6114112,8.6374895],[98.6092929,8.6351501],[98.6091666,8.631134],[98.6043179,8.6256862],[98.6031727,8.6288975],[98.6008388,8.6302014],[98.5953805,8.6297399],[98.5927173,8.6312323],[98.5892472,8.6282654],[98.5867909,8.6281357],[98.5782255,8.6336018],[98.5644029,8.6381094],[98.5639198,8.6423926],[98.5536469,8.649005],[98.553217,8.6523341],[98.5501724,8.6549102],[98.5446991,8.6559127],[98.5398639,8.6600533],[98.5373519,8.6601181],[98.5367436,8.6619423],[98.5390661,8.6636555],[98.5391631,8.6669766],[98.5462532,8.6740367],[98.5520222,8.6732539],[98.5593963,8.6748725],[98.5622066,8.6768625],[98.563244,8.6806299],[98.5702918,8.6817177],[98.5726325,8.6844931],[98.5727642,8.6908941],[98.5810399,8.696544],[98.5822656,8.7028599],[98.5890923,8.7054849],[98.594652,8.7121816],[98.5959914,8.7226062],[98.5935703,8.7312001],[98.5949555,8.7396752],[98.5939439,8.7437652],[98.5966294,8.7461591],[98.5957917,8.759162],[98.5986336,8.7713127],[98.5975748,8.7750415],[98.6015209,8.7823015],[98.5997777,8.7850466],[98.598707,8.7968345],[98.5954276,8.8005622],[98.5875784,8.8023773],[98.5855068,8.8059707],[98.5792088,8.8035263],[98.5747473,8.8041056],[98.5704669,8.8066429],[98.5644726,8.8072718],[98.5548347,8.8140546],[98.5558575,8.8217026],[98.5528925,8.8295222],[98.5484058,8.8309933],[98.5470669,8.8353539],[98.5429283,8.8402433],[98.5355511,8.842366],[98.532687,8.8449277],[98.5360226,8.8538443],[98.5356514,8.8583713],[98.5256286,8.8610056],[98.5226174,8.8590017],[98.514367,8.8605236],[98.5107915,8.8658519],[98.5054486,8.8809651],[98.4999098,8.8808205],[98.4746003,8.8901352],[98.4723178,8.8888494],[98.4589313,8.889693],[98.4555187,8.8908645],[98.4530897,8.8942117],[98.445996,8.8952552],[98.4476127,8.9029941],[98.454563,8.9142447],[98.4544746,8.9245886],[98.4571429,8.9323445],[98.4562365,8.9357347],[98.4475084,8.9399611],[98.4430989,8.945222],[98.4498832,8.9507577],[98.4489257,8.9568382],[98.4508915,8.9650861],[98.4656466,8.9703189],[98.478609,8.977405],[98.4849042,8.9785158],[98.4942245,8.9850519],[98.5053882,8.9825172],[98.511019,8.9954572],[98.510363,8.9982326],[98.5052005,8.9999696],[98.4936054,9.0158277],[98.4887965,9.0159405],[98.4897138,9.0206359],[98.4852401,9.0276409],[98.4853411,9.0336073],[98.4796669,9.0368648],[98.4751626,9.0444999],[98.4729811,9.0637192],[98.4815162,9.0698316],[98.4855152,9.0701216],[98.4945694,9.0809764],[98.4915214,9.0861848],[98.4892813,9.1087763],[98.4853374,9.1126258],[98.4859964,9.1163939],[98.4805775,9.1238832],[98.4851833,9.1312281],[98.4836765,9.1401067],[98.4945308,9.1492081],[98.4961566,9.1525414],[98.5032635,9.1541123],[98.5029084,9.1592245],[98.4969912,9.1647759],[98.4947639,9.1706727],[98.4962657,9.1772289],[98.4930923,9.1873071],[98.494886,9.19196],[98.4986681,9.1941442],[98.4971733,9.2004149],[98.5002822,9.2131886],[98.5026509,9.2159018],[98.506502,9.2166441],[98.5124107,9.2230932],[98.5118572,9.2257656],[98.5178378,9.2278245],[98.5174477,9.2314559],[98.5199966,9.2340587],[98.5249996,9.2353264],[98.5257741,9.2385201],[98.5241786,9.2411111],[98.5279843,9.2435869],[98.5274765,9.2475566],[98.5311449,9.2542261],[98.5266669,9.2647691],[98.5276649,9.2700959],[98.5264268,9.279638],[98.5245322,9.2825819],[98.5276147,9.2965525],[98.5182809,9.2994333],[98.516133,9.304172],[98.5060601,9.308902]]]}}]}