{"type":"FeatureCollection","features":[{"type":"Feature","properties":{"provinceCode":"19","nameTh":"สระบุรี","nameEn":"Saraburi"},"geometry":{"type":"Polygon","coordinates":[[[101.0727244,14.3995451],[101.0901062,14.3929416],[101.0934207,14.3843986],[101.0978049,14.383186],[101.0978174,14.38188],[101.1033996,14.3807635],[101.1041364,14.3857096],[101.1109026,14.3836539],[101.1147928,14.3854311],[101.1164146,14.3825724],[101.1192338,14.3847096],[101.1233112,14.3832845],[101.1252584,14.3845996],[101.1324377,14.376625],[101.1466072,14.3738157],[101.1511021,14.3702504],[101.1574832,14.3585429],[101.1563215,14.3544278],[101.1572587,14.3477863],[101.1638781,14.3451293],[101.1657239,14.3423758],[101.1663491,14.3480197],[101.1689427,14.3490316],[101.1777121,14.3469778],[101.1786959,14.3491923],[101.1851757,14.3534425],[101.1867579,14.3671227],[101.1929383,14.3706639],[101.1989088,14.3692752],[101.2100642,14.3719977],[101.2118161,14.3819054],[101.2098988,14.3824984],[101.2042071,14.3910076],[101.2050334,14.3976866],[101.2024681,14.4024952],[101.2112756,14.4136174],[101.2091989,14.4282066],[101.21501,14.4376388],[101.2236789,14.4340603],[101.2271171,14.4306213],[101.2301319,14.4339839],[101.2222111,14.4459411],[101.227482,14.4515821],[101.2317654,14.452164],[101.2342178,14.4588251],[101.2314775,14.4628378],[101.2260754,14.4634866],[101.227004,14.4671155],[101.2251993,14.4723695],[101.2285544,14.4740641],[101.2428317,14.4711043],[101.2385693,14.4787795],[101.226007,14.4944984],[101.2230984,14.5041107],[101.2173775,14.5062353],[101.210847,14.51468],[101.2104646,14.5201092],[101.1971591,14.525175],[101.1951493,14.5311942],[101.1902062,14.5281887],[101.183418,14.5347409],[101.1846581,14.5357712],[101.183995,14.5390856],[101.1810366,14.5438905],[101.1827976,14.5445826],[101.1813748,14.5472896],[101.1849232,14.5516234],[101.1878708,14.5510211],[101.1908297,14.5546541],[101.1947679,14.5536156],[101.1938345,14.5614454],[101.1965704,14.5619335],[101.1980134,14.5649553],[101.2012106,14.5650228],[101.2000626,14.5704328],[101.2028126,14.5711445],[101.2027421,14.5737862],[101.206615,14.577091],[101.2050604,14.5799827],[101.2082597,14.5806573],[101.2081657,14.5830279],[101.2149635,14.5865777],[101.2155671,14.5883398],[101.2152539,14.5912428],[101.2113261,14.593077],[101.2115141,14.5954],[101.2085317,14.5953356],[101.2105233,14.5993071],[101.2043689,14.6084303],[101.2079263,14.6130798],[101.2045551,14.6155764],[101.2039148,14.623608],[101.2055531,14.6244296],[101.2052192,14.6277386],[101.2068309,14.6285339],[101.2059775,14.6296254],[101.2080741,14.6299861],[101.2083352,14.6327435],[101.2065006,14.6348173],[101.2069707,14.6387021],[101.2053176,14.6396898],[101.2048879,14.6444191],[101.2063424,14.648074],[101.2035638,14.652161],[101.2054109,14.6530463],[101.2049105,14.6559474],[101.2026484,14.6625577],[101.1990347,14.6638779],[101.2005185,14.6658489],[101.1994515,14.6693321],[101.2007345,14.6748332],[101.2020234,14.675554],[101.2011795,14.6798577],[101.2039128,14.6832478],[101.2008249,14.6845279],[101.2011972,14.6891367],[101.1985338,14.6919998],[101.1989321,14.6947253],[101.1961651,14.6959059],[101.1967489,14.6998859],[101.1949581,14.7014679],[101.1961756,14.7026039],[101.1937493,14.7038682],[101.1952007,14.7053794],[101.191582,14.7065911],[101.1911324,14.7091655],[101.1864905,14.7113724],[101.1892922,14.714864],[101.1876427,14.7201354],[101.1850537,14.7219229],[101.18742,14.7254495],[101.1913173,14.7241395],[101.1906211,14.7255163],[101.1940302,14.7314928],[101.1906145,14.7336923],[101.1939493,14.7405784],[101.1882824,14.7456087],[101.1885625,14.7489242],[101.19199,14.748807],[101.1935341,14.7511764],[101.1974911,14.7491506],[101.1983113,14.7514755],[101.1966779,14.7537776],[101.1989886,14.7558666],[101.2082727,14.7510252],[101.2089232,14.7545805],[101.2116374,14.7562808],[101.2111409,14.7542849],[101.2155129,14.7535884],[101.2172506,14.7487914],[101.2160613,14.7467415],[101.2239751,14.7429227],[101.2253525,14.7411273],[101.2244835,14.7401883],[101.2266722,14.7394153],[101.22733,14.7366085],[101.2299004,14.7361057],[101.2316289,14.7320686],[101.2338303,14.7348069],[101.2375844,14.7325454],[101.2426435,14.7334274],[101.246153,14.7311072],[101.2491684,14.7351599],[101.2501655,14.7321511],[101.2539949,14.7314597],[101.2550283,14.7327398],[101.2587848,14.7301105],[101.2629851,14.7334672],[101.2649914,14.7305982],[101.2669172,14.7306605],[101.2673088,14.7283518],[101.2703847,14.7283364],[101.2713261,14.7262621],[101.2750281,14.7255501],[101.2773711,14.7275833],[101.2781143,14.7258787],[101.2806059,14.7260019],[101.2823897,14.7291236],[101.2825005,14.7451681],[101.2870869,14.7460302],[101.2888601,14.7398922],[101.2918755,14.7361923],[101.299414,14.7376282],[101.3003694,14.7413865],[101.3032407,14.742324],[101.3016521,14.7514872],[101.303774,14.7553417],[101.3051371,14.7550016],[101.3049667,14.7568186],[101.30672,14.7560593],[101.3075273,14.7577853],[101.3086326,14.7714752],[101.3138837,14.7781733],[101.3292002,14.7916049],[101.3339183,14.7989351],[101.3414279,14.8017028],[101.348214,14.8081638],[101.3658254,14.8118963],[101.3706643,14.8155531],[101.3724803,14.8223492],[101.3721044,14.8325646],[101.3685751,14.8423451],[101.371417,14.856203],[101.3747948,14.8567307],[101.378707,14.8507358],[101.3978777,14.8496642],[101.4028323,14.8472194],[101.4085722,14.8479557],[101.4141543,14.8447884],[101.4199273,14.8437353],[101.4251976,14.8489668],[101.4332721,14.8501077],[101.4400427,14.8551402],[101.4512383,14.8581269],[101.4511203,14.8602675],[101.4541083,14.8630622],[101.4537328,14.8657428],[101.4516489,14.8658528],[101.453889,14.8686976],[101.4510829,14.8741571],[101.4520636,14.8756556],[101.4542258,14.8751591],[101.4547357,14.8768791],[101.4511097,14.8864371],[101.4511278,14.8971508],[101.4489866,14.8993429],[101.4485045,14.9066019],[101.4466913,14.9078591],[101.4492388,14.9118189],[101.4472544,14.9166657],[101.4445172,14.9179408],[101.4447735,14.9237531],[101.442296,14.9262006],[101.4412837,14.9254144],[101.4393118,14.9271947],[101.4400882,14.9288202],[101.4380609,14.9297252],[101.4403584,14.9322716],[101.4383442,14.9338634],[101.4387969,14.9360759],[101.4352826,14.9383186],[101.4366124,14.9385966],[101.4364342,14.9415841],[101.4345406,14.9419158],[101.4356885,14.9434811],[101.4334838,14.9443673],[101.4325557,14.9473475],[101.4338807,14.9483841],[101.4309103,14.9515711],[101.4325787,14.9529031],[101.4300584,14.9560168],[101.429908,14.9597142],[101.4329985,14.9617688],[101.4333655,14.9657781],[101.4314982,14.9673061],[101.4325635,14.9680717],[101.4307844,14.9711886],[101.4321342,14.972194],[101.4304231,14.9768418],[101.4272742,14.9794329],[101.4299071,14.9825767],[101.4281632,14.9829279],[101.4275137,14.986134],[101.4253508,14.9874436],[101.4238739,14.9950526],[101.4212088,14.9961124],[101.4205224,14.9984716],[101.4231273,15.0049673],[101.4224465,15.0111319],[101.4255309,15.0131373],[101.4227843,15.0135777],[101.4213467,15.017132],[101.418093,15.019531],[101.4193025,15.0210375],[101.416079,15.0303709],[101.4174288,15.0314447],[101.4146769,15.0332878],[101.4137997,15.0366518],[101.4160325,15.039082],[101.4147639,15.0452298],[101.4122626,15.0449962],[101.4102559,15.0412014],[101.4045738,15.0405305],[101.4000942,15.0370195],[101.395553,15.0369622],[101.3743472,15.0425755],[101.3713584,15.046092],[101.3658377,15.0450558],[101.3630789,15.0469713],[101.3620898,15.0333927],[101.3578558,15.0307057],[101.3492094,15.012318],[101.3495081,15.0003601],[101.3476764,14.9930618],[101.3434589,14.9907534],[101.3364396,14.9901653],[101.3345211,14.9843602],[101.3315811,14.9827862],[101.333856,14.978157],[101.3299564,14.9723468],[101.3291691,14.9654894],[101.3265426,14.964177],[101.3202286,14.9648643],[101.3108934,14.9604617],[101.3041347,14.9538448],[101.2971278,14.9510066],[101.2926134,14.946647],[101.2842551,14.9439535],[101.2795964,14.9372208],[101.2729485,14.9332267],[101.271854,14.9265651],[101.2678776,14.9241927],[101.2666437,14.9185458],[101.2579522,14.9126029],[101.2534092,14.9133307],[101.2520822,14.9160964],[101.2512244,14.9145211],[101.2491161,14.9162366],[101.2478475,14.9150684],[101.2423151,14.9184194],[101.2384813,14.9177651],[101.2329977,14.9206667],[101.2316848,14.9187161],[101.2258145,14.920793],[101.2233777,14.9187275],[101.2216879,14.9200234],[101.2213768,14.9184942],[101.2131551,14.9205007],[101.2085774,14.9172479],[101.2060613,14.9176229],[101.2061594,14.9190597],[101.2029032,14.9185828],[101.2005371,14.9203975],[101.1925387,14.9214038],[101.1846854,14.9155688],[101.1797255,14.9159038],[101.1652019,14.9026781],[101.1568461,14.9005974],[101.1526348,14.8973557],[101.1402911,14.8974044],[101.1370956,14.8996281],[101.1369574,14.901396],[101.1281353,14.9034468],[101.1225333,14.9020166],[101.1226195,14.9038031],[101.1206045,14.9028324],[101.1197467,14.9059406],[101.1143392,14.9038184],[101.1106699,14.9054721],[101.1107129,14.9070895],[101.1088997,14.9060838],[101.1073225,14.9083854],[101.1047237,14.9062577],[101.1023498,14.9062032],[101.102644,14.908049],[101.099603,14.9085821],[101.091067,14.9056062],[101.089366,14.8471826],[101.0823716,14.8435025],[101.0815385,14.8449914],[101.0835245,14.8494019],[101.0793104,14.8510874],[101.0753097,14.8470705],[101.0776387,14.8436671],[101.0689528,14.8443954],[101.0653488,14.8398588],[101.0677214,14.8311257],[101.0713639,14.8313368],[101.0787271,14.8355958],[101.0855206,14.8342159],[101.089148,14.8311444],[101.078513,14.8187793],[101.079241,14.8133889],[101.0818272,14.8124165],[101.0817424,14.811051],[101.0763925,14.8106252],[101.0744195,14.8147596],[101.0720945,14.8158435],[101.0689837,14.8139936],[101.0686028,14.8053699],[101.0725827,14.7911294],[101.066553,14.7925794],[101.062166,14.7912252],[101.0657392,14.7762202],[101.0735219,14.7654984],[101.0697116,14.759964],[101.0629186,14.7593804],[101.0630436,14.7620457],[101.0609617,14.7599018],[101.0595814,14.7604059],[101.0612762,14.7630455],[101.0598589,14.7646543],[101.0625579,14.7659116],[101.061726,14.7676276],[101.0605121,14.7667041],[101.0598774,14.7694271],[101.0593166,14.7680805],[101.0579979,14.7686227],[101.058048,14.7715637],[101.0556877,14.7718542],[101.0569554,14.7739907],[101.0542561,14.7745416],[101.0557225,14.7752686],[101.0545286,14.7761226],[101.0557266,14.7784616],[101.057454,14.7765061],[101.0590418,14.7781192],[101.0585335,14.7811489],[101.0564573,14.7818025],[101.0585279,14.783955],[101.0553316,14.7840605],[101.0547017,14.787633],[101.0525286,14.788995],[101.0543548,14.7903501],[101.0519385,14.7901241],[101.0504441,14.7930319],[101.0444928,14.7948853],[101.0412318,14.7994552],[101.0381322,14.8010399],[101.0329137,14.8006999],[101.0329544,14.8035735],[101.0316941,14.8025555],[101.028645,14.808408],[101.0276552,14.8071971],[101.0263803,14.8075447],[101.0256585,14.8103074],[101.0237469,14.8095168],[101.0197907,14.8020071],[101.0164735,14.8004285],[101.0152419,14.7950427],[101.0104896,14.7890062],[101.000292,14.7786341],[100.9957259,14.7774367],[100.9959496,14.7720396],[100.9925081,14.7685734],[100.9909078,14.7629459],[100.9922802,14.7550174],[100.9904372,14.7505632],[100.9918636,14.7404511],[100.9842014,14.7449892],[100.9802745,14.7452703],[100.9761919,14.7494178],[100.9706369,14.7488674],[100.966271,14.7515165],[100.961205,14.744326],[100.9594745,14.7437687],[100.9559339,14.7466744],[100.9511528,14.7456644],[100.9486861,14.7428231],[100.9435566,14.740742],[100.940585,14.7508193],[100.934112,14.7526183],[100.9275732,14.7506178],[100.9171762,14.7561445],[100.9123667,14.757006],[100.906396,14.7610097],[100.9053258,14.7662858],[100.9014831,14.7699786],[100.8940715,14.7693626],[100.8888333,14.7729149],[100.8795069,14.7705117],[100.8669072,14.7712073],[100.8646535,14.7822826],[100.8454398,14.7896824],[100.8485322,14.7947582],[100.847455,14.8014242],[100.8417626,14.8041889],[100.8198915,14.8035846],[100.8142082,14.7951873],[100.8049198,14.7942681],[100.7981647,14.7904749],[100.7924515,14.7917011],[100.7914532,14.7947999],[100.7749567,14.7944594],[100.7673107,14.7960811],[100.765455,14.7893254],[100.7557259,14.7869483],[100.7525293,14.7812008],[100.744702,14.7815165],[100.7446085,14.7799659],[100.7389916,14.7804075],[100.7327409,14.7778036],[100.7315728,14.7731587],[100.7285016,14.7717783],[100.726086,14.7657147],[100.7257971,14.7597923],[100.7230473,14.7579148],[100.7159737,14.7602386],[100.7146996,14.75668],[100.7114621,14.7592292],[100.7042772,14.7580953],[100.7039588,14.7564777],[100.7002032,14.7565995],[100.7016028,14.7553306],[100.6990457,14.7493442],[100.694991,14.7524884],[100.6937076,14.7506201],[100.6902412,14.7512674],[100.6887898,14.7490202],[100.6862218,14.7498725],[100.6818147,14.7473011],[100.6793634,14.7477821],[100.6776689,14.7414037],[100.6752552,14.7394178],[100.6736297,14.7397596],[100.6738631,14.7428359],[100.6719051,14.7420505],[100.670454,14.7435721],[100.66073,14.7392559],[100.6647342,14.7342007],[100.662817,14.7347951],[100.6614529,14.7324064],[100.6597756,14.7332685],[100.6589708,14.7318103],[100.6618343,14.7291185],[100.6601305,14.7260788],[100.6584378,14.7269935],[100.6552705,14.7213503],[100.6569668,14.720451],[100.6563926,14.719449],[100.6523785,14.7201131],[100.6557049,14.718228],[100.6527796,14.7130133],[100.6545019,14.7121539],[100.6514904,14.7097371],[100.6535831,14.7092114],[100.6531375,14.7070156],[100.6569241,14.7069024],[100.6603721,14.704358],[100.6574439,14.7003828],[100.6556606,14.7008431],[100.6554466,14.6968428],[100.6572455,14.6955038],[100.6556701,14.6933264],[100.6501126,14.6928313],[100.6452291,14.6849636],[100.6434537,14.6858959],[100.6381435,14.6802184],[100.6422867,14.6760951],[100.6361177,14.6704633],[100.6329956,14.6719845],[100.6357709,14.6667025],[100.6342967,14.664808],[100.6318129,14.6655715],[100.6312215,14.6618366],[100.6290654,14.6609864],[100.6312571,14.6584764],[100.6255048,14.6595494],[100.6233743,14.6521724],[100.6200706,14.6530331],[100.6179243,14.6508095],[100.6152605,14.6522718],[100.6142306,14.6507414],[100.6082722,14.6541082],[100.6076336,14.6528213],[100.604674,14.6552937],[100.6024686,14.6550373],[100.6033679,14.6533467],[100.5985547,14.6427642],[100.5998111,14.6415282],[100.5963255,14.6377354],[100.5952124,14.6338193],[100.5928534,14.6321869],[100.5904233,14.6333807],[100.5878404,14.6293477],[100.586341,14.6305778],[100.584086,14.6285615],[100.5840182,14.6260361],[100.5816042,14.6256417],[100.57899,14.6218404],[100.5774507,14.6226461],[100.5728496,14.6147742],[100.5783416,14.6126392],[100.5771794,14.6102505],[100.5758265,14.611056],[100.5753386,14.6091557],[100.5769389,14.608801],[100.5747518,14.605684],[100.5769909,14.6048368],[100.5789112,14.5990331],[100.5750596,14.5987112],[100.5753311,14.5962973],[100.5819612,14.5940851],[100.5816203,14.5923363],[100.5835301,14.5923623],[100.5857778,14.5889878],[100.5876017,14.5903324],[100.5884496,14.5884689],[100.5913085,14.5893564],[100.5913623,14.5864765],[100.5965672,14.5828894],[100.5957985,14.5808111],[100.5985748,14.5795004],[100.5968338,14.5748926],[100.598191,14.5723642],[100.5999398,14.5733143],[100.5984914,14.5706249],[100.6015009,14.5633769],[100.6001705,14.5612897],[100.6009591,14.560433],[100.602209,14.562759],[100.6040486,14.562191],[100.6058939,14.5581514],[100.6065118,14.560573],[100.6086358,14.5600048],[100.6056637,14.5563623],[100.6082547,14.5569283],[100.6115565,14.562907],[100.6182057,14.5637611],[100.6191015,14.5683716],[100.6227493,14.5700616],[100.6216523,14.5672605],[100.6234011,14.5699993],[100.6248039,14.5672657],[100.6218106,14.5663052],[100.621309,14.5640493],[100.6296131,14.5618556],[100.6325635,14.5648125],[100.6355059,14.5621827],[100.6361389,14.5592024],[100.6403983,14.5581225],[100.6403339,14.5562688],[100.6425574,14.5555653],[100.641844,14.5530029],[100.6432924,14.5526317],[100.6434962,14.5543166],[100.646106,14.5554744],[100.6517842,14.55306],[100.6547883,14.552938],[100.653289,14.5551136],[100.6561697,14.5544957],[100.6570306,14.5525979],[100.6579721,14.5555393],[100.6555554,14.5558015],[100.6559738,14.5574371],[100.662159,14.5532885],[100.666641,14.5551499],[100.6691274,14.5542101],[100.6689531,14.5599657],[100.6708816,14.5605472],[100.6717613,14.5592362],[100.6727564,14.5620321],[100.6709459,14.5626266],[100.670447,14.5648177],[100.6678319,14.5651409],[100.6678104,14.5724368],[100.6712852,14.5755247],[100.6695324,14.5800376],[100.6711069,14.5826464],[100.6737274,14.5830202],[100.6686312,14.5838223],[100.6681538,14.5817223],[100.6686419,14.5867451],[100.6632587,14.5873577],[100.6646991,14.5903065],[100.6624782,14.5901974],[100.6637254,14.5915965],[100.6626633,14.593385],[100.6648439,14.59515],[100.6671238,14.5947243],[100.6674617,14.5957055],[100.6649579,14.5962077],[100.666586,14.5995794],[100.6623588,14.5998961],[100.6607254,14.5971188],[100.6591496,14.6030458],[100.6768656,14.6013042],[100.675503,14.5988955],[100.6803873,14.5996716],[100.6829596,14.5968112],[100.6818974,14.5929333],[100.6905475,14.590762],[100.6933451,14.5915316],[100.6918189,14.5929489],[100.6930447,14.5946413],[100.6960595,14.5930216],[100.6983018,14.5936393],[100.698342,14.5971642],[100.7010537,14.5969877],[100.7010537,14.5956925],[100.7035696,14.59637],[100.7057905,14.5851617],[100.7047579,14.5820364],[100.7086739,14.5827372],[100.7114527,14.5808397],[100.7101357,14.5768914],[100.7133892,14.5720994],[100.7162404,14.5720449],[100.716455,14.5706093],[100.7234234,14.5719358],[100.7259711,14.5701779],[100.7354055,14.5690929],[100.735524,14.5673834],[100.7382943,14.5676623],[100.7387291,14.5661606],[100.7401228,14.5693558],[100.749555,14.5682812],[100.7492691,14.5706093],[100.7529722,14.5702553],[100.7530442,14.5689867],[100.760065,14.5695138],[100.7603239,14.5678256],[100.7622456,14.5695865],[100.7668215,14.5651318],[100.7698309,14.567058],[100.7716559,14.5657427],[100.7823421,14.5664193],[100.7810699,14.5604565],[100.7773816,14.557352],[100.7779044,14.5534443],[100.7764506,14.5538389],[100.7751919,14.5517708],[100.7754137,14.5472689],[100.7792818,14.5373414],[100.7773898,14.5333859],[100.7784859,14.5303149],[100.7751951,14.5269514],[100.7637225,14.5239981],[100.7592224,14.5188316],[100.755349,14.5188329],[100.7532629,14.5206291],[100.753727,14.518165],[100.7508409,14.5164577],[100.7495454,14.5188557],[100.7474667,14.5187103],[100.748465,14.5166051],[100.7474271,14.5128894],[100.7514724,14.5060397],[100.7567444,14.5053272],[100.7564414,14.5036705],[100.7589197,14.5021255],[100.7603842,14.4962879],[100.7616459,14.4960209],[100.7604915,14.4933145],[100.7645148,14.4921979],[100.7645432,14.4903874],[100.7663975,14.4915219],[100.7700384,14.4901653],[100.772081,14.4880491],[100.7736442,14.4794584],[100.7676315,14.4785768],[100.766792,14.4770446],[100.769287,14.4753628],[100.7675569,14.4692297],[100.7703003,14.4667705],[100.7700499,14.4645177],[100.7666096,14.4607541],[100.7663145,14.453948],[100.7639301,14.4526519],[100.7617226,14.4543012],[100.7609319,14.4519958],[100.772383,14.4346268],[100.7664058,14.4321398],[100.7683151,14.4225478],[100.7662998,14.4184398],[100.759711,14.414977],[100.7584927,14.4120429],[100.7591665,14.4101113],[100.7698631,14.4059392],[100.7744087,14.4074629],[100.775536,14.4106491],[100.7807663,14.4094126],[100.7831937,14.4023229],[100.7793728,14.3980915],[100.7930907,14.3951432],[100.7967027,14.3918974],[100.7968408,14.3896292],[100.7912108,14.3892992],[100.7897296,14.3827503],[100.7869625,14.3817499],[100.786488,14.3794188],[100.7838236,14.3792038],[100.7851562,14.374281],[100.7870113,14.3733044],[100.7858488,14.3708721],[100.7870936,14.3663987],[100.7931956,14.364168],[100.7884061,14.3570428],[100.783258,14.354885],[100.7836977,14.3491997],[100.7812464,14.3466348],[100.7812341,14.3409766],[100.7732933,14.3369528],[100.7764847,14.3322795],[100.7779411,14.3328945],[100.7828469,14.3231567],[100.7882738,14.3246235],[100.791144,14.3234312],[100.7931737,14.3263188],[100.7962659,14.3248615],[100.7980111,14.3266046],[100.8065739,14.3275644],[100.8080375,14.3259156],[100.8080585,14.3306812],[100.8232291,14.3307129],[100.8231236,14.2433866],[100.891523,14.2760439],[100.8922322,14.2436424],[100.9587962,14.2753831],[100.9657882,14.2796877],[100.9642788,14.2818227],[100.9765706,14.2892536],[100.975769,14.2902356],[100.9774123,14.2912591],[100.9842332,14.2913614],[100.9869793,14.2871677],[100.9885474,14.2874743],[100.9901718,14.2920463],[100.989792,14.2968283],[100.9914717,14.2994079],[100.9979653,14.3009653],[100.999219,14.2990708],[100.999827,14.3021487],[101.0042327,14.3015654],[101.0063011,14.3067288],[101.0123978,14.3083883],[101.0140615,14.3105899],[101.0126958,14.3134089],[101.0150744,14.3148401],[101.0184168,14.3139415],[101.0205838,14.3175864],[101.0229426,14.3174858],[101.0240102,14.3197527],[101.0226232,14.3208728],[101.0256572,14.324477],[101.0248497,14.3304531],[101.0330302,14.3319927],[101.0328021,14.3337032],[101.0297701,14.3334738],[101.0299155,14.3369184],[101.0328985,14.3375097],[101.0341632,14.3400897],[101.0397756,14.3401785],[101.0412204,14.3449411],[101.0445245,14.3449229],[101.046456,14.3488595],[101.0520873,14.34865],[101.0515869,14.3516359],[101.0478354,14.3504284],[101.0491082,14.3578361],[101.0503891,14.3578298],[101.0520933,14.3625459],[101.0568409,14.3636021],[101.058766,14.3663401],[101.0540484,14.3687214],[101.0556476,14.3741859],[101.0623097,14.3754277],[101.0633115,14.3769396],[101.062994,14.3797156],[101.0578695,14.3845465],[101.0544906,14.3917825],[101.0581043,14.3984144],[101.0567049,14.4101786],[101.0532481,14.4122815],[101.0568366,14.414349],[101.058509,14.4130529],[101.0619384,14.4146107],[101.0657605,14.4077071],[101.0716938,14.4053434],[101.0727244,14.3995451]]]}}]}