{"type":"FeatureCollection","features":[{"type":"Feature","properties":{"id":"TH-LAO-4190102","nameTh":"สระบุรี","type":"town_municipality"},"geometry":{"type":"Polygon","coordinates":[[[100.9065052,14.5216437],[100.8963668,14.5207771],[100.8959698,14.5293144],[100.8889532,14.5309969],[100.8820867,14.535525],[100.8899617,14.5476132],[100.9042096,14.5636469],[100.9249162,14.5689012],[100.925045,14.5624631],[100.9236717,14.5539687],[100.9253669,14.5504171],[100.9268689,14.541673],[100.9261393,14.5392429],[100.9224594,14.5327312],[100.9257531,14.531329],[100.927213,14.5298939],[100.9276486,14.5312341],[100.9294272,14.5308928],[100.9308063,14.5300931],[100.9330541,14.527798],[100.934245,14.5311942],[100.9366214,14.5338684],[100.9415674,14.5364596],[100.9450865,14.5355042],[100.9464597,14.5334478],[100.948112,14.5337386],[100.9478545,14.5313084],[100.949614,14.5316408],[100.9506225,14.5306645],[100.9438205,14.5254508],[100.9372329,14.5171627],[100.9337139,14.5143792],[100.9223735,14.5133354],[100.9231996,14.5060491],[100.923028,14.5000039],[100.909059,14.507524],[100.9065052,14.5216437]]]}}]}