{"type":"FeatureCollection","features":[{"type":"Feature","properties":{"provinceCode":"37","nameTh":"อำนาจเจริญ","nameEn":"Amnat Charoen"},"geometry":{"type":"Polygon","coordinates":[[[104.6142924,15.6299809],[104.6165126,15.6246839],[104.6095468,15.6158691],[104.603333,15.6124805],[104.5941795,15.6118067],[104.5824571,15.6066798],[104.5787517,15.6025813],[104.5783211,15.5960007],[104.5840955,15.58953],[104.5856563,15.5825754],[104.5853896,15.5660202],[104.5758071,15.5649151],[104.5661125,15.5563788],[104.5564737,15.5569167],[104.55299,15.555394],[104.548263,15.5433441],[104.546153,15.5422542],[104.5424392,15.5443453],[104.5359455,15.5520916],[104.5276067,15.5507573],[104.5254845,15.5554564],[104.5263845,15.5581835],[104.5218046,15.5582334],[104.5141915,15.5620469],[104.5124523,15.5596294],[104.510558,15.5600674],[104.5100862,15.5616545],[104.5124952,15.5647428],[104.5097134,15.5682669],[104.5110476,15.5709733],[104.5065863,15.5780453],[104.5054963,15.5868431],[104.4944943,15.5899611],[104.4923969,15.5857814],[104.4888834,15.5945098],[104.4811575,15.5909682],[104.4814933,15.5887393],[104.4846895,15.5883797],[104.4834,15.585577],[104.4766066,15.5872001],[104.4758182,15.5893064],[104.4729389,15.5867136],[104.4713634,15.5887346],[104.4660808,15.58747],[104.462399,15.5890758],[104.4622402,15.5914234],[104.4575442,15.596321],[104.463806,15.5968328],[104.4673332,15.6014876],[104.4666248,15.6057516],[104.4619009,15.6066418],[104.4607147,15.6103804],[104.465581,15.6141721],[104.4664443,15.6167693],[104.4667091,15.6218381],[104.4646045,15.6280648],[104.4611736,15.6281353],[104.458662,15.6248261],[104.4526167,15.6222173],[104.4500107,15.6177914],[104.4452955,15.6216728],[104.4394776,15.618661],[104.4419679,15.6220334],[104.4432882,15.6313075],[104.4467608,15.6336158],[104.4477038,15.6366072],[104.4451496,15.6369957],[104.4461018,15.6390681],[104.4427149,15.6391594],[104.4423384,15.6412817],[104.4390132,15.6413413],[104.4390631,15.6433041],[104.4419661,15.6448542],[104.4376325,15.6490745],[104.439641,15.6513134],[104.4415878,15.6477205],[104.4443478,15.6499931],[104.4431785,15.6524788],[104.4460352,15.6540718],[104.4454642,15.6614258],[104.4422272,15.6621566],[104.4407332,15.6663333],[104.435738,15.6670707],[104.4365217,15.6685292],[104.4454752,15.670336],[104.4438989,15.6761436],[104.442304,15.6744363],[104.4392717,15.6765922],[104.4438483,15.6831864],[104.4363092,15.685725],[104.4399926,15.6882853],[104.4392705,15.6908814],[104.4367352,15.6918598],[104.4393564,15.6932452],[104.4410615,15.699311],[104.4288157,15.6996313],[104.4281619,15.6975718],[104.4235979,15.6952617],[104.4190274,15.6978519],[104.4230982,15.6985438],[104.4225024,15.7012061],[104.419373,15.7025445],[104.4191277,15.7056863],[104.4208457,15.7060363],[104.4216091,15.7083362],[104.4243698,15.7084228],[104.4218641,15.7135086],[104.4255011,15.7152409],[104.4256694,15.7192939],[104.4271279,15.7203509],[104.4222608,15.7228944],[104.427852,15.7254011],[104.4265022,15.7281551],[104.428466,15.7286642],[104.4275055,15.7302449],[104.4302258,15.7311268],[104.4276533,15.7321034],[104.4301014,15.7334895],[104.4314911,15.7379757],[104.4294174,15.7374076],[104.4294397,15.7394517],[104.4267181,15.7391064],[104.4245344,15.7414888],[104.4233012,15.7399789],[104.4215622,15.7421788],[104.4218624,15.7450377],[104.4189928,15.7454762],[104.418898,15.7486035],[104.4221214,15.7487103],[104.4255822,15.7529308],[104.4299461,15.7496238],[104.4343198,15.7523583],[104.4328738,15.7578207],[104.4303696,15.760154],[104.432466,15.7643322],[104.428606,15.7666395],[104.4307368,15.768671],[104.4291675,15.7693902],[104.4295914,15.7713947],[104.4259818,15.7716353],[104.4285526,15.7729254],[104.4294094,15.7780677],[104.4334823,15.7792584],[104.4316176,15.7817468],[104.4333837,15.7869766],[104.4318328,15.7882689],[104.4313738,15.7929758],[104.4349907,15.7946583],[104.4359572,15.7995952],[104.4408342,15.8039573],[104.4407117,15.8064044],[104.4359432,15.8086272],[104.4358618,15.8119906],[104.4404093,15.8123559],[104.4403767,15.8166168],[104.4463967,15.8203423],[104.4477793,15.8303135],[104.4501517,15.8354044],[104.4606656,15.8433935],[104.4565646,15.8522492],[104.4567903,15.8595754],[104.449618,15.8653821],[104.4485049,15.8682398],[104.450084,15.8711911],[104.4569735,15.8756577],[104.4523247,15.8816059],[104.4548316,15.883038],[104.4544511,15.8857599],[104.45837,15.8912469],[104.4597997,15.8971686],[104.4566192,15.8958311],[104.454822,15.901344],[104.4678715,15.9027675],[104.4704975,15.9103963],[104.4650681,15.9126127],[104.468743,15.917887],[104.4771108,15.9263111],[104.4819764,15.9349294],[104.4861883,15.9337375],[104.4900687,15.9426367],[104.4955696,15.9435992],[104.498365,15.9464244],[104.4967526,15.9490326],[104.5051048,15.9513263],[104.5040349,15.9593735],[104.5017561,15.9628886],[104.505964,15.9672653],[104.5032888,15.9698217],[104.5047265,15.9728904],[104.5026488,15.9732205],[104.5017398,15.9758495],[104.5053042,15.9820572],[104.508348,15.9814089],[104.5091046,15.9839448],[104.5136098,15.9815862],[104.5148945,15.9838604],[104.5195238,15.9842801],[104.5216669,15.985941],[104.5219052,15.9898549],[104.5248558,15.9908865],[104.5247027,15.995129],[104.5266366,15.9948983],[104.5276713,15.9967163],[104.5271286,16.0008422],[104.5300753,16.0009679],[104.5313733,15.9982068],[104.5328666,16.0007598],[104.5282503,16.0077728],[104.5256666,16.0076027],[104.522502,16.0100109],[104.5252576,16.0143132],[104.5196296,16.0189868],[104.5201264,16.0202976],[104.5183361,16.0204192],[104.5176692,16.0239326],[104.5152294,16.0257454],[104.5217335,16.0323126],[104.5229952,16.031889],[104.5234169,16.0343583],[104.5254156,16.0345283],[104.5264898,16.0372271],[104.5254165,16.0380259],[104.5294064,16.0387256],[104.5300865,16.0374444],[104.5313545,16.0431063],[104.5363352,16.0444641],[104.5360124,16.0494155],[104.5335516,16.0513708],[104.5350479,16.0527394],[104.5333775,16.05371],[104.5352775,16.0548787],[104.5338356,16.0569241],[104.5382432,16.058818],[104.5419655,16.0653761],[104.5407679,16.0673116],[104.5426498,16.0712557],[104.5480762,16.0736415],[104.5472466,16.0753289],[104.5526749,16.0808548],[104.5527365,16.0840009],[104.557869,16.0883359],[104.5619247,16.0985629],[104.5676059,16.1006693],[104.5792773,16.1001559],[104.5918152,16.1069595],[104.5998362,16.1076616],[104.6027086,16.1107505],[104.6053016,16.1091018],[104.6063873,16.1102538],[104.6048089,16.1110955],[104.605357,16.1124436],[104.6096717,16.1143596],[104.6124265,16.1137572],[104.6223876,16.1232448],[104.6251494,16.1234846],[104.6272873,16.1204105],[104.6295668,16.1216505],[104.6336126,16.1207128],[104.6346971,16.1229295],[104.6371911,16.1213245],[104.6389654,16.1229041],[104.6450442,16.1232688],[104.6553886,16.1200763],[104.6620134,16.1233574],[104.6693316,16.1180504],[104.6741706,16.1181048],[104.678773,16.1203953],[104.6839605,16.1158585],[104.6946567,16.1146027],[104.6973828,16.1128165],[104.7023577,16.1136874],[104.7063698,16.1084577],[104.7203908,16.1066803],[104.7210969,16.1041942],[104.727368,16.1039855],[104.7303829,16.1009946],[104.7409737,16.1033925],[104.7515722,16.103715],[104.7543853,16.1022352],[104.7612267,16.1041782],[104.7639483,16.1035079],[104.7692203,16.1049885],[104.7706574,16.1075854],[104.7768914,16.1108312],[104.7759045,16.1126902],[104.7800693,16.1124738],[104.7808153,16.113994],[104.7834062,16.1131604],[104.7873772,16.1085055],[104.7885695,16.1040271],[104.7975492,16.1009565],[104.802335,16.0949091],[104.8110184,16.0956384],[104.8139965,16.0990334],[104.8126579,16.1036799],[104.8163572,16.1227643],[104.8154567,16.1260141],[104.8166577,16.1294767],[104.8153411,16.1313098],[104.8162293,16.1337781],[104.8210418,16.1373955],[104.8209012,16.1407563],[104.8236443,16.1448615],[104.8223601,16.1468964],[104.8244683,16.1501788],[104.8229159,16.1521963],[104.8249318,16.1554676],[104.8221775,16.1576225],[104.8117694,16.1576366],[104.8044786,16.1641588],[104.7988498,16.159806],[104.789273,16.1574047],[104.786248,16.1626064],[104.7829251,16.1753102],[104.7728867,16.1876418],[104.7657177,16.1904813],[104.7675441,16.1948966],[104.7660741,16.1964443],[104.7888651,16.1994292],[104.7964832,16.1966104],[104.8000844,16.1888663],[104.8123856,16.1852237],[104.8203169,16.1913733],[104.8261632,16.205009],[104.8352289,16.2002172],[104.8417337,16.2031886],[104.8549191,16.2016475],[104.8599107,16.2038739],[104.861064,16.2061476],[104.8641793,16.2064123],[104.8657749,16.2086756],[104.8760315,16.209139],[104.8822285,16.2135001],[104.8820331,16.2211066],[104.8842274,16.2217457],[104.8850797,16.2254904],[104.8870087,16.2259836],[104.8840665,16.229758],[104.8855537,16.2351425],[104.8893657,16.2359219],[104.8898384,16.2376974],[104.8932498,16.2392839],[104.8960679,16.2390814],[104.9017108,16.2450256],[104.9026101,16.2440495],[104.910209,16.2472508],[104.9127334,16.2554891],[104.9192146,16.2563265],[104.9226063,16.2540017],[104.9311641,16.2529099],[104.9351332,16.2568839],[104.9477884,16.2619779],[104.94856,16.2646864],[104.9505827,16.2649797],[104.9501189,16.2676472],[104.9543699,16.267895],[104.9598873,16.2718325],[104.9603158,16.2748576],[104.9561394,16.277537],[104.9559176,16.279737],[104.9598341,16.2843586],[104.9727762,16.2739627],[104.9731783,16.2770408],[104.9782867,16.2788458],[104.989327,16.271354],[105.014911,16.243842],[105.016984,16.235588],[105.010766,16.201975],[105.01258,16.189535],[105.018798,16.179786],[105.025728,16.163158],[105.026052,16.152752],[105.032141,16.144916],[105.035768,16.134689],[105.036934,16.126017],[105.039136,16.122069],[105.037063,16.120993],[105.040108,16.115071],[105.041079,16.108432],[105.0482539,16.1015922],[105.0602608,16.0981491],[105.0566403,16.0933484],[105.0504117,16.0952741],[105.0436489,16.095197],[105.0418004,16.0937615],[105.0380799,16.0852128],[105.0362829,16.0846926],[105.0353147,16.0780494],[105.0287566,16.0725338],[105.0279528,16.0659717],[105.025291,16.0635385],[105.0257961,16.0560225],[105.0240321,16.0522197],[105.0063238,16.0310664],[105.0032918,16.0205231],[105.0048951,16.0093768],[105.0096268,15.9998242],[105.02042,15.9941795],[105.0255446,15.9859048],[105.0256369,15.9816819],[105.0225619,15.9748114],[105.0128079,15.9664177],[104.9981444,15.946922],[105.0038954,15.9395279],[105.0036548,15.934231],[104.995768,15.9182158],[104.9825599,15.9011724],[104.9739447,15.8741914],[104.971179,15.8724314],[104.9634111,15.8609745],[104.9653879,15.8350713],[104.9634923,15.8284508],[104.9665825,15.8187383],[104.9664703,15.8109366],[104.959937,15.7919193],[104.9546937,15.786209],[104.939371,15.7769575],[104.9181829,15.7679705],[104.9073922,15.7614243],[104.9038889,15.7535616],[104.9028538,15.747058],[104.9063718,15.7388604],[104.9062026,15.7252441],[104.8983082,15.7109631],[104.8968468,15.6992094],[104.8912605,15.6897826],[104.8931506,15.6817741],[104.8944685,15.6816167],[104.8955316,15.6617646],[104.8945151,15.6553208],[104.8949362,15.6535243],[104.9109253,15.6475856],[104.9249944,15.6434987],[104.9286074,15.6450533],[104.9334006,15.6400627],[104.9333616,15.6376938],[104.929579,15.635787],[104.9312153,15.629996],[104.9270442,15.6260906],[104.9292357,15.6226198],[104.9313207,15.6221666],[104.9308031,15.6189692],[104.9259231,15.6177966],[104.9237638,15.6152555],[104.9258521,15.6137642],[104.9240646,15.6080161],[104.9266955,15.6066803],[104.9270907,15.6041371],[104.9239123,15.6003594],[104.9183272,15.6015874],[104.9145447,15.5995546],[104.9118437,15.5955385],[104.9086077,15.5976055],[104.9084054,15.5943861],[104.9047915,15.5930619],[104.9032923,15.5898753],[104.9011586,15.5904547],[104.8999853,15.5874443],[104.8965861,15.586519],[104.8943328,15.5811286],[104.8917071,15.5791742],[104.8926946,15.5781075],[104.8866908,15.5751014],[104.8849303,15.5706834],[104.8876917,15.5730355],[104.8878443,15.5689105],[104.8908219,15.5686671],[104.8957617,15.5638232],[104.8909144,15.5617695],[104.8899341,15.5574285],[104.8912549,15.5557923],[104.887241,15.5513354],[104.8889646,15.5481797],[104.8878958,15.5468219],[104.8859263,15.5482105],[104.887544,15.5450266],[104.8823162,15.5472506],[104.8814628,15.5391669],[104.8784733,15.5371061],[104.8747422,15.5399697],[104.869811,15.5383367],[104.8702133,15.5424158],[104.8742137,15.5464254],[104.8697638,15.5504181],[104.8651253,15.5493412],[104.8646323,15.552581],[104.8663115,15.5554102],[104.8634177,15.5571498],[104.8658912,15.5584357],[104.8652406,15.5619008],[104.8708375,15.5607144],[104.8766793,15.5624765],[104.874836,15.5654966],[104.8670187,15.568083],[104.8670162,15.5738054],[104.8619536,15.5780184],[104.8619168,15.5804921],[104.85924,15.5779244],[104.8505328,15.5781717],[104.8489686,15.579692],[104.8475057,15.5736301],[104.8438623,15.5778884],[104.8446107,15.584404],[104.8375897,15.5809767],[104.8359133,15.5817319],[104.8380634,15.584498],[104.8374908,15.5918737],[104.8301782,15.5914203],[104.8295015,15.5875909],[104.8318722,15.5842981],[104.8226289,15.5858177],[104.8214444,15.5894549],[104.8127806,15.596587],[104.8141907,15.5973874],[104.8161667,15.595477],[104.816591,15.5973277],[104.8152326,15.5999496],[104.8109707,15.6015438],[104.812738,15.604226],[104.8111495,15.6063624],[104.8071915,15.6035004],[104.8061084,15.6007336],[104.8031613,15.6008842],[104.8035496,15.5991879],[104.8054454,15.5991328],[104.8009998,15.5976472],[104.8010218,15.5960654],[104.803774,15.5958364],[104.8026993,15.5937329],[104.7952315,15.5955402],[104.7956004,15.5975812],[104.7929186,15.5991341],[104.7935105,15.6021481],[104.7894335,15.6007495],[104.7905878,15.6033217],[104.7866554,15.6046046],[104.7893535,15.6085227],[104.7851539,15.6121003],[104.7875375,15.6156414],[104.7878767,15.6210646],[104.7856349,15.6224567],[104.7844025,15.6216241],[104.7855474,15.6189013],[104.7841288,15.6200529],[104.7805084,15.6186096],[104.7811898,15.620438],[104.7786116,15.6217361],[104.7796354,15.6232094],[104.7781484,15.6240492],[104.7772168,15.6288865],[104.7692743,15.6302342],[104.7684214,15.6335485],[104.7663508,15.6331587],[104.7648827,15.634602],[104.7657608,15.6355194],[104.7636511,15.6363416],[104.7606883,15.6359771],[104.7604845,15.6328345],[104.7564085,15.635181],[104.7570979,15.6369896],[104.7533922,15.6410504],[104.7497881,15.6413463],[104.7500612,15.6429116],[104.7462521,15.6413664],[104.7434681,15.6524252],[104.7408912,15.6524258],[104.7407534,15.6564344],[104.7424721,15.6578647],[104.7404088,15.658801],[104.7398404,15.6568048],[104.7334115,15.6559568],[104.7355079,15.6523221],[104.7287934,15.6477933],[104.7273317,15.6488191],[104.7281324,15.6514863],[104.7218393,15.6515295],[104.7227146,15.6540917],[104.7207726,15.6573413],[104.7144108,15.6606874],[104.7119771,15.6607022],[104.7103091,15.658492],[104.7055441,15.659206],[104.7028526,15.6572046],[104.6992527,15.6588345],[104.6972678,15.6575338],[104.6962453,15.6588559],[104.6945883,15.6581991],[104.6834298,15.6710225],[104.6773278,15.6722638],[104.6726914,15.6756485],[104.6653977,15.6754161],[104.6638933,15.6732362],[104.6626574,15.6746544],[104.6607555,15.6738201],[104.6610462,15.6758035],[104.6580501,15.6758863],[104.6575348,15.6783891],[104.6551944,15.6751609],[104.6485821,15.6790499],[104.6474295,15.6774812],[104.6442346,15.6845587],[104.641247,15.687391],[104.6389323,15.6850149],[104.6356912,15.6891227],[104.634603,15.6867084],[104.6320484,15.6892111],[104.6288331,15.6876882],[104.6252796,15.6894269],[104.6113747,15.6833141],[104.6073789,15.6800329],[104.6022748,15.671337],[104.6073048,15.6654189],[104.612173,15.6629931],[104.6181825,15.6627042],[104.6246357,15.6644844],[104.6291303,15.6627754],[104.6374325,15.6469653],[104.630487,15.6435111],[104.6277507,15.6457321],[104.6225211,15.6418416],[104.6215362,15.6432291],[104.6167446,15.6416283],[104.6139949,15.6389689],[104.6107648,15.6297799],[104.6142924,15.6299809]]]}}]}