{"type":"FeatureCollection","features":[{"type":"Feature","properties":{"provinceCode":"61","nameTh":"อุทัยธานี","nameEn":"Uthai Thani"},"geometry":{"type":"Polygon","coordinates":[[[100.0629188,15.2856376],[100.055846,15.2701737],[100.0544691,15.2714971],[100.0546504,15.2757691],[100.0496674,15.2759958],[100.047546,15.2662618],[100.0407829,15.2788282],[100.0386205,15.2907812],[100.036706,15.2929198],[100.03123,15.2917773],[100.0287666,15.2932841],[100.0262695,15.2920919],[100.026012,15.2903036],[100.0202699,15.2913716],[100.0163389,15.2940126],[100.0161243,15.297051],[100.0121742,15.2982719],[100.0117212,15.3002384],[100.0069402,15.2994561],[100.0054555,15.3020598],[100.0042024,15.3002633],[100.0030094,15.301875],[99.9987865,15.3020018],[99.9962974,15.3000397],[99.9903751,15.302631],[99.9673298,15.2984842],[99.960158,15.3016099],[99.9579229,15.3060809],[99.9507456,15.302694],[99.9461669,15.3041341],[99.9409724,15.3012686],[99.9375958,15.3025781],[99.937027,15.2993601],[99.9335006,15.3017416],[99.9326994,15.297604],[99.9308806,15.2990123],[99.9294551,15.2975389],[99.9286458,15.2995569],[99.9226985,15.2981127],[99.9177275,15.2993642],[99.9125824,15.2972576],[99.9120671,15.2950741],[99.9108537,15.2963441],[99.9068463,15.2941065],[99.900409,15.2937322],[99.8952591,15.2905395],[99.8898357,15.2914968],[99.8856273,15.2871916],[99.8832589,15.2869846],[99.877755,15.2908914],[99.8778838,15.2935174],[99.8796862,15.2940918],[99.8778516,15.2976647],[99.8793161,15.2989143],[99.8765856,15.3024484],[99.8720178,15.3049449],[99.8585612,15.3051001],[99.851684,15.3111176],[99.8369972,15.3087715],[99.8261294,15.313083],[99.8214382,15.3132051],[99.8201119,15.3153825],[99.8180334,15.3139305],[99.8087122,15.3177617],[99.7999317,15.3171342],[99.7959084,15.3183076],[99.7945062,15.3165474],[99.7927139,15.3176717],[99.7898498,15.3137832],[99.7821691,15.3159966],[99.7791222,15.314729],[99.7788087,15.3125043],[99.776337,15.3123105],[99.7735587,15.305985],[99.7705301,15.3075274],[99.7681305,15.2999468],[99.7535212,15.29457],[99.7492501,15.279796],[99.7451271,15.28199],[99.7433384,15.2753157],[99.7406615,15.2751166],[99.7381368,15.2664237],[99.7360004,15.2681965],[99.733597,15.2671967],[99.7337572,15.2590855],[99.7307276,15.2581713],[99.7291192,15.2505172],[99.7272711,15.2496365],[99.7348537,15.2415404],[99.7347553,15.232394],[99.7410634,15.2260151],[99.7378308,15.2127122],[99.7410319,15.2068995],[99.7442183,15.1951302],[99.7454372,15.1717245],[99.750079,15.1607789],[99.7500026,15.1527846],[99.7558297,15.1510834],[99.7617179,15.141955],[99.7716654,15.1406128],[99.7679793,15.1347276],[99.7675411,15.1298155],[99.7710836,15.1264964],[99.777546,15.1139086],[99.7859293,15.1031284],[99.7908515,15.1002059],[99.791292,15.0927054],[99.7927307,15.0919039],[99.7912484,15.0840156],[99.7846644,15.0808495],[99.7811262,15.0670765],[99.7762951,15.0637488],[99.7725334,15.0584645],[99.7725879,15.0558734],[99.7769846,15.0535008],[99.7720109,15.0468299],[99.77119,15.0383532],[99.7611919,15.0308278],[99.7440905,15.0286691],[99.7374405,15.0253655],[99.7347476,15.0115041],[99.7304668,15.0090567],[99.7285466,15.0024578],[99.7214895,14.9974301],[99.722198,14.9846434],[99.7197325,14.9814599],[99.7199297,14.9773359],[99.7237731,14.9726668],[99.7240439,14.9674311],[99.7226515,14.9651269],[99.7237701,14.9620322],[99.7193724,14.9601769],[99.6948273,14.9683927],[99.6921275,14.9700361],[99.6925285,14.9729053],[99.6802771,14.9797678],[99.6787069,14.9823133],[99.675243,14.9841116],[99.6716365,14.9837493],[99.6638638,14.9882866],[99.6540646,14.986713],[99.6502003,14.9890336],[99.6445482,14.9884804],[99.640072,14.9904457],[99.6383952,14.9888665],[99.6282681,14.9883333],[99.6271137,14.9856566],[99.6286416,14.9848225],[99.6303984,14.9871043],[99.6319358,14.9838334],[99.6271583,14.9799653],[99.627764,14.9766893],[99.6309769,14.9735208],[99.6300266,14.9717168],[99.6314963,14.9712381],[99.6297472,14.9700336],[99.6303709,14.9654629],[99.628802,14.9643777],[99.6319679,14.9606024],[99.6319246,14.9559761],[99.6338958,14.9538579],[99.6323553,14.9470001],[99.6308441,14.9462854],[99.6313181,14.9432774],[99.6218813,14.9419101],[99.6161827,14.9439351],[99.6124538,14.9428998],[99.6106837,14.9448242],[99.6094295,14.9436914],[99.6099181,14.9451926],[99.6081365,14.9458881],[99.6053458,14.9443978],[99.6015914,14.9464193],[99.5983996,14.9444767],[99.5953277,14.9473345],[99.5904963,14.9477475],[99.5898781,14.9452763],[99.5882516,14.9447989],[99.5835936,14.9465477],[99.5812276,14.952346],[99.5766268,14.9553877],[99.5756479,14.9532322],[99.5748673,14.9550453],[99.5704476,14.9564925],[99.569925,14.9584459],[99.5676343,14.9579164],[99.5646173,14.9620834],[99.5556979,14.9640263],[99.5520406,14.9614942],[99.5510847,14.9632667],[99.5478475,14.961492],[99.5397827,14.9667512],[99.5345912,14.9679547],[99.5313373,14.9712097],[99.5311651,14.9753637],[99.5262746,14.9806532],[99.5196208,14.9784382],[99.5106049,14.9807306],[99.5075412,14.9843702],[99.5004797,14.9834192],[99.4969822,14.9854622],[99.4897948,14.9857495],[99.48702,14.9883486],[99.4779411,14.9915112],[99.45624,14.9885768],[99.4449708,14.9912012],[99.4360011,14.9995373],[99.435905,15.0075438],[99.4263967,15.0150019],[99.4160091,15.0372912],[99.4171189,15.0400307],[99.4158609,15.0473455],[99.4032102,15.0453071],[99.4015171,15.0495233],[99.3969956,15.0527045],[99.3938095,15.0497753],[99.3854236,15.0478276],[99.3816317,15.051119],[99.374536,15.0494954],[99.3705936,15.0509433],[99.355047,15.0614966],[99.3394277,15.0804892],[99.3198224,15.0809053],[99.3193464,15.0765791],[99.3031777,15.0622695],[99.3009562,15.0554298],[99.2888877,15.0375013],[99.2816027,15.0181839],[99.2759738,15.0133826],[99.2759624,15.0044767],[99.2828021,14.9976162],[99.27532,14.9912096],[99.2690046,14.989672],[99.2608938,14.9916264],[99.2572186,14.9875047],[99.2523012,14.9922143],[99.252899,14.9948052],[99.2504189,14.9960639],[99.2496434,14.9994338],[99.235247,15.0091642],[99.2332372,15.0124789],[99.228623,15.0102642],[99.2228877,15.0115162],[99.2200177,15.0098463],[99.2176473,15.0127676],[99.2137096,15.0120279],[99.2081103,15.0144912],[99.2037907,15.0143056],[99.2008248,15.0182586],[99.1979757,15.0189025],[99.1927158,15.0239215],[99.1932129,15.0262534],[99.191369,15.0272899],[99.1855203,15.0272957],[99.1797403,15.0182905],[99.1754166,15.0161935],[99.1723918,15.0169124],[99.1697455,15.0141469],[99.1578499,15.017516],[99.1565314,15.0223847],[99.1489306,15.023823],[99.1449402,15.0270913],[99.1424452,15.0349349],[99.1353152,15.037452],[99.1355161,15.0406825],[99.1377909,15.0433596],[99.1468577,15.0473301],[99.1431952,15.0517781],[99.129955,15.0492729],[99.1246008,15.0510142],[99.1226,15.053989],[99.1186177,15.054822],[99.1140557,15.04446],[99.1109986,15.0472953],[99.102217,15.0441515],[99.1011933,15.0423848],[99.0929249,15.0424988],[99.0870135,15.0393256],[99.080905,15.0401839],[99.078432,15.0385617],[99.0733814,15.0401815],[99.0679363,15.0474832],[99.0565552,15.0445126],[99.0427144,15.0457007],[99.0376075,15.049386],[99.0280672,15.0496279],[99.0245801,15.0545699],[99.0195511,15.0549202],[99.0186626,15.0579596],[99.0137125,15.0619942],[99.0086274,15.0703252],[98.9996613,15.0710002],[99.0067271,15.0784058],[99.005995,15.0796565],[99.0085104,15.0816643],[99.0087231,15.0842708],[99.0118738,15.0868105],[99.010412,15.0937667],[99.0065307,15.0988613],[99.0030665,15.1024947],[98.9998699,15.1024489],[98.9972716,15.1048584],[99.0008951,15.1204676],[98.9991884,15.1240762],[99.0002455,15.1310924],[99.001911,15.1329168],[98.999336,15.1357049],[99.0075634,15.1444249],[99.0031751,15.1498178],[99.0032579,15.1532255],[99.0005822,15.1582912],[99.0015805,15.1620661],[98.9992158,15.1646758],[98.9944228,15.1651658],[98.9892042,15.1766041],[98.984003,15.1799534],[98.9889984,15.1868634],[98.991731,15.1867921],[98.9949156,15.1836587],[99.0023114,15.1847356],[99.0022753,15.1931198],[99.006561,15.1995096],[99.0048899,15.2032453],[99.0085059,15.208226],[99.0050375,15.2193718],[99.0061099,15.2275064],[99.0086645,15.2313236],[99.0061533,15.2386304],[99.0119453,15.2443358],[99.0194724,15.2462092],[99.0199077,15.254565],[99.0184773,15.2573444],[99.0195159,15.2611381],[99.0166565,15.2652618],[99.0211849,15.26997],[99.0237844,15.2787346],[99.0383619,15.2884569],[99.0376275,15.2973878],[99.0327591,15.2986958],[99.0310875,15.302626],[99.0325949,15.3180789],[99.0312695,15.3213251],[99.0323928,15.3246288],[99.0308045,15.3274577],[99.0320595,15.3325004],[99.0310925,15.3361986],[99.0341394,15.3407541],[99.043136,15.3461663],[99.0432566,15.3515453],[99.0465077,15.3588597],[99.0451584,15.3622102],[99.0465925,15.3639257],[99.0446338,15.3671952],[99.0449936,15.3735248],[99.0435005,15.3757045],[99.0537442,15.3790905],[99.0604422,15.393588],[99.0665459,15.3922742],[99.0696362,15.3960963],[99.0668576,15.3990275],[99.0682164,15.4023435],[99.0676403,15.4205257],[99.0633994,15.4233132],[99.0642239,15.428452],[99.0625287,15.4372923],[99.0587972,15.4392941],[99.0620394,15.4547891],[99.0615401,15.4607344],[99.0650818,15.4630823],[99.0641327,15.472002],[99.0758142,15.4875399],[99.0785082,15.4994131],[99.0729493,15.5114673],[99.062442,15.5164619],[99.0547382,15.5260377],[99.0538763,15.5408607],[99.0504849,15.5443857],[99.0480734,15.555457],[99.0517576,15.5635734],[99.0549468,15.5636039],[99.0603966,15.5675723],[99.0673334,15.5686909],[99.0782783,15.5763779],[99.0898749,15.5818285],[99.0940992,15.5822641],[99.09088,15.5898237],[99.092619,15.5960091],[99.0965016,15.6000255],[99.0971768,15.6110502],[99.1063848,15.6147527],[99.1100748,15.6250685],[99.1157532,15.6321269],[99.116302,15.6460716],[99.1120163,15.6496912],[99.1159946,15.6621674],[99.1112956,15.6677519],[99.1139765,15.6694423],[99.1139229,15.6730061],[99.1164131,15.6750756],[99.1176641,15.6838181],[99.1218446,15.6865144],[99.1229634,15.6922081],[99.1267793,15.6954369],[99.1241051,15.6985529],[99.1262419,15.7098588],[99.1254461,15.7132926],[99.1282182,15.7226437],[99.1330809,15.7280696],[99.1388565,15.731328],[99.1382577,15.7352194],[99.13494,15.738367],[99.1337177,15.7455207],[99.1307605,15.7484816],[99.130088,15.7593755],[99.1272971,15.7681817],[99.1298507,15.7794596],[99.1324088,15.785449],[99.1360769,15.7891402],[99.1336991,15.7982614],[99.1391755,15.7965224],[99.1472746,15.7969781],[99.1496013,15.7930326],[99.1589462,15.7930738],[99.1639318,15.7889678],[99.1638842,15.780496],[99.166206,15.778017],[99.1741062,15.7825561],[99.1781934,15.7812499],[99.186993,15.7835643],[99.1901867,15.7794695],[99.2034473,15.7812946],[99.2134922,15.7797694],[99.2165868,15.7665808],[99.2204127,15.7648234],[99.2256613,15.7569553],[99.2279532,15.7529268],[99.2275874,15.7482029],[99.2318894,15.7468868],[99.2345688,15.7477584],[99.2385987,15.7422517],[99.2403127,15.7374248],[99.2392711,15.7321979],[99.2434859,15.7278311],[99.2455275,15.7223179],[99.2617672,15.7180015],[99.2671629,15.7194085],[99.2704548,15.7168065],[99.2768265,15.7165413],[99.2833565,15.7073115],[99.2885539,15.7037992],[99.2903407,15.697842],[99.2968181,15.6929016],[99.3133371,15.6939278],[99.3210843,15.6889205],[99.3330914,15.6915201],[99.3399195,15.6849709],[99.3449444,15.685958],[99.3494145,15.6822664],[99.3546933,15.682016],[99.3565038,15.6784219],[99.3604018,15.6764622],[99.3640273,15.6688039],[99.3678203,15.6646459],[99.3720148,15.6635677],[99.3719183,15.6601359],[99.3697422,15.659919],[99.370013,15.6568999],[99.3672389,15.6549413],[99.3679969,15.6498906],[99.376244,15.6361974],[99.3741695,15.6328773],[99.3787366,15.626002],[99.3844906,15.6243354],[99.3923349,15.6160921],[99.3990376,15.6131064],[99.422806,15.6142773],[99.4288583,15.6083175],[99.4288397,15.6061212],[99.4262372,15.6061671],[99.426254,15.6050059],[99.4296539,15.6054258],[99.4354603,15.5988866],[99.4406116,15.5981056],[99.4413363,15.5947691],[99.4444514,15.5919786],[99.450064,15.5912553],[99.4547785,15.5815021],[99.4569828,15.5829875],[99.4616412,15.5822816],[99.4686836,15.5692918],[99.4684854,15.5655628],[99.471512,15.5639477],[99.4743572,15.5653615],[99.4813492,15.5639995],[99.4909012,15.570366],[99.4965777,15.5695811],[99.5043092,15.5617939],[99.5171979,15.5627479],[99.5206079,15.5666578],[99.5247349,15.5680776],[99.5266202,15.5739809],[99.5376508,15.5771479],[99.5403687,15.5852],[99.5438432,15.5866304],[99.5464304,15.590238],[99.5484101,15.5891477],[99.5625552,15.5948181],[99.5671186,15.5948841],[99.5704962,15.6035633],[99.5811861,15.6103734],[99.5855635,15.6191325],[99.5892442,15.6195924],[99.5931584,15.622911],[99.5935374,15.6258127],[99.5963979,15.6284767],[99.6063945,15.6316012],[99.6080372,15.6337868],[99.616573,15.633672],[99.6178844,15.6344386],[99.6170873,15.6373678],[99.6233042,15.6386593],[99.6268688,15.6425656],[99.6304614,15.6416081],[99.6323362,15.6434364],[99.6408232,15.6421026],[99.6497063,15.6471825],[99.6601329,15.6489894],[99.6655017,15.6601819],[99.6691157,15.661713],[99.6687733,15.6648718],[99.6667117,15.6668694],[99.6693066,15.6699032],[99.6705962,15.6689402],[99.673094,15.672654],[99.6777865,15.6727242],[99.6872232,15.679624],[99.6914738,15.6789407],[99.6913653,15.6805301],[99.6986897,15.6817572],[99.7059165,15.6858991],[99.7070273,15.6840679],[99.7122868,15.6846829],[99.7173926,15.6812614],[99.7210785,15.6817074],[99.7220005,15.6840733],[99.7260286,15.6845234],[99.725802,15.6863775],[99.7279704,15.6875008],[99.7338218,15.6880137],[99.7367595,15.6863883],[99.7431883,15.6777543],[99.7479934,15.6771702],[99.7494781,15.6750613],[99.7521402,15.6754112],[99.7531455,15.672704],[99.7584219,15.669945],[99.7599965,15.6662955],[99.764066,15.663928],[99.7629417,15.6602836],[99.7654822,15.6569639],[99.7718964,15.6567905],[99.7745407,15.6538301],[99.7838794,15.6527919],[99.7849394,15.6509781],[99.7863749,15.652774],[99.7879432,15.6523189],[99.7920925,15.6488977],[99.794589,15.6425581],[99.7999229,15.6407893],[99.8029969,15.6402837],[99.8031044,15.6436997],[99.8208981,15.6428736],[99.8357579,15.6292755],[99.8412014,15.6295703],[99.8425324,15.6274805],[99.846971,15.6269287],[99.8488167,15.6231184],[99.8532317,15.6201968],[99.8597123,15.6195322],[99.861867,15.6173056],[99.8658516,15.6186901],[99.8642158,15.6205778],[99.8623215,15.620197],[99.8633568,15.6226209],[99.8646629,15.6223575],[99.8634818,15.6269165],[99.865388,15.6291805],[99.8627229,15.6301034],[99.8641967,15.6322654],[99.862531,15.633535],[99.8640626,15.6350577],[99.8641218,15.6394478],[99.8612388,15.6427053],[99.8643163,15.6452222],[99.8638469,15.6537434],[99.8713208,15.6559975],[99.8731748,15.6584552],[99.8780276,15.6578573],[99.8804653,15.6553869],[99.8884163,15.6531036],[99.8922934,15.6539786],[99.898091,15.649945],[99.9169285,15.6536805],[99.934259,15.6533882],[99.9344846,15.6478633],[99.9419596,15.6199223],[99.9399409,15.6089405],[99.940812,15.6044229],[99.9372883,15.5980646],[99.9381921,15.5851694],[99.9408982,15.5810032],[99.9424692,15.572362],[99.9402904,15.5587773],[99.9402988,15.5332646],[99.9438838,15.5269078],[99.9438316,15.5202352],[99.9465737,15.515161],[99.9452748,15.5052527],[99.9469186,15.5011981],[99.9595704,15.5069757],[99.9620878,15.5037336],[99.9667766,15.5031929],[99.9677343,15.4994008],[99.9710704,15.5013744],[99.9737838,15.4987972],[99.9772517,15.4993897],[99.9795908,15.4961409],[99.984867,15.4963035],[99.9838868,15.4918005],[99.9869692,15.4921552],[99.9888995,15.4901253],[99.9932329,15.4918497],[99.9957324,15.4860516],[99.9980861,15.4855186],[100.0027524,15.4966651],[100.0135018,15.5025985],[100.0161182,15.508787],[100.0189976,15.5098895],[100.0286917,15.505197],[100.0316579,15.506255],[100.0283757,15.4961162],[100.0287605,15.49178],[100.0244567,15.4857391],[100.027276,15.4838628],[100.0260812,15.4812674],[100.0298256,15.4773745],[100.0268119,15.4686359],[100.0277016,15.4656809],[100.0350281,15.4608546],[100.0411656,15.4608406],[100.044792,15.4568931],[100.0468822,15.4569834],[100.0493942,15.4529177],[100.0514553,15.4541278],[100.0528404,15.4524226],[100.0565244,15.4531304],[100.0573102,15.4514901],[100.0611068,15.4512865],[100.0600899,15.4529265],[100.0661126,15.4528252],[100.0641198,15.44124],[100.0601665,15.4333053],[100.0571099,15.431414],[100.057534,15.4294027],[100.0549252,15.4251997],[100.0629967,15.4221802],[100.0618947,15.4254126],[100.064513,15.4264785],[100.0670587,15.424608],[100.0690824,15.4329102],[100.0742057,15.4357396],[100.0774522,15.4343501],[100.0800697,15.4393915],[100.0880506,15.4350796],[100.0912929,15.4302229],[100.0965928,15.4270351],[100.1038441,15.4165786],[100.0981073,15.4177651],[100.0929567,15.4156825],[100.088075,15.4102993],[100.0873634,15.4049424],[100.0883884,15.398833],[100.0918386,15.3930471],[100.1059016,15.3816485],[100.1055583,15.3742307],[100.1003531,15.3733841],[100.0800652,15.3803733],[100.0754721,15.3784493],[100.0736123,15.3732724],[100.075791,15.3669489],[100.0999388,15.3484426],[100.1015036,15.3427091],[100.099832,15.3336341],[100.0942225,15.3268088],[100.0785189,15.3183665],[100.0778318,15.3149282],[100.0820131,15.3045873],[100.0804595,15.2989722],[100.0715668,15.2884609],[100.0629188,15.2856376]]]}}]}