{"type":"FeatureCollection","features":[{"type":"Feature","properties":{"id":"TH-LAO-4610102","nameTh":"อุทัยธานี","type":"town_municipality"},"geometry":{"type":"Polygon","coordinates":[[[100.0361715,15.3882972],[100.0316413,15.3863409],[100.030858,15.3848926],[100.0309439,15.3838686],[100.0352569,15.3806928],[100.0389369,15.3758928],[100.045578,15.370948],[100.0483246,15.3692617],[100.0505669,15.3685686],[100.0525947,15.3667944],[100.0483514,15.3611846],[100.043974,15.3649969],[100.0422896,15.3668901],[100.0416674,15.366647],[100.0402672,15.3671384],[100.0395216,15.3668332],[100.0391944,15.3671953],[100.0383361,15.3670711],[100.0370486,15.3674384],[100.0346668,15.36599],[100.0329394,15.3663159],[100.0303913,15.366109],[100.0283314,15.3664194],[100.027001,15.3655711],[100.0257404,15.366797],[100.0252093,15.3661194],[100.0238038,15.3657159],[100.0220336,15.3668228],[100.0203813,15.366647],[100.0190724,15.3679815],[100.0180425,15.3679815],[100.0171949,15.3672677],[100.0167872,15.367278],[100.0156714,15.3685608],[100.0153871,15.3693988],[100.0151564,15.3689695],[100.0147112,15.3690005],[100.0141211,15.3702678],[100.0181766,15.3733351],[100.0196303,15.3747316],[100.0198664,15.3753265],[100.0198664,15.3755334],[100.0184609,15.3743178],[100.0174738,15.3757041],[100.0154032,15.3772144],[100.0135793,15.3800282],[100.0113798,15.3823143],[100.0105859,15.3837211],[100.0133647,15.4017921],[100.0133432,15.4033746],[100.0148238,15.4069948],[100.0151993,15.4073155],[100.016122,15.4072637],[100.0173558,15.4079671],[100.0180586,15.4053088],[100.0206335,15.4018955],[100.0212557,15.4035893],[100.0229871,15.4029198],[100.0201922,15.3971145],[100.0188511,15.3933545],[100.0184381,15.3889246],[100.0297664,15.395485],[100.0306596,15.3952031],[100.0361715,15.3882972]]]}}]}