{"type":"FeatureCollection","features":[{"type":"Feature","properties":{"provinceCode":"65","nameTh":"พิษณุโลก","nameEn":"Phitsanulok"},"geometry":{"type":"Polygon","coordinates":[[[100.2359345,16.5293983],[100.2328857,16.5315188],[100.229893,16.537921],[100.2326088,16.548639],[100.2351236,16.551164],[100.2323479,16.5582391],[100.23127,16.5680615],[100.2329986,16.6125403],[100.2306202,16.6180457],[100.2258009,16.6170705],[100.2255761,16.6261281],[100.2174927,16.6299987],[100.2174885,16.6338207],[100.2152308,16.6377859],[100.2165209,16.6484339],[100.2123065,16.6445189],[100.2038037,16.6454383],[100.2040874,16.6428985],[100.2027633,16.6419842],[100.1971456,16.6436638],[100.1931953,16.648248],[100.1911728,16.6461262],[100.1951179,16.6335934],[100.1903064,16.6333685],[100.1917878,16.6267365],[100.2028014,16.623604],[100.2009007,16.6211905],[100.2011103,16.6176099],[100.1947399,16.6199404],[100.1942189,16.6138773],[100.1972603,16.6107555],[100.1964336,16.6078016],[100.1891431,16.6061375],[100.1858844,16.6075173],[100.1785544,16.6015059],[100.1859216,16.5915246],[100.1851771,16.5890492],[100.1738554,16.5893397],[100.1605073,16.5936411],[100.1538972,16.5972717],[100.1497808,16.6059105],[100.146483,16.6062269],[100.1464147,16.6007515],[100.1399798,16.5989354],[100.1376276,16.599951],[100.1372542,16.6030714],[100.1333793,16.6040923],[100.1300751,16.6106997],[100.1186515,16.6140719],[100.1049957,16.6092232],[100.104382,16.6040057],[100.0977486,16.6058048],[100.0954081,16.5997238],[100.089548,16.6001627],[100.0866415,16.5983242],[100.0876942,16.5894552],[100.0892308,16.5885807],[100.0821436,16.5818556],[100.0801013,16.5826058],[100.0790559,16.5789371],[100.0745604,16.5771311],[100.0707632,16.5783794],[100.0688923,16.5761075],[100.0609593,16.5767007],[100.0588996,16.5735058],[100.0552487,16.5731785],[100.0543471,16.5744579],[100.0540214,16.5731646],[100.0471356,16.5712571],[100.0433202,16.5718322],[100.0403856,16.5784824],[100.0319031,16.5843503],[100.0294278,16.5804088],[100.0235372,16.5806796],[100.019557,16.5742152],[100.01378,16.5742087],[100.012799,16.5752952],[100.0148884,16.5825245],[100.0107755,16.581249],[100.0079126,16.5859249],[100.004795,16.5850689],[100.0056025,16.5822255],[100.0040003,16.5790737],[99.9975415,16.5783334],[99.9962303,16.5795345],[99.9928591,16.5771882],[99.986354,16.5783257],[99.9844455,16.5746291],[99.9708678,16.5798969],[99.9426123,16.5743733],[99.9256791,16.5785988],[99.9241413,16.5866807],[99.9144883,16.6038108],[99.9153669,16.609513],[99.9121395,16.6132046],[99.9087116,16.6243108],[99.8995277,16.636732],[99.8983932,16.6479095],[99.8962421,16.6492092],[99.8958688,16.6518045],[99.8974287,16.6580443],[99.8934919,16.6608437],[99.8945848,16.6642847],[99.8902419,16.667636],[99.8887373,16.6710856],[99.888535,16.6795392],[99.8918024,16.686404],[99.8847183,16.6938576],[99.8882999,16.6949249],[99.8905,16.6975713],[99.8851522,16.7011149],[99.8966694,16.7055443],[99.8922045,16.7082556],[99.8886403,16.7150444],[99.8836944,16.7110978],[99.8729179,16.7153548],[99.8755266,16.7182136],[99.8717114,16.7250164],[99.86583,16.7238672],[99.8601365,16.7311771],[99.8566946,16.7289763],[99.8534102,16.7352719],[99.8581855,16.7400797],[99.8639297,16.7414523],[99.8625841,16.7490361],[99.8656402,16.7582708],[99.8699229,16.7598307],[99.8714983,16.7647252],[99.876961,16.7653863],[99.8797401,16.7706981],[99.8770503,16.7749121],[99.8783249,16.7821124],[99.8805524,16.7835465],[99.8796417,16.7866532],[99.8824631,16.7899858],[99.8859472,16.789686],[99.8887689,16.7921969],[99.8878104,16.7964071],[99.8910536,16.798483],[99.8974084,16.7988672],[99.9104138,16.805629],[99.9160928,16.8056376],[99.9299031,16.8110104],[99.9319492,16.8194739],[99.9376689,16.8213474],[99.9389086,16.8259614],[99.9425521,16.8264471],[99.9452028,16.8374635],[99.9434083,16.8413253],[99.9441293,16.850757],[99.9403415,16.8513396],[99.9395066,16.8551288],[99.9414888,16.863672],[99.9546471,16.8620304],[99.9577653,16.8643512],[99.961051,16.8644872],[99.9709377,16.8601744],[99.9759358,16.8622168],[99.9778805,16.8662755],[99.988405,16.8659987],[99.9934028,16.8680512],[99.9977097,16.8635462],[100.0007374,16.8627888],[100.0076133,16.870178],[100.00719,16.88507],[100.010624,16.8888264],[100.0364088,16.8904291],[100.0369459,16.8929506],[100.0435051,16.8947638],[100.0529948,16.8885553],[100.0592562,16.8878272],[100.0610801,16.8852548],[100.0646696,16.8842655],[100.0723876,16.8881668],[100.0766396,16.89314],[100.080704,16.8889226],[100.0853126,16.8889666],[100.0882392,16.892995],[100.091566,16.8940625],[100.0895425,16.8956089],[100.0905593,16.8976287],[100.0929268,16.8978315],[100.0947211,16.8947572],[100.1000239,16.8995299],[100.0986443,16.909226],[100.1009492,16.9111833],[100.1012416,16.9148176],[100.1050212,16.9164275],[100.1107946,16.9148593],[100.1101544,16.917755],[100.1117871,16.9190068],[100.1071833,16.9254645],[100.1082548,16.928827],[100.106427,16.9299433],[100.1088497,16.9316691],[100.1074584,16.9351791],[100.1114868,16.9347102],[100.1071421,16.9394723],[100.1094391,16.9403181],[100.1083146,16.9433997],[100.1099786,16.9449452],[100.1045669,16.9664421],[100.0983463,16.9698992],[100.1000475,16.9714069],[100.107122,16.9706843],[100.1084123,16.9718543],[100.107684,16.9742145],[100.1003959,16.9746344],[100.0993903,16.9766806],[100.1015583,16.9810469],[100.0960084,16.9827399],[100.0962826,16.9856659],[100.0940012,16.9872839],[100.0943205,16.9922057],[100.0911817,16.9918771],[100.0871202,16.9878327],[100.0866104,16.9916775],[100.0849221,16.9906217],[100.0834313,16.9924372],[100.0772596,16.9923198],[100.0808655,16.999231],[100.0795673,17.0016847],[100.0772905,17.0019884],[100.0759369,16.9984566],[100.0733911,17.0027278],[100.0708501,17.0013722],[100.0689929,17.0030194],[100.0695172,17.0052416],[100.0682755,17.0040079],[100.0657871,17.005774],[100.0675375,17.0078462],[100.0630743,17.0079833],[100.0635536,17.0094541],[100.0607517,17.0130626],[100.0538317,17.0085722],[100.0464147,17.0108522],[100.0461541,17.01245],[100.0440979,17.0125258],[100.0438613,17.0107553],[100.0408801,17.0139242],[100.0395311,17.0199215],[100.0405806,17.0217998],[100.0369992,17.0209173],[100.034563,17.0227704],[100.0339829,17.0209121],[100.0313701,17.0216807],[100.0283105,17.0265191],[100.0231895,17.0259201],[100.0200548,17.0315312],[100.0154776,17.033035],[100.0108624,17.0388976],[100.0113236,17.0406484],[100.0049126,17.0436593],[100.0047668,17.0489248],[100.0066641,17.0537629],[100.0055391,17.0575686],[100.0096795,17.0606057],[100.0141993,17.0614516],[100.0144766,17.0653307],[100.0124277,17.0682547],[100.0138641,17.073065],[100.0059104,17.0733091],[100.0052896,17.0792607],[100.0036643,17.0789628],[99.9989548,17.0829159],[99.9976639,17.0857788],[99.9964049,17.0820985],[99.9931862,17.0840157],[99.9939088,17.0800365],[99.9926537,17.0788297],[99.9851185,17.0783747],[99.9822989,17.0890739],[99.9846648,17.0922866],[99.9816672,17.0987503],[99.9827095,17.1010956],[99.9801483,17.1001702],[99.9779975,17.1024902],[99.9730682,17.10217],[99.9726711,17.104733],[99.9688988,17.105602],[99.9611817,17.1123675],[99.9588825,17.121077],[99.9594472,17.1242727],[99.961744,17.1263732],[99.9588785,17.1273882],[99.9605197,17.1304481],[99.9581226,17.1347245],[99.9590456,17.1472671],[99.9548044,17.1512946],[99.9550704,17.1538098],[99.9520251,17.1556981],[99.9556464,17.1627218],[99.9514739,17.1656779],[99.9521245,17.1691236],[99.9569832,17.1716874],[99.961973,17.1690901],[99.9684702,17.168918],[99.9810268,17.1560809],[99.9832037,17.1556352],[99.9828533,17.1585605],[99.984892,17.1601181],[99.9921665,17.1593166],[99.9944732,17.1582056],[99.9943245,17.1559086],[99.9980347,17.1558396],[100.0089074,17.1514941],[100.0085385,17.1469005],[100.0003842,17.147102],[99.9962916,17.1428665],[99.9958637,17.1391207],[100.0140857,17.1390004],[100.0161212,17.1445303],[100.0194784,17.1491148],[100.0230594,17.1509563],[100.0253124,17.1553764],[100.0226873,17.1622591],[100.0237947,17.1652157],[100.0305865,17.1640279],[100.03301,17.1666857],[100.0317911,17.1721874],[100.0362964,17.1784793],[100.0362999,17.1813402],[100.0455039,17.1784347],[100.0483307,17.178882],[100.0527164,17.1829093],[100.0590969,17.1808084],[100.0695775,17.1830365],[100.0780582,17.1820108],[100.0899179,17.1856864],[100.0912279,17.187626],[100.1024013,17.1893949],[100.118498,17.1833868],[100.1345809,17.1848715],[100.1361996,17.1811148],[100.1497711,17.1857972],[100.1496947,17.1781695],[100.153544,17.1784992],[100.1562574,17.1686316],[100.1600299,17.1656001],[100.1630409,17.1706514],[100.1675791,17.2011192],[100.1817755,17.2058775],[100.2026213,17.205643],[100.2057486,17.2083383],[100.229696,17.2116759],[100.239263,17.221698],[100.2497575,17.223086],[100.2619921,17.2201174],[100.2671905,17.2212948],[100.2824607,17.2206089],[100.2805043,17.2224335],[100.277939,17.2360508],[100.2736302,17.2387613],[100.2746317,17.245509],[100.2735122,17.2532082],[100.2772944,17.2593097],[100.2780852,17.2658803],[100.2778758,17.2687847],[100.2725795,17.2742255],[100.2721655,17.2774151],[100.2741804,17.2846454],[100.2736131,17.2880997],[100.2764747,17.2909863],[100.2750736,17.296609],[100.2765992,17.2994203],[100.2810356,17.3012303],[100.2821959,17.30674],[100.2805338,17.3201413],[100.2833365,17.3363881],[100.2901033,17.3396889],[100.2968819,17.3478113],[100.2947529,17.3563359],[100.2948693,17.365815],[100.2889118,17.3761135],[100.298457,17.374758],[100.307378,17.383088],[100.3143177,17.3749155],[100.3230472,17.3682988],[100.3254357,17.3692569],[100.3301717,17.3784925],[100.3291017,17.3868541],[100.3362473,17.3893182],[100.3425973,17.386964],[100.3484511,17.39263],[100.3563453,17.3828351],[100.3642433,17.3887927],[100.3710489,17.3906328],[100.3890938,17.4007799],[100.3912714,17.4046855],[100.3980751,17.4030572],[100.4212249,17.4121229],[100.4270174,17.4215086],[100.4353416,17.4166959],[100.4474974,17.4239903],[100.450017,17.4231788],[100.4543729,17.4180027],[100.469002,17.4208351],[100.481277,17.4178464],[100.4957114,17.4229965],[100.5013268,17.4288949],[100.5085974,17.4231118],[100.5089682,17.4172191],[100.5071919,17.4140759],[100.5085511,17.4126119],[100.5065939,17.4094645],[100.5092786,17.4066937],[100.5126686,17.4062821],[100.5136967,17.4039495],[100.5172754,17.4071513],[100.5154026,17.4079872],[100.5164073,17.4099114],[100.5221586,17.4077875],[100.5215662,17.4104696],[100.524787,17.4109231],[100.5271294,17.41334],[100.5296253,17.4122342],[100.5301491,17.4170911],[100.5319445,17.4137256],[100.5373672,17.4154126],[100.5376099,17.4185992],[100.5412163,17.4156553],[100.5470122,17.4167072],[100.5509552,17.4145361],[100.5600525,17.4167542],[100.5704018,17.4222378],[100.578379,17.4205005],[100.5813612,17.4214128],[100.5852532,17.4188657],[100.594287,17.4218795],[100.6032913,17.4279629],[100.6024323,17.4333515],[100.6000161,17.4364127],[100.6026094,17.4396778],[100.6028764,17.4477888],[100.6069698,17.4522829],[100.613353,17.4658564],[100.6184727,17.4688827],[100.6220563,17.4688241],[100.6288421,17.474243],[100.6411868,17.4733681],[100.6450317,17.4745444],[100.6432605,17.4825498],[100.6448847,17.4851799],[100.6415293,17.4897157],[100.6423464,17.4933615],[100.6522988,17.4942861],[100.6571109,17.499042],[100.6652507,17.501317],[100.6693447,17.5009165],[100.6709146,17.5040298],[100.6752712,17.5056192],[100.6795253,17.5110083],[100.6838914,17.5136146],[100.6888316,17.5220859],[100.6928663,17.5246288],[100.7087305,17.5307882],[100.7097527,17.5323668],[100.7202551,17.5331933],[100.7293012,17.535853],[100.7402701,17.5424418],[100.7420361,17.5509742],[100.7466071,17.5589484],[100.7507686,17.560361],[100.75162,17.563246],[100.7560568,17.5639333],[100.7589569,17.5702042],[100.7627208,17.5697959],[100.7628614,17.5723367],[100.7653299,17.5731055],[100.7653387,17.5803898],[100.7735812,17.582847],[100.7748704,17.5858762],[100.7724202,17.5959685],[100.7796252,17.6055244],[100.7842809,17.6061524],[100.7896094,17.6128693],[100.7914269,17.6189042],[100.8024206,17.6345755],[100.8018227,17.6385209],[100.806669,17.6392178],[100.8137325,17.6439989],[100.8191514,17.6439627],[100.8308577,17.6483502],[100.8371008,17.648395],[100.8427217,17.6534149],[100.8449111,17.6563788],[100.8443518,17.6586356],[100.8463884,17.6599346],[100.8457879,17.663463],[100.8499355,17.6674476],[100.8511486,17.6722317],[100.8533797,17.6732049],[100.8526796,17.6802046],[100.855404,17.6820852],[100.8578536,17.6890614],[100.8652208,17.6969273],[100.8681251,17.7038357],[100.8748943,17.7110575],[100.8888932,17.7154609],[100.9021897,17.7137738],[100.9051136,17.7150455],[100.9069789,17.7108622],[100.9064163,17.7074662],[100.9097999,17.701801],[100.9157713,17.6987337],[100.9217076,17.6996496],[100.9255728,17.695909],[100.9398946,17.7010613],[100.9438883,17.7014067],[100.9471976,17.6991114],[100.9559336,17.6999407],[100.9595795,17.7026959],[100.9661607,17.7020602],[100.968801,17.7075772],[100.9721539,17.7093717],[100.9768242,17.7153474],[100.9810037,17.7224853],[100.9809249,17.725141],[100.9850167,17.7302319],[100.9843773,17.7338324],[100.9875527,17.7383705],[100.98841,17.742971],[100.990918,17.741493],[100.992465,17.737847],[100.991665,17.733708],[100.996948,17.735235],[101.006008,17.732614],[101.006955,17.730353],[101.002846,17.716779],[101.004797,17.709353],[101.002846,17.707238],[101.004743,17.703649],[100.99954,17.699037],[101.008747,17.70001],[101.008957,17.698682],[100.998785,17.67939],[100.994516,17.678651],[100.99489,17.676927],[100.991688,17.675104],[100.992809,17.673872],[100.991315,17.667023],[100.989981,17.666777],[100.991688,17.663574],[100.989554,17.661849],[100.995103,17.658548],[100.992115,17.654311],[100.991261,17.649285],[100.994783,17.643028],[100.993022,17.639924],[100.993769,17.631351],[100.990941,17.622827],[100.991368,17.619131],[100.987206,17.618195],[100.9878289,17.6119432],[100.9850201,17.6080875],[100.9826517,17.6082491],[100.9824988,17.6053213],[100.9785484,17.6011279],[100.9771351,17.5957562],[100.9688007,17.5932452],[100.9682268,17.5845249],[100.965014,17.5811666],[100.9675502,17.5715152],[100.9660245,17.5716478],[100.9649746,17.5749693],[100.9598431,17.5755289],[100.9561282,17.5729922],[100.9549829,17.5749988],[100.9534186,17.5737698],[100.9495271,17.574626],[100.9474982,17.5723681],[100.9465232,17.5737414],[100.9399468,17.5729952],[100.9379919,17.5697466],[100.93238,17.5688192],[100.9306042,17.5709352],[100.9280052,17.5692831],[100.9244809,17.5731259],[100.9171389,17.5762463],[100.9166132,17.5775959],[100.9188858,17.5800057],[100.9180869,17.5816228],[100.9115868,17.5821849],[100.9055114,17.5877743],[100.9038869,17.5918608],[100.9011836,17.5916328],[100.8908407,17.5839295],[100.886119,17.5823232],[100.8811542,17.5842872],[100.8786731,17.5833963],[100.8675692,17.5672876],[100.8609366,17.5458114],[100.8648792,17.5412593],[100.8665794,17.5352954],[100.8712574,17.5313109],[100.8716357,17.5284098],[100.8648844,17.516515],[100.8543564,17.5064759],[100.8460418,17.5027244],[100.843747,17.4965278],[100.8442374,17.4894343],[100.8338212,17.4825381],[100.833265,17.4776236],[100.8350611,17.4681333],[100.8473829,17.4595749],[100.8502657,17.4546014],[100.8546633,17.4553158],[100.8552895,17.4511942],[100.8622533,17.4540016],[100.8661567,17.4511453],[100.8696594,17.4516003],[100.8745242,17.4493642],[100.877302,17.4519609],[100.8802222,17.4523466],[100.8861065,17.4604468],[100.8917694,17.4620192],[100.8943375,17.4655799],[100.898852,17.4582138],[100.9035523,17.4583969],[100.9057254,17.4538571],[100.9089759,17.4539862],[100.9110048,17.4514894],[100.9164194,17.4508398],[100.917587,17.4439071],[100.9143431,17.4349236],[100.9169171,17.4321568],[100.9205185,17.4317412],[100.9223556,17.4254988],[100.9207024,17.422995],[100.9246089,17.4204799],[100.9225247,17.4201101],[100.9208164,17.4152184],[100.9227079,17.4117307],[100.9211958,17.4076159],[100.9230215,17.4027892],[100.9184816,17.4019493],[100.9169556,17.3998908],[100.9161686,17.3923023],[100.9178921,17.3895079],[100.9168122,17.3855099],[100.9143586,17.3848752],[100.9147032,17.3801798],[100.912747,17.3775697],[100.9168354,17.3730001],[100.9144841,17.3669105],[100.9167451,17.3643767],[100.9169961,17.3595822],[100.913907,17.3423716],[100.9183233,17.3425926],[100.9186433,17.3398846],[100.9226142,17.337833],[100.936837,17.3354459],[100.9437096,17.3411146],[100.9493887,17.3382464],[100.9565349,17.3374415],[100.9633483,17.3383362],[100.970007,17.3422535],[100.9735841,17.3400209],[100.9869108,17.3389901],[100.9918415,17.3417502],[100.9998621,17.3381244],[101.0078391,17.3321703],[101.0088358,17.3254391],[101.0069312,17.3231778],[101.0107392,17.3156822],[101.0154213,17.3115565],[101.0178822,17.312326],[101.0197429,17.3109553],[101.0220364,17.31354],[101.0236611,17.3113604],[101.0270763,17.3110579],[101.0355741,17.3010377],[101.036129,17.2969513],[101.0384858,17.2966156],[101.048428,17.286235],[101.0612043,17.2810041],[101.0698437,17.2800752],[101.0828481,17.2813506],[101.0818842,17.2733807],[101.0890013,17.2648768],[101.0927714,17.2531077],[101.1097165,17.2335547],[101.1077412,17.2155976],[101.0995769,17.2096945],[101.094454,17.1985701],[101.0823931,17.1922063],[101.0798628,17.1848672],[101.0750812,17.1776856],[101.0752679,17.1693248],[101.079049,17.1693311],[101.0802262,17.1678041],[101.0754903,17.1600241],[101.0799961,17.1533158],[101.077611,17.1483063],[101.0781962,17.1372083],[101.0732982,17.1343675],[101.0699021,17.1299639],[101.0710102,17.1155692],[101.0616881,17.1125169],[101.0509879,17.1150796],[101.0546834,17.1047479],[101.0511761,17.0962074],[101.0561605,17.0942941],[101.0565425,17.0907019],[101.052665,17.0866691],[101.0495627,17.0780421],[101.0518149,17.0739769],[101.0559604,17.0707996],[101.0559129,17.0647138],[101.0582156,17.0603872],[101.0573146,17.0561419],[101.0548507,17.0535111],[101.0570958,17.0484165],[101.0518985,17.0412577],[101.0578042,17.0343187],[101.058261,17.0287626],[101.053688,17.0243154],[101.0556095,17.0168394],[101.0464125,17.0022132],[101.0462095,16.9865949],[101.0431788,16.9856633],[101.0424281,16.9836446],[101.0493513,16.9753298],[101.0450981,16.9714447],[101.0446077,16.9665398],[101.0514366,16.9559717],[101.0419723,16.9518701],[101.0376465,16.9474397],[101.0284158,16.9449744],[101.0263824,16.9429701],[101.0282176,16.9375846],[101.034789,16.9304513],[101.0399556,16.9287732],[101.0422866,16.9299082],[101.0474191,16.9288479],[101.0534085,16.9306844],[101.0689441,16.9269673],[101.0714895,16.9244774],[101.0712148,16.9117029],[101.0670283,16.9028461],[101.0621631,16.9062371],[101.0569165,16.9075824],[101.0494358,16.9072011],[101.0432766,16.9041665],[101.040323,16.8999822],[101.0305076,16.8928259],[101.0262735,16.8729935],[101.0223445,16.8700428],[101.0221805,16.868129],[101.0171573,16.8674692],[101.0128659,16.8633147],[101.0125572,16.8583149],[101.0099418,16.8602777],[101.0075027,16.8562888],[101.0034891,16.8553306],[101.0017028,16.8571457],[100.9999966,16.8550532],[100.9937854,16.854103],[100.9927687,16.8556789],[100.989318,16.8509583],[100.9798441,16.8480203],[100.9828874,16.8450232],[100.9794824,16.8421274],[100.9765185,16.8402784],[100.9746132,16.8426677],[100.9727254,16.8422203],[100.9772507,16.8366057],[100.9789355,16.8386489],[100.9814672,16.8350775],[100.9802061,16.8301592],[100.9769101,16.831722],[100.9787412,16.8264421],[100.9744687,16.8297795],[100.9749112,16.8259966],[100.9720682,16.8243351],[100.9724674,16.8294991],[100.9678062,16.8306351],[100.9644506,16.8276917],[100.9612891,16.8311618],[100.9591743,16.8251097],[100.9543081,16.8258327],[100.9536931,16.8209372],[100.9578148,16.8200696],[100.9553871,16.8172293],[100.9585053,16.8167335],[100.9551928,16.811373],[100.9586132,16.8096687],[100.9565156,16.8050693],[100.9535193,16.8044178],[100.9538197,16.802261],[100.9571457,16.8008231],[100.9549999,16.7994673],[100.9557178,16.7960924],[100.9531571,16.7935249],[100.9477545,16.7914702],[100.943037,16.7952161],[100.9368534,16.7959669],[100.9333344,16.7938495],[100.9175769,16.7917526],[100.9140568,16.7961281],[100.9060303,16.7988097],[100.903434,16.8019773],[100.9026232,16.8007071],[100.9052441,16.7947481],[100.9061286,16.7816533],[100.903262,16.7757408],[100.897578,16.7763838],[100.8957598,16.7718042],[100.8981841,16.7681969],[100.8989621,16.7623938],[100.9019434,16.7601195],[100.9111656,16.7609037],[100.9201503,16.7589431],[100.9197408,16.754771],[100.9230661,16.7468655],[100.9209366,16.740795],[100.9154164,16.7358067],[100.9140486,16.7315556],[100.9164402,16.7271161],[100.9315348,16.7171857],[100.9307977,16.7106122],[100.9265387,16.7128243],[100.9231971,16.7124792],[100.9240817,16.7025794],[100.9282751,16.6975117],[100.9341229,16.6962094],[100.9334841,16.6903727],[100.9290613,16.6859636],[100.9383163,16.6876268],[100.9425623,16.6810693],[100.9364735,16.6821817],[100.9325635,16.680907],[100.9282703,16.671238],[100.9275738,16.6654882],[100.9234257,16.6632874],[100.9201911,16.6640193],[100.9152261,16.6697285],[100.9085843,16.6678343],[100.9064454,16.6687322],[100.9037093,16.6667365],[100.8943007,16.6696271],[100.8895603,16.6686556],[100.885286,16.6654406],[100.8844733,16.6575988],[100.8799774,16.6517906],[100.8769299,16.64976],[100.8700128,16.6492294],[100.8642096,16.6430287],[100.8618215,16.6377786],[100.86186,16.6239894],[100.8653994,16.6209671],[100.8618226,16.6144471],[100.8575736,16.6166521],[100.8526846,16.6146251],[100.8551118,16.6130447],[100.8550803,16.6092585],[100.8515052,16.6062084],[100.8515696,16.6022518],[100.8546723,16.5976724],[100.8504207,16.5966141],[100.8476088,16.5929279],[100.8479336,16.5871918],[100.8506722,16.5837544],[100.8476393,16.5818672],[100.845684,16.5776561],[100.8507644,16.5766281],[100.850791,16.5670487],[100.8529623,16.5604257],[100.8559,16.5598437],[100.8578593,16.5564343],[100.8583312,16.5466955],[100.8543886,16.5432979],[100.846152,16.5421966],[100.8464912,16.5386631],[100.8498224,16.5352719],[100.8499975,16.530492],[100.847696,16.5281366],[100.8495574,16.5258277],[100.8490856,16.5226317],[100.8449496,16.5207981],[100.8411828,16.5237365],[100.8342993,16.5200753],[100.8339444,16.5168771],[100.8363488,16.5136547],[100.8337541,16.5080522],[100.833797,16.5040286],[100.8213734,16.5012784],[100.8144474,16.495643],[100.8149238,16.4884595],[100.8174822,16.4832539],[100.8096486,16.4804848],[100.8045323,16.4813754],[100.7997271,16.4747632],[100.7936418,16.4728574],[100.7930373,16.4692527],[100.7967697,16.4651992],[100.7984868,16.4583552],[100.8047077,16.4569396],[100.8054415,16.4484296],[100.7967299,16.4510019],[100.7923576,16.449312],[100.7865333,16.450136],[100.7829356,16.4480604],[100.7816302,16.4443501],[100.7759975,16.4411915],[100.7741504,16.4381472],[100.7746543,16.4285765],[100.7718064,16.4262639],[100.7627239,16.4315491],[100.7561176,16.4264349],[100.7502213,16.4259122],[100.7473997,16.4217025],[100.7426417,16.4191924],[100.7347707,16.4224621],[100.7330129,16.4202249],[100.7271002,16.4229629],[100.721457,16.420642],[100.7180648,16.421942],[100.7122697,16.4181433],[100.7115021,16.4193949],[100.7086905,16.4191326],[100.7034515,16.41304],[100.7031668,16.4063912],[100.7010148,16.4039806],[100.7019216,16.3963687],[100.7061278,16.3940905],[100.7065662,16.384877],[100.702058,16.3844177],[100.69851,16.3858592],[100.694501,16.3848468],[100.6947157,16.3836293],[100.6915973,16.3820424],[100.6856284,16.3816711],[100.68347,16.379519],[100.6791022,16.3827941],[100.6770597,16.3820597],[100.6735378,16.3748097],[100.6651269,16.3703792],[100.6613997,16.3657516],[100.6641742,16.3605481],[100.6625325,16.3598901],[100.6640658,16.3590487],[100.6624313,16.3578983],[100.6650104,16.3560897],[100.6688424,16.3572231],[100.6718389,16.3563111],[100.6622223,16.3434932],[100.6535626,16.3279098],[100.6514513,16.3207847],[100.6489883,16.3271912],[100.6461993,16.3262279],[100.6460331,16.3231753],[100.6374836,16.3261932],[100.6350356,16.3237392],[100.6324346,16.3243693],[100.6267183,16.3186861],[100.6258448,16.3320917],[100.6234169,16.3392226],[100.6251398,16.3396682],[100.6197505,16.3465653],[100.6217429,16.3484932],[100.6204525,16.350084],[100.6238305,16.3539305],[100.6230711,16.361816],[100.6359171,16.3746841],[100.6337347,16.3808427],[100.6357274,16.3870123],[100.6336632,16.3901374],[100.633614,16.3951349],[100.6289476,16.3991351],[100.627757,16.3982328],[100.6233125,16.404661],[100.615036,16.4054452],[100.6104456,16.4100457],[100.6057691,16.4121365],[100.6078435,16.4145243],[100.6070664,16.4173302],[100.6011555,16.4136481],[100.5994677,16.4157223],[100.598408,16.4146406],[100.5974079,16.4167902],[100.5950934,16.4154635],[100.5932205,16.4173091],[100.5948278,16.4204505],[100.5917889,16.4231444],[100.5901537,16.4224764],[100.5874422,16.4321413],[100.5827283,16.4350099],[100.5814792,16.438664],[100.5793557,16.4390927],[100.580364,16.4441069],[100.5739403,16.4485614],[100.5745236,16.4512063],[100.5717426,16.453274],[100.5729136,16.4545502],[100.5702919,16.453854],[100.570774,16.4565554],[100.5676175,16.4580896],[100.5785478,16.4660768],[100.5851616,16.468522],[100.5857759,16.4706432],[100.5837987,16.478951],[100.5861075,16.4938644],[100.5835204,16.5065486],[100.5869992,16.5112894],[100.5861396,16.5157631],[100.5874585,16.5208225],[100.5849812,16.5211203],[100.5843862,16.5227053],[100.5814691,16.521015],[100.5811308,16.524805],[100.5771026,16.5241609],[100.5770581,16.5317361],[100.5800832,16.5443273],[100.5795489,16.5573328],[100.58059,16.5580997],[100.5785024,16.5630221],[100.5805109,16.5791974],[100.5751732,16.5857798],[100.5714928,16.5822548],[100.5684454,16.5826388],[100.5648868,16.5760113],[100.5538351,16.5703451],[100.5500453,16.5696223],[100.5464437,16.5712327],[100.5400595,16.5676413],[100.5372441,16.5683548],[100.5316429,16.5661735],[100.5281661,16.5673854],[100.5265296,16.5654967],[100.5230722,16.5701347],[100.5212732,16.5680591],[100.5209896,16.5692146],[100.5189214,16.5679715],[100.5163579,16.56947],[100.5114222,16.5653509],[100.4976792,16.5631382],[100.4949195,16.5566406],[100.4930086,16.5579795],[100.4918659,16.554967],[100.486136,16.5544062],[100.484976,16.5528896],[100.4860086,16.5515535],[100.4826065,16.5504677],[100.4839729,16.5497836],[100.481072,16.5472858],[100.4821883,16.5457961],[100.4806287,16.5443063],[100.4837367,16.5419059],[100.4842517,16.5401398],[100.4821865,16.538904],[100.483224,16.5377042],[100.4819901,16.5362298],[100.4775949,16.5358706],[100.4753229,16.5329553],[100.4727109,16.5328626],[100.4760283,16.526334],[100.4733064,16.5254139],[100.4728237,16.5215871],[100.469237,16.5201097],[100.444689,16.5185406],[100.4297072,16.5203308],[100.4299099,16.5283158],[100.4252067,16.5359596],[100.4086876,16.5420528],[100.4066214,16.544726],[100.3953946,16.5489885],[100.3885758,16.5541821],[100.3822013,16.5519551],[100.3723193,16.5519866],[100.3694645,16.5486165],[100.3765466,16.5459092],[100.3602157,16.5360919],[100.3460556,16.5329404],[100.3328803,16.5259367],[100.328045,16.5285162],[100.3216726,16.5247132],[100.3139649,16.52535],[100.2782427,16.5327264],[100.2650657,16.5374804],[100.2605668,16.536314],[100.2552714,16.5301707],[100.2420447,16.5285842],[100.2359345,16.5293983]]]}}]}