{"type":"FeatureCollection","features":[{"type":"Feature","properties":{"id":"TH-LAO-3650102","nameTh":"พิษณุโลก","type":"city_municipality"},"geometry":{"type":"Polygon","coordinates":[[[100.261418,16.8386734],[100.2636418,16.8357324],[100.2641736,16.8338787],[100.2636613,16.832314],[100.2627786,16.8324998],[100.2614289,16.8319239],[100.2612744,16.8322585],[100.2579421,16.8313435],[100.2580952,16.8306787],[100.2576561,16.8306008],[100.2574691,16.8301962],[100.2569081,16.8304296],[100.2570382,16.8307332],[100.2555242,16.8302704],[100.2549234,16.8309584],[100.2541295,16.8307325],[100.2507448,16.8310445],[100.2512404,16.833899],[100.2497309,16.8340847],[100.2481679,16.8351476],[100.2441931,16.8294857],[100.2432059,16.8222837],[100.2379138,16.8192393],[100.2447492,16.8070568],[100.2437518,16.8052226],[100.2422193,16.8048707],[100.2406677,16.803409],[100.238582,16.7980764],[100.2379468,16.797115],[100.2362654,16.796242],[100.2347891,16.7963303],[100.2338385,16.7967822],[100.2326458,16.7979661],[100.2294448,16.8040916],[100.2285393,16.8051803],[100.2271905,16.8059362],[100.2249964,16.8050204],[100.223254,16.8037591],[100.2220256,16.8023062],[100.2213895,16.8008631],[100.2213522,16.7987543],[100.2246388,16.7983657],[100.2267311,16.7963],[100.2275451,16.7947527],[100.2290277,16.7899126],[100.2395046,16.7927577],[100.2450105,16.7966768],[100.2673117,16.7963988],[100.2670771,16.7968525],[100.2686749,16.7979047],[100.2713681,16.7968061],[100.2712962,16.7961794],[100.2716927,16.7958125],[100.2723037,16.7960085],[100.2751964,16.7976911],[100.2742544,16.8073574],[100.2745974,16.8126601],[100.2812046,16.8136801],[100.2847284,16.8130896],[100.2859577,16.8131859],[100.2873891,16.8138389],[100.2899923,16.8164792],[100.2974672,16.8159524],[100.297962,16.8213272],[100.2890196,16.8218985],[100.2825781,16.8231924],[100.2826693,16.8308252],[100.270929,16.8306355],[100.2709107,16.838588],[100.261418,16.8386734]]]}}]}