{"type":"FeatureCollection","features":[{"type":"Feature","properties":{"provinceCode":"70","nameTh":"ราชบุรี","nameEn":"Ratchaburi"},"geometry":{"type":"Polygon","coordinates":[[[99.9002353,13.8415573],[99.8987904,13.8561388],[99.90255,13.8587522],[99.9051792,13.8758385],[99.9066921,13.8792488],[99.910128,13.8783429],[99.9122507,13.880856],[99.9109819,13.8919486],[99.9166247,13.8970544],[99.9152131,13.9009412],[99.9170727,13.9023579],[99.916189,13.9036776],[99.9208123,13.9081782],[99.9187738,13.9122942],[99.9225666,13.9106232],[99.9200192,13.9151122],[99.9232092,13.9175585],[99.9233956,13.922371],[99.9251253,13.9250647],[99.9281317,13.9254639],[99.9277787,13.9292501],[99.9296812,13.9316949],[99.9270408,13.9340591],[99.9249598,13.9311653],[99.9260496,13.9341041],[99.921765,13.9362756],[99.9016386,13.9401287],[99.888533,13.9485379],[99.8853059,13.9495997],[99.8825624,13.948487],[99.8773224,13.957609],[99.8749432,13.9567585],[99.8792503,13.9505542],[99.8733409,13.9459823],[99.8740476,13.9443369],[99.8657224,13.9313872],[99.8631068,13.931859],[99.8623921,13.9285483],[99.8568323,13.9299213],[99.8558254,13.9255719],[99.8531,13.9248324],[99.853969,13.9215872],[99.8498919,13.9216647],[99.8450534,13.9176751],[99.8441893,13.9069864],[99.8480821,13.904033],[99.8486904,13.8957287],[99.8446495,13.893699],[99.8435469,13.8857567],[99.8416713,13.8849018],[99.8382604,13.8865238],[99.8358178,13.8843392],[99.8344358,13.8796698],[99.8360662,13.8787813],[99.8380717,13.8807502],[99.8399477,13.8791839],[99.8366247,13.8724581],[99.8308209,13.874108],[99.8305933,13.8695683],[99.8299354,13.8710341],[99.8256095,13.8721237],[99.8190262,13.8661327],[99.8209345,13.8581885],[99.8107971,13.8558583],[99.8079331,13.8522982],[99.8069719,13.8470624],[99.8028223,13.840182],[99.8045081,13.8375797],[99.8008882,13.8356705],[99.8025153,13.8325908],[99.7996943,13.8304327],[99.7991758,13.8276064],[99.8031095,13.8208471],[99.8052124,13.8214775],[99.8097494,13.8186256],[99.8091633,13.8151108],[99.8063312,13.8149629],[99.805384,13.8174897],[99.7988717,13.819893],[99.7970469,13.8217186],[99.7982076,13.8259551],[99.7949519,13.8275088],[99.7904919,13.8267646],[99.7907073,13.8237804],[99.7875698,13.8239338],[99.7867573,13.8269809],[99.7841801,13.8269394],[99.7833981,13.8251967],[99.7854355,13.8249847],[99.7846431,13.8218831],[99.7876809,13.82037],[99.7860473,13.8183649],[99.7834087,13.8188896],[99.7836405,13.8215737],[99.7760972,13.8233947],[99.7651085,13.8181694],[99.7594175,13.8220255],[99.7561501,13.8279654],[99.7568351,13.8299578],[99.7521059,13.831762],[99.7526371,13.8331978],[99.7373154,13.82904],[99.725306,13.8300056],[99.7241915,13.8318957],[99.7193154,13.8315477],[99.7192105,13.8382055],[99.7160661,13.8411429],[99.701949,13.8417804],[99.6973492,13.8402184],[99.6954546,13.8440784],[99.694041,13.8427807],[99.68657,13.8524395],[99.681096,13.8537231],[99.6731726,13.8525352],[99.6630458,13.8483624],[99.6613274,13.8510872],[99.661647,13.8471461],[99.6527459,13.8461085],[99.6520888,13.8331427],[99.6473708,13.8346599],[99.646013,13.8309162],[99.6396765,13.8267308],[99.6370881,13.828635],[99.635295,13.8243079],[99.6389795,13.8222313],[99.6333817,13.8142567],[99.6203306,13.8017304],[99.6184069,13.7871999],[99.6148206,13.7880711],[99.6151466,13.7838477],[99.6131621,13.7799363],[99.6071662,13.7801465],[99.6023063,13.7760858],[99.5978953,13.7761858],[99.5962645,13.7732074],[99.5949112,13.7746351],[99.5940107,13.7730431],[99.5959259,13.7717965],[99.5956131,13.7702445],[99.5870371,13.773278],[99.5789432,13.7618025],[99.5703112,13.7579472],[99.5694042,13.7506356],[99.5664764,13.7522604],[99.5612604,13.7519953],[99.5565045,13.7563941],[99.5530518,13.7556241],[99.5388081,13.7613401],[99.5178987,13.7610004],[99.5085337,13.763662],[99.508868,13.7652177],[99.5046169,13.7667639],[99.5022923,13.7718131],[99.4985034,13.7725891],[99.4961489,13.7772905],[99.493495,13.7776141],[99.4919064,13.7806398],[99.4866681,13.7833359],[99.4832556,13.7968819],[99.4799699,13.7984036],[99.4794617,13.8026105],[99.4752453,13.8056578],[99.4724788,13.804391],[99.4704369,13.8066836],[99.4698551,13.8030307],[99.4635378,13.7936364],[99.4622467,13.7943436],[99.4573008,13.7871656],[99.4586184,13.7863459],[99.4552375,13.7829231],[99.4537966,13.7822324],[99.4539282,13.783432],[99.4507117,13.7841281],[99.4487978,13.780779],[99.4305992,13.7784871],[99.4191398,13.7742894],[99.413597,13.7746278],[99.4129462,13.7713131],[99.4097279,13.7681327],[99.4010077,13.7678707],[99.4002358,13.76451],[99.397724,13.7626099],[99.3899753,13.7633462],[99.3852298,13.7585064],[99.3828528,13.7585178],[99.3787633,13.7549407],[99.3691046,13.7559654],[99.3664198,13.7540953],[99.3569596,13.7524212],[99.3485294,13.7551918],[99.3399303,13.7558038],[99.3171103,13.7660993],[99.3123949,13.7695156],[99.3069713,13.7771479],[99.303558,13.7759522],[99.2986302,13.7685392],[99.2950687,13.7690479],[99.2918442,13.7672792],[99.2862114,13.7605764],[99.2802444,13.760936],[99.2783219,13.7596005],[99.2769561,13.7562204],[99.2731207,13.7547494],[99.273319,13.7498843],[99.2658985,13.743455],[99.2623949,13.7449107],[99.258523,13.7441742],[99.2552171,13.746646],[99.2521458,13.743783],[99.2509939,13.7461951],[99.2433526,13.7480869],[99.2401621,13.7514579],[99.2350541,13.7469148],[99.2316761,13.7491832],[99.2273717,13.7474458],[99.2224873,13.7483023],[99.2162166,13.7423943],[99.211212,13.7422806],[99.2118611,13.737014],[99.2038269,13.7352567],[99.1962159,13.7305714],[99.1902806,13.7353393],[99.1877046,13.7356548],[99.18465,13.7333594],[99.1811844,13.7379355],[99.1766155,13.7373333],[99.1738923,13.7409044],[99.1707963,13.7398462],[99.1671303,13.7350989],[99.169327,13.707479],[99.166842,13.697065],[99.171564,13.688273],[99.169311,13.682461],[99.165515,13.681264],[99.167089,13.672873],[99.171163,13.671633],[99.170777,13.661161],[99.167166,13.653852],[99.17175,13.647469],[99.169095,13.640459],[99.172336,13.629888],[99.167289,13.621198],[99.167675,13.614544],[99.165453,13.612963],[99.169465,13.606622],[99.17229,13.597533],[99.176117,13.594185],[99.178848,13.58575],[99.170793,13.578726],[99.166981,13.578712],[99.163586,13.574239],[99.168756,13.570762],[99.172518,13.563008],[99.177657,13.563065],[99.179599,13.555527],[99.182854,13.550901],[99.187137,13.550844],[99.188337,13.546732],[99.192448,13.545019],[99.191877,13.534226],[99.189422,13.528287],[99.19182,13.51184],[99.187594,13.505615],[99.188679,13.501675],[99.190963,13.500704],[99.188108,13.499276],[99.187251,13.496821],[99.1910605,13.489878],[99.197228,13.484752],[99.197737,13.482515],[99.203648,13.479409],[99.202305,13.474906],[99.206781,13.466158],[99.207506,13.458337],[99.197182,13.450914],[99.204327,13.433575],[99.200639,13.427449],[99.204497,13.423004],[99.207321,13.422762],[99.206472,13.418544],[99.209867,13.416123],[99.210314,13.413629],[99.210283,13.410936],[99.203987,13.402886],[99.206132,13.396974],[99.206333,13.389993],[99.204589,13.384907],[99.206935,13.380191],[99.202321,13.375859],[99.201503,13.371941],[99.205824,13.366371],[99.205901,13.361142],[99.202691,13.35476],[99.20604,13.348419],[99.206796,13.339229],[99.205963,13.337021],[99.201626,13.334927],[99.196935,13.324768],[99.192105,13.32276],[99.190762,13.316121],[99.191965,13.313086],[99.191348,13.307074],[99.194187,13.304481],[99.190515,13.302899],[99.189975,13.294237],[99.186935,13.291117],[99.192969,13.284492],[99.194234,13.280659],[99.199419,13.277325],[99.200731,13.272567],[99.205623,13.269261],[99.211626,13.261853],[99.210762,13.2602],[99.208401,13.260044],[99.202506,13.261582],[99.201071,13.258505],[99.19732,13.25745],[99.196317,13.254658],[99.205114,13.241023],[99.204574,13.237504],[99.208787,13.231335],[99.209096,13.225237],[99.204404,13.219866],[99.205562,13.215634],[99.209296,13.212429],[99.210701,13.207613],[99.2159104,13.2012526],[99.2215003,13.2045688],[99.2277604,13.2028577],[99.2394084,13.1874635],[99.2458386,13.1856208],[99.2471186,13.1794975],[99.2632802,13.1608534],[99.2652088,13.155333],[99.2700743,13.1490987],[99.2719195,13.1487936],[99.2822595,13.152532],[99.324167,13.1775316],[99.3262939,13.1829628],[99.3246579,13.187087],[99.3196389,13.1897753],[99.3186988,13.2025353],[99.3215303,13.213572],[99.3250457,13.2154625],[99.3233121,13.2228526],[99.3352341,13.220732],[99.3387779,13.2281811],[99.3385121,13.2329406],[99.3422963,13.2345923],[99.3441725,13.238604],[99.3506935,13.2439618],[99.3583905,13.2331596],[99.368249,13.2336794],[99.3717139,13.2281702],[99.3715665,13.2207649],[99.3935817,13.2128708],[99.3964936,13.216899],[99.3987949,13.2176367],[99.4015422,13.2134218],[99.4070798,13.2128793],[99.4145317,13.1989903],[99.4202184,13.1973799],[99.4280583,13.1984344],[99.4322895,13.1952249],[99.4333064,13.1915379],[99.4380284,13.185848],[99.4424826,13.183455],[99.4592277,13.1864005],[99.4639439,13.1839877],[99.4692379,13.1927543],[99.4786569,13.2005054],[99.4813989,13.199028],[99.4863894,13.1912729],[99.4903568,13.1919086],[99.49445,13.1870497],[99.5001624,13.1849481],[99.5008648,13.1806317],[99.5066629,13.1803791],[99.5086925,13.183082],[99.509994,13.1907714],[99.5149305,13.1941759],[99.5138516,13.1991733],[99.5149002,13.2019328],[99.5225376,13.2100379],[99.5292982,13.2071457],[99.5314675,13.209278],[99.5345245,13.2071444],[99.5377171,13.2075494],[99.5388613,13.204327],[99.5445071,13.2026172],[99.5475644,13.2032145],[99.551077,13.2076784],[99.5571361,13.2039605],[99.5602314,13.2055565],[99.5641168,13.2051093],[99.57162,13.201827],[99.5743484,13.1984769],[99.5786118,13.1977132],[99.5856008,13.200303],[99.5942707,13.1985174],[99.5973807,13.2033337],[99.6026057,13.2057003],[99.6130895,13.2034076],[99.6176057,13.2053618],[99.6222146,13.2038763],[99.6271378,13.2057185],[99.6367316,13.2016533],[99.6383578,13.2102329],[99.6525409,13.21366],[99.6585361,13.2134377],[99.6606097,13.2114443],[99.6616202,13.2114774],[99.6646115,13.2149386],[99.6624306,13.2180667],[99.6651907,13.2229831],[99.663568,13.2300473],[99.6657779,13.2303915],[99.6645612,13.2329369],[99.6679122,13.237718],[99.6654518,13.2429537],[99.666394,13.2509118],[99.6644819,13.2540587],[99.667168,13.2550732],[99.6690381,13.259375],[99.6673759,13.2619245],[99.6679569,13.2694159],[99.6598546,13.2723003],[99.6608999,13.2788978],[99.6642423,13.2793089],[99.6636629,13.2819321],[99.6662975,13.2868568],[99.6842305,13.2916368],[99.6851971,13.2965766],[99.6943001,13.3057672],[99.6993367,13.3169155],[99.7056912,13.321012],[99.7282125,13.327733],[99.7304814,13.3288714],[99.7306491,13.3313707],[99.7377552,13.3328833],[99.7461945,13.3390579],[99.7504571,13.337556],[99.7537569,13.3412544],[99.7559217,13.3409324],[99.7571664,13.3434165],[99.7617253,13.3425314],[99.7625749,13.3405915],[99.7657172,13.3410665],[99.7656675,13.3385582],[99.7716023,13.3409676],[99.773121,13.3376229],[99.7751198,13.3385762],[99.7820095,13.3322525],[99.7827509,13.334303],[99.7877465,13.3320224],[99.788259,13.3335539],[99.7893121,13.3323573],[99.7945238,13.3330085],[99.8036459,13.3293001],[99.8052739,13.3306633],[99.8036709,13.3358015],[99.8073992,13.3367957],[99.8087732,13.3394963],[99.8113976,13.3401633],[99.8127368,13.3378198],[99.8151918,13.3372281],[99.82355,13.3399601],[99.8264718,13.3387977],[99.8289777,13.3397182],[99.8361637,13.3337789],[99.8468839,13.3317437],[99.8505212,13.3295565],[99.852348,13.3309525],[99.8568989,13.3295637],[99.8696738,13.3826211],[99.8914073,13.4325293],[99.8909277,13.449235],[99.8874945,13.4549966],[99.8911989,13.4651393],[99.8892365,13.4700861],[99.8954091,13.4746995],[99.8965204,13.4775142],[99.8954245,13.4815695],[99.8999684,13.4889994],[99.9130485,13.4965986],[99.9146317,13.4994338],[99.9190755,13.5006572],[99.913208,13.5108063],[99.9253318,13.5151994],[99.9341388,13.5023879],[99.9560929,13.5017771],[99.9566756,13.4989302],[99.9551833,13.4974394],[99.9606883,13.4974601],[99.9665698,13.4855042],[99.9682581,13.4863151],[99.9684823,13.4905487],[99.9738895,13.4900825],[99.9898326,13.5013601],[99.9889571,13.5042444],[99.9903216,13.5050755],[99.9916754,13.5025405],[99.9933017,13.5036692],[99.995786,13.5019629],[99.9964889,13.5030707],[99.9990923,13.5009265],[100.0085996,13.5162492],[100.0116642,13.5122593],[100.024286,13.5067037],[100.0291313,13.5087752],[100.0269136,13.518212],[100.0327822,13.523245],[100.0290208,13.528757],[100.038787,13.5351881],[100.0409261,13.5401179],[100.0439348,13.5414032],[100.0415705,13.5481945],[100.0417433,13.5500298],[100.0447347,13.5507006],[100.0386513,13.5609387],[100.0384246,13.5644626],[100.0396145,13.5648752],[100.0378189,13.570302],[100.0392343,13.5706233],[100.0382827,13.5738224],[100.0404084,13.5743132],[100.036997,13.5843146],[100.0407873,13.584999],[100.0402652,13.5930172],[100.0432696,13.5945115],[100.0391246,13.6027336],[100.0449702,13.6056194],[100.0468938,13.6082249],[100.0461883,13.6095338],[100.0543324,13.6123601],[100.0532607,13.6146613],[100.0628811,13.6231831],[100.0618633,13.6245324],[100.0679288,13.6285391],[100.0714412,13.6342299],[100.0703878,13.6527991],[100.0644317,13.6639207],[100.0628392,13.6645204],[100.0635951,13.6733852],[100.0656722,13.6762457],[100.0609772,13.6776801],[100.0624739,13.6800569],[100.0615593,13.6833771],[100.0577159,13.6875902],[100.0560093,13.6863006],[100.0327329,13.692148],[100.0334274,13.6946734],[100.0218758,13.7002187],[100.0237244,13.7026893],[100.0220771,13.7118234],[100.0237407,13.721443],[100.0229537,13.735334],[100.025179,13.7415046],[100.0231283,13.7510811],[100.0196911,13.7469909],[100.0109055,13.7451995],[100.0084699,13.742041],[100.0050052,13.7419535],[99.9999899,13.737242],[99.9975876,13.7378599],[99.9974856,13.7392221],[99.9931945,13.7377174],[99.9929516,13.7390861],[99.9892107,13.7374135],[99.98946,13.7345191],[99.9756305,13.7315215],[99.9761161,13.7296834],[99.9744841,13.7291862],[99.9739035,13.7313569],[99.9675921,13.7288734],[99.9632497,13.7294711],[99.962783,13.7240358],[99.9607606,13.7233583],[99.9563586,13.7286915],[99.9528369,13.7284461],[99.9504236,13.7393787],[99.9467287,13.7396881],[99.9441895,13.7451566],[99.940847,13.7439897],[99.9396084,13.7451179],[99.9400326,13.7517024],[99.937192,13.7536398],[99.9431278,13.7653148],[99.9452584,13.76543],[99.9457189,13.7720766],[99.9484311,13.773305],[99.9488114,13.7767765],[99.944337,13.7778694],[99.9449224,13.7792878],[99.9480008,13.7811963],[99.9491162,13.7801939],[99.9546923,13.7817201],[99.9538294,13.7876231],[99.9567924,13.7885595],[99.9548669,13.7902753],[99.9585638,13.7919051],[99.9601188,13.801081],[99.966792,13.797221],[99.9697623,13.7984436],[99.9708001,13.8010094],[99.9706592,13.8036325],[99.9686499,13.8053071],[99.9706723,13.808365],[99.969978,13.8104643],[99.9658644,13.8130068],[99.9627456,13.8127897],[99.9634837,13.8209216],[99.9608017,13.8239116],[99.9642268,13.8269094],[99.9623628,13.8324386],[99.9579157,13.8362046],[99.9539728,13.8325532],[99.9418171,13.8299488],[99.9354656,13.8342878],[99.9379627,13.8372701],[99.9372734,13.8410487],[99.9328156,13.8431947],[99.9265997,13.8427253],[99.9204424,13.8457276],[99.9136016,13.8433417],[99.9101978,13.8472959],[99.9081737,13.8469689],[99.9044835,13.8426936],[99.904943,13.8411055],[99.9002353,13.8415573]]]}}]}