{"type":"FeatureCollection","features":[{"type":"Feature","properties":{"provinceCode":"96","nameTh":"นราธิวาส","nameEn":"Narathiwat"},"geometry":{"type":"Polygon","coordinates":[[[101.69131,5.755099],[101.699077,5.752515],[101.703222,5.753275],[101.707695,5.755859],[101.71055,5.762751],[101.714419,5.763435],[101.717547,5.775648],[101.718069,5.78781],[101.720731,5.787633],[101.722625,5.78031],[101.725836,5.782236],[101.727153,5.785378],[101.739229,5.782464],[101.744664,5.790825],[101.744691,5.794043],[101.746805,5.794449],[101.748341,5.792928],[101.749851,5.795285],[101.754056,5.796998],[101.761,5.795243],[101.765736,5.789606],[101.776144,5.784474],[101.776595,5.781128],[101.774162,5.773453],[101.775419,5.769035],[101.789709,5.753447],[101.793124,5.750636],[101.79894,5.750517],[101.803805,5.744612],[101.809315,5.743437],[101.812183,5.740938],[101.815953,5.733174],[101.825523,5.733814],[101.82686,5.738409],[101.824734,5.743214],[101.824605,5.751484],[101.822913,5.753804],[101.819579,5.753462],[101.81866,5.755485],[101.821979,5.759204],[101.8272126,5.7714909],[101.8362628,5.785918],[101.8364232,5.78934],[101.8399582,5.7910975],[101.8408187,5.789928],[101.8427118,5.7910163],[101.8438206,5.7888638],[101.8440049,5.790292],[101.8556201,5.7912544],[101.8571589,5.7942305],[101.8578705,5.791993],[101.8664311,5.7906786],[101.8669842,5.7928358],[101.8636582,5.7944812],[101.8633959,5.7984646],[101.8609365,5.8000038],[101.8641159,5.803046],[101.8667418,5.8035867],[101.8679051,5.8019687],[101.8698769,5.8046489],[101.8736639,5.8032449],[101.8759082,5.8051498],[101.875481,5.8066537],[101.8769374,5.8059313],[101.8763138,5.8078329],[101.8783896,5.8105702],[101.8809818,5.8101814],[101.8787429,5.813965],[101.8799065,5.816151],[101.8767073,5.8199369],[101.8804817,5.8326508],[101.8849715,5.8350562],[101.8842974,5.8377255],[101.8868848,5.8390136],[101.8892381,5.8373448],[101.8917371,5.8380284],[101.8955078,5.8457088],[101.8972995,5.8425156],[101.8997566,5.8441516],[101.9056544,5.840861],[101.9171624,5.8427438],[101.9170641,5.8456379],[101.9205895,5.8454606],[101.9234983,5.8492909],[101.9262226,5.8494166],[101.9298807,5.8532182],[101.9272571,5.8552262],[101.9308244,5.8613534],[101.936518,5.86345],[101.9379834,5.861163],[101.9418295,5.8677146],[101.9406922,5.8706721],[101.9439863,5.8719906],[101.9395478,5.8789113],[101.9411381,5.8848038],[101.9391033,5.8876754],[101.9408641,5.88919],[101.9368262,5.8878163],[101.9389478,5.8917004],[101.9346596,5.8974749],[101.935818,5.8990873],[101.9337548,5.9000265],[101.9346969,5.9019739],[101.9325737,5.9046532],[101.9334606,5.9064836],[101.9313092,5.9065145],[101.9306272,5.904688],[101.9300907,5.9100471],[101.9269436,5.910701],[101.9261695,5.9083465],[101.9244189,5.9102252],[101.9221916,5.9099429],[101.9214114,5.9181525],[101.9244971,5.9199535],[101.9235641,5.923882],[101.9259622,5.9248925],[101.9281046,5.9234215],[101.9296866,5.9308358],[101.9312491,5.9321033],[101.9292172,5.9351128],[101.93188,5.9364614],[101.9290415,5.9372409],[101.9320114,5.9411791],[101.9302253,5.9427891],[101.9323224,5.9449792],[101.9308136,5.9456106],[101.9294831,5.9439584],[101.9297047,5.9492726],[101.9351396,5.9494595],[101.937029,5.9479944],[101.9445986,5.9550175],[101.9444647,5.9579864],[101.9412841,5.9591894],[101.9427804,5.9656684],[101.9398029,5.9728314],[101.9466596,5.9771233],[101.9455741,5.978531],[101.9439218,5.977402],[101.9426496,5.9810941],[101.9462477,5.9874161],[101.9474744,5.9833105],[101.9492514,5.9842366],[101.9481446,5.9908325],[101.9506035,5.9903999],[101.9504172,5.9875944],[101.9519647,5.9869425],[101.9526423,5.9908752],[101.9559977,5.9924904],[101.954353,5.9956287],[101.9583514,5.9931068],[101.9595025,5.9971853],[101.9632745,5.9960417],[101.9653848,5.9985259],[101.9650161,6.0008004],[101.9675473,6.0010085],[101.9684581,6.0039075],[101.9722658,6.0055277],[101.971062,6.0192947],[101.9758333,6.0231064],[101.9780478,6.0309646],[101.9807138,6.0285794],[101.9840307,6.0296964],[101.9839195,6.0319842],[101.9914364,6.040555],[101.9990262,6.0397122],[102.0042284,6.0444341],[102.0034497,6.0503364],[102.0116782,6.0514085],[102.0159767,6.0542459],[102.0201183,6.0524307],[102.0224526,6.0617766],[102.029588,6.0655527],[102.0319213,6.0713524],[102.0342564,6.0694113],[102.0392349,6.0731354],[102.0440714,6.0744013],[102.043594,6.0763048],[102.053897,6.0800378],[102.057154,6.0852626],[102.0583181,6.0912401],[102.0613077,6.0910187],[102.0590147,6.0968508],[102.061201,6.0962864],[102.0613351,6.1029764],[102.0652528,6.1073771],[102.0670327,6.1071793],[102.0675342,6.1099923],[102.0704242,6.1088146],[102.071785,6.1149984],[102.0747526,6.1156991],[102.0729123,6.1184021],[102.0756736,6.1177682],[102.0743023,6.1194781],[102.0760807,6.1215516],[102.0759917,6.1245495],[102.0782331,6.1238074],[102.0794806,6.1256311],[102.0774224,6.1277537],[102.080237,6.1275612],[102.0803182,6.1297214],[102.0820808,6.1290962],[102.0828846,6.1367063],[102.0857693,6.1364716],[102.0868013,6.1387028],[102.0891647,6.1381686],[102.087413,6.1409869],[102.092832,6.1456029],[102.0932536,6.1484257],[102.0903353,6.150686],[102.0915267,6.1543039],[102.0893797,6.1584677],[102.0845395,6.1583409],[102.0854171,6.1662064],[102.0827055,6.1683627],[102.0822939,6.1714303],[102.0794758,6.1702163],[102.078351,6.171912],[102.0806632,6.1812844],[102.0774498,6.1904273],[102.0776277,6.1979328],[102.0801849,6.2021044],[102.0792311,6.2106075],[102.0812852,6.2201222],[102.0802925,6.2253713],[102.091593,6.2361881],[102.0904053,6.2419205],[102.0919706,6.2473392],[102.1666667,6.4583333],[102.16,6.4633333],[102.2559967,6.6536564],[102.2292838,6.9703901],[101.7254294,6.5770324],[101.7153037,6.5712564],[101.7046663,6.5680519],[101.6878635,6.5728131],[101.6688873,6.5739771],[101.6656961,6.5778837],[101.665324,6.5849701],[101.6597172,6.5878268],[101.6613374,6.5930777],[101.6563958,6.5955101],[101.652507,6.6011183],[101.646809,6.6178559],[101.6428314,6.6203808],[101.6382677,6.6185],[101.6336057,6.6219355],[101.6311853,6.6353412],[101.6298937,6.6341758],[101.630456,6.6274734],[101.6268395,6.6245234],[101.6228253,6.6268392],[101.6270531,6.6305457],[101.6264008,6.6327448],[101.6242375,6.6333884],[101.6199792,6.6293069],[101.6149558,6.6294814],[101.6134153,6.6331143],[101.6055703,6.631627],[101.5994334,6.6235958],[101.5870718,6.6264305],[101.584289,6.625562],[101.5763881,6.6183547],[101.5769006,6.6091149],[101.5738701,6.5999295],[101.5776996,6.5937994],[101.5892159,6.5892206],[101.5966932,6.5806824],[101.5967839,6.5781352],[101.5939036,6.5740433],[101.5945281,6.5677909],[101.5924315,6.5656024],[101.597085,6.5610575],[101.5984376,6.5512254],[101.6089762,6.5437119],[101.6049523,6.539574],[101.6023009,6.5337029],[101.597821,6.5294399],[101.5950823,6.5294131],[101.5909153,6.5228849],[101.5921821,6.5188544],[101.5907626,6.5120823],[101.5819948,6.5119431],[101.5787692,6.5046012],[101.5737116,6.4986585],[101.5686425,6.4984799],[101.5634334,6.494868],[101.5615169,6.4876828],[101.5522909,6.4817608],[101.5470697,6.4833586],[101.54589,6.4811187],[101.5427018,6.4804471],[101.5427591,6.4781551],[101.5375621,6.4728131],[101.5357827,6.4684271],[101.5288274,6.4658248],[101.5235101,6.4656754],[101.5143374,6.4589086],[101.5076161,6.4512946],[101.5027687,6.4543799],[101.4939134,6.4567981],[101.4867064,6.462899],[101.4630107,6.4658047],[101.4653103,6.4621158],[101.4626611,6.4544345],[101.4659495,6.4506944],[101.4643904,6.4430986],[101.4675725,6.4383759],[101.4698146,6.4289186],[101.4686396,6.4253142],[101.4661042,6.4233262],[101.4638696,6.4236527],[101.4568839,6.4317923],[101.4428177,6.4282281],[101.4342439,6.4289796],[101.4236699,6.4211207],[101.4223356,6.4172055],[101.4251109,6.4142973],[101.4219484,6.4104303],[101.4219316,6.4068772],[101.4186341,6.4012907],[101.4119384,6.3972701],[101.4119317,6.3958449],[101.4194085,6.3908895],[101.4197715,6.3828279],[101.4170086,6.3726885],[101.3976632,6.3583963],[101.3973679,6.3494992],[101.3934437,6.3435006],[101.3890733,6.3404103],[101.3876515,6.3365777],[101.3896427,6.326459],[101.3997567,6.3177857],[101.3993972,6.3092465],[101.3936279,6.2999486],[101.3954752,6.2938973],[101.3949889,6.2860869],[101.3991779,6.2827624],[101.3997528,6.2771254],[101.4027312,6.2717784],[101.4001556,6.2666818],[101.4007918,6.2580403],[101.3967958,6.253637],[101.3971598,6.2502753],[101.3950399,6.2457787],[101.3973937,6.2429802],[101.4018913,6.2417756],[101.4033299,6.23921],[101.3976053,6.2307963],[101.3945165,6.2228666],[101.3779551,6.214692],[101.3711341,6.2084593],[101.3837163,6.1889257],[101.3835134,6.186215],[101.3860876,6.1816203],[101.3867492,6.1673725],[101.3939059,6.1598558],[101.3986498,6.1578167],[101.411603,6.1573753],[101.411112,6.1514963],[101.4155562,6.1429959],[101.422841,6.1441091],[101.4260218,6.1425751],[101.4300582,6.1289591],[101.4352955,6.1290495],[101.4376201,6.1228099],[101.4361462,6.1157519],[101.4394008,6.1138764],[101.4411302,6.1102979],[101.4379163,6.1044636],[101.4372751,6.096946],[101.4465427,6.0820914],[101.4525594,6.0785698],[101.4597636,6.0774733],[101.466758,6.0802523],[101.4756469,6.0653471],[101.4784778,6.0474429],[101.4778156,6.0422594],[101.4740467,6.0395035],[101.4780109,6.0351941],[101.4793512,6.0295285],[101.4772464,6.0255122],[101.4776032,6.020573],[101.4823852,6.0126135],[101.4776572,6.0073178],[101.4780178,5.9980894],[101.4728172,5.9886851],[101.4754143,5.9888123],[101.4766057,5.980471],[101.4789071,5.9764748],[101.4841083,5.9782883],[101.4833892,5.9724688],[101.4856726,5.9682473],[101.4846062,5.9620825],[101.48619,5.9563391],[101.49096,5.9546884],[101.4920783,5.9493114],[101.4961364,5.951199],[101.4971639,5.9487337],[101.4946922,5.9418303],[101.4900674,5.9371028],[101.4924377,5.9232143],[101.4900415,5.9143317],[101.492146,5.906075],[101.4898979,5.9003725],[101.493519,5.8983533],[101.4987154,5.9005556],[101.5005212,5.8925088],[101.5027796,5.8897614],[101.508141,5.893671],[101.508525,5.896559],[101.512093,5.899017],[101.51374,5.903198],[101.515908,5.903578],[101.518021,5.900259],[101.520958,5.900842],[101.523977,5.898764],[101.525733,5.902235],[101.524773,5.905605],[101.526749,5.909076],[101.533336,5.914144],[101.537425,5.915234],[101.540471,5.919009],[101.554166,5.920706],[101.559134,5.919034],[101.573927,5.9259],[101.575491,5.930284],[101.581309,5.934363],[101.587704,5.930461],[101.589818,5.918452],[101.597668,5.914068],[101.598162,5.911864],[101.608618,5.91498],[101.615287,5.911078],[101.615891,5.900411],[101.618635,5.895369],[101.622121,5.895622],[101.623329,5.892531],[101.621874,5.885233],[101.623987,5.881484],[101.623328,5.877125],[101.631727,5.875428],[101.639082,5.870436],[101.64254,5.870208],[101.648578,5.875022],[101.654588,5.87748],[101.659089,5.874972],[101.659282,5.871323],[101.662355,5.868714],[101.663289,5.865926],[101.660133,5.864153],[101.656373,5.857337],[101.661807,5.847861],[101.657416,5.837903],[101.659007,5.835673],[101.659748,5.827919],[101.658102,5.822523],[101.658266,5.812515],[101.66038,5.812109],[101.663097,5.814896],[101.664853,5.813959],[101.668174,5.807979],[101.66477,5.801341],[101.670589,5.795614],[101.669546,5.790926],[101.67273,5.786948],[101.674596,5.786847],[101.678384,5.781678],[101.684998,5.783401],[101.687852,5.781855],[101.690871,5.769187],[101.688044,5.764474],[101.691401,5.759292],[101.69131,5.755099]]]}}]}