{"type":"FeatureCollection","features":[{"type":"Feature","properties":{"id":"TH-LAO-5961101","nameTh":"ปะลุรู","type":"subdistrict_municipality"},"geometry":{"type":"Polygon","coordinates":[[[101.8846217,6.1025097],[101.8899329,6.0996921],[101.9008873,6.0954345],[101.8910968,6.0702725],[101.8740447,6.0762728],[101.8846217,6.1025097]]]}},{"type":"Feature","properties":{"id":"TH-LAO-4960201","nameTh":"ตากใบ","type":"town_municipality"},"geometry":{"type":"Polygon","coordinates":[[[102.0443369,6.2675565],[102.0365859,6.2479914],[102.0382623,6.2470995],[102.0400645,6.2470979],[102.041864,6.2461533],[102.0426345,6.2452476],[102.0441792,6.2418006],[102.0449439,6.2408712],[102.0463336,6.2407527],[102.04928,6.2429695],[102.0528053,6.2438993],[102.05557,6.2451381],[102.0565957,6.2449557],[102.0579368,6.2440193],[102.0598947,6.2390462],[102.0621978,6.2363212],[102.0640172,6.2355996],[102.0654393,6.2360736],[102.0683173,6.2378051],[102.0695361,6.2380909],[102.0706326,6.2377368],[102.0727698,6.2361647],[102.0737375,6.2344433],[102.0744971,6.2314336],[102.0751473,6.2308619],[102.0770055,6.230335],[102.0832157,6.2312071],[102.0882227,6.2338205],[102.0902318,6.2360956],[102.0908724,6.237863],[102.0895585,6.239622],[102.0898001,6.2397803],[102.0895651,6.2404491],[102.0882119,6.2428262],[102.086141,6.2429525],[102.0840654,6.2447591],[102.0828002,6.2452509],[102.0750088,6.2468307],[102.0731661,6.2466107],[102.0700324,6.248886],[102.0673756,6.2517996],[102.0665237,6.2520726],[102.0658194,6.2528345],[102.0549838,6.2598822],[102.0483261,6.2650719],[102.0443369,6.2675565]]]}}]}