{"type":"FeatureCollection","features":[{"type":"Feature","properties":{"provinceCode":"15","nameTh":"อ่างทอง","nameEn":"Ang Thong"},"geometry":{"type":"Polygon","coordinates":[[[100.4050216,14.7574579],[100.3995401,14.7541441],[100.3988579,14.7520785],[100.393418,14.7524564],[100.3932017,14.7507504],[100.3923599,14.7522049],[100.3887185,14.7518836],[100.3869227,14.7456917],[100.3814577,14.7445535],[100.3784112,14.7463369],[100.3757116,14.7456272],[100.373596,14.7484167],[100.3709819,14.7489652],[100.3711727,14.7552031],[100.3613753,14.7602246],[100.3600957,14.7637232],[100.3563648,14.7606305],[100.3518152,14.7634438],[100.3502075,14.767031],[100.3511198,14.7677343],[100.3453612,14.773771],[100.347021,14.7749924],[100.345768,14.7765866],[100.3498068,14.7783478],[100.3495251,14.7801677],[100.3431615,14.781829],[100.3422637,14.7868617],[100.3356406,14.7903088],[100.3365818,14.7944276],[100.3312149,14.8010783],[100.3282377,14.8024372],[100.3110769,14.7976916],[100.3097057,14.7956036],[100.3142036,14.7928945],[100.3143276,14.7898452],[100.3040111,14.7881482],[100.2993447,14.789827],[100.297394,14.7883994],[100.2954122,14.7807977],[100.2902915,14.7850825],[100.2778211,14.7903557],[100.272457,14.7994936],[100.2663012,14.7957062],[100.2551213,14.7956809],[100.236293,14.7994824],[100.2361834,14.8005825],[100.2321587,14.8003071],[100.2313148,14.798081],[100.2258171,14.7970976],[100.2271073,14.7911431],[100.2301762,14.7869585],[100.2254948,14.7848456],[100.2194594,14.784816],[100.2201954,14.7794046],[100.2178454,14.7791582],[100.2180719,14.7769407],[100.2118493,14.778002],[100.2128211,14.7745045],[100.2114464,14.7737],[100.2089965,14.7750829],[100.2058141,14.7726713],[100.2066706,14.7708267],[100.2024248,14.7700869],[100.2024784,14.7666965],[100.2043407,14.765149],[100.2035091,14.7587773],[100.2015838,14.758305],[100.2047442,14.7519208],[100.2014715,14.7503443],[100.2022198,14.7469988],[100.2047395,14.7470945],[100.2066879,14.7366345],[100.2091542,14.7369418],[100.2131081,14.7278178],[100.2131223,14.7228545],[100.2104127,14.7215478],[100.2103732,14.7200515],[100.2073097,14.7198211],[100.2066606,14.7221543],[100.2048767,14.7216447],[100.2063992,14.7182433],[100.2043089,14.7173581],[100.2047758,14.7144143],[100.2073415,14.7151011],[100.2120168,14.7129576],[100.2143149,14.708507],[100.2132502,14.7051418],[100.2155478,14.6967627],[100.2215889,14.6913432],[100.2214033,14.6893558],[100.223602,14.6889592],[100.2217207,14.6818129],[100.2199301,14.6813138],[100.2232469,14.6769146],[100.2203057,14.6745502],[100.2210916,14.6714907],[100.2263154,14.6699406],[100.2260241,14.6671501],[100.2294432,14.6650892],[100.2287033,14.6606212],[100.2320712,14.66147],[100.2320677,14.6570571],[100.2347081,14.6563477],[100.2345079,14.6532625],[100.2374938,14.6542978],[100.2386043,14.6520671],[100.2451072,14.6535477],[100.2467907,14.6520355],[100.2462758,14.6495898],[100.2444722,14.6505483],[100.2417989,14.64439],[100.2385283,14.6452522],[100.2320444,14.6419777],[100.2313796,14.6432487],[100.2298076,14.6420325],[100.2205542,14.6421165],[100.2190119,14.643484],[100.2145996,14.642232],[100.2139945,14.636753],[100.2107271,14.6375132],[100.2087276,14.6346575],[100.2095922,14.6328516],[100.2084366,14.632393],[100.2109179,14.6291934],[100.2087802,14.6279142],[100.2104773,14.6246073],[100.207302,14.6229219],[100.2036327,14.6256885],[100.2000654,14.6184111],[100.1944648,14.6204736],[100.1916355,14.6171182],[100.1953274,14.6134655],[100.1950123,14.6121347],[100.1919801,14.611936],[100.1918029,14.6089882],[100.1981666,14.6059658],[100.2001265,14.5990142],[100.2035079,14.6013967],[100.2075817,14.601083],[100.2179658,14.5981184],[100.21878,14.5965644],[100.2062402,14.5834507],[100.2068057,14.5807417],[100.2101025,14.5793658],[100.2095797,14.573276],[100.2072943,14.5734219],[100.198434,14.5675993],[100.195863,14.5606241],[100.197068,14.5556868],[100.2082096,14.540227],[100.204867,14.5306973],[100.2064651,14.5235918],[100.2120495,14.5162229],[100.2249045,14.5086384],[100.2329225,14.5004832],[100.2301591,14.4946113],[100.2286364,14.4947979],[100.2291247,14.491254],[100.2312343,14.4902016],[100.2309491,14.4863371],[100.2285233,14.4856569],[100.2293321,14.4816804],[100.2370428,14.4804904],[100.2497519,14.4850668],[100.2531189,14.482934],[100.2573469,14.486705],[100.2616782,14.4860596],[100.267244,14.489092],[100.2683544,14.4849603],[100.271093,14.4894192],[100.2747077,14.4897508],[100.2753664,14.4918043],[100.292733,14.4864613],[100.2934137,14.4936556],[100.2957559,14.4922372],[100.3028219,14.4938516],[100.3035437,14.4921472],[100.3085151,14.4939793],[100.3147388,14.4868741],[100.3200728,14.4916149],[100.3263752,14.488691],[100.3273294,14.4874513],[100.3259962,14.4858876],[100.3282317,14.4835986],[100.3294945,14.4846564],[100.3311812,14.4834869],[100.3307475,14.4850331],[100.3356119,14.4859313],[100.3331619,14.491237],[100.3391191,14.4933457],[100.3396475,14.4961347],[100.3424048,14.4955945],[100.3461331,14.4970929],[100.3482923,14.500261],[100.3538311,14.5007128],[100.3556362,14.5025695],[100.359461,14.5022034],[100.359394,14.5033303],[100.3599599,14.5020891],[100.3595353,14.499443],[100.3710079,14.4992353],[100.3712694,14.5048559],[100.3857279,14.5119903],[100.3891772,14.5071839],[100.3910333,14.5079992],[100.3960651,14.5060024],[100.3983933,14.5089989],[100.4000388,14.5072033],[100.4011694,14.5084978],[100.4014993,14.5068463],[100.4034255,14.5067421],[100.4042485,14.5087756],[100.406912,14.5072072],[100.4108173,14.5082927],[100.4166001,14.4998039],[100.4203176,14.4992742],[100.4211706,14.496867],[100.4229167,14.4979239],[100.4228684,14.4958075],[100.4288498,14.4945961],[100.4229045,14.4923024],[100.4217312,14.4876377],[100.4166216,14.4835761],[100.4162836,14.4798416],[100.4192287,14.4793742],[100.4182041,14.4740139],[100.4215997,14.4714453],[100.4179895,14.4681162],[100.4183826,14.4624038],[100.4162647,14.4565079],[100.416157,14.4550144],[100.4191489,14.4549782],[100.4189375,14.4432331],[100.4260656,14.443774],[100.4278493,14.4432467],[100.4278976,14.4393142],[100.4361172,14.4412883],[100.4424977,14.4392038],[100.4433724,14.4374267],[100.4585686,14.4412311],[100.4593759,14.4389652],[100.4622672,14.4389369],[100.469386,14.4434312],[100.4783606,14.4441273],[100.477497,14.4515272],[100.4831296,14.4530701],[100.4837464,14.4556145],[100.4857076,14.4541472],[100.4878717,14.4559089],[100.4879254,14.4633708],[100.492748,14.4657134],[100.4925173,14.466851],[100.4895776,14.4666276],[100.4898244,14.468721],[100.4866218,14.4702117],[100.4853666,14.4743359],[100.4898512,14.4730218],[100.4904681,14.4782678],[100.487684,14.47886],[100.4913104,14.487778],[100.4902214,14.4944467],[100.4960847,14.4970436],[100.4977852,14.5020553],[100.495221,14.5026734],[100.4961756,14.5049437],[100.4920391,14.5076638],[100.4929882,14.5103202],[100.491207,14.5135874],[100.492554,14.5162214],[100.491187,14.5204863],[100.4934038,14.5223039],[100.494992,14.5281585],[100.4919953,14.5367574],[100.4934136,14.5411329],[100.4890303,14.5448253],[100.4909,14.5499498],[100.4892772,14.5602409],[100.4866165,14.5622866],[100.4798838,14.5631428],[100.4788456,14.5660562],[100.4807193,14.5681487],[100.4847875,14.5680832],[100.4852861,14.571087],[100.4880931,14.5716052],[100.4888023,14.5750462],[100.4928356,14.5789338],[100.4916027,14.5822124],[100.4922276,14.5883748],[100.4958728,14.5956172],[100.4919675,14.5974809],[100.4928902,14.6063889],[100.4916322,14.6105002],[100.4873836,14.6128465],[100.4876625,14.6148657],[100.4935138,14.6207819],[100.4893389,14.6249669],[100.4928969,14.6257143],[100.4927802,14.6277231],[100.5010629,14.6298356],[100.5014867,14.6288702],[100.5020606,14.6331212],[100.4987508,14.6354516],[100.5018544,14.6380854],[100.5011221,14.6428286],[100.5030316,14.6428115],[100.5027213,14.649054],[100.5082834,14.6514529],[100.5065361,14.6551909],[100.5037747,14.6554938],[100.5046946,14.6584489],[100.5028278,14.6638826],[100.5032515,14.67001],[100.4960927,14.6768963],[100.4980959,14.6812757],[100.5042553,14.684898],[100.5000789,14.6893077],[100.4953576,14.7005252],[100.4890089,14.6986348],[100.484991,14.699789],[100.475102,14.7033835],[100.4746254,14.7074798],[100.4686965,14.7090687],[100.4680037,14.7152944],[100.4700563,14.7186361],[100.4682373,14.7240224],[100.4650309,14.7251951],[100.4635817,14.7219916],[100.4614735,14.7234676],[100.4593974,14.722072],[100.4555806,14.7258646],[100.4508841,14.7237115],[100.4455545,14.7241737],[100.4459193,14.7256519],[100.4445408,14.7250654],[100.4430254,14.726727],[100.4376608,14.7267155],[100.4375891,14.7278117],[100.4320604,14.7267207],[100.4308853,14.7284324],[100.4283348,14.7270345],[100.4226925,14.7286079],[100.416299,14.7254798],[100.4149107,14.7275994],[100.4162393,14.734297],[100.4132718,14.737972],[100.4166254,14.7425947],[100.4149088,14.7472218],[100.4167545,14.7515791],[100.4082658,14.7547],[100.4050216,14.7574579]]]}}]}