{"type":"FeatureCollection","features":[{"type":"Feature","properties":{"id":"TH-LAO-4150102","nameTh":"อ่างทอง","type":"town_municipality"},"geometry":{"type":"Polygon","coordinates":[[[100.4628521,14.5808086],[100.4620796,14.5788513],[100.4602396,14.5775742],[100.445863,14.5758298],[100.4445111,14.5760478],[100.4435563,14.5768993],[100.4420113,14.5833266],[100.4397368,14.5829813],[100.4385352,14.5845725],[100.4393586,14.5861092],[100.440174,14.5868853],[100.4428428,14.5879133],[100.4446774,14.5891566],[100.4462492,14.5912046],[100.4472363,14.5932734],[100.4486632,14.5935278],[100.4483789,14.5985737],[100.449087,14.601813],[100.446673,14.6060801],[100.445407,14.607409],[100.4589736,14.6078347],[100.4578149,14.6003855],[100.4574333,14.5955342],[100.4579329,14.5954953],[100.4580724,14.5950177],[100.4596388,14.5951111],[100.4599767,14.5943688],[100.462085,14.5933669],[100.4626643,14.5916018],[100.4627394,14.5901378],[100.4648155,14.591498],[100.466001,14.591716],[100.4655504,14.5877913],[100.4642093,14.5865142],[100.4624068,14.5859094],[100.4628521,14.5808086]]]}}]}