{"type":"FeatureCollection","features":[{"type":"Feature","properties":{"provinceCode":"38","nameTh":"บึงกาฬ","nameEn":"Bueng Kan"},"geometry":{"type":"Polygon","coordinates":[[[103.4990907,17.9978939],[103.4971293,17.9971632],[103.4985503,17.9951041],[103.4941783,17.9938751],[103.4982714,17.9904267],[103.491807,17.9876919],[103.4867036,17.9942982],[103.481798,17.997149],[103.4791538,18.0027084],[103.4728129,18.0056594],[103.4712021,18.0044245],[103.473238,17.9986313],[103.4685786,18.0005586],[103.4669802,17.9917525],[103.4641035,17.9889648],[103.454653,17.9907285],[103.4512872,17.993667],[103.4478459,17.9938805],[103.4436681,17.9910458],[103.4378036,17.9811121],[103.4440411,17.9798185],[103.4465341,17.9752414],[103.4506932,17.9784426],[103.4513818,17.9756839],[103.4461909,17.9671823],[103.4418623,17.9676541],[103.4382709,17.9700541],[103.4392983,17.9750415],[103.4299009,17.9768458],[103.4261778,17.976054],[103.4258163,17.9790986],[103.4302779,17.981456],[103.4298724,17.9831499],[103.4095884,17.9866112],[103.4072096,17.9934786],[103.4019774,17.9919802],[103.4013004,17.9931916],[103.3994242,17.9915256],[103.4026155,17.9998182],[103.4072563,18.0032836],[103.4061652,18.0063002],[103.3960654,18.0096047],[103.3931827,18.017493],[103.3911384,18.0182772],[103.392996,18.0223834],[103.3909484,18.0254948],[103.3885308,18.0267992],[103.384723,18.0257634],[103.3808635,18.0300956],[103.3746355,18.033618],[103.3644622,18.0321819],[103.3543441,18.0285483],[103.3534738,18.0269609],[103.3528153,18.029615],[103.3562427,18.0318685],[103.3549988,18.0336846],[103.3565622,18.034684],[103.354081,18.0369214],[103.3527698,18.0429211],[103.3503154,18.0435874],[103.3513858,18.0447883],[103.3497441,18.04527],[103.3503102,18.0472321],[103.3423866,18.0500822],[103.3402112,18.048962],[103.3345752,18.0521269],[103.3316315,18.0510373],[103.3268788,18.0543311],[103.3136254,18.0569406],[103.3089311,18.0702978],[103.3000881,18.0805463],[103.3010636,18.0908372],[103.3084343,18.0977409],[103.3136811,18.0998028],[103.3139435,18.1028028],[103.3128934,18.1038044],[103.3128379,18.1021192],[103.3111858,18.1019376],[103.3091336,18.1056172],[103.3039048,18.1079998],[103.3030332,18.1068095],[103.3044676,18.1057479],[103.3003882,18.1030443],[103.2994043,18.1061835],[103.2954956,18.1040431],[103.2955779,18.1059068],[103.2920834,18.1087233],[103.2947427,18.1196706],[103.3046722,18.1226188],[103.3071774,18.1259502],[103.3117627,18.1239257],[103.314232,18.1254792],[103.3143599,18.1237947],[103.3171004,18.1230665],[103.3216885,18.1282933],[103.3206928,18.1299007],[103.3226011,18.130589],[103.3217747,18.1320811],[103.3233651,18.1337168],[103.3281076,18.1324832],[103.3368285,18.1369079],[103.3357148,18.1381828],[103.3369247,18.1444423],[103.3356251,18.1520963],[103.344388,18.1531317],[103.3495428,18.1590617],[103.3650383,18.1612341],[103.3667412,18.1629637],[103.3659478,18.1649217],[103.3641043,18.1645925],[103.3638262,18.1695508],[103.3606104,18.1723876],[103.3476321,18.1728077],[103.3424794,18.1755175],[103.3406131,18.1945091],[103.329118,18.2107131],[103.3134448,18.2195778],[103.2845936,18.2309578],[103.2810484,18.2354688],[103.2737229,18.2365379],[103.2705083,18.2354058],[103.2691455,18.2390533],[103.2612639,18.2444996],[103.2651897,18.2494941],[103.262934,18.2511589],[103.2606502,18.248302],[103.2592786,18.2491094],[103.2585823,18.2543763],[103.2612401,18.2594142],[103.2578673,18.2612488],[103.2590129,18.2635464],[103.2618248,18.2627224],[103.2610229,18.2655812],[103.2648887,18.2628774],[103.2626036,18.2613501],[103.2665601,18.2601337],[103.2692396,18.260872],[103.2694651,18.2635307],[103.2725606,18.2640375],[103.273255,18.2619194],[103.2749591,18.2629547],[103.2728234,18.2655254],[103.27555,18.2691275],[103.2769102,18.2685045],[103.2776554,18.2639826],[103.2807556,18.2668965],[103.2812756,18.2698057],[103.283653,18.2693487],[103.285947,18.264779],[103.2871382,18.2659587],[103.2849364,18.2706377],[103.286207,18.2731211],[103.2881714,18.2724716],[103.2894391,18.2695243],[103.2912284,18.2708289],[103.2914279,18.2739837],[103.2947385,18.2719106],[103.2953616,18.2770867],[103.2915844,18.2755126],[103.2918459,18.2778731],[103.2896393,18.2779074],[103.2927805,18.2791684],[103.2943702,18.2776548],[103.2967384,18.2803761],[103.2960219,18.2827346],[103.2942929,18.2825836],[103.296674,18.2864076],[103.293613,18.2886061],[103.2967275,18.2893627],[103.2963717,18.2875399],[103.2985004,18.2884983],[103.2963329,18.2945968],[103.2946956,18.2945813],[103.2989438,18.2972526],[103.2981144,18.298234],[103.3005635,18.3033541],[103.2985891,18.3052476],[103.297432,18.315363],[103.289345,18.324655],[103.276586,18.331459],[103.253225,18.336714],[103.244119,18.35173],[103.24388,18.363954],[103.248073,18.372417],[103.257897,18.378253],[103.28042,18.400378],[103.295515,18.424218],[103.306956,18.431519],[103.312827,18.433732],[103.348228,18.433953],[103.378598,18.440701],[103.400762,18.447947],[103.40783,18.448556],[103.427358,18.441918],[103.457189,18.424882],[103.46288,18.424661],[103.474441,18.427537],[103.482887,18.424163],[103.490135,18.423333],[103.524159,18.425614],[103.544328,18.420204],[103.571144,18.404961],[103.595537,18.405429],[103.607312,18.404077],[103.618241,18.399967],[103.628212,18.39284],[103.634522,18.390447],[103.6703136,18.3646155],[103.6899548,18.3470851],[103.6974835,18.343108],[103.7163652,18.3413256],[103.7463574,18.3436921],[103.748998,18.339934],[103.754324,18.339714],[103.775513,18.342914],[103.793929,18.342823],[103.818088,18.338251],[103.834128,18.327829],[103.843435,18.31064],[103.850563,18.290069],[103.858088,18.283761],[103.875613,18.288424],[103.889871,18.296469],[103.910763,18.318229],[103.9292039,18.3304476],[103.95314,18.339257],[103.962744,18.339348],[103.973041,18.33688],[103.989279,18.320789],[104.000071,18.301132],[104.018094,18.278367],[104.021856,18.271053],[104.06057,18.218574],[104.06255,18.214917],[104.061956,18.207328],[104.065917,18.197089],[104.076313,18.178529],[104.080471,18.175877],[104.0853369,18.1685623],[104.098195,18.130621],[104.105323,18.115444],[104.130076,18.086279],[104.1899816,18.0237398],[104.1801323,18.0185967],[104.1824277,18.0134835],[104.1806513,18.0144134],[104.1773687,18.0130629],[104.1760434,18.015683],[104.1741609,18.0157811],[104.1724821,18.0101737],[104.1726424,18.0026449],[104.1681555,18.0051111],[104.1440063,18.0034425],[104.1171063,18.0060478],[104.1121829,18.0052566],[104.1117135,17.9994535],[104.1144985,17.9964492],[104.1159226,17.9873132],[104.1128607,17.9793529],[104.1165895,17.9725582],[104.1174815,17.9667935],[104.1263497,17.9607946],[104.1269768,17.958159],[104.1345002,17.9547411],[104.1308787,17.9457205],[104.1307885,17.9400093],[104.1277851,17.9354744],[104.1231886,17.9211977],[104.1140553,17.9150521],[104.1007452,17.9089183],[104.0726493,17.8797459],[104.0691042,17.8783927],[104.068362,17.8799367],[104.0699592,17.8799842],[104.0701717,17.8822439],[104.0648362,17.8859884],[104.0671863,17.8863828],[104.066363,17.8915983],[104.0696816,17.8939667],[104.0687267,17.8968311],[104.0661559,17.8954507],[104.0613669,17.8957955],[104.0599405,17.9006813],[104.0626281,17.9016032],[104.0622695,17.9033327],[104.059497,17.9026402],[104.057539,17.9057623],[104.0523763,17.9046828],[104.0478999,17.9097022],[104.047284,17.9076489],[104.0447994,17.9070913],[104.0301649,17.9099038],[104.0266577,17.905207],[104.0243898,17.9054436],[104.0224252,17.9031059],[104.0197217,17.9036109],[104.0199043,17.9012978],[104.0180279,17.9003412],[104.0151058,17.9004528],[104.01582,17.899072],[104.0138523,17.8974456],[104.0153061,17.895387],[104.0128007,17.8929554],[104.0044073,17.8912666],[103.9980524,17.893291],[103.9966302,17.892498],[103.9986026,17.8896278],[103.9930018,17.886622],[103.9944391,17.8823849],[103.9920816,17.8815329],[103.9925109,17.8794947],[103.9891682,17.8755343],[103.9897517,17.8740372],[103.9863012,17.8745946],[103.9845099,17.8730576],[103.9848468,17.8709873],[103.9885134,17.8715539],[103.9866064,17.869398],[103.9853243,17.8705237],[103.9849034,17.8683927],[103.9886124,17.8649852],[103.9860173,17.8665166],[103.9839297,17.8658947],[103.9868296,17.8612406],[103.9815581,17.85837],[103.9843075,17.8567914],[103.9849226,17.8586544],[103.9900579,17.8532151],[103.9932697,17.8540182],[103.9944993,17.8513535],[103.9968488,17.8511702],[103.9993951,17.8484138],[104.0016631,17.8492502],[104.0026065,17.8475774],[103.9988904,17.8468866],[104.0006291,17.8456034],[103.9989662,17.844566],[104.0005312,17.8438564],[103.9977097,17.8414067],[104.0031001,17.8391295],[104.0047237,17.8332669],[104.009361,17.8328562],[104.007564,17.8311905],[104.0130828,17.830334],[104.0117348,17.8288075],[104.0132167,17.8277853],[104.0105493,17.8261123],[104.0145249,17.822117],[104.009301,17.8175679],[104.0136669,17.8183084],[104.0135796,17.8161648],[104.0148721,17.8159537],[104.0132528,17.8132144],[104.011725,17.8137911],[104.0122307,17.8108015],[104.0037321,17.809883],[104.0007185,17.807441],[103.9992452,17.8028245],[104.0009307,17.7949263],[104.0003715,17.7885158],[103.9974231,17.7875649],[103.9918332,17.7911869],[103.9870098,17.7889503],[103.987643,17.7823715],[103.9804456,17.7765113],[103.9795606,17.7708598],[103.9700906,17.7797282],[103.9705823,17.7814677],[103.9745153,17.7831625],[103.9732111,17.7850302],[103.9655252,17.7832428],[103.9590388,17.775064],[103.9540496,17.7772879],[103.9504912,17.7820375],[103.942328,17.7850083],[103.9386764,17.7901899],[103.9408258,17.7950306],[103.9348029,17.8065673],[103.9279623,17.8145431],[103.9227464,17.8154969],[103.9182753,17.8190757],[103.9178406,17.8216595],[103.9251848,17.8341131],[103.9211321,17.8489693],[103.9228032,17.8547506],[103.9153079,17.8593292],[103.9106318,17.8510265],[103.9058883,17.8511253],[103.9030398,17.8470253],[103.9007608,17.8476759],[103.9021251,17.8610346],[103.900574,17.8691761],[103.9019447,17.8726987],[103.9066776,17.8761306],[103.9070072,17.8786433],[103.9052557,17.8804812],[103.8870832,17.8790895],[103.8753569,17.8758861],[103.8720578,17.8729475],[103.8697371,17.8652245],[103.8661842,17.8641872],[103.863213,17.8656646],[103.8684483,17.8771096],[103.8679622,17.8798428],[103.8564576,17.8828987],[103.8490027,17.8818471],[103.8406167,17.8718057],[103.8360637,17.8702126],[103.8098835,17.871649],[103.803007,17.8736922],[103.7997315,17.8772713],[103.795888,17.8772296],[103.7935938,17.8751565],[103.7940004,17.8713205],[103.7988388,17.8686913],[103.8042637,17.8614857],[103.8091937,17.8604551],[103.8108286,17.8584435],[103.8072257,17.8500969],[103.8002768,17.8473725],[103.7960912,17.8421912],[103.7940125,17.8422884],[103.7870689,17.8502141],[103.7861918,17.8577751],[103.7784678,17.8604116],[103.77541,17.8631527],[103.7725039,17.8726587],[103.7645933,17.8833062],[103.7646579,17.8874112],[103.7686244,17.890971],[103.7769711,17.8908793],[103.783247,17.888714],[103.786809,17.891622],[103.7747671,17.9090716],[103.7758103,17.9141732],[103.7832958,17.9271986],[103.7823342,17.9316115],[103.776458,17.9306847],[103.7646455,17.9207667],[103.7595299,17.9193512],[103.7567884,17.9222519],[103.7572816,17.9303302],[103.765598,17.9446166],[103.7654659,17.9556573],[103.7627556,17.9555112],[103.758972,17.9502012],[103.7538552,17.9335451],[103.7493981,17.9262553],[103.7494594,17.9228177],[103.7531056,17.9196048],[103.7528518,17.9154479],[103.7462602,17.911337],[103.7394934,17.9189761],[103.7298947,17.9241173],[103.721795,17.9260331],[103.7187718,17.9305851],[103.7175307,17.940712],[103.7155071,17.9429137],[103.7044367,17.9390789],[103.703472,17.9449128],[103.6825625,17.9558559],[103.6691533,17.9485126],[103.6612868,17.9502508],[103.661215,17.9575938],[103.667192,17.9666741],[103.6624524,17.9735471],[103.657151,17.9724135],[103.65512,17.9657576],[103.6516642,17.9630704],[103.6413159,17.9629998],[103.6386437,17.9644328],[103.6409736,17.9702156],[103.6379044,17.9766939],[103.6292777,17.9742157],[103.6280917,17.9697624],[103.6254251,17.9678611],[103.6231719,17.9728702],[103.6260732,17.9803956],[103.6214088,17.988945],[103.6226154,17.994364],[103.6211786,18.0034116],[103.6258415,18.006006],[103.6323931,18.0044722],[103.6360413,18.0105859],[103.6407024,18.0132579],[103.6325331,18.0156095],[103.6236521,18.0128441],[103.6112221,18.0130734],[103.6076581,18.0198981],[103.6059563,18.0351065],[103.5946093,18.043554],[103.595201,18.0496739],[103.5918514,18.0505164],[103.587856,18.0473872],[103.5869762,18.0377378],[103.5813216,18.0380302],[103.5768561,18.0404008],[103.5759621,18.0465252],[103.5734769,18.0504543],[103.5655113,18.0539577],[103.5588727,18.0621441],[103.5499206,18.061484],[103.5420906,18.0649789],[103.5383606,18.0721319],[103.546734,18.0778998],[103.5430971,18.0810031],[103.5415047,18.0885819],[103.5389479,18.0884942],[103.5366052,18.0847011],[103.5372427,18.0782022],[103.5348566,18.0747377],[103.5367364,18.0681632],[103.5318338,18.069904],[103.5272046,18.0664021],[103.5258774,18.069472],[103.5194053,18.0708391],[103.5164407,18.0742595],[103.5144754,18.0741327],[103.5045318,18.0681895],[103.505602,18.0616247],[103.5043552,18.0583013],[103.4980209,18.0621852],[103.4968889,18.0652706],[103.4933081,18.0600811],[103.4965901,18.0564043],[103.4955374,18.0557711],[103.4940146,18.058015],[103.4924586,18.0547004],[103.4955623,18.0538099],[103.494149,18.0507327],[103.4975154,18.04882],[103.4981424,18.0417564],[103.4944464,18.04176],[103.4954486,18.0380031],[103.4924579,18.039256],[103.4913353,18.0377068],[103.496824,18.032447],[103.4980799,18.0273715],[103.4985019,18.0200138],[103.4961106,18.0218996],[103.4946922,18.0173561],[103.4974915,18.0167605],[103.496599,18.0151183],[103.499036,18.0137693],[103.5001356,18.0072223],[103.5029092,18.0058404],[103.5024146,18.0038854],[103.5039153,18.0022512],[103.503317,17.9959347],[103.4990907,17.9978939]]]}}]}