{"type":"FeatureCollection","features":[{"type":"Feature","properties":{"provinceCode":"94","nameTh":"ปัตตานี","nameEn":"Pattani"},"geometry":{"type":"Polygon","coordinates":[[[101.0661399,6.8579993],[101.3257855,8.1638725],[102.190092,7.4348949],[102.2292838,6.9703901],[101.7254294,6.5770324],[101.7134305,6.5703183],[101.7054711,6.5680476],[101.6878635,6.5728131],[101.6689287,6.5739501],[101.6656961,6.5778837],[101.665324,6.5849701],[101.6597172,6.5878268],[101.6613374,6.5930777],[101.6563958,6.5955101],[101.652507,6.6011183],[101.646809,6.6178559],[101.6428314,6.6203808],[101.6382677,6.6185],[101.6336057,6.6219355],[101.6314012,6.6351387],[101.6298937,6.6341758],[101.63043,6.6274099],[101.6268395,6.6245234],[101.6228088,6.6269262],[101.6268868,6.6300932],[101.6261111,6.6329403],[101.6230948,6.6332652],[101.6202618,6.6293558],[101.6157087,6.6292978],[101.6144039,6.632597],[101.6126826,6.633082],[101.6050014,6.6313363],[101.5998023,6.62369],[101.586282,6.626347],[101.5769719,6.6194],[101.5759101,6.6168022],[101.5771271,6.6108793],[101.5736641,6.6014844],[101.5743968,6.598343],[101.5791469,6.5926352],[101.5892159,6.5892206],[101.5969444,6.5790177],[101.5939036,6.5740433],[101.5936887,6.5663494],[101.5869139,6.5626215],[101.5820901,6.5562701],[101.5744141,6.555072],[101.5649022,6.5499367],[101.5500457,6.5552213],[101.5352619,6.5565417],[101.5294675,6.5626945],[101.526047,6.5716635],[101.5172324,6.5777467],[101.5220885,6.583612],[101.5194493,6.5912647],[101.5098586,6.6019849],[101.5038617,6.6045232],[101.4990957,6.6006281],[101.4950057,6.59945],[101.4958711,6.601104],[101.4936358,6.6025602],[101.4946901,6.6060011],[101.4925687,6.6029084],[101.4900055,6.6054893],[101.4911754,6.602181],[101.4893249,6.6042702],[101.4891096,6.6017224],[101.4876098,6.6028785],[101.4851938,6.6000918],[101.4830955,6.6016187],[101.4830139,6.5989523],[101.4790754,6.5993638],[101.4793889,6.5972025],[101.475937,6.5971777],[101.4768514,6.5940236],[101.4689118,6.5969357],[101.4583011,6.5976731],[101.4597963,6.5889065],[101.4573105,6.5827864],[101.4552008,6.5826742],[101.4553155,6.5804751],[101.4523577,6.5770308],[101.4498053,6.5773035],[101.4497762,6.5788308],[101.4483263,6.5778217],[101.4458873,6.5811121],[101.4479611,6.5833729],[101.4456569,6.582621],[101.440112,6.5863871],[101.4371744,6.5914],[101.4282695,6.5937466],[101.4219208,6.5934539],[101.4074224,6.5818504],[101.4063355,6.5794242],[101.400578,6.5766468],[101.4009226,6.5740594],[101.3965417,6.5716215],[101.3879,6.5680042],[101.3835963,6.5697124],[101.3733962,6.5683851],[101.361874,6.5635729],[101.3605952,6.5541145],[101.3566666,6.5575056],[101.3489975,6.5564947],[101.3455326,6.5576865],[101.3313881,6.5662778],[101.3267912,6.5720769],[101.312825,6.5661517],[101.305292,6.5653187],[101.3005711,6.570184],[101.3013821,6.5755593],[101.3003166,6.5778613],[101.2983662,6.5779386],[101.2976777,6.5836536],[101.3002028,6.587154],[101.2971674,6.5962189],[101.2934992,6.6016298],[101.2925613,6.614142],[101.2942051,6.6172665],[101.301793,6.617937],[101.3034345,6.6205541],[101.2977742,6.6335231],[101.2989417,6.6472203],[101.2892191,6.6647894],[101.2910605,6.6718279],[101.2971597,6.6740536],[101.2977165,6.6760453],[101.2895875,6.6831381],[101.2846485,6.6801296],[101.2797193,6.6813708],[101.283371,6.6749772],[101.2814029,6.6706127],[101.2845297,6.6689979],[101.2808834,6.6687371],[101.2785648,6.6666197],[101.2779961,6.6556647],[101.2747151,6.6492713],[101.2675856,6.6443312],[101.2548211,6.6411867],[101.24864,6.6439837],[101.2384706,6.6331994],[101.2318917,6.6152592],[101.224659,6.6078973],[101.2189196,6.5984404],[101.2138351,6.5958483],[101.1862378,6.5997283],[101.1785049,6.5992435],[101.169005,6.6041879],[101.1600266,6.6038122],[101.1568248,6.6072506],[101.1494707,6.6105509],[101.1337418,6.6090106],[101.1270906,6.6129042],[101.1122958,6.627814],[101.1078134,6.629462],[101.1036198,6.6279672],[101.1051551,6.6295405],[101.1044318,6.6318839],[101.0998063,6.6383039],[101.0880375,6.6426395],[101.0741374,6.6418209],[101.0713952,6.6444247],[101.0689186,6.6441763],[101.0618515,6.6558227],[101.0488707,6.6633599],[101.0550691,6.6716904],[101.0569606,6.6775318],[101.0602848,6.679152],[101.0636906,6.6847845],[101.0636025,6.6871345],[101.0597232,6.6882461],[101.0608233,6.6958741],[101.062575,6.6983766],[101.0606298,6.7056426],[101.0579171,6.7068693],[101.057395,6.7125404],[101.0433791,6.7097948],[101.0392905,6.7063645],[101.0395775,6.7191278],[101.0327179,6.7181092],[101.0250066,6.7200297],[101.019644,6.7226798],[101.0173905,6.7257958],[101.0233477,6.729561],[101.0228085,6.7327324],[101.0249981,6.734829],[101.0301385,6.7373009],[101.0318459,6.7423929],[101.0320986,6.7453956],[101.0289365,6.7487717],[101.027442,6.7540993],[101.0326991,6.759376],[101.0272397,6.767945],[101.0278663,6.7730331],[101.0296825,6.7752485],[101.0285698,6.7795299],[101.0350298,6.7829601],[101.0345028,6.7846919],[101.0390679,6.7880005],[101.0418742,6.7953091],[101.0543715,6.8014921],[101.0442933,6.8087506],[101.0427325,6.8122305],[101.0428647,6.8283938],[101.0505294,6.8361755],[101.0474073,6.8387119],[101.0448526,6.8371548],[101.0431819,6.8384972],[101.0428665,6.841891],[101.0456593,6.8446208],[101.043547,6.8474169],[101.0481788,6.846909],[101.0575135,6.8515348],[101.0626525,6.8512923],[101.0661399,6.8579993]]]}}]}