{"type":"FeatureCollection","features":[{"type":"Feature","properties":{"provinceCode":"67","nameTh":"เพชรบูรณ์","nameEn":"Phetchabun"},"geometry":{"type":"Polygon","coordinates":[[[101.7855533,16.7622417],[101.7972481,16.7690117],[101.7930961,16.7637405],[101.7933414,16.7501283],[101.7899901,16.7467299],[101.7897614,16.7429211],[101.7860962,16.7425094],[101.7898701,16.7381671],[101.787602,16.7377728],[101.7901175,16.7349601],[101.7895553,16.732509],[101.7916657,16.7272843],[101.7871863,16.7264765],[101.7872925,16.7218809],[101.7831213,16.7215408],[101.778868,16.7157071],[101.7793661,16.712771],[101.7761137,16.7121795],[101.7753025,16.7029769],[101.7714814,16.7023929],[101.7742828,16.6972832],[101.7732553,16.6922394],[101.771464,16.6907887],[101.7726943,16.688414],[101.7719304,16.685865],[101.7655026,16.6794126],[101.7502737,16.6766989],[101.7496308,16.6741277],[101.7512242,16.6732982],[101.7504311,16.6720796],[101.7522788,16.67235],[101.7523077,16.6692334],[101.7508564,16.6678236],[101.7440234,16.6695881],[101.7413484,16.6607033],[101.7386947,16.66032],[101.7375266,16.6620071],[101.7356035,16.6592753],[101.7309715,16.6577573],[101.7321232,16.6539206],[101.731107,16.652781],[101.724157,16.6521089],[101.7186753,16.6572615],[101.7169631,16.6569716],[101.7169911,16.6605151],[101.7137057,16.6617554],[101.710863,16.6667558],[101.7078723,16.6660661],[101.7068311,16.6704339],[101.7026174,16.6689819],[101.7014258,16.6795695],[101.6999181,16.677474],[101.6979053,16.6774501],[101.6991956,16.680017],[101.6952469,16.6806025],[101.6943354,16.6836474],[101.6899494,16.6845895],[101.6885905,16.6866934],[101.6858774,16.6845209],[101.6816467,16.6882836],[101.6786888,16.6843326],[101.678333,16.6882282],[101.6749271,16.6864367],[101.6744345,16.6878448],[101.6728664,16.6867178],[101.671904,16.6878582],[101.6703802,16.6854561],[101.6687842,16.6867898],[101.665404,16.6852561],[101.6661113,16.6883649],[101.6581146,16.6876194],[101.6551935,16.6887618],[101.6525706,16.6867245],[101.6497211,16.6868802],[101.6458143,16.6832149],[101.6359503,16.6805083],[101.6301499,16.6842831],[101.626908,16.6832933],[101.6201943,16.6848669],[101.6138687,16.6909191],[101.6037947,16.7070348],[101.5904328,16.7083949],[101.591382,16.7170922],[101.5855486,16.7226861],[101.5813228,16.7219622],[101.5761313,16.7241],[101.572695,16.7224064],[101.5638875,16.7250517],[101.5598648,16.7288341],[101.5533177,16.7277058],[101.5519692,16.7153497],[101.5530928,16.7113954],[101.5585029,16.7055946],[101.5607773,16.6979319],[101.5708864,16.691208],[101.5718118,16.6803422],[101.5748367,16.6730395],[101.5787193,16.6700793],[101.5771068,16.6609667],[101.5727706,16.6547737],[101.5717488,16.6482555],[101.570179,16.6478456],[101.5682244,16.6498727],[101.5649258,16.6479158],[101.5625436,16.6494776],[101.5610168,16.6540258],[101.5540359,16.6568525],[101.5460234,16.6681254],[101.5442565,16.6684488],[101.5424752,16.6662374],[101.5375148,16.6661756],[101.5359585,16.6705999],[101.5259992,16.6800456],[101.5186162,16.6794333],[101.5134272,16.6811312],[101.511119,16.6789197],[101.5108592,16.6759437],[101.5141419,16.6721115],[101.5121204,16.6701837],[101.5122356,16.663855],[101.5087765,16.6566612],[101.5117567,16.6494411],[101.5107463,16.6470406],[101.5135019,16.6449611],[101.5141882,16.6409764],[101.5231064,16.6328858],[101.5262635,16.6207956],[101.524554,16.6180759],[101.5212653,16.6167745],[101.5185686,16.6191861],[101.5119274,16.6175717],[101.5101385,16.6149443],[101.5071226,16.6166418],[101.5000855,16.6095357],[101.5018465,16.5988804],[101.5008395,16.5884766],[101.4986395,16.5834557],[101.4995444,16.5788348],[101.4971447,16.5720707],[101.4941879,16.570942],[101.4964527,16.5693155],[101.4996313,16.5717635],[101.4987252,16.567698],[101.4963733,16.5668344],[101.4992527,16.5656461],[101.4970162,16.5608317],[101.4999994,16.5616067],[101.5082843,16.5553814],[101.5102379,16.5592742],[101.5124091,16.5548238],[101.514963,16.5556778],[101.5148224,16.5518653],[101.5172587,16.5526836],[101.5169679,16.5508313],[101.5195368,16.5495882],[101.5149215,16.5456941],[101.5152687,16.542738],[101.5130728,16.5436546],[101.5096327,16.5425128],[101.5081689,16.5447915],[101.5064158,16.543042],[101.5032498,16.5456748],[101.50214,16.5406779],[101.5045568,16.5423726],[101.505129,16.5390728],[101.5029108,16.5394423],[101.5009275,16.5365666],[101.500396,16.5387152],[101.4972472,16.5378482],[101.4960091,16.5396297],[101.4939288,16.5374833],[101.4950641,16.5357963],[101.4939077,16.5324273],[101.4895266,16.5331151],[101.4902859,16.530903],[101.488644,16.5318178],[101.4833499,16.5279389],[101.483067,16.5242794],[101.4800855,16.5274101],[101.4807137,16.5252931],[101.4777944,16.5240902],[101.4749606,16.53015],[101.4720233,16.5289142],[101.471349,16.5235529],[101.4660145,16.5192091],[101.4646923,16.5084432],[101.4668735,16.5028677],[101.4636862,16.5006871],[101.4643285,16.4979384],[101.4732986,16.4890282],[101.4727254,16.4821448],[101.4748734,16.4807581],[101.473507,16.4771999],[101.4677785,16.475282],[101.4657469,16.4690927],[101.4603106,16.4611469],[101.4558705,16.460466],[101.4509306,16.4563867],[101.4488146,16.449904],[101.4501702,16.4483356],[101.4443425,16.4383165],[101.4311523,16.4344169],[101.4240903,16.4292375],[101.4227953,16.4241915],[101.4190076,16.4237587],[101.4188633,16.4180106],[101.4168186,16.4163538],[101.4198077,16.4126493],[101.4170842,16.4086946],[101.4105816,16.407088],[101.4069589,16.4078568],[101.4056234,16.4034894],[101.4009144,16.4016383],[101.4010305,16.3976656],[101.4084422,16.3932889],[101.4097317,16.3899431],[101.4090719,16.3830797],[101.4053089,16.3778823],[101.3993822,16.3770101],[101.3929101,16.3728152],[101.3932666,16.3667708],[101.3828301,16.360218],[101.3822761,16.3546053],[101.3773388,16.3473553],[101.3789342,16.343367],[101.3764368,16.329811],[101.3783826,16.3280386],[101.3763785,16.3233867],[101.3792915,16.3183888],[101.3749348,16.3110924],[101.3735453,16.3018791],[101.3678107,16.2939256],[101.3691817,16.2875171],[101.3679661,16.2850793],[101.3710305,16.2802797],[101.3700004,16.2766632],[101.3716999,16.2744998],[101.3682958,16.2735586],[101.3629274,16.2680655],[101.3581397,16.2684767],[101.3546831,16.2599198],[101.3562076,16.2568844],[101.3610966,16.2534943],[101.3645663,16.2458853],[101.3735691,16.2414926],[101.3706584,16.2326022],[101.3669082,16.2269914],[101.3751037,16.214405],[101.372866,16.2049292],[101.375197,16.1967778],[101.3799587,16.188204],[101.3772548,16.1853662],[101.3724084,16.1855625],[101.3712689,16.1826374],[101.3623049,16.182752],[101.3592812,16.1758064],[101.3565104,16.1737854],[101.3533725,16.163447],[101.3444759,16.1571041],[101.3448986,16.1526684],[101.3420361,16.150301],[101.34231,16.1454566],[101.3441677,16.1425506],[101.3413653,16.1400971],[101.3397443,16.1213775],[101.3366591,16.1170129],[101.339172,16.1048686],[101.3347268,16.1026026],[101.336273,16.0964675],[101.3336385,16.0934506],[101.3460464,16.0692452],[101.3530551,16.0673907],[101.3649755,16.0750041],[101.3668192,16.0472316],[101.376302,16.0129706],[101.3778124,15.9893986],[101.3751243,15.972913],[101.3758478,15.9610733],[101.3719767,15.9542234],[101.3708553,15.9394889],[101.3662196,15.9351014],[101.3606285,15.9234945],[101.3670915,15.9213622],[101.3739785,15.9217102],[101.3745811,15.9183893],[101.3725489,15.9169632],[101.3698275,15.9097025],[101.3624103,15.9073848],[101.3616343,15.900195],[101.3577601,15.8972184],[101.3522458,15.8885801],[101.3482922,15.8862762],[101.3385888,15.8868718],[101.3324651,15.8816696],[101.3306977,15.8658218],[101.3287799,15.8581481],[101.3268829,15.8588116],[101.3256369,15.8524551],[101.3275987,15.850715],[101.3318088,15.850622],[101.3324724,15.849095],[101.3297445,15.8406749],[101.3245429,15.8371227],[101.3250579,15.8312551],[101.3305154,15.8301353],[101.3230549,15.8113095],[101.326706,15.8060398],[101.3314261,15.8046357],[101.3298364,15.8009473],[101.3205354,15.7968031],[101.3175753,15.791789],[101.3196341,15.7887395],[101.3294772,15.7841216],[101.3303182,15.7800066],[101.3343065,15.7757851],[101.332625,15.7737682],[101.3344388,15.7704573],[101.339034,15.7671353],[101.3361629,15.7653526],[101.3359689,15.7486626],[101.3390469,15.7454776],[101.3377469,15.740519],[101.3338809,15.737872],[101.3367833,15.7326851],[101.3355222,15.7270227],[101.3381194,15.7187238],[101.3412398,15.7172813],[101.3434064,15.7119519],[101.3463528,15.7112157],[101.3531533,15.7039608],[101.3520494,15.700766],[101.3530707,15.6950335],[101.359135,15.6898784],[101.3600329,15.6860427],[101.3510159,15.6738193],[101.3515997,15.6678458],[101.346966,15.661823],[101.3408315,15.658906],[101.3394086,15.6537605],[101.3436218,15.6504868],[101.3437515,15.6377514],[101.3402741,15.6313608],[101.3356307,15.6282381],[101.3364449,15.6241486],[101.3322679,15.6217208],[101.33327,15.6179272],[101.3312214,15.6161617],[101.3326105,15.6139725],[101.3320791,15.6104633],[101.3292028,15.6088853],[101.3289159,15.6052544],[101.3229381,15.6066283],[101.3216203,15.6041237],[101.3168055,15.6019116],[101.3177417,15.596479],[101.3156655,15.5881003],[101.3118607,15.584383],[101.3097352,15.5790041],[101.3116046,15.5737836],[101.308941,15.5653794],[101.3091717,15.5596083],[101.3069145,15.5560374],[101.3072561,15.5509587],[101.3021066,15.5416942],[101.2904549,15.5371134],[101.2876006,15.5305256],[101.2886036,15.5247016],[101.2969026,15.5286824],[101.3043909,15.5196826],[101.3021889,15.5172527],[101.3010373,15.5059418],[101.3048683,15.4908959],[101.3029108,15.4886302],[101.3044565,15.4863567],[101.3032588,15.4826719],[101.3073044,15.4719422],[101.3035242,15.4670705],[101.3025878,15.4604109],[101.2976364,15.4558085],[101.2994721,15.4469791],[101.3025749,15.4426859],[101.301392,15.4376801],[101.3073062,15.4347494],[101.3065436,15.4316748],[101.3027707,15.4307353],[101.3020373,15.4262148],[101.3047131,15.4149546],[101.3022545,15.3942446],[101.3052119,15.3915316],[101.3024923,15.3863131],[101.2990286,15.3842084],[101.2990173,15.3802356],[101.2944254,15.3786318],[101.2936258,15.376259],[101.2910318,15.3772861],[101.2897434,15.3749526],[101.2852124,15.3744357],[101.2809749,15.36566],[101.2769861,15.3619522],[101.2716578,15.3601485],[101.2701801,15.3614819],[101.2689373,15.3593302],[101.2668656,15.359953],[101.2640887,15.3579135],[101.2642487,15.3563747],[101.2603745,15.3564359],[101.2532159,15.351627],[101.2471029,15.3537255],[101.2477368,15.3515018],[101.2442945,15.3497678],[101.2413065,15.3511636],[101.2397935,15.3484947],[101.2373702,15.3480321],[101.237417,15.345373],[101.2334799,15.3430438],[101.2288067,15.3430523],[101.2275286,15.3401809],[101.22594,15.3400895],[101.222606,15.3444882],[101.2241813,15.3485732],[101.2213199,15.3496289],[101.2110125,15.3492412],[101.2078999,15.3418301],[101.1941466,15.3419177],[101.1938412,15.3441549],[101.1916533,15.3436061],[101.1888267,15.3465986],[101.1626804,15.3496839],[101.1623805,15.3468715],[101.1579745,15.3476339],[101.1576803,15.3453405],[101.1507673,15.3449662],[101.1478806,15.340494],[101.1298111,15.3374682],[101.1179179,15.3375024],[101.1176511,15.3394102],[101.1148037,15.3393979],[101.1071997,15.3434604],[101.1060446,15.3463098],[101.1009348,15.3432481],[101.1005727,15.3448578],[101.0942955,15.3427474],[101.0856062,15.3440443],[101.0822767,15.3563819],[101.0767265,15.3484614],[101.0750039,15.3429639],[101.0703742,15.3384223],[101.0661595,15.3279918],[101.0628221,15.3259752],[101.0599322,15.3249727],[101.0557713,15.3301256],[101.0347013,15.3267903],[101.0269844,15.3374562],[101.0222828,15.3377599],[101.0128337,15.3340312],[101.0016747,15.3185686],[100.9955987,15.3185435],[100.9860305,15.3247863],[100.984609,15.32974],[100.9789163,15.3327144],[100.9770414,15.3365007],[100.9809619,15.3438478],[100.9840913,15.3464889],[100.9771691,15.3587548],[100.9788153,15.3621407],[100.9787401,15.3697038],[100.9761604,15.373521],[100.9779113,15.3771863],[100.976991,15.3805682],[100.9781918,15.3849869],[100.9754051,15.3890013],[100.9753211,15.3957503],[100.9772027,15.4010771],[100.9746112,15.4024371],[100.9767306,15.4113961],[100.9794993,15.4120444],[100.980684,15.4142827],[100.9718557,15.4165423],[100.9686896,15.4158202],[100.9674652,15.4125502],[100.955944,15.4113175],[100.9537312,15.4124182],[100.9474898,15.4074233],[100.9325993,15.4136318],[100.9301855,15.4172374],[100.930994,15.4269657],[100.9257582,15.4329703],[100.9241705,15.4326744],[100.9257423,15.4375972],[100.9246836,15.4429203],[100.9271514,15.4460887],[100.9267783,15.4498133],[100.9282246,15.4503264],[100.9272274,15.4617593],[100.9321696,15.4662049],[100.9281105,15.4722596],[100.9260941,15.4791618],[100.928699,15.487688],[100.9231491,15.4904499],[100.9165626,15.4888393],[100.9155719,15.4950134],[100.9069665,15.4948607],[100.9039823,15.4963529],[100.9008622,15.5036848],[100.8988634,15.5038529],[100.900252,15.5127598],[100.8920884,15.5153529],[100.8924545,15.517173],[100.8878109,15.5180184],[100.8896786,15.5243551],[100.8851165,15.5287941],[100.8798198,15.5278261],[100.8673225,15.5295357],[100.8529275,15.5253824],[100.854832,15.5284272],[100.8543344,15.530795],[100.8565089,15.5327927],[100.8535763,15.541853],[100.8546833,15.5473235],[100.8517425,15.5508879],[100.8484915,15.5495744],[100.8456267,15.5553664],[100.8388282,15.5594663],[100.8367119,15.5785089],[100.831556,15.5838736],[100.8181607,15.5860494],[100.807927,15.5924734],[100.8111215,15.6018269],[100.8168943,15.6014189],[100.8173199,15.604069],[100.8256249,15.6150559],[100.8229644,15.6171987],[100.8227417,15.6219297],[100.819456,15.6275985],[100.827409,15.6446648],[100.8230967,15.6619796],[100.8272688,15.6640415],[100.8281497,15.6666025],[100.8258055,15.675682],[100.832148,15.6777761],[100.833475,15.6807248],[100.8255443,15.6848105],[100.8231156,15.6986847],[100.8174393,15.7075161],[100.8208697,15.7228011],[100.8191863,15.7354904],[100.8248424,15.7501834],[100.8083761,15.7917941],[100.7984263,15.8257381],[100.7987306,15.8301117],[100.803747,15.8312711],[100.8034036,15.8347767],[100.8080454,15.8347996],[100.8073782,15.8367531],[100.8091879,15.8386646],[100.8066478,15.8407107],[100.8066099,15.843213],[100.8090018,15.8458608],[100.8085721,15.8533727],[100.8111809,15.8556405],[100.8115481,15.8581395],[100.8081012,15.8664755],[100.8045078,15.8684409],[100.8097911,15.8853611],[100.7960987,15.8926968],[100.7838031,15.8952951],[100.7820849,15.8975304],[100.773726,15.8986811],[100.7639752,15.9114056],[100.7624479,15.9224434],[100.7660667,15.9311283],[100.7706884,15.9297059],[100.7753691,15.9308196],[100.7766155,15.9329351],[100.7804649,15.9329391],[100.7819377,15.9347718],[100.7849814,15.9321651],[100.7874381,15.933458],[100.7946452,15.9313331],[100.7980354,15.9335354],[100.7992125,15.936792],[100.7976133,15.9414599],[100.7949656,15.9432772],[100.7949411,15.9456874],[100.7936332,15.9454418],[100.7934173,15.9509693],[100.7945244,15.9512883],[100.7917342,15.9540521],[100.7911447,15.9577848],[100.7830014,15.9635609],[100.779768,15.9641768],[100.7770543,15.9702247],[100.7797573,15.9785784],[100.7840076,15.9805064],[100.7827149,15.9831096],[100.784742,15.9922789],[100.7766701,15.9986371],[100.7720327,15.999787],[100.7690419,15.998587],[100.7679931,16.0032507],[100.7631734,16.0047345],[100.7593508,16.0113196],[100.7577608,16.0099308],[100.7537602,16.0112212],[100.7508843,16.0101283],[100.7463948,16.0119934],[100.7461714,16.0108308],[100.7433499,16.0123036],[100.7432286,16.0144948],[100.7407644,16.0137122],[100.740306,16.0171214],[100.7383113,16.018926],[100.7340451,16.0185154],[100.7348036,16.0198859],[100.7327477,16.0190236],[100.7309574,16.0215024],[100.729831,16.0192319],[100.7281922,16.0234843],[100.7259631,16.0243313],[100.7159985,16.0230432],[100.714001,16.0242186],[100.7141183,16.025888],[100.7121286,16.0246448],[100.7097273,16.0260184],[100.7055968,16.0243174],[100.7011658,16.0248995],[100.7012101,16.0236655],[100.6991293,16.024852],[100.6983533,16.0230225],[100.6967878,16.0252711],[100.6932551,16.0245254],[100.6919004,16.0271008],[100.6878613,16.0281755],[100.6870611,16.0257951],[100.6832984,16.0269014],[100.6823685,16.0244796],[100.681123,16.0272725],[100.6794952,16.0263081],[100.6787372,16.0287028],[100.6773636,16.0282579],[100.6772941,16.0312196],[100.6742016,16.029654],[100.6707422,16.0319278],[100.6689061,16.0304202],[100.665335,16.0316561],[100.6628748,16.0378428],[100.6582917,16.0401216],[100.6572314,16.0516056],[100.6556663,16.0526648],[100.6544933,16.0507767],[100.6521918,16.0528497],[100.648333,16.0503224],[100.6460469,16.0479448],[100.6467536,16.0444183],[100.644673,16.0432944],[100.6428336,16.0441272],[100.6409023,16.0419641],[100.6383342,16.0437541],[100.6369152,16.0426748],[100.6329768,16.0437161],[100.6351421,16.0451129],[100.6340641,16.0473114],[100.6374041,16.0468874],[100.6365252,16.0499144],[100.6532117,16.0982652],[100.6530861,16.1024452],[100.6561931,16.1079086],[100.6534144,16.118293],[100.6547535,16.126355],[100.6486296,16.1300199],[100.6479429,16.1364046],[100.6442215,16.1393138],[100.7086245,16.2436593],[100.7099536,16.2455917],[100.7118293,16.2438152],[100.7127514,16.2466841],[100.7198439,16.2508273],[100.7181117,16.2565922],[100.7173313,16.2553659],[100.7159684,16.2567975],[100.7080113,16.2557866],[100.7080545,16.2542355],[100.7030845,16.2519513],[100.7004069,16.2531907],[100.6966405,16.251055],[100.695528,16.2518986],[100.6960256,16.2496616],[100.6937674,16.2481149],[100.6917189,16.2483352],[100.690586,16.2503599],[100.6855418,16.249866],[100.6847779,16.2511953],[100.6810421,16.2480606],[100.6803264,16.2498269],[100.6786412,16.2474867],[100.6777698,16.2487883],[100.6743318,16.2483217],[100.6736798,16.2501321],[100.6667087,16.2485406],[100.6672395,16.2510406],[100.6701506,16.2516633],[100.6694832,16.255104],[100.6736251,16.2562107],[100.6643539,16.2649255],[100.6526784,16.2896907],[100.6502493,16.2968808],[100.6492584,16.30951],[100.6523012,16.3143027],[100.6514513,16.3207847],[100.6535626,16.3279098],[100.6622223,16.3434932],[100.6718389,16.3563111],[100.6688424,16.3572231],[100.6650104,16.3560897],[100.6624313,16.3578983],[100.6640658,16.3590487],[100.6625325,16.3598901],[100.6641742,16.3605481],[100.6613997,16.3657516],[100.6651269,16.3703792],[100.6735378,16.3748097],[100.6777401,16.3824798],[100.68347,16.379519],[100.6856284,16.3816711],[100.6915973,16.3820424],[100.6947157,16.3836293],[100.694501,16.3848468],[100.69851,16.3858592],[100.702058,16.3844177],[100.7065662,16.384877],[100.7061278,16.3940905],[100.7019216,16.3963687],[100.7010148,16.4039806],[100.7031668,16.4063912],[100.7034515,16.41304],[100.7086905,16.4191326],[100.7115021,16.4193949],[100.7122697,16.4181433],[100.7180648,16.421942],[100.721457,16.420642],[100.7271002,16.4229629],[100.7330129,16.4202249],[100.7347707,16.4224621],[100.7426417,16.4191924],[100.7473997,16.4217025],[100.7502213,16.4259122],[100.7561176,16.4264349],[100.7627239,16.4315491],[100.7718064,16.4262639],[100.7746543,16.4285765],[100.7741504,16.4381472],[100.7759975,16.4411915],[100.7816302,16.4443501],[100.7829356,16.4480604],[100.7865333,16.450136],[100.7923576,16.449312],[100.7967299,16.4510019],[100.8054415,16.4484296],[100.8047077,16.4569396],[100.7984868,16.4583552],[100.7967697,16.4651992],[100.7930373,16.4692527],[100.7936418,16.4728574],[100.7997271,16.4747632],[100.8045323,16.4813754],[100.8096486,16.4804848],[100.8174822,16.4832539],[100.8149238,16.4884595],[100.8144474,16.495643],[100.8213734,16.5012784],[100.833797,16.5040286],[100.8337541,16.5080522],[100.8363488,16.5136547],[100.8339444,16.5168771],[100.8342993,16.5200753],[100.8411828,16.5237365],[100.8449496,16.5207981],[100.8490856,16.5226317],[100.8495574,16.5258277],[100.847696,16.5281366],[100.8499975,16.530492],[100.8498224,16.5352719],[100.8464912,16.5386631],[100.846152,16.5421966],[100.8543886,16.5432979],[100.8583312,16.5466955],[100.8578593,16.5564343],[100.8559,16.5598437],[100.8529623,16.5604257],[100.850791,16.5670487],[100.8507644,16.5766281],[100.845684,16.5776561],[100.8476393,16.5818672],[100.8506722,16.5837544],[100.8479336,16.5871918],[100.8476088,16.5929279],[100.8504207,16.5966141],[100.8546723,16.5976724],[100.8515696,16.6022518],[100.8515052,16.6062084],[100.8550803,16.6092585],[100.8551118,16.6130447],[100.8526846,16.6146251],[100.8575736,16.6166521],[100.8618226,16.6144471],[100.8653994,16.6209671],[100.86186,16.6239894],[100.8618215,16.6377786],[100.8642096,16.6430287],[100.8700128,16.6492294],[100.8769299,16.64976],[100.8799774,16.6517906],[100.8844733,16.6575988],[100.885286,16.6654406],[100.8895603,16.6686556],[100.8943007,16.6696271],[100.9037093,16.6667365],[100.9064454,16.6687322],[100.9085843,16.6678343],[100.9152261,16.6697285],[100.9201911,16.6640193],[100.9234257,16.6632874],[100.9275738,16.6654882],[100.9282703,16.671238],[100.9325635,16.680907],[100.9364735,16.6821817],[100.9425623,16.6810693],[100.9383163,16.6876268],[100.9290613,16.6859636],[100.9334841,16.6903727],[100.9341229,16.6962094],[100.9282751,16.6975117],[100.9240817,16.7025794],[100.9231971,16.7124792],[100.9265387,16.7128243],[100.9307977,16.7106122],[100.9315348,16.7171857],[100.9164402,16.7271161],[100.9140486,16.7315556],[100.9154164,16.7358067],[100.9209366,16.740795],[100.9230661,16.7468655],[100.9197408,16.754771],[100.9201503,16.7589431],[100.9111656,16.7609037],[100.9019434,16.7601195],[100.8989621,16.7623938],[100.8981841,16.7681969],[100.8957598,16.7718042],[100.897578,16.7763838],[100.903262,16.7757408],[100.9061286,16.7816533],[100.903434,16.8019773],[100.9060303,16.7988097],[100.9140568,16.7961281],[100.9175769,16.7917526],[100.9333344,16.7938495],[100.9368534,16.7959669],[100.943037,16.7952161],[100.9477545,16.7914702],[100.9531571,16.7935249],[100.9557178,16.7960924],[100.9549999,16.7994673],[100.9571457,16.8008231],[100.9538197,16.802261],[100.9535193,16.8044178],[100.9565156,16.8050693],[100.9586132,16.8096687],[100.9551928,16.811373],[100.9585053,16.8167335],[100.9553871,16.8172293],[100.9578148,16.8200696],[100.9536931,16.8209372],[100.9543081,16.8258327],[100.9591743,16.8251097],[100.9612891,16.8311618],[100.9644506,16.8276917],[100.9678062,16.8306351],[100.9724674,16.8294991],[100.9720682,16.8243351],[100.9749112,16.8259966],[100.9744687,16.8297795],[100.9787412,16.8264421],[100.9769101,16.831722],[100.9802061,16.8301592],[100.9814672,16.8350775],[100.9789355,16.8386489],[100.9772507,16.8366057],[100.9727254,16.8422203],[100.9746132,16.8426677],[100.9765185,16.8402784],[100.9794824,16.8421274],[100.9828874,16.8450232],[100.9798441,16.8480203],[100.989318,16.8509583],[100.9927687,16.8556789],[100.9937854,16.854103],[100.9999966,16.8550532],[101.0017028,16.8571457],[101.0034891,16.8553306],[101.0075027,16.8562888],[101.0099418,16.8602777],[101.0125572,16.8583149],[101.0128659,16.8633147],[101.0171573,16.8674692],[101.0221805,16.868129],[101.0223445,16.8700428],[101.0262735,16.8729935],[101.0305076,16.8928259],[101.040323,16.8999822],[101.0432766,16.9041665],[101.0494358,16.9072011],[101.0569165,16.9075824],[101.0621631,16.9062371],[101.0668748,16.9024791],[101.0740584,16.902207],[101.0790405,16.8995575],[101.0805656,16.9019697],[101.0842918,16.9027625],[101.0929384,16.9088725],[101.1003544,16.9114059],[101.1015921,16.9182549],[101.1049195,16.9239434],[101.1052578,16.9285867],[101.1034412,16.9316903],[101.1072474,16.9349738],[101.1068157,16.9370184],[101.1114303,16.9374577],[101.1133403,16.942361],[101.1126256,16.9487498],[101.1154815,16.9513286],[101.1154964,16.97071],[101.1134418,16.97651],[101.1145741,16.9906015],[101.1127545,16.993757],[101.1147175,16.9981741],[101.1124743,16.9971167],[101.112561,17.0001541],[101.1106506,17.000548],[101.1149107,17.0014905],[101.1138823,17.0033537],[101.1093612,17.0032592],[101.1112711,17.0079477],[101.1147109,17.0072076],[101.1132671,17.0095729],[101.1168518,17.0191297],[101.114933,17.0205831],[101.1275011,17.0238257],[101.1289151,17.0265806],[101.1352624,17.0279244],[101.140152,17.0326325],[101.1549913,17.0342476],[101.1687506,17.0382426],[101.1727224,17.0537384],[101.1785206,17.0559212],[101.1884352,17.06597],[101.2057768,17.0686879],[101.2091488,17.0677577],[101.21838,17.0605685],[101.222699,17.06058],[101.228586,17.0646994],[101.229009,17.0670883],[101.2250359,17.0792566],[101.2252466,17.0853916],[101.2382994,17.0975909],[101.2407463,17.1053972],[101.2439275,17.108795],[101.2497174,17.1116042],[101.2562102,17.1098712],[101.272727,17.0962078],[101.2818731,17.1007901],[101.2880262,17.1074172],[101.2948228,17.1071026],[101.3071541,17.1197199],[101.3078109,17.1301687],[101.3197778,17.1374671],[101.3233876,17.1410616],[101.3234067,17.1448103],[101.3308542,17.1464277],[101.3315181,17.1487109],[101.3344983,17.1495394],[101.3375152,17.1538128],[101.3432238,17.1569177],[101.3435164,17.1609588],[101.3510395,17.1632014],[101.3509083,17.1675855],[101.3546202,17.1677795],[101.3561094,17.1706466],[101.364776,17.1713687],[101.3713732,17.1682287],[101.3747403,17.1705641],[101.3824042,17.1702457],[101.388996,17.1754498],[101.3987112,17.1779227],[101.400212,17.1769454],[101.3985524,17.1757865],[101.3995913,17.1740357],[101.4107449,17.1726565],[101.4117499,17.1667194],[101.4145597,17.1676657],[101.4175985,17.1660413],[101.4219524,17.1629266],[101.4257101,17.1566563],[101.4459529,17.14677],[101.451405,17.1422081],[101.4527477,17.1400923],[101.4514921,17.1372738],[101.4528125,17.1359017],[101.4526143,17.1308252],[101.4567777,17.1260231],[101.4559531,17.124006],[101.451736,17.1237398],[101.4520607,17.121638],[101.4591592,17.1151474],[101.4591957,17.1136321],[101.4557955,17.1115243],[101.4579833,17.1072878],[101.4616996,17.1055868],[101.4601388,17.103684],[101.4617799,17.102251],[101.458613,17.0988471],[101.4623967,17.0952384],[101.4671454,17.0950369],[101.468173,17.0930472],[101.4716527,17.0925477],[101.4773478,17.0868857],[101.4808318,17.0725732],[101.4893434,17.0589072],[101.4919276,17.0331124],[101.4958252,17.0278668],[101.4969865,17.0214188],[101.5014746,17.0171631],[101.5042793,17.0101352],[101.5080269,17.0131458],[101.5181284,17.0151893],[101.5206414,17.0192803],[101.5332411,17.0231955],[101.536002,17.022735],[101.5450107,17.0151348],[101.5442615,17.0107095],[101.5467239,17.0020468],[101.5516377,16.9947314],[101.5574041,16.9930411],[101.5602614,16.9938382],[101.5666496,16.9855776],[101.5723683,16.9854515],[101.5751798,16.9837448],[101.5831203,16.9876499],[101.5838211,16.9914075],[101.5870807,16.9937417],[101.5878706,16.9963952],[101.5938429,16.9952702],[101.5976885,16.9966738],[101.5992054,16.999917],[101.6073768,16.9987995],[101.6129759,17.0042886],[101.6126714,17.0091131],[101.6170718,17.0150416],[101.6165528,17.0223589],[101.6213984,17.0278054],[101.6241807,17.0365388],[101.6276421,17.0399006],[101.6287427,17.0451877],[101.6314657,17.0428348],[101.6366873,17.0426611],[101.6364991,17.0448623],[101.6378643,17.0445845],[101.6445789,17.039195],[101.6471114,17.0395199],[101.6496115,17.0423393],[101.6503023,17.0402316],[101.64589,17.035272],[101.6467172,17.032],[101.6454858,17.0283138],[101.6478971,17.0263162],[101.6468144,17.023903],[101.6551446,17.0122856],[101.6544899,17.0051398],[101.6591102,16.998976],[101.6597465,16.9953946],[101.6680341,16.9855673],[101.6687612,16.9801216],[101.6752221,16.9756193],[101.6751784,16.9712464],[101.672906,16.9691643],[101.6737603,16.9664466],[101.6697294,16.9606904],[101.6725625,16.9586733],[101.6726863,16.9521541],[101.6800285,16.9393594],[101.6852202,16.936671],[101.6923055,16.9362334],[101.6887373,16.934402],[101.6872877,16.9313761],[101.6881718,16.9260137],[101.6921733,16.9229308],[101.6894425,16.9222127],[101.687084,16.9239713],[101.6850976,16.9221739],[101.6866664,16.9193059],[101.6828702,16.9124134],[101.6850486,16.8996197],[101.6817614,16.8967926],[101.6786614,16.8854005],[101.6787726,16.883187],[101.6827325,16.8807152],[101.6836682,16.877019],[101.6835207,16.8739513],[101.6798816,16.8718754],[101.6842763,16.8688486],[101.6769934,16.8670054],[101.67952,16.8651728],[101.6787821,16.8613107],[101.6813798,16.8573305],[101.6848865,16.859098],[101.6885976,16.8578789],[101.6862453,16.8546493],[101.6846438,16.8551519],[101.6853972,16.8468074],[101.6880049,16.8452787],[101.6885552,16.8476115],[101.6907527,16.8486293],[101.6898936,16.8422421],[101.6931069,16.8353647],[101.6984283,16.8349569],[101.7008488,16.8316284],[101.6990525,16.8294399],[101.7006659,16.8285412],[101.7068381,16.8299847],[101.7065637,16.8259247],[101.7089176,16.8225985],[101.7186118,16.8159029],[101.7196202,16.8120825],[101.7180685,16.809082],[101.7219121,16.8070979],[101.7194366,16.8038683],[101.7194791,16.7995385],[101.6998928,16.8094144],[101.694009,16.805953],[101.6863825,16.7984801],[101.7043918,16.7841196],[101.7180613,16.7598794],[101.7260761,16.7541748],[101.730843,16.7536406],[101.7454837,16.7573131],[101.7614523,16.7560769],[101.7691016,16.7604902],[101.7752076,16.7599639],[101.7855533,16.7622417]]]}}]}