{"type":"FeatureCollection","features":[{"type":"Feature","properties":{"provinceCode":"72","nameTh":"สุพรรณบุรี","nameEn":"Suphan Buri"},"geometry":{"type":"Polygon","coordinates":[[[100.2126196,14.1789749],[100.2053546,14.1786043],[100.1954881,14.1753321],[100.1828938,14.1655567],[100.1732533,14.1597417],[100.1674939,14.1583904],[100.167646,14.1565277],[100.1576088,14.1514425],[100.1590184,14.1480769],[100.1561216,14.1454812],[100.1400326,14.1455109],[100.1346423,14.1425959],[100.1320468,14.1390392],[100.1308715,14.1389076],[100.1300411,14.1506454],[100.116684,14.1501063],[100.1115182,14.1472584],[100.1045242,14.1463669],[100.1021995,14.1563754],[100.0977909,14.1530004],[100.0985237,14.1516071],[100.0895226,14.1501997],[100.0863223,14.1451693],[100.0778541,14.1445269],[100.0773333,14.1415723],[100.0695348,14.1407341],[100.0687592,14.1440524],[100.0609748,14.1448431],[100.0591699,14.1467875],[100.0568827,14.1456517],[100.0516544,14.1473425],[100.0525959,14.148852],[100.0454582,14.152806],[100.0370359,14.1542692],[100.0365976,14.152645],[100.0329699,14.1521882],[100.0328516,14.1509934],[100.0297406,14.1515623],[100.0290742,14.1490893],[100.0247182,14.1497025],[100.024703,14.148042],[100.0169558,14.1468907],[100.0168589,14.1454321],[100.015141,14.145694],[100.0154002,14.1468852],[100.0082847,14.1460816],[100.0097661,14.1435026],[100.0045983,14.1414283],[100.0027238,14.1414011],[100.0013473,14.1440373],[99.9931968,14.1419741],[99.9899034,14.1439136],[99.9863496,14.1416394],[99.9865217,14.1399243],[99.9767893,14.1394163],[99.9754621,14.1418937],[99.9667143,14.1399423],[99.9657784,14.1367227],[99.971092,14.1338188],[99.9650403,14.130742],[99.9448157,14.1349163],[99.9435202,14.1315275],[99.9395671,14.1311502],[99.9398996,14.1265837],[99.9343615,14.1255071],[99.9333075,14.1238577],[99.9314908,14.1234818],[99.9270423,14.1276542],[99.8922259,14.0901138],[99.8853058,14.0908507],[99.8711699,14.0763752],[99.8671519,14.0775536],[99.8664917,14.0749161],[99.8530168,14.0795056],[99.8445431,14.0763307],[99.8389716,14.0786607],[99.8378405,14.0723406],[99.8334172,14.0732012],[99.8320209,14.0715569],[99.8297793,14.0738218],[99.831108,14.0698489],[99.8217686,14.0698827],[99.8197394,14.0723566],[99.8175749,14.0718779],[99.816712,14.0691558],[99.8189504,14.0680328],[99.8169349,14.0639083],[99.8119878,14.0646668],[99.8087722,14.0675654],[99.8084065,14.0716769],[99.8117296,14.0776584],[99.8081809,14.0831257],[99.7968681,14.0859446],[99.7910257,14.1008097],[99.7877452,14.1002394],[99.7825867,14.094316],[99.7777514,14.0927499],[99.7721804,14.0939337],[99.7734297,14.097366],[99.7694154,14.1003245],[99.7693106,14.1122093],[99.7679086,14.1164554],[99.7701858,14.1179846],[99.7737927,14.1172592],[99.7756253,14.1230268],[99.7812096,14.1218756],[99.7835502,14.1251986],[99.7855362,14.1245396],[99.7818168,14.1349626],[99.7817125,14.1417225],[99.7950112,14.1713073],[99.7940706,14.1770476],[99.7989073,14.1766889],[99.8025607,14.1904122],[99.7988729,14.1910618],[99.7975615,14.1956892],[99.8006547,14.2055226],[99.7984497,14.2058189],[99.7980344,14.2096961],[99.794777,14.2099692],[99.7939673,14.21265],[99.7972972,14.2150025],[99.7956242,14.2179344],[99.8001022,14.2229978],[99.7995381,14.2241162],[99.8061976,14.22975],[99.8129072,14.2287916],[99.8109884,14.2304539],[99.8132768,14.2348917],[99.8152267,14.2355684],[99.8142185,14.2377077],[99.8170426,14.242933],[99.81644,14.2466061],[99.8198789,14.2498148],[99.8213844,14.2495081],[99.8226483,14.2540053],[99.8243215,14.254129],[99.8216422,14.2571199],[99.820946,14.2609065],[99.8232269,14.2610782],[99.8242383,14.2644219],[99.8335655,14.2721614],[99.8324149,14.272244],[99.8325001,14.2743721],[99.8284786,14.2753162],[99.8297926,14.2804419],[99.8266675,14.2823783],[99.82751,14.2839537],[99.8250257,14.2840099],[99.8233397,14.293335],[99.8206143,14.2957809],[99.8201273,14.3001853],[99.8132286,14.3094832],[99.8111683,14.3153046],[99.8078558,14.3153007],[99.7936982,14.3258685],[99.8066948,14.3259892],[99.804443,14.3315039],[99.8075931,14.3328036],[99.8103687,14.340665],[99.8088116,14.3411837],[99.8111502,14.3463273],[99.8100457,14.3471242],[99.8120744,14.3506483],[99.8149473,14.3505202],[99.8160389,14.3522747],[99.8219983,14.3500432],[99.8216686,14.3605128],[99.8258518,14.3660509],[99.8237215,14.3685988],[99.8244008,14.3725541],[99.8179248,14.3780547],[99.8187506,14.3822491],[99.8173836,14.3835091],[99.8181681,14.3858678],[99.8263925,14.3864114],[99.8261783,14.3936705],[99.8244344,14.3961862],[99.8235417,14.4047158],[99.8213518,14.4069956],[99.8245373,14.4123284],[99.8205086,14.4195729],[99.8210274,14.4240989],[99.8174719,14.4283962],[99.8147043,14.4402487],[99.8182308,14.4463799],[99.8172545,14.4496038],[99.8214002,14.4585126],[99.8226344,14.4695902],[99.825391,14.4733029],[99.8235599,14.4746749],[99.8251659,14.4778167],[99.8217851,14.4798101],[99.8236545,14.4839651],[99.8225956,14.4855403],[99.8279638,14.4902367],[99.8279166,14.4875911],[99.83078,14.4862176],[99.8285135,14.4790857],[99.832733,14.4794257],[99.8331006,14.4816445],[99.8288272,14.5014606],[99.8243382,14.5017399],[99.8232545,14.504798],[99.8196718,14.5050483],[99.8182059,14.5122117],[99.8150666,14.5148979],[99.811502,14.5091059],[99.8096816,14.5122967],[99.8108249,14.517498],[99.8096566,14.5196938],[99.8075445,14.5200088],[99.8078655,14.5231517],[99.8049518,14.5256837],[99.8065991,14.5299132],[99.8053621,14.5358057],[99.8094917,14.5379091],[99.8096767,14.5397383],[99.8009068,14.543133],[99.8013096,14.5449514],[99.7948557,14.5462848],[99.7950745,14.5503953],[99.7929847,14.5527122],[99.7951203,14.5575718],[99.7932975,14.5641377],[99.7984592,14.5630863],[99.799937,14.5716755],[99.7983828,14.5745113],[99.8033497,14.5927777],[99.8034597,14.5961507],[99.8006101,14.5959244],[99.8006269,14.6015491],[99.7975655,14.6022458],[99.7990962,14.607724],[99.7978914,14.6079723],[99.7980789,14.6167049],[99.8002416,14.6234959],[99.8046244,14.627198],[99.8138696,14.6258437],[99.813457,14.6277766],[99.8179702,14.6284385],[99.8169413,14.6313043],[99.8183712,14.6322904],[99.8184304,14.635526],[99.8212918,14.6352977],[99.820409,14.6385119],[99.8218374,14.6388995],[99.819736,14.6425767],[99.8174688,14.6422245],[99.817694,14.6433177],[99.8081035,14.6471248],[99.8096156,14.6525741],[99.811701,14.6536222],[99.8138272,14.6583613],[99.8098634,14.6643001],[99.8102264,14.6685233],[99.8054623,14.6684405],[99.8050622,14.6711332],[99.8033935,14.6713463],[99.804009,14.6730826],[99.8022638,14.6733634],[99.8025745,14.6759099],[99.7971299,14.6791153],[99.7973695,14.680633],[99.794115,14.6815192],[99.7959856,14.6881369],[99.7920803,14.6893711],[99.7920026,14.6933797],[99.7937663,14.6987222],[99.7983519,14.6995491],[99.7954968,14.7019693],[99.7972478,14.705623],[99.7929719,14.7022749],[99.7918128,14.7031802],[99.7932658,14.7052649],[99.7913007,14.7045931],[99.7892842,14.706262],[99.7902971,14.7073056],[99.7877998,14.7104318],[99.7892599,14.7133747],[99.7858457,14.7144969],[99.7864004,14.717873],[99.7832305,14.7187356],[99.7841896,14.721589],[99.7880532,14.723753],[99.789443,14.7360169],[99.7764228,14.739216],[99.7626197,14.7456621],[99.7572574,14.7458626],[99.7564748,14.7474056],[99.7459806,14.7492779],[99.7448826,14.746861],[99.7420867,14.7466581],[99.7250397,14.7517613],[99.7227055,14.7518619],[99.7219626,14.7493176],[99.7203243,14.7497452],[99.7095004,14.7584127],[99.7005692,14.7625075],[99.6780314,14.7840061],[99.6674108,14.7886487],[99.6646725,14.7880606],[99.6641162,14.7916583],[99.6611592,14.7934901],[99.6626527,14.795776],[99.6588693,14.8026448],[99.6431056,14.8019288],[99.6419134,14.7980173],[99.6343586,14.8010811],[99.6291213,14.801039],[99.6229479,14.7949481],[99.6234699,14.7920063],[99.6182523,14.7885857],[99.6141863,14.7892813],[99.6104089,14.7852424],[99.6060431,14.7871168],[99.605509,14.7856047],[99.6013426,14.7847558],[99.5957135,14.7893995],[99.5918402,14.7885216],[99.5899914,14.7849849],[99.5856104,14.7843046],[99.5828389,14.7854295],[99.5824715,14.7880612],[99.5776404,14.7893438],[99.5764008,14.7861305],[99.5748413,14.7857713],[99.5751539,14.7839188],[99.5725761,14.7831975],[99.5713267,14.779678],[99.5731255,14.7786488],[99.5738621,14.7741722],[99.5785302,14.7700651],[99.5761296,14.764557],[99.5775331,14.7615899],[99.576215,14.7546411],[99.5776564,14.7483662],[99.5753129,14.7463525],[99.5724854,14.7378289],[99.5715197,14.7261174],[99.5687977,14.7230177],[99.5697296,14.7140768],[99.5670637,14.7095146],[99.5613338,14.7103698],[99.5556831,14.7075602],[99.5449629,14.7088427],[99.542112,14.7162454],[99.5364329,14.7144544],[99.5334234,14.7114612],[99.5322179,14.707534],[99.5279044,14.707833],[99.5223154,14.7043919],[99.5138211,14.7035159],[99.5082899,14.7093743],[99.5061932,14.7091946],[99.5061619,14.7068218],[99.5026805,14.7082022],[99.4977445,14.7046877],[99.4919158,14.7046636],[99.48516,14.7084859],[99.4890232,14.7162082],[99.4806462,14.7152311],[99.4784216,14.7194648],[99.4787747,14.7222948],[99.4745998,14.7161967],[99.4662687,14.7170236],[99.4589808,14.7294605],[99.4420857,14.7321251],[99.4445911,14.7411729],[99.4393611,14.7429455],[99.4328102,14.7545858],[99.4345725,14.7678672],[99.4334475,14.7761407],[99.4149703,14.7760912],[99.4029314,14.7705505],[99.4008271,14.7717329],[99.3986972,14.7688555],[99.3972186,14.769045],[99.3977801,14.7678194],[99.3932707,14.7692268],[99.3922665,14.7653862],[99.3903023,14.76653],[99.3878522,14.7647709],[99.3873505,14.7663244],[99.3831073,14.7665459],[99.3807328,14.7648112],[99.3776422,14.7654661],[99.3777128,14.7670405],[99.3755808,14.7672334],[99.3764533,14.7691904],[99.373668,14.7705862],[99.3698357,14.7700265],[99.3685351,14.7714233],[99.3661138,14.7701604],[99.3645884,14.7716472],[99.3646908,14.774943],[99.3608088,14.777202],[99.3570906,14.7781952],[99.3541205,14.7765899],[99.3483474,14.7824296],[99.3415718,14.7842255],[99.3385232,14.7903682],[99.3347408,14.7937256],[99.3357799,14.8000329],[99.3306368,14.8063487],[99.3265248,14.8084813],[99.3271392,14.8100217],[99.3147868,14.814436],[99.3096272,14.8128352],[99.3043257,14.8274417],[99.2921238,14.8333423],[99.2914844,14.8501412],[99.2872797,14.8557653],[99.2872313,14.8646619],[99.2918056,14.8652414],[99.2950006,14.8693929],[99.3006002,14.8715512],[99.305681,14.8821851],[99.3134336,14.8835752],[99.3176304,14.8937327],[99.3222408,14.8955842],[99.3244728,14.8994372],[99.3250137,14.941627],[99.3148345,14.9559756],[99.3137082,14.9629301],[99.3060238,14.9708705],[99.3044797,14.9745649],[99.2926208,14.9812185],[99.2833181,14.9890849],[99.2833802,14.9970363],[99.2759624,15.0044767],[99.2759738,15.0133826],[99.2816027,15.0181839],[99.2888877,15.0375013],[99.3009562,15.0554298],[99.3031777,15.0622695],[99.3193464,15.0765791],[99.3198224,15.0809053],[99.3394277,15.0804892],[99.355047,15.0614966],[99.374536,15.0494954],[99.3816317,15.051119],[99.3854236,15.0478276],[99.3938095,15.0497753],[99.3969956,15.0527045],[99.4015171,15.0495233],[99.4032102,15.0453071],[99.4158609,15.0473455],[99.4171189,15.0400307],[99.4160091,15.0372912],[99.4263967,15.0150019],[99.435905,15.0075438],[99.4360011,14.9995373],[99.4449708,14.9912012],[99.45624,14.9885768],[99.4779411,14.9915112],[99.48702,14.9883486],[99.4897948,14.9857495],[99.4969822,14.9854622],[99.5004797,14.9834192],[99.5075412,14.9843702],[99.5106049,14.9807306],[99.5196208,14.9784382],[99.5263203,14.9806403],[99.5311651,14.9753637],[99.5313373,14.9712097],[99.5345912,14.9679547],[99.5397827,14.9667512],[99.5478475,14.961492],[99.5510847,14.9632667],[99.5520406,14.9614942],[99.5556979,14.9640263],[99.5646173,14.9620834],[99.5676343,14.9579164],[99.569925,14.9584459],[99.5704476,14.9564925],[99.5748673,14.9550453],[99.5756479,14.9532322],[99.5766268,14.9553877],[99.5812276,14.952346],[99.5819251,14.9481262],[99.5882012,14.9448036],[99.5920109,14.9477681],[99.5964135,14.9469993],[99.5983996,14.9444767],[99.6015914,14.9464193],[99.6053458,14.9443978],[99.6081365,14.9458881],[99.6099181,14.9451926],[99.6092725,14.9437699],[99.6106837,14.9448242],[99.6124538,14.9428998],[99.6161827,14.9439351],[99.6184015,14.9422098],[99.6313181,14.9432774],[99.6308441,14.9462854],[99.6323553,14.9470001],[99.633892,14.9539944],[99.6319246,14.9559761],[99.6319679,14.9606024],[99.6288211,14.964298],[99.6303709,14.9654629],[99.6297157,14.9699526],[99.6314963,14.9712381],[99.6300266,14.9717168],[99.6309769,14.9735208],[99.6270899,14.9794115],[99.6285322,14.9822849],[99.6319358,14.9838334],[99.6303984,14.9871043],[99.6286416,14.9848225],[99.6271747,14.9855907],[99.6272667,14.9876355],[99.6383952,14.9888665],[99.640072,14.9904457],[99.6445482,14.9884804],[99.6502003,14.9890336],[99.6540646,14.986713],[99.6637009,14.9883093],[99.6716365,14.9837493],[99.675243,14.9841116],[99.6787069,14.9823133],[99.6802771,14.9797678],[99.6925285,14.9729053],[99.6921275,14.9700361],[99.6944558,14.9685711],[99.7154943,14.9611681],[99.7193724,14.9601769],[99.72395,14.9621101],[99.740046,14.9633986],[99.7456176,14.9583008],[99.7522935,14.9609417],[99.752248,14.9584723],[99.7792301,14.9506529],[99.7813652,14.9480613],[99.7882807,14.945538],[99.796606,14.9452013],[99.7966854,14.9411686],[99.8010682,14.938792],[99.8020967,14.9414051],[99.8073159,14.9401657],[99.8199685,14.9427751],[99.8212267,14.9376597],[99.8240164,14.9377652],[99.8260648,14.9400781],[99.8268615,14.9356779],[99.8327209,14.9349327],[99.8377864,14.9358808],[99.8392321,14.9378071],[99.8422468,14.9373833],[99.842593,14.9308592],[99.847559,14.9292596],[99.8588242,14.9301892],[99.8592216,14.9279621],[99.8664514,14.9273302],[99.8773835,14.9227527],[99.888311,14.926331],[99.8915867,14.9221292],[99.8952917,14.9220173],[99.899084,14.9184611],[99.9106612,14.9154496],[99.9143283,14.912997],[99.9204046,14.9128706],[99.9320052,14.9068854],[99.9496289,14.9106683],[99.9556698,14.9067801],[99.9652751,14.9051436],[99.9764488,14.9058628],[99.9763063,14.9075111],[99.9831935,14.907382],[99.9834177,14.9087769],[99.988902,14.9078958],[99.9987682,14.9098794],[100.0058439,14.907967],[100.012673,14.9112844],[100.0273429,14.9116856],[100.0417302,14.9149298],[100.0412866,14.9205353],[100.0450059,14.9300734],[100.0430292,14.931661],[100.0456852,14.9409755],[100.0388615,14.9473036],[100.0360401,14.9546996],[100.037395,14.9568552],[100.040856,14.9555459],[100.0476194,14.9571215],[100.0488415,14.9591366],[100.0469718,14.9621603],[100.0573736,14.9614849],[100.062492,14.9561246],[100.0649954,14.9580719],[100.0696772,14.9572512],[100.0744836,14.954335],[100.0762844,14.9510016],[100.0842032,14.9525856],[100.0851939,14.9548413],[100.0872171,14.9550085],[100.0875417,14.9536266],[100.0932885,14.9558016],[100.0962476,14.9526124],[100.0988101,14.9531447],[100.101886,14.9485948],[100.1043386,14.9496449],[100.1061204,14.9456015],[100.1151832,14.9479844],[100.1227183,14.9445591],[100.1249726,14.9449332],[100.1256484,14.9476813],[100.1268827,14.945962],[100.1326493,14.9458744],[100.1339778,14.9416398],[100.1366403,14.9433549],[100.1381497,14.9369175],[100.1361737,14.9339431],[100.13276,14.935812],[100.1300467,14.9317156],[100.1275724,14.9314171],[100.1263032,14.9229585],[100.1287991,14.9235131],[100.1293242,14.9257128],[100.1355769,14.924134],[100.1494624,14.9258985],[100.1508746,14.9286732],[100.1557889,14.9272589],[100.1671786,14.9352165],[100.1670736,14.9391653],[100.1729645,14.9408092],[100.1746611,14.944046],[100.1770789,14.9447642],[100.1772242,14.9476172],[100.1836917,14.9553463],[100.2017559,14.9591183],[100.2025346,14.9509761],[100.1981609,14.9398339],[100.1940413,14.9374569],[100.1886535,14.9376025],[100.1826656,14.9352113],[100.1824193,14.9245978],[100.1863263,14.919308],[100.186399,14.9080853],[100.1927553,14.9046198],[100.1977234,14.9044499],[100.2163866,14.910648],[100.2215602,14.9069468],[100.2229635,14.9028891],[100.2179066,14.9010667],[100.2154848,14.898112],[100.208183,14.8972694],[100.2062473,14.8952559],[100.2076441,14.8870942],[100.2096906,14.884385],[100.2134504,14.8836361],[100.2184091,14.8860117],[100.2224233,14.885567],[100.2244455,14.8823441],[100.2238037,14.8800123],[100.2162113,14.8726831],[100.2214636,14.864906],[100.2178642,14.8593788],[100.2184424,14.853316],[100.2163233,14.8495998],[100.2187542,14.844081],[100.2095604,14.8339969],[100.2092244,14.8221593],[100.2042331,14.8097472],[100.2061426,14.8080266],[100.2146097,14.8068374],[100.2166472,14.7982599],[100.2185129,14.796927],[100.2255505,14.7974111],[100.2278487,14.7894626],[100.2305807,14.7874138],[100.2254948,14.7848456],[100.2194594,14.784816],[100.2201954,14.7794046],[100.2178454,14.7791582],[100.2180719,14.7769407],[100.2118493,14.778002],[100.2128211,14.7745045],[100.2114464,14.7737],[100.2089965,14.7750829],[100.2058141,14.7726713],[100.2066706,14.7708267],[100.2024248,14.7700869],[100.2024784,14.7666965],[100.2043407,14.765149],[100.2035091,14.7587773],[100.2015838,14.758305],[100.2047442,14.7519208],[100.2014715,14.7503443],[100.2022198,14.7469988],[100.2047395,14.7470945],[100.2066879,14.7366345],[100.2091542,14.7369418],[100.2131081,14.7278178],[100.2131223,14.7228545],[100.2092361,14.7197059],[100.2073097,14.7198211],[100.2066606,14.7221543],[100.2048767,14.7216447],[100.2063992,14.7182433],[100.2043089,14.7173581],[100.2052888,14.7140331],[100.2073415,14.7151011],[100.2120168,14.7129576],[100.2143149,14.708507],[100.2132502,14.7051418],[100.2155478,14.6967627],[100.2215889,14.6913432],[100.2214033,14.6893558],[100.223602,14.6889592],[100.2217207,14.6818129],[100.2199301,14.6813138],[100.2232469,14.6769146],[100.2203057,14.6745502],[100.2210916,14.6714907],[100.2263154,14.6699406],[100.2260241,14.6671501],[100.2294432,14.6650892],[100.2287033,14.6606212],[100.2320712,14.66147],[100.2320677,14.6570571],[100.2347081,14.6563477],[100.2345079,14.6532625],[100.2374938,14.6542978],[100.2386043,14.6520671],[100.2451072,14.6535477],[100.2467907,14.6520355],[100.2462758,14.6495898],[100.2444722,14.6505483],[100.2417989,14.64439],[100.2385283,14.6452522],[100.2320444,14.6419777],[100.2313796,14.6432487],[100.2298076,14.6420325],[100.2205542,14.6421165],[100.2190119,14.643484],[100.2145996,14.642232],[100.2139945,14.636753],[100.2107271,14.6375132],[100.2087276,14.6346575],[100.2095922,14.6328516],[100.2084366,14.632393],[100.2109179,14.6291934],[100.2087802,14.6279142],[100.2104773,14.6246073],[100.207302,14.6229219],[100.2036327,14.6256885],[100.2000654,14.6184111],[100.1944648,14.6204736],[100.1921593,14.6182646],[100.1918267,14.6162051],[100.1953274,14.6134655],[100.1950123,14.6121347],[100.1919801,14.611936],[100.1918029,14.6089882],[100.1981666,14.6059658],[100.2001265,14.5990142],[100.2035079,14.6013967],[100.2075817,14.601083],[100.2179658,14.5981184],[100.21878,14.5965644],[100.2062402,14.5834507],[100.2068057,14.5807417],[100.2101025,14.5793658],[100.2095797,14.573276],[100.2072943,14.5734219],[100.198434,14.5675993],[100.195863,14.5606241],[100.197068,14.5556868],[100.2082096,14.540227],[100.204867,14.5306973],[100.2064651,14.5235918],[100.2120495,14.5162229],[100.2249045,14.5086384],[100.2329225,14.5004832],[100.2301591,14.4946113],[100.2286364,14.4947979],[100.2291247,14.491254],[100.2312343,14.4902016],[100.2309491,14.4863371],[100.2285233,14.4856569],[100.2287834,14.4823083],[100.2352479,14.4802171],[100.2497519,14.4850668],[100.2532823,14.482628],[100.2530361,14.4762256],[100.2489407,14.4685712],[100.2460223,14.4686639],[100.2445766,14.4611735],[100.2449224,14.4560851],[100.25114,14.4431039],[100.2454543,14.4367703],[100.2539952,14.4330098],[100.2559354,14.433772],[100.259331,14.4291702],[100.2613663,14.4286494],[100.262357,14.4300046],[100.2673775,14.4279263],[100.2630498,14.4196423],[100.2675456,14.4161592],[100.2689659,14.4125726],[100.2734348,14.4116563],[100.2742328,14.4050354],[100.2758225,14.4040309],[100.2783089,14.4063403],[100.2866203,14.4046662],[100.2900073,14.4011844],[100.2885688,14.3984029],[100.2819605,14.3980529],[100.2795368,14.3922419],[100.2780316,14.3926001],[100.2740112,14.3855268],[100.273565,14.3781916],[100.2692696,14.3783195],[100.2689759,14.3764938],[100.27105,14.3751835],[100.2672463,14.3747593],[100.2669608,14.3681638],[100.2708462,14.3668612],[100.2702735,14.3653254],[100.2713994,14.3652829],[100.2709213,14.3619893],[100.2675412,14.3619099],[100.2733567,14.359487],[100.2735531,14.3535334],[100.2754569,14.3529519],[100.2746349,14.3480267],[100.2784018,14.3459373],[100.2764453,14.3428098],[100.279786,14.3417365],[100.2775142,14.3390313],[100.2771789,14.3325008],[100.2794842,14.3323007],[100.2811274,14.3258791],[100.278512,14.3200586],[100.2700953,14.31784],[100.2683831,14.3124063],[100.2603582,14.3052425],[100.2510241,14.2917066],[100.2512036,14.2869509],[100.2481927,14.2757197],[100.250998,14.2639514],[100.2489348,14.2535496],[100.238849,14.2346718],[100.2317347,14.2275222],[100.2324771,14.2172593],[100.2313506,14.2132656],[100.2355134,14.2107123],[100.2366828,14.2001763],[100.2386354,14.1976072],[100.2322947,14.1942217],[100.2286952,14.195371],[100.2270054,14.1935248],[100.2247899,14.1940084],[100.2232986,14.1909764],[100.2174014,14.1880889],[100.217945,14.1870889],[100.2148024,14.184936],[100.2126196,14.1789749]]]}}]}