{"type":"FeatureCollection","features":[{"type":"Feature","properties":{"provinceCode":"93","nameTh":"พัทลุง","nameEn":"Phatthalung"},"geometry":{"type":"Polygon","coordinates":[[[99.7382474,7.8588963],[99.7423477,7.857596],[99.7466243,7.8587312],[99.747072,7.8562377],[99.749611,7.8552988],[99.7525482,7.8582937],[99.7558691,7.8572234],[99.7607604,7.8586973],[99.7661884,7.8656276],[99.7685571,7.8651454],[99.7768947,7.8728692],[99.7780733,7.87616],[99.7876814,7.8808257],[99.8003257,7.8826625],[99.8038263,7.8902745],[99.808378,7.8928766],[99.8197512,7.8839316],[99.8225578,7.8877576],[99.828656,7.8846062],[99.8324696,7.8863894],[99.8376611,7.8856982],[99.8379734,7.8882745],[99.842039,7.8912677],[99.8495291,7.8893931],[99.8506101,7.8876431],[99.858923,7.8890479],[99.8619072,7.8864419],[99.8679033,7.886912],[99.8831453,7.8934886],[99.8848222,7.8902037],[99.9020793,7.8802674],[99.9231507,7.8649395],[99.9249899,7.8667412],[99.9217214,7.8681486],[99.9252112,7.8703603],[99.9264024,7.869366],[99.9266447,7.8722472],[99.9313027,7.8757949],[99.9329898,7.8751767],[99.9368159,7.8792718],[99.9419606,7.8805469],[99.9433941,7.8843152],[99.9475421,7.8863406],[99.9529234,7.9008607],[99.9580476,7.9048718],[99.9624124,7.9057409],[99.9645272,7.9003155],[99.9637962,7.8913036],[99.9663623,7.886189],[99.9659199,7.8767578],[99.9757759,7.8730576],[99.9877875,7.8601186],[99.9994077,7.853368],[100.010335,7.8483506],[100.0149542,7.8479017],[100.0190092,7.8450138],[100.0336822,7.8467255],[100.0424337,7.8416686],[100.045475,7.843292],[100.0511063,7.8429262],[100.0557892,7.8380379],[100.0642378,7.8435931],[100.0727644,7.840787],[100.0716772,7.8460572],[100.0845885,7.8599663],[100.0870978,7.8610057],[100.0921307,7.8706775],[100.094889,7.8707353],[100.0978447,7.8728213],[100.0979959,7.875811],[100.1042428,7.8780204],[100.1099797,7.8792462],[100.1269618,7.8779358],[100.1337628,7.8753084],[100.1408081,7.8683025],[100.1453788,7.8710231],[100.1713179,7.8734298],[100.1774952,7.8764791],[100.2006708,7.7775787],[100.203713,7.7748857],[100.2026276,7.7741763],[100.2082401,7.7518002],[100.2168162,7.7282659],[100.237177,7.5385913],[100.2606375,7.4965981],[100.2960136,7.4954155],[100.3091563,7.5048079],[100.3556819,7.5278199],[100.386468,7.5118469],[100.387707,7.4970981],[100.3825835,7.424992],[100.3861301,7.4163723],[100.3961968,7.4054493],[100.3988961,7.4002091],[100.4013958,7.3769913],[100.4097936,7.3509015],[100.4106635,7.3397219],[100.4201674,7.319779],[100.4285499,7.3099316],[100.4257353,7.293224],[100.427823,7.286254],[100.4265814,7.2814381],[100.4112624,7.2742406],[100.4086369,7.2653616],[100.402939,7.2626549],[100.3991365,7.2635645],[100.3951055,7.2692416],[100.388228,7.273099],[100.3834276,7.2785801],[100.3848269,7.2894859],[100.3792623,7.2988869],[100.3796997,7.3089514],[100.3784977,7.3132513],[100.3766888,7.3128007],[100.3746946,7.3102286],[100.3739172,7.304336],[100.362486,7.3026598],[100.3584002,7.3002643],[100.3568178,7.2930489],[100.3614415,7.2807134],[100.3595442,7.277902],[100.3483517,7.2775946],[100.3454169,7.273734],[100.3415755,7.2753363],[100.3393522,7.2604556],[100.3415155,7.2508931],[100.3407236,7.2481798],[100.3332329,7.2434801],[100.3342763,7.2391215],[100.3288193,7.2361955],[100.3245974,7.236033],[100.3144253,7.2295813],[100.313608,7.2273784],[100.3146782,7.2266139],[100.3114175,7.2220634],[100.312033,7.220401],[100.3046092,7.2086083],[100.2928879,7.2113572],[100.2799837,7.2109098],[100.2736283,7.20769],[100.2714997,7.2081247],[100.2692857,7.2040387],[100.261501,7.2012745],[100.2578083,7.1969319],[100.2502194,7.199448],[100.2413061,7.1924839],[100.2359321,7.1919607],[100.2327166,7.1941701],[100.2255161,7.1925116],[100.2239584,7.1938229],[100.2204919,7.1909727],[100.2157045,7.1897168],[100.212819,7.185897],[100.2085952,7.1868783],[100.206282,7.1837187],[100.2012491,7.1844498],[100.1977194,7.1809466],[100.1952105,7.1826198],[100.1903875,7.1804958],[100.1872547,7.1767323],[100.1849817,7.17785],[100.183868,7.1758178],[100.1831472,7.1769992],[100.1798311,7.1761831],[100.1775691,7.1741965],[100.1752103,7.1753598],[100.174536,7.1730419],[100.1723527,7.1722996],[100.1702601,7.1646263],[100.1682068,7.1650263],[100.1680143,7.1628349],[100.1660453,7.1628622],[100.1680409,7.1600996],[100.1647673,7.1587962],[100.1658099,7.1558679],[100.1619536,7.1553597],[100.1600465,7.1515025],[100.1579095,7.1516272],[100.1561976,7.148694],[100.1523951,7.1528599],[100.1477917,7.1489638],[100.14526,7.1503072],[100.143716,7.1494774],[100.1415622,7.1521529],[100.1361493,7.1522675],[100.1340877,7.1549395],[100.1340376,7.1587919],[100.1289534,7.1592],[100.1236982,7.1633592],[100.1250581,7.1643349],[100.1236229,7.1655568],[100.1217114,7.1647597],[100.1205894,7.1664703],[100.1196413,7.164526],[100.1152428,7.1668025],[100.1111394,7.1657879],[100.1055732,7.1632552],[100.1051093,7.1608873],[100.099961,7.1555173],[100.0984125,7.1558917],[100.0961686,7.1515485],[100.0837442,7.146219],[100.0750436,7.14716],[100.0684444,7.1386151],[100.0624995,7.1373311],[100.0635178,7.1348731],[100.0600668,7.1262564],[100.0609912,7.1238058],[100.0677422,7.1189568],[100.0675687,7.1113541],[100.0572198,7.1075797],[100.0522637,7.1100168],[100.0491117,7.1075886],[100.0453889,7.1090031],[100.0382547,7.1086954],[100.0369362,7.1014104],[100.0342429,7.1007351],[100.0308863,7.0929242],[100.0282283,7.0903324],[100.0253093,7.0926119],[100.0268712,7.099105],[100.0258099,7.1029823],[100.0129413,7.1093416],[100.0107854,7.1088301],[100.0094536,7.1105689],[100.0039656,7.1106323],[100.0026371,7.1135213],[100.0003122,7.1121091],[99.9899996,7.1248766],[99.9865115,7.1363452],[99.9802004,7.1420999],[99.9787468,7.1474906],[99.9716013,7.1506264],[99.97185,7.1569413],[99.969383,7.1658546],[99.964494,7.1670638],[99.961421,7.1698076],[99.9608323,7.1750277],[99.958525,7.1776847],[99.9606051,7.1820163],[99.9565977,7.1899284],[99.9593923,7.1943025],[99.9595769,7.1975575],[99.9485621,7.2036988],[99.944053,7.2137865],[99.9446008,7.2147661],[99.9486218,7.2132487],[99.9491024,7.2171945],[99.9465501,7.2196946],[99.9470777,7.2230091],[99.9430973,7.2261916],[99.9413578,7.2314803],[99.938433,7.2325323],[99.9395648,7.236049],[99.9328943,7.2414492],[99.9321613,7.2464882],[99.9351745,7.2497777],[99.9359233,7.2534272],[99.9382363,7.2557312],[99.9408506,7.2557621],[99.9447401,7.2641261],[99.9471344,7.2657492],[99.9469806,7.2693679],[99.9447104,7.2705951],[99.9407737,7.2807598],[99.9420495,7.2865039],[99.9395034,7.3033815],[99.9373501,7.3070077],[99.9398319,7.3103013],[99.9394731,7.31651],[99.9371668,7.3178614],[99.9179001,7.3182315],[99.9123977,7.3196866],[99.909157,7.3262723],[99.9090623,7.3309339],[99.9036529,7.3364765],[99.9047603,7.3385545],[99.9026411,7.3436197],[99.9051631,7.3526983],[99.9025262,7.3570121],[99.8991537,7.3583725],[99.8961427,7.3638162],[99.8960233,7.3669065],[99.9003138,7.37253],[99.9016925,7.3790191],[99.8957159,7.386675],[99.8929801,7.3931932],[99.8941851,7.3978574],[99.8912797,7.4033323],[99.8871974,7.4052833],[99.8854905,7.4079556],[99.8853161,7.4129389],[99.8769758,7.4174305],[99.8757402,7.422268],[99.8721068,7.4252255],[99.872084,7.4303992],[99.8679378,7.4371631],[99.8649228,7.4399371],[99.8609068,7.4406933],[99.862135,7.443675],[99.8596475,7.4468853],[99.86294,7.4506196],[99.8594934,7.4527077],[99.8574891,7.4606933],[99.84877,7.465294],[99.8475319,7.4706358],[99.8501334,7.4730736],[99.8500833,7.4768251],[99.8537459,7.4795758],[99.8523526,7.4844789],[99.8432454,7.4941033],[99.8425771,7.4990192],[99.8348434,7.5007456],[99.8330206,7.5040512],[99.822914,7.5081933],[99.8205774,7.5120548],[99.8215215,7.5174513],[99.8186958,7.5214468],[99.8250138,7.5234694],[99.8294544,7.5270628],[99.8292807,7.532753],[99.8372611,7.5413067],[99.8358114,7.5445136],[99.8364961,7.5490656],[99.8273554,7.5524353],[99.8125452,7.5732817],[99.8066154,7.5772889],[99.8032844,7.5831807],[99.7988206,7.5844217],[99.7988678,7.5876264],[99.7968787,7.5905874],[99.8006779,7.597412],[99.8003557,7.6039958],[99.8025996,7.609068],[99.8062584,7.6116912],[99.8068851,7.6201383],[99.8095753,7.6221358],[99.7984317,7.6296224],[99.7959718,7.6384698],[99.7900516,7.6411489],[99.7877086,7.6445691],[99.7947537,7.645745],[99.8089241,7.6447882],[99.8090038,7.6477653],[99.8140886,7.6492681],[99.8173912,7.6590138],[99.816781,7.6655031],[99.8195642,7.669023],[99.8165782,7.6738381],[99.8185153,7.6793069],[99.8155198,7.6836016],[99.801551,7.6870525],[99.8026261,7.6904918],[99.7988226,7.6948047],[99.7985332,7.6975415],[99.791724,7.7003026],[99.7888505,7.7122144],[99.7890224,7.7186602],[99.7849929,7.7253195],[99.7858873,7.7289725],[99.78373,7.7343998],[99.7882076,7.7427336],[99.7830002,7.7478134],[99.7832062,7.7501847],[99.7807942,7.7534441],[99.783841,7.7590313],[99.7769361,7.760196],[99.7738326,7.7652212],[99.7671592,7.7688266],[99.7689215,7.7730577],[99.7656007,7.7783274],[99.7671888,7.7813578],[99.7708533,7.7834649],[99.7708442,7.7887935],[99.766621,7.7956696],[99.7636393,7.7971141],[99.7637749,7.7998109],[99.7581072,7.8040588],[99.7586618,7.8122112],[99.7562104,7.8224077],[99.7522074,7.8248779],[99.751724,7.8321229],[99.7457309,7.836899],[99.7381084,7.8400931],[99.7378274,7.8441845],[99.7327731,7.849018],[99.7331343,7.8542297],[99.7382474,7.8588963]]]}}]}