{"type":"FeatureCollection","features":[{"type":"Feature","properties":{"provinceCode":"30","nameTh":"นครราชสีมา","nameEn":"Nakhon Ratchasima"},"geometry":{"type":"Polygon","coordinates":[[[102.9539245,15.3998825],[102.951835,15.4009682],[102.9517831,15.4038319],[102.9565191,15.4059503],[102.9569398,15.4104341],[102.959556,15.4104817],[102.9614996,15.4086085],[102.9615393,15.4060451],[102.9578311,15.4050141],[102.9581857,15.4034436],[102.9619412,15.4034751],[102.9640365,15.4065747],[102.9671173,15.4075996],[102.9647389,15.4091378],[102.9667076,15.4116096],[102.9664353,15.4172757],[102.9646615,15.4190173],[102.9708709,15.4200676],[102.9704766,15.4267429],[102.9764879,15.4294421],[102.978825,15.4289759],[102.9792079,15.4238051],[102.976364,15.4201577],[102.9783677,15.4168134],[102.9821545,15.4159269],[102.9835909,15.4194323],[102.9800419,15.4242186],[102.9810758,15.426767],[102.984491,15.4265428],[102.9852103,15.4244215],[102.9888644,15.4225988],[102.9859659,15.4181855],[102.9927274,15.4141513],[102.9962019,15.4174999],[103.0014181,15.4278605],[103.0124451,15.4297003],[103.0114096,15.4325079],[103.0066949,15.4330045],[103.0100693,15.4365086],[103.0097997,15.4381221],[103.0058797,15.4389084],[103.0006069,15.4498221],[102.9954778,15.4535919],[102.9943408,15.4570999],[102.9976902,15.459452],[102.9936669,15.4625435],[102.9932381,15.4688873],[102.9904495,15.4666381],[102.9853425,15.4667516],[102.9788185,15.4818172],[102.9750607,15.4811017],[102.9738121,15.4772299],[102.9677281,15.4777165],[102.9658256,15.4853541],[102.958261,15.4836743],[102.9609732,15.4815255],[102.9608828,15.4790923],[102.9541393,15.4783247],[102.9523816,15.4794934],[102.9505229,15.4770798],[102.9481726,15.4785755],[102.9490055,15.4817684],[102.9464682,15.4827628],[102.9433677,15.4815086],[102.9443883,15.477182],[102.9423732,15.4792256],[102.9406328,15.4780392],[102.9421082,15.4754125],[102.9373848,15.476036],[102.9363215,15.4783296],[102.9394714,15.4800944],[102.9396908,15.4852753],[102.9450718,15.4873739],[102.9442513,15.4902719],[102.938862,15.4970259],[102.9372071,15.4958903],[102.9390767,15.4931659],[102.9383,15.4917355],[102.9340643,15.4924754],[102.934013,15.4887164],[102.9309691,15.4881592],[102.9278112,15.491022],[102.9293313,15.4923815],[102.9280659,15.4953021],[102.922231,15.4989106],[102.9231312,15.5024042],[102.9262534,15.5015832],[102.9263628,15.5044794],[102.9286153,15.502297],[102.9310762,15.5024698],[102.9314954,15.5068323],[102.9237174,15.5109419],[102.9188775,15.5063579],[102.9128483,15.5075866],[102.9098992,15.5094394],[102.909356,15.5130212],[102.9108441,15.5155753],[102.9078449,15.5151553],[102.8954105,15.5217798],[102.8894993,15.5169664],[102.8902781,15.5136449],[102.8861455,15.5152609],[102.8873905,15.5165823],[102.8842701,15.518595],[102.8876716,15.5200903],[102.8829981,15.5229907],[102.8770901,15.5215455],[102.8773982,15.5196251],[102.8716789,15.5202528],[102.8734291,15.512078],[102.871361,15.5139271],[102.8665694,15.5128298],[102.8667695,15.5106154],[102.8643546,15.5080757],[102.8624467,15.5083996],[102.8610955,15.5122559],[102.8586264,15.512166],[102.8583879,15.5141067],[102.8543175,15.5138268],[102.852602,15.5108512],[102.8500042,15.5114492],[102.8508206,15.5132908],[102.8460011,15.512334],[102.8384063,15.5136242],[102.8380787,15.5152598],[102.8362506,15.5151827],[102.83654,15.5170119],[102.8334372,15.5145909],[102.8311097,15.5159695],[102.8336195,15.5111242],[102.831549,15.5115429],[102.8298716,15.5094713],[102.8299316,15.5053637],[102.829224,15.5074093],[102.8258547,15.5088121],[102.8274211,15.5096608],[102.8254278,15.5110091],[102.8268687,15.5121123],[102.8254115,15.5140811],[102.8204551,15.5120383],[102.8148951,15.5128752],[102.8143231,15.5142102],[102.8155002,15.5141954],[102.8128729,15.5178934],[102.8139469,15.5206501],[102.8109746,15.5224385],[102.8120952,15.524588],[102.8098002,15.5260548],[102.808062,15.5250763],[102.8067617,15.5272049],[102.8051321,15.5267716],[102.8046932,15.5287865],[102.8032184,15.5269727],[102.801844,15.5295146],[102.8002582,15.52795],[102.800207,15.5303471],[102.798284,15.5296716],[102.7966238,15.531279],[102.7989236,15.5350728],[102.7970371,15.5375048],[102.798981,15.5396863],[102.7957662,15.5392055],[102.7969437,15.5418877],[102.7943421,15.5411933],[102.7926099,15.5424152],[102.7962114,15.5461201],[102.7936431,15.5447536],[102.7929517,15.5478375],[102.7907453,15.5459934],[102.7893829,15.5467914],[102.7902423,15.5526866],[102.7930833,15.553165],[102.7925679,15.5565626],[102.7883842,15.5547291],[102.7860682,15.5557867],[102.7865017,15.5578919],[102.7838607,15.5586091],[102.7864226,15.5596265],[102.7818376,15.5610993],[102.7805212,15.5636413],[102.7808249,15.5692574],[102.7826981,15.567269],[102.7822721,15.5692018],[102.7852596,15.5707912],[102.7803406,15.5737847],[102.7846289,15.5752023],[102.7849013,15.5782354],[102.7832894,15.5779393],[102.7812997,15.5805193],[102.7821833,15.5835744],[102.784355,15.5848403],[102.7809208,15.5878653],[102.7826745,15.5914693],[102.7803525,15.5906357],[102.7769782,15.5922835],[102.7784718,15.598567],[102.7801521,15.599038],[102.7800246,15.6029155],[102.7775204,15.6043852],[102.7768805,15.6088992],[102.7750568,15.6089755],[102.7768295,15.610333],[102.7752825,15.6122567],[102.7761246,15.6136516],[102.7730104,15.6149628],[102.7728665,15.6175874],[102.7698735,15.6175683],[102.7713354,15.6218345],[102.7671401,15.6263894],[102.7737365,15.629407],[102.7725549,15.6315482],[102.7747908,15.632137],[102.7740157,15.6337504],[102.7762672,15.6331378],[102.7756308,15.6348875],[102.7775809,15.637117],[102.7798132,15.6366743],[102.7799083,15.6414834],[102.7773458,15.641457],[102.7763344,15.6430912],[102.779928,15.6445463],[102.7783071,15.6467872],[102.7792782,15.6478946],[102.7753447,15.6509259],[102.7741211,15.6498293],[102.7741759,15.6515452],[102.7722167,15.650938],[102.77247,15.6531465],[102.7708555,15.6542985],[102.770648,15.6520185],[102.7658691,15.6537691],[102.7614194,15.6529433],[102.7601515,15.6556456],[102.7539913,15.6585691],[102.7528764,15.6617488],[102.7480066,15.6619946],[102.749635,15.6641142],[102.7466707,15.6676382],[102.7476316,15.6701979],[102.7414165,15.6682225],[102.7402455,15.6696635],[102.740549,15.6684666],[102.7362538,15.6684018],[102.7339838,15.6661609],[102.7335018,15.6679049],[102.7305129,15.6679498],[102.7283911,15.6655855],[102.7271932,15.6681439],[102.7268353,15.6654806],[102.7207804,15.6670295],[102.7165479,15.6660576],[102.7170485,15.6691519],[102.7154157,15.6685879],[102.7146285,15.6701431],[102.7149649,15.6745821],[102.712478,15.6815098],[102.709266,15.681805],[102.708458,15.6860603],[102.7050669,15.6872641],[102.704743,15.689689],[102.7035519,15.688186],[102.7025874,15.6898923],[102.7004896,15.6890581],[102.7006414,15.6930343],[102.6895834,15.7025537],[102.6892694,15.7075318],[102.6921202,15.7063335],[102.6930029,15.7074995],[102.6902964,15.7133877],[102.6944182,15.7142442],[102.6949861,15.7159342],[102.6925704,15.7177685],[102.6940696,15.7198447],[102.6916313,15.721041],[102.6913367,15.7240895],[102.6838639,15.7250526],[102.6823905,15.7285126],[102.6727081,15.7227325],[102.6725585,15.7185653],[102.6681058,15.7156476],[102.6564057,15.7175662],[102.6501041,15.7145032],[102.6416825,15.7164765],[102.6384932,15.7148681],[102.6358725,15.7181429],[102.6313657,15.7186631],[102.6268537,15.7218779],[102.6227834,15.7209454],[102.6224642,15.7233761],[102.6134477,15.7276313],[102.6092234,15.727922],[102.6020804,15.7230377],[102.5976543,15.7148634],[102.5978937,15.7124744],[102.5870598,15.709958],[102.5810365,15.7065407],[102.5765114,15.7097203],[102.5723465,15.7078554],[102.5653259,15.7080988],[102.5558528,15.7035153],[102.5412823,15.7091144],[102.5355831,15.7085457],[102.5115549,15.7281949],[102.5013242,15.7248989],[102.4932609,15.7245934],[102.4792156,15.7175678],[102.4495476,15.7161364],[102.4442044,15.7113346],[102.4410639,15.7052352],[102.4318603,15.7048341],[102.427323,15.7015915],[102.4232141,15.6954373],[102.417041,15.6956523],[102.404417,15.7002853],[102.4008315,15.7102099],[102.3985633,15.7103927],[102.3932595,15.7175145],[102.3907303,15.7182706],[102.3868394,15.7257835],[102.3820552,15.7267467],[102.3745952,15.7338876],[102.3717957,15.7337701],[102.3704307,15.7315608],[102.3657673,15.7316817],[102.3632733,15.7292105],[102.3612932,15.7299288],[102.358511,15.7338282],[102.3569858,15.7402845],[102.3583696,15.7470324],[102.3616068,15.752467],[102.3597299,15.7594782],[102.3637099,15.7608393],[102.3631927,15.7674199],[102.3570121,15.7680936],[102.3559126,15.7715947],[102.3499126,15.7748104],[102.3499982,15.7769795],[102.3476523,15.7778454],[102.3290797,15.7968244],[102.3286138,15.7989347],[102.3273276,15.7987963],[102.3275624,15.8034145],[102.3243747,15.8013604],[102.3234429,15.8026626],[102.3249556,15.8048512],[102.319065,15.8043752],[102.3180405,15.8074245],[102.3126467,15.808174],[102.312325,15.8003061],[102.3107384,15.799114],[102.3091329,15.8011418],[102.308031,15.8005904],[102.3074344,15.7928514],[102.3025768,15.790079],[102.2955967,15.7892683],[102.2930615,15.7851661],[102.285962,15.7873351],[102.2844522,15.7864105],[102.2852211,15.7835259],[102.2828167,15.7827969],[102.2797586,15.7844888],[102.2764985,15.7808983],[102.2695918,15.7852326],[102.2680579,15.7824951],[102.2656626,15.7833558],[102.2637937,15.7812149],[102.261503,15.7830707],[102.2593564,15.7812225],[102.256312,15.7814402],[102.2558654,15.7748081],[102.2582844,15.7723214],[102.2521401,15.7700125],[102.2525782,15.7644983],[102.2505603,15.7627344],[102.2523585,15.7597986],[102.2482757,15.7595421],[102.2467559,15.7574607],[102.2533027,15.7544688],[102.2498642,15.750142],[102.2477644,15.7494498],[102.2438256,15.752004],[102.2415206,15.7489522],[102.2376562,15.7485151],[102.236179,15.7457389],[102.2316601,15.7433295],[102.2305463,15.7457418],[102.2277453,15.7454419],[102.227053,15.7484584],[102.2192481,15.7470539],[102.223342,15.7496582],[102.2230401,15.7509854],[102.2185816,15.7526627],[102.2159213,15.7499459],[102.2143114,15.7546354],[102.2075908,15.7539746],[102.2050449,15.7572734],[102.2029036,15.7518598],[102.2001889,15.7497736],[102.2013062,15.7484921],[102.2034491,15.749942],[102.2053374,15.7491874],[102.2015367,15.739065],[102.1993202,15.7402582],[102.1960622,15.7388867],[102.1931771,15.7416034],[102.1915226,15.7388599],[102.1877368,15.7388027],[102.1873108,15.7411004],[102.1849558,15.7400985],[102.1829498,15.7431563],[102.187278,15.7456001],[102.1861585,15.7475411],[102.1819938,15.7445027],[102.1797684,15.7477761],[102.1783677,15.7440375],[102.1758789,15.7466131],[102.1729608,15.744023],[102.1644473,15.7444687],[102.1632189,15.7428258],[102.1667216,15.7411239],[102.1631284,15.7371949],[102.1631628,15.7404869],[102.157087,15.7419139],[102.1557273,15.7405915],[102.1576136,15.7347034],[102.1547367,15.7338954],[102.1566115,15.7317859],[102.1553784,15.7306902],[102.1574139,15.7290753],[102.1607089,15.7305555],[102.1625245,15.7285426],[102.1622218,15.7262104],[102.1575355,15.7240407],[102.1535088,15.7261773],[102.1560069,15.7234931],[102.1563236,15.7197954],[102.1538449,15.7185568],[102.1529499,15.7222834],[102.1508667,15.7218597],[102.1532239,15.7165424],[102.1501014,15.7125599],[102.1512334,15.7100263],[102.1469481,15.710112],[102.1496003,15.709246],[102.1498097,15.7070902],[102.1478896,15.7059359],[102.1432262,15.7068104],[102.1449197,15.7009953],[102.1430969,15.6974654],[102.1447768,15.6900768],[102.1438831,15.6875145],[102.1469051,15.684872],[102.1433738,15.6822693],[102.1444166,15.678739],[102.1411611,15.6796748],[102.1431624,15.6767371],[102.1407292,15.6774158],[102.1371117,15.671459],[102.1348578,15.6712154],[102.1356712,15.6738301],[102.1323698,15.6749844],[102.1322364,15.6717742],[102.1276959,15.6707525],[102.1322314,15.6672983],[102.1314308,15.6664378],[102.1296448,15.6680541],[102.1281982,15.665411],[102.1254341,15.6662919],[102.1276556,15.6634874],[102.1239113,15.6625632],[102.1257749,15.658885],[102.1287069,15.6595687],[102.1279866,15.6510529],[102.1243182,15.6527914],[102.1239316,15.6551132],[102.1189657,15.6531368],[102.1194661,15.6515934],[102.1215809,15.6514883],[102.1212648,15.6460674],[102.1198489,15.6480344],[102.11769,15.6460342],[102.1146779,15.6474349],[102.1132173,15.6444936],[102.1151291,15.6430656],[102.1129073,15.6394419],[102.1113127,15.6401463],[102.1116869,15.6457357],[102.1110104,15.6440064],[102.1081922,15.6441524],[102.1068619,15.6402439],[102.1051803,15.6408664],[102.1018877,15.6383692],[102.1035027,15.6370544],[102.1063945,15.6384572],[102.1051968,15.6360794],[102.1059816,15.633238],[102.0994202,15.6361194],[102.0991939,15.633129],[102.1009817,15.6320554],[102.0999732,15.6302621],[102.0954751,15.6294665],[102.0981466,15.6317172],[102.0953197,15.6339618],[102.0917617,15.6274492],[102.0903951,15.6335504],[102.0886049,15.6342835],[102.0859037,15.6302363],[102.0897297,15.6269321],[102.0833105,15.6269185],[102.0869696,15.6255372],[102.0837584,15.6212204],[102.0828334,15.6220973],[102.0850874,15.6243638],[102.080723,15.6259215],[102.0799808,15.6244102],[102.0820341,15.6230007],[102.0807681,15.6219231],[102.0746176,15.6240563],[102.0720553,15.6036538],[102.0669975,15.5948915],[102.0605457,15.588443],[102.0620881,15.5819269],[102.0541676,15.5746259],[102.0377427,15.5480145],[102.0426262,15.5286594],[102.0358213,15.512053],[102.0323543,15.4985383],[102.0357337,15.4819878],[102.034962,15.4779731],[102.0096509,15.4579662],[102.0014347,15.4604346],[101.9995862,15.4624508],[101.9891498,15.4646213],[101.9648156,15.4562274],[101.953303,15.4546918],[101.9373626,15.4564322],[101.9368119,15.4553894],[101.9385858,15.4545514],[101.9367856,15.4492426],[101.9352978,15.4492451],[101.9358952,15.4474136],[101.9332154,15.4485515],[101.9314563,15.4448916],[101.9317305,15.4361706],[101.9211302,15.4350684],[101.9149265,15.4370206],[101.9123898,15.4355902],[101.9110148,15.4334491],[101.9107369,15.4216705],[101.8988493,15.4090606],[101.894286,15.4015938],[101.8907095,15.3986732],[101.8799017,15.3944391],[101.8787526,15.3891033],[101.8387498,15.414639],[101.827919,15.4139544],[101.8227388,15.4155599],[101.817856,15.4195318],[101.8051107,15.4209995],[101.802267,15.420468],[101.8057016,15.4126215],[101.8018166,15.4032574],[101.7952963,15.3993024],[101.7835001,15.3867282],[101.7785815,15.3839811],[101.7616734,15.3813658],[101.7202607,15.3848337],[101.7167812,15.3865895],[101.714326,15.3903068],[101.7024762,15.3944034],[101.6862651,15.3921269],[101.6667582,15.4005219],[101.6568362,15.4016754],[101.64737,15.3918399],[101.6191016,15.3704396],[101.6122566,15.373556],[101.6057609,15.3806914],[101.5946172,15.377443],[101.5911457,15.3782563],[101.5897675,15.3768601],[101.590143,15.3740268],[101.5892978,15.3748704],[101.5882962,15.3734999],[101.5660552,15.3719606],[101.5513263,15.3856797],[101.5431558,15.4024319],[101.5396319,15.400878],[101.5367858,15.4038789],[101.535677,15.4023628],[101.5309192,15.4030407],[101.5288371,15.3987155],[101.5281373,15.4014519],[101.5246871,15.4004019],[101.5232539,15.4019555],[101.5229213,15.3989115],[101.5176591,15.3982682],[101.5158936,15.3995519],[101.51655,15.3952652],[101.5151081,15.3963278],[101.5074446,15.3902931],[101.5055128,15.3843341],[101.5033466,15.3817778],[101.500748,15.3815731],[101.4977719,15.3757903],[101.4957554,15.3756508],[101.4945022,15.3715406],[101.5006999,15.356444],[101.4615299,15.3505565],[101.4438434,15.3507511],[101.4354332,15.3481409],[101.4336002,15.3450267],[101.435229,15.3443869],[101.43153,15.3400669],[101.431549,15.3376981],[101.4283619,15.3386529],[101.428598,15.3415214],[101.4283076,15.3398603],[101.4234904,15.3375468],[101.4207512,15.3380941],[101.4222825,15.3353911],[101.419577,15.3353642],[101.4188687,15.3328201],[101.4169155,15.3320733],[101.3820211,15.3314025],[101.3804244,15.2896973],[101.3829326,15.2630833],[101.3849329,15.2576709],[101.3859064,15.2454208],[101.3903661,15.2406618],[101.3873973,15.2356593],[101.3872768,15.2306353],[101.3954877,15.1839837],[101.4001215,15.1677785],[101.399673,15.1593241],[101.4019766,15.1519667],[101.4007677,15.1433484],[101.4017864,15.1362649],[101.3990972,15.1246655],[101.4006976,15.1109152],[101.3990708,15.1042002],[101.4006938,15.102299],[101.3960042,15.0991171],[101.3987672,15.0979002],[101.3970396,15.0967059],[101.3993801,15.0881113],[101.3978607,15.0889233],[101.3973952,15.0874442],[101.3994763,15.0858286],[101.398303,15.0844624],[101.4003072,15.0696329],[101.4029051,15.0622755],[101.4090794,15.0570471],[101.4129847,15.0464812],[101.4149455,15.0449237],[101.4160325,15.039082],[101.4137997,15.0366518],[101.4146769,15.0332878],[101.4174288,15.0314447],[101.416079,15.0303709],[101.4193025,15.0210375],[101.418093,15.019531],[101.4213467,15.017132],[101.4227843,15.0135777],[101.4255309,15.0131373],[101.4224465,15.0111319],[101.4231273,15.0049673],[101.4206438,14.9971138],[101.4238739,14.9950526],[101.4240506,14.9897769],[101.4275137,14.986134],[101.4281632,14.9829279],[101.4299071,14.9825767],[101.4272742,14.9794329],[101.4304231,14.9768418],[101.4321342,14.972194],[101.4307844,14.9711886],[101.4325635,14.9680717],[101.4314982,14.9673061],[101.4333655,14.9655866],[101.4329985,14.9617688],[101.4317422,14.9603223],[101.4307073,14.9612535],[101.4297417,14.957382],[101.4325787,14.9529031],[101.4309753,14.9517792],[101.4314882,14.9497109],[101.4338807,14.9483841],[101.4325557,14.9473475],[101.4334838,14.9443673],[101.4356885,14.9434811],[101.4345406,14.9419158],[101.4364342,14.9415841],[101.4366124,14.9385966],[101.4352826,14.9383186],[101.4387969,14.9360759],[101.4383442,14.9338634],[101.4403584,14.9322716],[101.4380609,14.9297252],[101.4400882,14.9288202],[101.4393118,14.9271947],[101.4412837,14.9254144],[101.442296,14.9262006],[101.4447735,14.9237531],[101.4445172,14.9179408],[101.4472544,14.9166657],[101.4492388,14.9118189],[101.4466913,14.9078591],[101.4485045,14.9066019],[101.4489866,14.8993429],[101.4511278,14.8971508],[101.4511097,14.8864371],[101.4547357,14.8768791],[101.4542258,14.8751591],[101.4520636,14.8756556],[101.4510409,14.8739269],[101.453889,14.8686976],[101.4516489,14.8658528],[101.4537328,14.8657428],[101.4541083,14.8630622],[101.4501068,14.8572216],[101.4400427,14.8551402],[101.4332721,14.8501077],[101.4251976,14.8489668],[101.4199273,14.8437353],[101.4141543,14.8447884],[101.4085722,14.8479557],[101.4028323,14.8472194],[101.3978777,14.8496642],[101.378707,14.8507358],[101.3747948,14.8567307],[101.371417,14.856203],[101.3685751,14.8423451],[101.3721044,14.8325646],[101.3724803,14.8223492],[101.3706643,14.8155531],[101.3658254,14.8118963],[101.348214,14.8081638],[101.3414279,14.8017028],[101.3339183,14.7989351],[101.3292002,14.7916049],[101.3138837,14.7781733],[101.3086326,14.7714752],[101.3075273,14.7577853],[101.30672,14.7560593],[101.3049667,14.7568186],[101.3051371,14.7550016],[101.303774,14.7553417],[101.3016521,14.7514872],[101.3032407,14.742324],[101.3003694,14.7413865],[101.299414,14.7376282],[101.2918755,14.7361923],[101.2888601,14.7398922],[101.2870869,14.7460302],[101.2825005,14.7451681],[101.2823897,14.7291236],[101.2806059,14.7260019],[101.2781143,14.7258787],[101.2773711,14.7275833],[101.2750281,14.7255501],[101.2713261,14.7262621],[101.2703847,14.7283364],[101.2673088,14.7283518],[101.2669172,14.7306605],[101.2649914,14.7305982],[101.2629851,14.7334672],[101.2587848,14.7301105],[101.2550283,14.7327398],[101.2539949,14.7314597],[101.2501655,14.7321511],[101.2491684,14.7351599],[101.246153,14.7311072],[101.2426435,14.7334274],[101.2375844,14.7325454],[101.2338303,14.7348069],[101.2316289,14.7320686],[101.2299004,14.7361057],[101.22733,14.7366085],[101.2266722,14.7394153],[101.2244835,14.7401883],[101.2253525,14.7411273],[101.2239751,14.7429227],[101.2160613,14.7467415],[101.2172506,14.7487914],[101.2155129,14.7535884],[101.2111409,14.7542849],[101.2116374,14.7562808],[101.2089232,14.7545805],[101.2082727,14.7510252],[101.1989886,14.7558666],[101.1966779,14.7537776],[101.1983113,14.7514755],[101.1974911,14.7491506],[101.1940652,14.7511894],[101.19199,14.748807],[101.1887774,14.7493822],[101.1882274,14.7456995],[101.1940633,14.740126],[101.1906145,14.7336923],[101.1940302,14.7314928],[101.1906211,14.7255163],[101.1913173,14.7241395],[101.18742,14.7254495],[101.1850537,14.7219229],[101.1876427,14.7201354],[101.1892922,14.714864],[101.1864905,14.7113724],[101.1911324,14.7091655],[101.191582,14.7065911],[101.1952007,14.7053794],[101.1937493,14.7038682],[101.1961756,14.7026039],[101.1949581,14.7014679],[101.1967489,14.6998859],[101.1961651,14.6959059],[101.1989321,14.6947253],[101.1985338,14.6919998],[101.2011972,14.6891367],[101.2008249,14.6845279],[101.2039128,14.6832478],[101.2011795,14.6798577],[101.2020234,14.675554],[101.2007345,14.6748332],[101.1994515,14.6693321],[101.2005185,14.6658489],[101.1990347,14.6638779],[101.2026484,14.6625577],[101.2049105,14.6559474],[101.2054109,14.6530463],[101.2035638,14.652161],[101.2063424,14.648074],[101.2048879,14.6444191],[101.2053176,14.6396898],[101.2069707,14.6387021],[101.2065006,14.6348173],[101.2083352,14.6327435],[101.2080741,14.6299861],[101.2059775,14.6296254],[101.2068309,14.6285339],[101.2052192,14.6277386],[101.2055531,14.6244296],[101.2039148,14.623608],[101.2045551,14.6155764],[101.2079263,14.6130798],[101.2043689,14.6084303],[101.2105233,14.5993071],[101.2085317,14.5953356],[101.2115141,14.5954],[101.2113261,14.593077],[101.2149602,14.5915573],[101.2155945,14.5893062],[101.2149635,14.5865777],[101.2091819,14.5840056],[101.2082597,14.5806573],[101.2050604,14.5799827],[101.206615,14.577091],[101.2027421,14.5737862],[101.2028126,14.5711445],[101.2000626,14.5704328],[101.2012106,14.5650228],[101.1980134,14.5649553],[101.1965704,14.5619335],[101.1938345,14.5614454],[101.1947679,14.5536156],[101.1907072,14.5546133],[101.1878708,14.5510211],[101.1849232,14.5516234],[101.1814064,14.5473543],[101.1828047,14.5446135],[101.1810675,14.54375],[101.1846496,14.5358686],[101.183418,14.5347409],[101.1902062,14.5281887],[101.1951493,14.5311942],[101.1971591,14.525175],[101.2104646,14.5201092],[101.210847,14.51468],[101.2173775,14.5062353],[101.2230984,14.5041107],[101.226007,14.4944984],[101.2385693,14.4787795],[101.2428317,14.4711043],[101.241258,14.4805507],[101.2440929,14.4886952],[101.2485873,14.489305],[101.2503634,14.4906875],[101.2510848,14.4946279],[101.2561575,14.4977112],[101.2585638,14.4973289],[101.266141,14.5023869],[101.2679517,14.507445],[101.2716874,14.5094712],[101.2726084,14.5124823],[101.2777057,14.5121709],[101.2783522,14.5059069],[101.28423,14.50207],[101.2825674,14.4986391],[101.2837514,14.4891775],[101.292431,14.4903065],[101.2999762,14.4982735],[101.3064073,14.4983485],[101.3050117,14.4946132],[101.3072359,14.4905575],[101.3054642,14.4868757],[101.3123316,14.4713569],[101.3165634,14.4709793],[101.316832,14.4695362],[101.3245358,14.4694109],[101.3288862,14.4652045],[101.3320943,14.466031],[101.3424123,14.4564574],[101.3487581,14.4535049],[101.352734,14.4545557],[101.3578711,14.4492851],[101.3661166,14.4491951],[101.3643687,14.4457862],[101.3701206,14.44266],[101.370281,14.4378449],[101.3711947,14.4401778],[101.3732907,14.4396864],[101.3769932,14.4351987],[101.3821493,14.434147],[101.3810299,14.4314473],[101.3820571,14.4290911],[101.3793063,14.4290721],[101.3780711,14.4272163],[101.3804926,14.4235095],[101.3882515,14.4238312],[101.3904953,14.4200631],[101.3959963,14.418662],[101.3972214,14.4082271],[101.4066889,14.4041722],[101.4222089,14.3837057],[101.426141,14.3897477],[101.4323043,14.3894911],[101.4338689,14.394676],[101.4395727,14.4023646],[101.4391024,14.4072568],[101.4420827,14.4165443],[101.4474057,14.4208126],[101.445488,14.4268746],[101.4419672,14.4274348],[101.4372954,14.4361703],[101.4359275,14.4396084],[101.4378504,14.4428512],[101.4363779,14.4459582],[101.4599972,14.4568279],[101.4698837,14.4596621],[101.4741687,14.4581568],[101.4787545,14.4615101],[101.485095,14.4625255],[101.4877466,14.461587],[101.4912805,14.4528054],[101.5027343,14.4397308],[101.5134275,14.4328313],[101.5305021,14.4260347],[101.54079,14.4254947],[101.5415952,14.4296604],[101.5473101,14.4361953],[101.5751902,14.4358162],[101.5840318,14.4403499],[101.5949383,14.4418413],[101.6049402,14.440305],[101.611733,14.4372206],[101.6227852,14.4277232],[101.6183368,14.418557],[101.6198596,14.4156869],[101.6271746,14.4134052],[101.6306261,14.4061826],[101.6417132,14.4075602],[101.6488213,14.4039285],[101.649809,14.4014927],[101.6480347,14.3977609],[101.6483794,14.3930545],[101.6540853,14.392923],[101.6583748,14.3903139],[101.6657295,14.3804419],[101.68928,14.3595871],[101.7088578,14.33463],[101.7202241,14.3278547],[101.726761,14.3201501],[101.7415468,14.3083902],[101.7478313,14.3142705],[101.7480353,14.3201821],[101.7504889,14.3246079],[101.7467414,14.3323468],[101.7467038,14.3455167],[101.7485718,14.3488437],[101.7582259,14.3433866],[101.7715106,14.3449596],[101.7733129,14.3464948],[101.7732647,14.3506274],[101.7809427,14.3524511],[101.7797393,14.3571672],[101.7855253,14.3571315],[101.7884574,14.3597436],[101.7929419,14.3570312],[101.7953779,14.3585158],[101.8083071,14.3481151],[101.8122075,14.3477308],[101.8169131,14.3503312],[101.8236978,14.3502739],[101.828564,14.3559128],[101.8301867,14.3621953],[101.8359706,14.3625671],[101.8413097,14.3649942],[101.838523,14.3524688],[101.8594301,14.3418939],[101.8672894,14.3340115],[101.8710423,14.327872],[101.8732983,14.3274508],[101.8777174,14.322598],[101.8873968,14.3227974],[101.8897601,14.3199769],[101.8922497,14.3211243],[101.8923561,14.3265288],[101.8943035,14.3306432],[101.9020407,14.327187],[101.9104125,14.325847],[101.9171636,14.3321977],[101.9188466,14.3297088],[101.9230874,14.3301023],[101.9233891,14.3271827],[101.92666,14.327987],[101.9304253,14.3263021],[101.9303272,14.3231031],[101.9336062,14.3218529],[101.9355492,14.3110446],[101.9393837,14.3086769],[101.9433788,14.3023944],[101.9356829,14.2936344],[101.9296136,14.2916191],[101.9285653,14.2835582],[101.9361579,14.2737487],[101.9368102,14.2681098],[101.9398611,14.2617527],[101.9387262,14.2577581],[101.9421643,14.2551691],[101.9444365,14.2476992],[101.9466879,14.2460774],[101.958541,14.2451667],[101.9730655,14.2392987],[101.9821294,14.238101],[101.979644,14.2343876],[101.967095,14.2288915],[101.9667891,14.2273862],[101.9934783,14.214694],[102.0013694,14.2066773],[102.004372,14.2065769],[102.0074587,14.2031139],[102.0114554,14.2028756],[102.0152046,14.2003288],[102.0193773,14.2012556],[102.0345627,14.1982837],[102.0413686,14.1876867],[102.0524163,14.1821612],[102.0529602,14.1800706],[102.0612161,14.174908],[102.0703643,14.165072],[102.0778553,14.1623061],[102.0841386,14.162854],[102.0933842,14.1581863],[102.1007554,14.1570146],[102.1062059,14.1517591],[102.1219539,14.1472291],[102.1325588,14.1380967],[102.1509514,14.1371367],[102.1630707,14.139759],[102.1680069,14.1431645],[102.1691551,14.1526469],[102.171629,14.158338],[102.17138,14.1608877],[102.1662855,14.1656216],[102.1668482,14.1723853],[102.1740102,14.1830973],[102.1739378,14.1869729],[102.176547,14.1913934],[102.1817264,14.1955696],[102.1909419,14.1957918],[102.1950845,14.1927348],[102.1968698,14.1846274],[102.2012529,14.1787386],[102.206337,14.1740578],[102.2115612,14.1722376],[102.2135363,14.1652557],[102.210681,14.1543518],[102.2146845,14.1462581],[102.2183418,14.1445242],[102.239027,14.1443161],[102.2488546,14.1405708],[102.2563763,14.1443805],[102.268795,14.1466717],[102.2721195,14.1413514],[102.2718572,14.1291264],[102.2902689,14.1341841],[102.299323,14.1275865],[102.3015509,14.1230747],[102.3080425,14.1203894],[102.3152485,14.1219518],[102.3250561,14.1278438],[102.3278656,14.1275665],[102.3302221,14.1216768],[102.332282,14.1206363],[102.3395014,14.1261791],[102.3482894,14.1255474],[102.3509502,14.1266709],[102.3529672,14.1303749],[102.3571299,14.131998],[102.3607778,14.1512656],[102.3579864,14.1640344],[102.3588466,14.1652887],[102.362194,14.1661209],[102.3641558,14.1648773],[102.375843,14.1505772],[102.3824674,14.1462471],[102.3908635,14.1446657],[102.4001923,14.1460272],[102.4066848,14.1545007],[102.4100875,14.1561343],[102.4181556,14.1544698],[102.4237775,14.1579652],[102.4280872,14.1523221],[102.4345295,14.1545899],[102.4386605,14.1621707],[102.438311,14.1671454],[102.4400152,14.1722631],[102.45318,14.1937294],[102.468838,14.1919099],[102.4738055,14.1990123],[102.4769364,14.200028],[102.4863316,14.1893315],[102.4988192,14.1860753],[102.5040957,14.1886942],[102.5121782,14.2012171],[102.5383211,14.2021696],[102.5423129,14.2057759],[102.5487388,14.2166005],[102.5578107,14.2176311],[102.5779026,14.2267309],[102.588986,14.2362678],[102.6002272,14.2422801],[102.6133196,14.2560908],[102.6264883,14.266201],[102.6466072,14.278492],[102.6585396,14.2821942],[102.6862954,14.2991738],[102.6772543,14.302244],[102.6725964,14.3097728],[102.665877,14.3166789],[102.6427991,14.3266047],[102.6332877,14.3265776],[102.6208143,14.3198189],[102.6026613,14.3225171],[102.5981619,14.3281661],[102.5894278,14.3324051],[102.5872563,14.3350704],[102.5883331,14.348427],[102.5834629,14.3579775],[102.5740921,14.3630156],[102.5691386,14.3624981],[102.5629427,14.3751354],[102.5622295,14.385703],[102.5637772,14.3979685],[102.5693398,14.4151487],[102.5694626,14.4267162],[102.5833751,14.4457264],[102.5993837,14.4476009],[102.6013091,14.4563831],[102.6049859,14.4593239],[102.6071074,14.4649859],[102.6105985,14.4940871],[102.6014875,14.4966705],[102.5733177,14.4988013],[102.530707,14.5062686],[102.5108316,14.5066605],[102.4933402,14.5046678],[102.4870359,14.5072007],[102.481348,14.5119687],[102.4835116,14.5224049],[102.4914043,14.5324913],[102.4938378,14.5424523],[102.4932055,14.5527329],[102.4948719,14.5584308],[102.4936414,14.5606806],[102.4955017,14.5648021],[102.4832551,14.571089],[102.4666764,14.5860971],[102.471113,14.5914118],[102.4711515,14.6145456],[102.4746991,14.6316653],[102.4754585,14.6553887],[102.469198,14.6754643],[102.4683465,14.6835134],[102.4600646,14.699059],[102.460109,14.7085761],[102.4621678,14.7151995],[102.4677226,14.7224079],[102.474711,14.7273885],[102.4769059,14.7318516],[102.4764166,14.7492408],[102.4724032,14.763253],[102.4693577,14.7645321],[102.4681547,14.7627774],[102.4674081,14.7640701],[102.4600626,14.765323],[102.4597936,14.7667942],[102.4562215,14.7665981],[102.4542954,14.7694199],[102.4523558,14.7692584],[102.4468868,14.7782844],[102.4438854,14.7791707],[102.4458957,14.7856376],[102.4400535,14.7965265],[102.4397003,14.802],[102.4451732,14.8014447],[102.4470586,14.8197306],[102.4578993,14.8350979],[102.4707314,14.8166653],[102.500472,14.8024914],[102.5047473,14.8026497],[102.510499,14.8060469],[102.5179741,14.8066276],[102.5337279,14.8139378],[102.538061,14.8228996],[102.541315,14.8254602],[102.5411999,14.8295056],[102.5493838,14.8450148],[102.5501486,14.8486377],[102.547859,14.8548207],[102.5507567,14.8554657],[102.5524716,14.8623188],[102.5528158,14.8657788],[102.5468555,14.8677943],[102.5455367,14.8702548],[102.5457013,14.8741059],[102.5507601,14.8810245],[102.5456219,14.8875901],[102.5407101,14.8888715],[102.5421327,14.8963238],[102.5439825,14.8959049],[102.5458709,14.899711],[102.5460021,14.9027372],[102.5438608,14.9043687],[102.5572876,14.9108455],[102.5614941,14.9178],[102.561115,14.9195451],[102.5675978,14.9272633],[102.5654177,14.9306511],[102.5655875,14.9352383],[102.5635336,14.9377322],[102.5520258,14.9409487],[102.5457876,14.9468773],[102.5583172,14.9567224],[102.5647125,14.958119],[102.573136,14.9570122],[102.6008187,14.9353715],[102.6371788,14.9360307],[102.6966125,14.9337202],[102.7094752,14.9565977],[102.710512,14.979628],[102.7139632,14.9852001],[102.7204604,14.9861815],[102.7293791,14.9955862],[102.7333298,14.9961218],[102.7339112,14.9979897],[102.7374605,14.9996849],[102.7368716,15.0010793],[102.7813056,15.0123376],[102.7790547,15.0212832],[102.7798025,15.0254958],[102.8008955,15.03727],[102.8025891,15.0398274],[102.8046471,15.0398084],[102.7962023,15.0453378],[102.7967174,15.0485982],[102.798801,15.0490634],[102.7927565,15.0509127],[102.7898738,15.0557339],[102.7884813,15.0554112],[102.7892416,15.0532181],[102.7867603,15.0525324],[102.7859298,15.0572598],[102.7878005,15.0597023],[102.7850304,15.0617694],[102.7855682,15.0638613],[102.7825608,15.0625667],[102.7836251,15.0649016],[102.7817023,15.0661514],[102.7850763,15.0674177],[102.7850304,15.0691427],[102.7781058,15.0691815],[102.775122,15.0656556],[102.7742499,15.0712931],[102.7705108,15.0730754],[102.7716296,15.0754828],[102.7695978,15.0752225],[102.7673356,15.0715262],[102.7644155,15.0719493],[102.7650249,15.0774835],[102.7613025,15.0782824],[102.7626604,15.0809652],[102.7640684,15.0802843],[102.766388,15.0828612],[102.7691002,15.0828336],[102.7800041,15.0902487],[102.7870962,15.101504],[102.7865824,15.1043361],[102.7939214,15.1101512],[102.7966264,15.1155948],[102.8081762,15.127418],[102.8094618,15.1348566],[102.8159857,15.1373011],[102.8166206,15.1426134],[102.8219574,15.1467489],[102.8236956,15.1550489],[102.8273528,15.1566898],[102.8362187,15.1570498],[102.8404253,15.1620455],[102.8466391,15.1659934],[102.8469789,15.1689286],[102.8547216,15.1692964],[102.8550154,15.1657558],[102.8600157,15.1661148],[102.8657496,15.1642204],[102.8702465,15.1677103],[102.8714868,15.1714879],[102.8747773,15.1705817],[102.8779868,15.1760313],[102.8871606,15.1846727],[102.8895626,15.1850378],[102.8896432,15.1826868],[102.8965451,15.1788652],[102.8989385,15.1754268],[102.9024705,15.1796023],[102.9081034,15.1811482],[102.9082113,15.1841952],[102.917311,15.188292],[102.9173892,15.1823973],[102.9226532,15.1829866],[102.9230352,15.1850946],[102.9284797,15.1852752],[102.9297931,15.1825028],[102.9321592,15.1821498],[102.93768,15.1832311],[102.9468113,15.188917],[102.953405,15.1891313],[102.9615087,15.192995],[102.9663804,15.19284],[102.9745626,15.2069238],[102.9616299,15.2156556],[102.9591562,15.2188934],[102.9608985,15.2382133],[102.9567409,15.252152],[102.960733,15.2583873],[102.9608734,15.2636499],[102.9550137,15.2714192],[102.9677266,15.2922254],[102.9647425,15.297756],[102.9530184,15.3085346],[102.952144,15.3133048],[102.9544632,15.3154586],[102.9582028,15.3147047],[102.9589617,15.3167529],[102.9647694,15.3154625],[102.9680015,15.3176817],[102.9743352,15.3180866],[102.9766715,15.3206641],[102.984832,15.3216083],[102.9837915,15.3338748],[102.9801572,15.3346695],[102.9787135,15.3366636],[102.9791213,15.3419288],[102.9774121,15.3440712],[102.9856693,15.3610446],[102.9863581,15.3739473],[102.9700889,15.3748807],[102.9579366,15.38041],[102.9550974,15.382734],[102.9528102,15.3921442],[102.9539245,15.3998825]]]}}]}