{"type":"FeatureCollection","features":[{"type":"Feature","properties":{"id":"TH-LAO-3300102","nameTh":"นครราชสีมา","type":"city_municipality"},"geometry":{"type":"Polygon","coordinates":[[[102.0541208,14.9842857],[102.0461467,14.9625617],[102.0263922,14.956809],[102.0300641,14.9377794],[102.0413577,14.9420756],[102.0418298,14.9426924],[102.043206,14.9479516],[102.0440729,14.9488308],[102.0478227,14.949235],[102.0499765,14.948043],[102.053222,14.9473356],[102.0547838,14.9473457],[102.0585302,14.9510032],[102.0664135,14.9504485],[102.066168,14.9537292],[102.0750958,14.9554317],[102.0837553,14.9579712],[102.0854048,14.9593952],[102.0867982,14.9619152],[102.0851406,14.9676794],[102.086868,14.9682806],[102.0881447,14.9693896],[102.0875654,14.9701981],[102.0881984,14.9719808],[102.0947751,14.9685034],[102.0949736,14.9631033],[102.0956549,14.9640711],[102.0981346,14.9654743],[102.0985772,14.9660741],[102.098541,14.9671249],[102.1021834,14.9673141],[102.1023846,14.9652514],[102.1035111,14.9655028],[102.1060592,14.9650804],[102.1060538,14.9633676],[102.1069792,14.9633443],[102.107006,14.9613283],[102.1078268,14.9564488],[102.119776,14.963992],[102.1187353,14.9664693],[102.1187568,14.971118],[102.122485,14.9740511],[102.1255052,14.9780155],[102.1377388,15.0029454],[102.1336216,15.0039869],[102.1328437,15.0014168],[102.1292549,14.9987379],[102.1212646,14.9952662],[102.118746,14.9979322],[102.1003166,14.9952455],[102.0661679,14.9951],[102.0603737,14.9899162],[102.0553771,14.9866745],[102.0541208,14.9842857]]]}}]}