{"type":"FeatureCollection","features":[{"type":"Feature","properties":{"provinceCode":"20","nameTh":"ชลบุรี","nameEn":"Chon Buri"},"geometry":{"type":"Polygon","coordinates":[[[101.2618572,13.5626485],[101.2468717,13.5660167],[101.2456763,13.5697241],[101.2372112,13.5703707],[101.2326354,13.5739219],[101.2246156,13.5762163],[101.2184053,13.575643],[101.2117148,13.5774183],[101.2122502,13.5785404],[101.2037624,13.5829393],[101.1878399,13.5851112],[101.1875026,13.5872818],[101.1844523,13.5880633],[101.1723944,13.585941],[101.1709471,13.5881532],[101.1680963,13.5870542],[101.1681085,13.5885563],[101.1635587,13.5869729],[101.1623271,13.588573],[101.154927,13.5860354],[101.1518315,13.5880331],[101.1493281,13.5857254],[101.1474286,13.5892116],[101.1445599,13.5879968],[101.1436216,13.5894002],[101.1385799,13.5861082],[101.1352755,13.5801932],[101.1293559,13.5781315],[101.1298765,13.5698485],[101.1221791,13.5650825],[101.118474,13.5648156],[101.1142493,13.5699144],[101.110289,13.5693331],[101.1024767,13.5617879],[101.1043744,13.5591541],[101.1035793,13.557933],[101.0997756,13.5568795],[101.0971252,13.5581819],[101.0970523,13.5560461],[101.0940892,13.5536356],[101.0904464,13.5533885],[101.0900897,13.5559053],[101.0883044,13.5562875],[101.0874982,13.5534337],[101.0831878,13.5524283],[101.0826496,13.5551799],[101.0716707,13.5544472],[101.0683339,13.5573452],[101.0549984,13.5522073],[101.0518427,13.557529],[101.0443768,13.5592215],[101.0406604,13.5511086],[101.0416702,13.5498863],[101.0561583,13.5477688],[101.0551126,13.5425316],[101.0570573,13.5387433],[101.0603472,13.5396871],[101.0649174,13.5376746],[101.0640714,13.5358909],[101.0659386,13.5341595],[101.0684936,13.536107],[101.0708991,13.5354296],[101.0690168,13.5326247],[101.0709681,13.5308427],[101.0697981,13.5285709],[101.0716897,13.5256482],[101.0672462,13.5252778],[101.0708264,13.5176964],[101.0680958,13.5154351],[101.0738765,13.506591],[101.0724771,13.503832],[101.0673366,13.5045338],[101.0664993,13.5097458],[101.0622458,13.5080535],[101.0526699,13.5105185],[101.0490613,13.5088731],[101.048312,13.5075821],[101.0509197,13.5035827],[101.0400675,13.4936508],[101.0411826,13.4897205],[101.0356928,13.4856657],[101.0392696,13.480234],[101.0318673,13.4745432],[101.0275931,13.473646],[101.0220138,13.4767858],[101.0192102,13.4746041],[101.016206,13.4745295],[101.014951,13.4711487],[101.0111772,13.4729121],[101.0091167,13.4681366],[101.010844,13.4666863],[101.0144489,13.4685748],[101.0134618,13.4617928],[101.0111249,13.46262],[101.0085568,13.4604242],[101.0049212,13.4603891],[101.0031161,13.4637567],[101.000281,13.4635402],[100.9956178,13.4660821],[100.9905767,13.463128],[100.9857601,13.4629523],[100.9803904,13.4663224],[100.9743242,13.473835],[100.9709269,13.4710385],[100.7462755,13.2189544],[100.4540891,13.2191019],[100.4534436,12.3861828],[100.7737801,12.39173],[100.7861764,12.3743811],[100.821893,12.3422439],[100.8647786,12.3121199],[100.9216176,12.2855205],[101.0216493,12.2812858],[101.0843497,12.3119844],[101.1318497,12.3582236],[100.9922746,12.6559809],[100.993164,12.6613966],[100.991663,12.6632457],[100.9928131,12.6645416],[100.9890316,12.6699311],[100.9925823,12.676444],[100.9844476,12.6934459],[100.9884345,12.7028778],[100.987401,12.7037306],[100.9905658,12.706954],[100.9899197,12.7095146],[100.9947989,12.714091],[100.9908839,12.7260861],[100.9944667,12.7278791],[100.9955095,12.7302168],[101.0010915,12.7313628],[101.0034565,12.7339163],[101.0031455,12.7396953],[101.0075586,12.7449098],[101.0086112,12.7515331],[101.0154823,12.7585508],[101.0128779,12.7616733],[101.01148,12.7705941],[101.0160522,12.7733091],[101.0143319,12.7746283],[101.0138378,12.7788343],[101.0143122,12.7919914],[101.0199916,12.7993627],[101.0294665,12.8019527],[101.03199,12.8087988],[101.0367229,12.8122423],[101.0446007,12.8119514],[101.0486153,12.8137991],[101.0525883,12.822848],[101.057504,12.8252623],[101.0579048,12.8281206],[101.0635449,12.8350597],[101.0638046,12.8385875],[101.0621514,12.8410924],[101.0648184,12.8523778],[101.0618553,12.8537824],[101.0615362,12.8580939],[101.0679428,12.861448],[101.0715331,12.8688354],[101.0708318,12.8751505],[101.0744719,12.8801393],[101.0720162,12.8834186],[101.0740624,12.88528],[101.072096,12.8877328],[101.074409,12.892787],[101.0798277,12.8954979],[101.0789183,12.8983114],[101.080689,12.8997789],[101.0761115,12.9042534],[101.0791289,12.9072959],[101.0843934,12.9093685],[101.088614,12.9153518],[101.0886276,12.9246217],[101.0865391,12.9309958],[101.0886918,12.9320724],[101.0894919,12.939979],[101.091691,12.9422057],[101.0885613,12.9468733],[101.0910368,12.9516892],[101.0914239,12.9596738],[101.0977549,12.9627006],[101.1035965,12.9728542],[101.0964598,12.9747528],[101.0941802,12.9779908],[101.0931352,12.9815947],[101.0944172,12.9891723],[101.0887371,13.000094],[101.0902884,13.0048697],[101.0933223,13.0047444],[101.0943458,13.007961],[101.0898701,13.0094998],[101.0915202,13.0097861],[101.0920209,13.0164438],[101.0944263,13.019509],[101.0925017,13.0200822],[101.0931004,13.0221402],[101.0962073,13.0216427],[101.0986527,13.0242393],[101.0949151,13.0270742],[101.0976016,13.0328335],[101.1047262,13.0275234],[101.1108123,13.0326117],[101.1179668,13.0332277],[101.121227,13.031855],[101.1253636,13.027126],[101.134279,13.0251716],[101.1345773,13.0231273],[101.1370973,13.0246126],[101.1394847,13.0239284],[101.141652,13.0280054],[101.1438997,13.0265442],[101.1516896,13.028479],[101.1519423,13.0245383],[101.1562747,13.0256402],[101.1572425,13.0223103],[101.1591642,13.0214537],[101.1616233,13.0256317],[101.1746813,13.0278376],[101.174718,13.0305515],[101.1847921,13.0302201],[101.1882143,13.0396501],[101.1914407,13.0428316],[101.2027545,13.0456507],[101.1975303,13.0531563],[101.1896979,13.0566068],[101.1779428,13.0550424],[101.1741661,13.0621204],[101.1745698,13.0671302],[101.2119859,13.0779649],[101.2138625,13.0793641],[101.2133027,13.0841566],[101.2319439,13.0834298],[101.25471,13.0748378],[101.2598612,13.0746747],[101.2635553,13.0711509],[101.2649071,13.0664255],[101.2708317,13.0617616],[101.2778914,13.0592692],[101.2897892,13.0587331],[101.2924566,13.061545],[101.2955768,13.0600746],[101.3015507,13.0530537],[101.3071334,13.0562042],[101.3084456,13.0595208],[101.3198752,13.0631198],[101.3569864,13.057595],[101.3643859,13.045112],[101.3802311,13.0394369],[101.385277,13.0332533],[101.3917535,13.0290799],[101.3940916,13.0248107],[101.3997735,13.0255459],[101.4013798,13.0281631],[101.4072334,13.0303553],[101.4117639,13.0396721],[101.4223921,13.0395847],[101.4267238,13.0452598],[101.4331103,13.0469699],[101.4352175,13.0515193],[101.4439711,13.0498439],[101.4548732,13.0357916],[101.4564297,13.0365031],[101.4586406,13.0341824],[101.4596437,13.0376646],[101.4646295,13.0419198],[101.46892,13.0518132],[101.4770349,13.0479251],[101.4792719,13.0501177],[101.4821275,13.058404],[101.5144868,13.0591598],[101.5155982,13.060003],[101.5137329,13.0610219],[101.5124683,13.0668504],[101.5141705,13.0690448],[101.5166975,13.0685586],[101.5209981,13.0717376],[101.5201055,13.0751661],[101.5223097,13.0770086],[101.5283791,13.074016],[101.530196,13.0712118],[101.5356751,13.0724547],[101.5361704,13.0710912],[101.5439313,13.0722291],[101.544424,13.0709725],[101.5593983,13.0769701],[101.565423,13.0827101],[101.5679419,13.088164],[101.5733469,13.086521],[101.5741762,13.0931641],[101.5775153,13.095711],[101.5760896,13.1011776],[101.5801516,13.1133893],[101.5794966,13.1168681],[101.5848289,13.1227044],[101.582351,13.1288893],[101.5952085,13.1357622],[101.598781,13.1340267],[101.604377,13.1344445],[101.6065537,13.1361326],[101.6127124,13.1358117],[101.6159494,13.1374059],[101.6181065,13.1411842],[101.6223476,13.1407805],[101.6229545,13.1448418],[101.6340226,13.1538156],[101.635488,13.1599313],[101.6403827,13.1603062],[101.6476821,13.1635573],[101.6524822,13.1602231],[101.656688,13.1617175],[101.6610197,13.1544842],[101.6657195,13.1557019],[101.6686893,13.1532216],[101.6735573,13.1555508],[101.6801968,13.1488256],[101.6922893,13.1463334],[101.6957721,13.1465967],[101.6965822,13.1523515],[101.7028097,13.1607936],[101.7107143,13.161029],[101.7154878,13.1633947],[101.7172722,13.1700272],[101.7167113,13.1744943],[101.7197202,13.1788191],[101.7163201,13.1831096],[101.7124938,13.1929212],[101.7128712,13.2055209],[101.7048867,13.2087375],[101.7018727,13.2159119],[101.694243,13.2218162],[101.6890107,13.2304418],[101.6845027,13.2499047],[101.6735063,13.2568578],[101.6684854,13.2729401],[101.657194,13.2754476],[101.650693,13.2844201],[101.6463152,13.2857915],[101.6390875,13.2929211],[101.6352321,13.2926239],[101.6312544,13.2959154],[101.624471,13.2958396],[101.6185033,13.3019751],[101.5970317,13.3114184],[101.5923079,13.3113584],[101.5902648,13.3169693],[101.5824833,13.3223201],[101.5826333,13.3299862],[101.5804819,13.3327356],[101.5759725,13.3332496],[101.5726719,13.3297832],[101.5644116,13.3313644],[101.5647815,13.3384037],[101.5614226,13.3401296],[101.5582147,13.3467324],[101.5581173,13.3539036],[101.5558841,13.3610768],[101.5566046,13.3666946],[101.5620011,13.3736455],[101.56243,13.3788221],[101.5496031,13.3956607],[101.5447593,13.3985439],[101.5387523,13.4115931],[101.5366452,13.4139096],[101.5331465,13.4146728],[101.5319761,13.4212609],[101.5337958,13.4246119],[101.5324008,13.4269692],[101.5181946,13.4229081],[101.5153758,13.4192307],[101.5070203,13.4200081],[101.4999397,13.4179494],[101.490833,13.4282947],[101.4953549,13.4351925],[101.4931473,13.4411774],[101.490611,13.439878],[101.487556,13.4433701],[101.4802575,13.4400499],[101.4799888,13.4362232],[101.4785155,13.4373473],[101.4753541,13.4356462],[101.4720079,13.4277453],[101.4681786,13.4248752],[101.4639055,13.4305009],[101.4583711,13.4339701],[101.457093,13.4328008],[101.4521169,13.4388935],[101.4472655,13.4404542],[101.4449841,13.4433734],[101.429064,13.4431881],[101.4272297,13.4479128],[101.4175904,13.4533035],[101.4124826,13.4500223],[101.4093744,13.4516523],[101.4023186,13.4503183],[101.4027299,13.4555933],[101.4095816,13.464437],[101.4093391,13.4696733],[101.3949132,13.4749212],[101.3912423,13.4742269],[101.3842285,13.4694822],[101.3720941,13.4687832],[101.3657212,13.4631384],[101.3612258,13.4637958],[101.3575371,13.4697405],[101.3568746,13.4740874],[101.3540402,13.4751633],[101.3515364,13.4806141],[101.3488032,13.4809232],[101.3478409,13.4831318],[101.340208,13.4871876],[101.3354873,13.4935934],[101.3300586,13.4944906],[101.3218832,13.4992687],[101.3212609,13.5020124],[101.3146855,13.5054707],[101.3149249,13.5075173],[101.3097757,13.5167945],[101.3026357,13.5181037],[101.2992722,13.5250771],[101.2951469,13.5254109],[101.2942028,13.5342043],[101.2902988,13.5364404],[101.2905376,13.5387189],[101.2885487,13.5397483],[101.2878352,13.5432243],[101.2839125,13.5484623],[101.274244,13.5521687],[101.2724566,13.5552598],[101.2667939,13.5577959],[101.2618572,13.5626485]]]}}]}