{"type":"FeatureCollection","features":[{"type":"Feature","properties":{"id":"TH-LAO-3200408","nameTh":"เมืองพัทยา","type":"special_admin_area"},"geometry":{"type":"MultiPolygon","coordinates":[[[[100.80475,12.9305659],[100.8042649,12.9302062],[100.8043995,12.9294245],[100.8051704,12.9272756],[100.8057516,12.9268097],[100.8057867,12.9259676],[100.8063207,12.9256189],[100.8062284,12.9267841],[100.8066787,12.9273173],[100.806577,12.9283089],[100.8059982,12.929125],[100.8050681,12.9296061],[100.8050666,12.930254],[100.80475,12.9305659]]],[[[100.7675833,12.9137433],[100.7698863,12.9118908],[100.7718129,12.9095478],[100.7714381,12.9072821],[100.7715589,12.9062979],[100.7721471,12.9051907],[100.7719756,12.9037967],[100.7721948,12.9032514],[100.7716684,12.9015958],[100.7730326,12.9000628],[100.7733866,12.8981503],[100.7739248,12.8980326],[100.7741494,12.8973972],[100.7746917,12.8973784],[100.7752109,12.8981331],[100.7753945,12.9001178],[100.7757871,12.9003216],[100.777901,12.9007473],[100.7789869,12.9004613],[100.7791738,12.900068],[100.7802258,12.900624],[100.7823829,12.9044426],[100.7822275,12.9067062],[100.7817026,12.9083475],[100.7823879,12.909035],[100.7823853,12.9095994],[100.7833561,12.9105673],[100.7838798,12.9125954],[100.7856772,12.9134952],[100.7863428,12.914322],[100.7860423,12.9147737],[100.7863215,12.9156712],[100.7860235,12.9158803],[100.7860259,12.9164294],[100.786774,12.917609],[100.787333,12.9201144],[100.7887284,12.9220049],[100.7885286,12.9227954],[100.7892771,12.9238691],[100.7891901,12.9250881],[100.78953,12.9256546],[100.7892814,12.9269015],[100.7897566,12.9278354],[100.7898424,12.9297922],[100.789509,12.9308236],[100.7888497,12.9314682],[100.7885979,12.9327215],[100.7890732,12.9348071],[100.7901686,12.9362287],[100.7901764,12.9372243],[100.7898781,12.9375256],[100.7894273,12.9376038],[100.7878798,12.9358912],[100.7875408,12.9360746],[100.787255,12.9357339],[100.7863111,12.9357903],[100.7856554,12.9341418],[100.785948,12.9333264],[100.7857726,12.9327903],[100.7841959,12.9310751],[100.7835283,12.9298321],[100.7815276,12.9290112],[100.7809686,12.9275368],[100.7810914,12.9263134],[100.7795395,12.925391],[100.7775441,12.9248626],[100.7751833,12.9247811],[100.7747205,12.9263072],[100.7730072,12.9264955],[100.7722837,12.9274953],[100.7711214,12.928214],[100.7700875,12.9283359],[100.7695842,12.9252195],[100.7698514,12.9236542],[100.7685859,12.9217262],[100.7686108,12.9212466],[100.7693322,12.921076],[100.7697272,12.9203416],[100.7698829,12.9179332],[100.7690419,12.9164615],[100.7667546,12.9155248],[100.7664761,12.9143218],[100.7667704,12.9136782],[100.7675833,12.9137433]]],[[[100.7950245,12.9452589],[100.7943571,12.9458803],[100.7932639,12.944194],[100.7921851,12.9439964],[100.7908265,12.9442126],[100.7902548,12.9459452],[100.7893816,12.9455725],[100.7900098,12.944502],[100.7901237,12.9429673],[100.79061,12.9420723],[100.7915193,12.9427807],[100.7923279,12.9425197],[100.7934353,12.9428333],[100.794386,12.9436614],[100.7950245,12.9452589]]],[[[100.9279953,13.0110884],[100.9285374,13.0104055],[100.9283423,13.0071661],[100.9277689,13.00459],[100.9272791,13.0040623],[100.9265783,13.0018587],[100.9273627,13.0010245],[100.9276415,12.9999847],[100.9289196,13.0000391],[100.9289674,12.9996938],[100.9297319,12.9994105],[100.9296244,12.9990924],[100.9306119,12.9986967],[100.9310499,12.9980914],[100.9311415,12.9973232],[100.9305004,12.997265],[100.930365,12.9961981],[100.9334385,12.9956506],[100.9303541,12.983575],[100.9293181,12.9806465],[100.9040818,12.9288149],[100.9032276,12.9257471],[100.8999569,12.8949826],[100.9003527,12.8920638],[100.9145168,12.8580414],[100.9057255,12.8569817],[100.8991333,12.8546191],[100.8986107,12.8553241],[100.8976405,12.8550541],[100.8931046,12.8639236],[100.8879257,12.8717771],[100.8806948,12.8816261],[100.8696367,12.8946718],[100.85539,12.9094423],[100.8568493,12.9129276],[100.8567133,12.9132787],[100.8573125,12.9140894],[100.8559811,12.9167851],[100.8563647,12.917276],[100.8558305,12.9183862],[100.8562281,12.9196794],[100.8565218,12.9199129],[100.8575129,12.9197592],[100.85855,12.9207722],[100.8590097,12.9221612],[100.8586483,12.9247651],[100.8591115,12.9250784],[100.8600251,12.9249302],[100.8607786,12.9255946],[100.8621676,12.9303163],[100.862784,12.930354],[100.8641914,12.9282827],[100.864797,12.926686],[100.8683325,12.9254171],[100.8702508,12.9255955],[100.8727968,12.92678],[100.8741907,12.9277785],[100.8744144,12.9284943],[100.8749788,12.928886],[100.8754611,12.9287984],[100.876611,12.9297392],[100.8800936,12.9334041],[100.8822175,12.9368067],[100.8836241,12.9403311],[100.8843025,12.9450932],[100.8840837,12.9485237],[100.8836289,12.9495537],[100.8832788,12.9496568],[100.8830764,12.9493562],[100.8829514,12.9512833],[100.8822445,12.9536042],[100.8824976,12.955159],[100.8822344,12.9559099],[100.882985,12.9572721],[100.8828605,12.9576064],[100.8833312,12.9573509],[100.8841072,12.9578617],[100.8845739,12.959446],[100.8839009,12.9647478],[100.8831044,12.9670515],[100.882429,12.9678045],[100.883013,12.9682049],[100.8828153,12.969573],[100.8823645,12.9703523],[100.8827016,12.9703781],[100.8828798,12.9708598],[100.8827324,12.9712421],[100.8828221,12.9714359],[100.8832295,12.970876],[100.8839613,12.9709149],[100.8845557,12.9715801],[100.8845198,12.9711663],[100.8860449,12.9708689],[100.8872278,12.9716586],[100.8874482,12.9722594],[100.8878594,12.9720854],[100.8882067,12.9724099],[100.8886401,12.9732514],[100.8884294,12.9737495],[100.8892781,12.9736869],[100.8899046,12.9725838],[100.8908485,12.9727532],[100.8927606,12.9746511],[100.892803,12.9753203],[100.8942595,12.974368],[100.8944539,12.9735925],[100.8950125,12.9732522],[100.8946432,12.9732049],[100.8944821,12.9724661],[100.8950878,12.9720605],[100.8971583,12.9719981],[100.8972197,12.973707],[100.8975421,12.9711749],[100.8979477,12.9707795],[100.8983846,12.9708649],[100.8986284,12.9704098],[100.9003073,12.9705569],[100.9027475,12.9716754],[100.9040964,12.9731043],[100.9043013,12.9728691],[100.9051244,12.9736163],[100.9048873,12.9738224],[100.9051003,12.9742755],[100.9059105,12.9748905],[100.9062309,12.9746069],[100.9059184,12.9750861],[100.9070048,12.9758356],[100.907566,12.9752617],[100.9086437,12.9763322],[100.9091223,12.9759931],[100.9095341,12.9763928],[100.909181,12.9769154],[100.9123752,12.9797338],[100.917736,12.9855367],[100.9210208,12.9901513],[100.9236699,12.9974976],[100.92423,12.9973089],[100.9246093,12.9978025],[100.9269741,13.0047719],[100.9277825,13.0079305],[100.9279953,13.0110884]]]]}},{"type":"Feature","properties":{"id":"TH-LAO-4200702","nameTh":"ศรีราชา","type":"town_municipality"},"geometry":{"type":"MultiPolygon","coordinates":[[[[100.920415,13.1747553],[100.919102,13.1745852],[100.9189172,13.1733769],[100.9204775,13.1731712],[100.9208831,13.1736854],[100.9218043,13.173974],[100.920415,13.1747553]]],[[[100.9325557,13.1826575],[100.928808,13.1834176],[100.9288463,13.1812473],[100.9282238,13.1798404],[100.9274985,13.1784981],[100.9262204,13.1776906],[100.9263186,13.1756945],[100.9256347,13.1751199],[100.9258801,13.1749441],[100.9256502,13.1738416],[100.9251682,13.173219],[100.9247691,13.1716909],[100.9250539,13.1714062],[100.9250081,13.1703382],[100.9244048,13.1694327],[100.9249488,13.168996],[100.9243989,13.1681256],[100.9233786,13.1687123],[100.9231163,13.1672746],[100.9227471,13.1676933],[100.9227798,13.1671753],[100.922267,13.1674724],[100.9217915,13.1669364],[100.9223021,13.1663261],[100.9216442,13.1665518],[100.921911,13.1657488],[100.9212503,13.1659911],[100.9214124,13.1654614],[100.9207139,13.1657147],[100.9206869,13.1645008],[100.9197856,13.1643813],[100.9190796,13.1638741],[100.9187688,13.164455],[100.9184322,13.1642922],[100.9185017,13.1638633],[100.9178538,13.1638163],[100.9176144,13.1625379],[100.9166897,13.1611269],[100.9152831,13.1601787],[100.920225,13.1567519],[100.9284996,13.1614963],[100.9305892,13.1629993],[100.9321644,13.165227],[100.9324266,13.1664811],[100.9325557,13.1826575]]]]}},{"type":"Feature","properties":{"id":"TH-LAO-3200701","nameTh":"แหลมฉบัง","type":"city_municipality"},"geometry":{"type":"Polygon","coordinates":[[[100.9006549,13.1432717],[100.9026701,13.1427282],[100.9067995,13.1393189],[100.9146567,13.1398027],[100.9501094,13.1367487],[100.9489628,13.1106266],[100.9758925,13.1092421],[100.9738578,13.0641473],[100.9725964,13.0638607],[100.9718014,13.0640628],[100.9709032,13.0635384],[100.9701433,13.0629298],[100.9695202,13.0610273],[100.9680927,13.0605621],[100.9666159,13.0592863],[100.9649604,13.0588376],[100.964532,13.0582697],[100.9642357,13.0559668],[100.9609666,13.0543353],[100.9604641,13.05271],[100.9608571,13.0520793],[100.9608019,13.0509715],[100.9592568,13.0504499],[100.9581888,13.0506079],[100.9578985,13.0499223],[100.9573469,13.049986],[100.9568952,13.0491127],[100.9561694,13.0487005],[100.9559632,13.0474225],[100.9553336,13.0467772],[100.9538278,13.046609],[100.9522471,13.0454268],[100.951895,13.0456872],[100.9516179,13.045302],[100.9507025,13.045274],[100.950705,13.043772],[100.9503996,13.0432943],[100.9494911,13.0429117],[100.948831,13.0433663],[100.9473461,13.0434927],[100.9443663,13.0415587],[100.9433094,13.0416352],[100.9418282,13.0409401],[100.9412952,13.0412664],[100.9408296,13.0410195],[100.9397368,13.041899],[100.9388451,13.0420672],[100.937545,13.0435136],[100.9374305,13.0444614],[100.935313,13.0461101],[100.9337493,13.0460584],[100.9330462,13.0464944],[100.9328193,13.0471914],[100.9304892,13.0472949],[100.9297799,13.0477828],[100.9275111,13.0483343],[100.9271068,13.0480509],[100.9277607,13.0452173],[100.9275917,13.0449177],[100.9253612,13.0447372],[100.9221082,13.0451436],[100.9206895,13.044811],[100.9201274,13.0453271],[100.9202314,13.0462585],[100.9191974,13.0463403],[100.9186956,13.0450249],[100.9178338,13.0440978],[100.9180878,13.0433317],[100.919956,13.0421517],[100.9198253,13.0410299],[100.9192676,13.0401091],[100.918665,13.0404931],[100.918292,13.0403904],[100.9169598,13.0386077],[100.9167439,13.0377046],[100.9167279,13.0382301],[100.9164402,13.0383515],[100.9161051,13.0365938],[100.9127321,13.0315514],[100.9129896,13.031231],[100.9124252,13.0311071],[100.9101079,13.0277523],[100.8962707,13.0237804],[100.8965479,13.022368],[100.8914294,13.0208292],[100.8910455,13.0213072],[100.8891744,13.0277679],[100.9103783,13.0337558],[100.9104964,13.0345542],[100.9078372,13.0431197],[100.8929558,13.0388553],[100.890443,13.0476892],[100.9054907,13.0520132],[100.9056584,13.0514079],[100.9066494,13.0518716],[100.9050537,13.0565878],[100.8890148,13.0519776],[100.8881878,13.0546536],[100.8856113,13.0590092],[100.8845136,13.0599943],[100.8992353,13.0684089],[100.8973886,13.0715453],[100.897163,13.0714246],[100.8966058,13.0723606],[100.8956883,13.0718432],[100.8962538,13.0708683],[100.8872771,13.0657676],[100.8869482,13.0660549],[100.8856471,13.0653248],[100.8857561,13.0651288],[100.8868143,13.0655003],[100.8836202,13.0636593],[100.8834021,13.0640081],[100.8824587,13.0635129],[100.8800202,13.0676651],[100.8803761,13.067872],[100.879193,13.0694088],[100.8793956,13.0695264],[100.8790552,13.0700259],[100.8788643,13.0699198],[100.878403,13.071175],[100.8839267,13.0743081],[100.8830984,13.0759553],[100.884041,13.0743677],[100.8862136,13.0755716],[100.8860819,13.0763805],[100.8842816,13.0788367],[100.8837551,13.0791514],[100.883527,13.0789848],[100.8824553,13.0799116],[100.8821059,13.0795602],[100.8822161,13.0798429],[100.8814541,13.0802802],[100.8787735,13.0811186],[100.8780187,13.0808595],[100.8775882,13.0798301],[100.8769214,13.0791994],[100.8767342,13.0784444],[100.8769622,13.0782991],[100.8765727,13.0777708],[100.8758475,13.0777089],[100.8756025,13.0773673],[100.8757918,13.0770945],[100.8741417,13.076587],[100.8729746,13.0766928],[100.8726419,13.0762223],[100.8718573,13.0770513],[100.872264,13.0797345],[100.8717522,13.0834691],[100.8747099,13.088158],[100.8748606,13.0908858],[100.8756097,13.0927714],[100.876052,13.0959609],[100.8768413,13.0981717],[100.8777858,13.0992431],[100.8779074,13.1004827],[100.8785255,13.1019829],[100.878768,13.1052038],[100.8791885,13.1057319],[100.8789468,13.1082904],[100.8793674,13.1085099],[100.8797018,13.109779],[100.8809898,13.1111787],[100.8811126,13.1119901],[100.883348,13.1133417],[100.8843474,13.1146891],[100.8844842,13.1153474],[100.8857952,13.1164346],[100.8881486,13.1172747],[100.8895568,13.1189998],[100.8924214,13.1187756],[100.8934293,13.1192067],[100.8949882,13.1211726],[100.8940515,13.1222153],[100.8943522,13.1224445],[100.89515,13.1214435],[100.8961067,13.1217248],[100.8975937,13.1230769],[100.8985701,13.1249712],[100.8990845,13.1270614],[100.8981581,13.1343951],[100.8983841,13.1354323],[100.8993259,13.1364335],[100.8994538,13.1373425],[100.8987457,13.1395724],[100.900207,13.1415731],[100.9006549,13.1432717]]]}},{"type":"Feature","properties":{"id":"TH-LAO-3200703","nameTh":"เจ้าพระยาสุรศักดิ์","type":"city_municipality"},"geometry":{"type":"Polygon","coordinates":[[[101.0259378,13.1684556],[101.0255678,13.1626628],[101.0245971,13.1583235],[101.0252434,13.1544111],[101.0236411,13.1516173],[101.0224037,13.1514816],[101.0227782,13.1471689],[101.0237903,13.147387],[101.0236429,13.1457533],[101.0226275,13.1437338],[101.025296,13.1429336],[101.0334076,13.1413761],[101.0436051,13.1369114],[101.054322,13.1442269],[101.0657949,13.148662],[101.068987,13.1492082],[101.0722325,13.148766],[101.0740489,13.1479987],[101.0754379,13.1455536],[101.0777764,13.1440143],[101.0784416,13.1419457],[101.0817675,13.139271],[101.0833554,13.1353843],[101.0867666,13.131061],[101.0875018,13.134123],[101.0872672,13.1351589],[101.0897231,13.1377638],[101.0898639,13.1397746],[101.0916121,13.1418649],[101.0919893,13.1413984],[101.0922986,13.1416592],[101.0948562,13.1470481],[101.096417,13.1470848],[101.0966641,13.1502512],[101.0971017,13.1513017],[101.0978966,13.1518759],[101.0991734,13.1521556],[101.1016471,13.1564862],[101.1019551,13.1562398],[101.1025107,13.1571367],[101.1038007,13.1579917],[101.1046454,13.1580609],[101.1326505,13.1725308],[101.134428,13.1715016],[101.1368813,13.1668279],[101.1400165,13.1659314],[101.1418956,13.1647972],[101.1434561,13.162469],[101.1446639,13.1497291],[101.1485782,13.1416928],[101.1496263,13.1375117],[101.152037,13.1356005],[101.1528623,13.135406],[101.1532483,13.1346519],[101.1549582,13.1337302],[101.1565807,13.1316607],[101.1593389,13.1322389],[101.161024,13.1310907],[101.1661813,13.1293942],[101.161759,13.1170186],[101.1572774,13.1141088],[101.1354166,13.0980376],[101.1319727,13.0940946],[101.1277876,13.087408],[101.1218919,13.0800325],[101.1072611,13.0658475],[101.0852863,13.0395525],[101.0718414,13.024043],[101.0692071,13.0205766],[101.0684092,13.01894],[101.0673229,13.0083107],[101.0649686,13.0080563],[101.0637238,13.0086987],[101.0607188,13.0129759],[101.0587569,13.0144996],[101.0586679,13.0157956],[101.0589763,13.0169173],[101.0578142,13.0180507],[101.0574517,13.0194221],[101.0530672,13.0219576],[101.0474935,13.0243001],[101.042361,13.0253084],[101.0392897,13.0264262],[101.0380716,13.0264715],[101.0360422,13.0262749],[101.0334532,13.0245219],[101.0296834,13.0242682],[101.0287305,13.0244727],[101.0265679,13.0257211],[101.0263635,13.0279809],[101.0258737,13.0290852],[101.0255209,13.0291491],[101.0218949,13.0228599],[101.0206438,13.0223602],[101.0190462,13.0226987],[101.0178471,13.0234825],[101.016529,13.0249804],[101.014927,13.027836],[101.0144491,13.0297656],[101.0145657,13.0312821],[101.0137389,13.0328511],[101.0108801,13.0338182],[101.0097183,13.0346688],[101.0091835,13.0356193],[101.0091202,13.0375297],[101.0071341,13.0384839],[101.0067507,13.039294],[101.0055664,13.039823],[101.0050794,13.0406926],[101.0027924,13.0401187],[101.000665,13.0400998],[100.9987214,13.0410513],[100.9965653,13.0412944],[100.9940195,13.0407948],[100.9918098,13.0412791],[100.9909525,13.0423504],[100.9893027,13.0428251],[100.988996,13.0437875],[100.9877129,13.0452067],[100.987725,13.0460669],[100.9869674,13.0471822],[100.9857426,13.0473083],[100.9846592,13.0479358],[100.9840379,13.0493641],[100.9819126,13.049687],[100.9810266,13.0507343],[100.9807639,13.051537],[100.9801813,13.0518787],[100.9764676,13.0528561],[100.9750926,13.0525889],[100.974922,13.0528557],[100.9735771,13.0524494],[100.973233,13.052832],[100.97187,13.0527005],[100.9705953,13.0531039],[100.9704695,13.0537244],[100.9697841,13.0538578],[100.9680788,13.0531536],[100.9681015,13.0522744],[100.9675469,13.0520253],[100.9662141,13.0519714],[100.9641312,13.0525992],[100.9634131,13.0522521],[100.962854,13.0524135],[100.9627823,13.052791],[100.9608653,13.0519021],[100.9604641,13.05271],[100.9609666,13.0543353],[100.9642357,13.0559668],[100.964532,13.0582697],[100.9649604,13.0588376],[100.9666159,13.0592863],[100.9680927,13.0605621],[100.9695202,13.0610273],[100.9701433,13.0629298],[100.9709032,13.0635384],[100.9718014,13.0640628],[100.9725964,13.0638607],[100.9738578,13.0641473],[100.9758925,13.1092421],[100.9489628,13.1106266],[100.9501094,13.1367487],[100.9146567,13.1398027],[100.9067995,13.1393189],[100.9026701,13.1427282],[100.9006549,13.1432717],[100.9004889,13.1437055],[100.9034662,13.1450363],[100.9047917,13.1465141],[100.9068299,13.1472766],[100.9068247,13.1490447],[100.9070142,13.1494442],[100.907818,13.1494541],[100.9076005,13.1500606],[100.9086868,13.1512461],[100.9092192,13.1524745],[100.9096068,13.1550492],[100.909924,13.1548698],[100.9123101,13.1561745],[100.9134148,13.1588116],[100.9123686,13.1592381],[100.9132976,13.1592475],[100.9135491,13.16007],[100.9142647,13.1599248],[100.9148448,13.1605352],[100.9150972,13.1600995],[100.9156772,13.160001],[100.9166494,13.1590836],[100.9204671,13.1566973],[100.9264573,13.1601834],[100.9309737,13.1634102],[100.9320772,13.1650607],[100.9324033,13.1661031],[100.9325557,13.1826575],[100.934949,13.1823486],[100.9363604,13.1810838],[100.939007,13.1804154],[100.9391718,13.1783215],[100.9406106,13.1783362],[100.9430209,13.1770838],[100.9437037,13.1770912],[100.9448089,13.1756404],[100.9469666,13.1758056],[100.9477098,13.1748801],[100.9491583,13.1742924],[100.9509765,13.1725514],[100.9529004,13.1714715],[100.9556277,13.1712658],[100.9578873,13.1705092],[100.958529,13.1690743],[100.9620281,13.1678009],[100.9632475,13.1666781],[100.9660795,13.1670309],[100.9675153,13.1654047],[100.9692925,13.1658962],[100.9698087,13.165176],[100.9703093,13.1629013],[100.9722721,13.1627265],[100.9741621,13.1621416],[100.9773822,13.1663256],[100.982684,13.1722494],[100.9842796,13.1730262],[100.9856874,13.1722951],[100.9869267,13.1703058],[100.9872227,13.1689378],[100.9883184,13.1686152],[100.9889237,13.1689163],[100.9906209,13.1745431],[100.9961905,13.1768512],[101.0011055,13.1782835],[101.0118174,13.1733957],[101.0118847,13.1736293],[101.0135086,13.1731308],[101.0133127,13.1726324],[101.0154553,13.1715648],[101.0174495,13.1688901],[101.0197409,13.1695267],[101.0222812,13.1682939],[101.0259378,13.1684556]]]}}]}