{"type":"FeatureCollection","features":[{"type":"Feature","properties":{"provinceCode":"71","nameTh":"กาญจนบุรี","nameEn":"Kanchanaburi"},"geometry":{"type":"Polygon","coordinates":[[[99.8319031,13.9974641],[99.8335579,13.9975267],[99.8346983,14.000358],[99.832834,14.0029927],[99.8341617,14.0107565],[99.8368607,14.0127666],[99.8346335,14.0146727],[99.8370114,14.0237559],[99.8335254,14.0276159],[99.8426835,14.0338917],[99.841835,14.0369683],[99.8480918,14.0380936],[99.8478693,14.0398534],[99.8493586,14.0402106],[99.8485719,14.0524026],[99.8402401,14.0555693],[99.8330024,14.0609395],[99.8209244,14.061374],[99.8115654,14.0649384],[99.8081089,14.0702949],[99.8117296,14.0776584],[99.8081809,14.0831257],[99.7968681,14.0859446],[99.790922,14.1008721],[99.7877452,14.1002394],[99.7825867,14.094316],[99.7777514,14.0927499],[99.7721804,14.0939337],[99.7734297,14.097366],[99.7694154,14.1003245],[99.7693106,14.1122093],[99.7677874,14.1156538],[99.7697847,14.1178978],[99.7737927,14.1172592],[99.7756253,14.1230268],[99.7812096,14.1218756],[99.7835502,14.1251986],[99.7855362,14.1245396],[99.7818168,14.1349626],[99.7817125,14.1417225],[99.7950112,14.1713073],[99.7940706,14.1770476],[99.7989073,14.1766889],[99.8025716,14.1904861],[99.7988729,14.1910618],[99.7975615,14.1956892],[99.8006547,14.2055226],[99.7984497,14.2058189],[99.7980344,14.2096961],[99.794777,14.2099692],[99.7939673,14.21265],[99.7972972,14.2150025],[99.7956242,14.2179344],[99.8001022,14.2229978],[99.7995381,14.2241162],[99.8061976,14.22975],[99.8129072,14.2287916],[99.8109884,14.2304539],[99.8132768,14.2348917],[99.8152267,14.2355684],[99.8142185,14.2377077],[99.8170426,14.242933],[99.81644,14.2466061],[99.8198789,14.2498148],[99.8213844,14.2495081],[99.8226483,14.2540053],[99.8243215,14.254129],[99.8216422,14.2571199],[99.820946,14.2609065],[99.8232269,14.2610782],[99.8242383,14.2644219],[99.8335655,14.2721614],[99.8324149,14.272244],[99.8325001,14.2743721],[99.8284786,14.2753162],[99.8297926,14.2804419],[99.8266675,14.2823783],[99.82751,14.2839537],[99.8250257,14.2840099],[99.8233397,14.293335],[99.8206143,14.2957809],[99.8201273,14.3001853],[99.8132286,14.3094832],[99.8111683,14.3153046],[99.8078558,14.3153007],[99.7936982,14.3258685],[99.8066948,14.3259892],[99.804443,14.3315039],[99.8075931,14.3328036],[99.8103687,14.340665],[99.8088116,14.3411837],[99.8111502,14.3463273],[99.8100457,14.3471242],[99.8120744,14.3506483],[99.8149473,14.3505202],[99.8160389,14.3522747],[99.8219983,14.3500432],[99.8216686,14.3605128],[99.8258518,14.3660509],[99.8237215,14.3685988],[99.8244008,14.3725541],[99.8179248,14.3780547],[99.8187506,14.3822491],[99.8173836,14.3835091],[99.8181681,14.3858678],[99.8263925,14.3864114],[99.8261783,14.3936705],[99.8244344,14.3961862],[99.8235417,14.4047158],[99.8213518,14.4069956],[99.8245373,14.4123284],[99.8205086,14.4195729],[99.8210274,14.4240989],[99.8174719,14.4283962],[99.8147043,14.4402487],[99.8182308,14.4463799],[99.8172545,14.4496038],[99.8214002,14.4585126],[99.8226344,14.4695902],[99.825391,14.4733029],[99.8235599,14.4746749],[99.8251659,14.4778167],[99.8217851,14.4798101],[99.8236545,14.4839651],[99.8225956,14.4855403],[99.8279638,14.4902367],[99.8279166,14.4875911],[99.83078,14.4862176],[99.8285135,14.4790857],[99.832733,14.4794257],[99.8331006,14.4816445],[99.8288272,14.5014606],[99.8243382,14.5017399],[99.8232545,14.504798],[99.8196718,14.5050483],[99.8182059,14.5122117],[99.8150666,14.5148979],[99.811502,14.5091059],[99.8096816,14.5122967],[99.8108249,14.517498],[99.8096566,14.5196938],[99.8075445,14.5200088],[99.8078655,14.5231517],[99.8049518,14.5256837],[99.8065991,14.5299132],[99.8053621,14.5358057],[99.8094917,14.5379091],[99.8096767,14.5397383],[99.8009068,14.543133],[99.8013096,14.5449514],[99.7948557,14.5462848],[99.7950745,14.5503953],[99.7929847,14.5527122],[99.7951203,14.5575718],[99.7932975,14.5641377],[99.7984592,14.5630863],[99.799937,14.5716755],[99.7983828,14.5745113],[99.8033497,14.5927777],[99.8034597,14.5961507],[99.8006101,14.5959244],[99.8006269,14.6015491],[99.7975655,14.6022458],[99.7990962,14.607724],[99.7978914,14.6079723],[99.7980789,14.6167049],[99.8002416,14.6234959],[99.8046244,14.627198],[99.8138696,14.6258437],[99.813457,14.6277766],[99.8179702,14.6284385],[99.8169413,14.6313043],[99.8183712,14.6322904],[99.8184304,14.635526],[99.8212918,14.6352977],[99.820409,14.6385119],[99.8218374,14.6388995],[99.819736,14.6425767],[99.8174688,14.6422245],[99.817694,14.6433177],[99.8081035,14.6471248],[99.8096156,14.6525741],[99.811701,14.6536222],[99.8138272,14.6583613],[99.8098634,14.6643001],[99.8102264,14.6685233],[99.8054623,14.6684405],[99.8050622,14.6711332],[99.8033935,14.6713463],[99.804009,14.6730826],[99.8022638,14.6733634],[99.8025745,14.6759099],[99.7971299,14.6791153],[99.7973695,14.680633],[99.794115,14.6815192],[99.7959856,14.6881369],[99.7920803,14.6893711],[99.7920026,14.6933797],[99.7937663,14.6987222],[99.7983519,14.6995491],[99.7954968,14.7019693],[99.7972478,14.705623],[99.7929719,14.7022749],[99.7918128,14.7031802],[99.7932658,14.7052649],[99.7913007,14.7045931],[99.7892842,14.706262],[99.7902971,14.7073056],[99.7877998,14.7104318],[99.7892599,14.7133747],[99.7858457,14.7144969],[99.7864004,14.717873],[99.7832305,14.7187356],[99.7841896,14.721589],[99.7880532,14.723753],[99.789443,14.7360169],[99.7764228,14.739216],[99.7626197,14.7456621],[99.7572574,14.7458626],[99.7564748,14.7474056],[99.7459806,14.7492779],[99.7448826,14.746861],[99.7420867,14.7466581],[99.7250397,14.7517613],[99.7227055,14.7518619],[99.7219626,14.7493176],[99.7203243,14.7497452],[99.7095004,14.7584127],[99.7005692,14.7625075],[99.6780314,14.7840061],[99.6674108,14.7886487],[99.6646725,14.7880606],[99.6641162,14.7916583],[99.6611592,14.7934901],[99.6626527,14.795776],[99.6588693,14.8026448],[99.6431056,14.8019288],[99.6419134,14.7980173],[99.6343586,14.8010811],[99.6291213,14.801039],[99.6229479,14.7949481],[99.6234699,14.7920063],[99.6182523,14.7885857],[99.6141863,14.7892813],[99.6104089,14.7852424],[99.6060431,14.7871168],[99.605509,14.7856047],[99.6013426,14.7847558],[99.5957135,14.7893995],[99.5918402,14.7885216],[99.5899914,14.7849849],[99.5856104,14.7843046],[99.5828389,14.7854295],[99.5824715,14.7880612],[99.5776404,14.7893438],[99.5764008,14.7861305],[99.5748413,14.7857713],[99.5751539,14.7839188],[99.5725761,14.7831975],[99.5713267,14.779678],[99.5731255,14.7786488],[99.5738621,14.7741722],[99.5785302,14.7700651],[99.5761296,14.764557],[99.5775331,14.7615899],[99.576215,14.7546411],[99.5776564,14.7483662],[99.5753129,14.7463525],[99.5724854,14.7378289],[99.5715197,14.7261174],[99.5687977,14.7230177],[99.5697296,14.7140768],[99.5670637,14.7095146],[99.5613338,14.7103698],[99.5556831,14.7075602],[99.5449629,14.7088427],[99.542112,14.7162454],[99.5364329,14.7144544],[99.5334234,14.7114612],[99.5322179,14.707534],[99.5279044,14.707833],[99.5223154,14.7043919],[99.5138211,14.7035159],[99.5082899,14.7093743],[99.5061932,14.7091946],[99.5061619,14.7068218],[99.5026805,14.7082022],[99.4977445,14.7046877],[99.4919158,14.7046636],[99.48516,14.7084859],[99.4890232,14.7162082],[99.4806462,14.7152311],[99.4784216,14.7194648],[99.4787747,14.7222948],[99.4745998,14.7161967],[99.4662687,14.7170236],[99.4589808,14.7294605],[99.4420857,14.7321251],[99.4445911,14.7411729],[99.4393611,14.7429455],[99.4328102,14.7545858],[99.4345725,14.7678672],[99.4334475,14.7761407],[99.4149703,14.7760912],[99.4029314,14.7705505],[99.4008271,14.7717329],[99.3986972,14.7688555],[99.3972186,14.769045],[99.3977801,14.7678194],[99.3932707,14.7692268],[99.3922665,14.7653862],[99.3903023,14.76653],[99.3878522,14.7647709],[99.3873505,14.7663244],[99.3831073,14.7665459],[99.3807328,14.7648112],[99.3776422,14.7654661],[99.3777128,14.7670405],[99.3755808,14.7672334],[99.3764533,14.7691904],[99.373668,14.7705862],[99.3698357,14.7700265],[99.3685351,14.7714233],[99.3661138,14.7701604],[99.3645884,14.7716472],[99.3646908,14.774943],[99.3608088,14.777202],[99.3570906,14.7781952],[99.3541205,14.7765899],[99.3483474,14.7824296],[99.3415718,14.7842255],[99.3385232,14.7903682],[99.3347408,14.7937256],[99.3357799,14.8000329],[99.3306368,14.8063487],[99.3265248,14.8084813],[99.3271392,14.8100217],[99.3147868,14.814436],[99.3096272,14.8128352],[99.3043257,14.8274417],[99.2921238,14.8333423],[99.2914844,14.8501412],[99.2872797,14.8557653],[99.2872313,14.8646619],[99.2918056,14.8652414],[99.2950006,14.8693929],[99.3006002,14.8715512],[99.305681,14.8821851],[99.3134336,14.8835752],[99.3176304,14.8937327],[99.3222408,14.8955842],[99.3244728,14.8994372],[99.3250137,14.941627],[99.3148345,14.9559756],[99.3137082,14.9629301],[99.3060238,14.9708705],[99.3044797,14.9745649],[99.2926208,14.9812185],[99.2833181,14.9890849],[99.2828021,14.9976162],[99.27532,14.9912096],[99.2690046,14.989672],[99.2608938,14.9916264],[99.2562744,14.9875649],[99.2523012,14.9922143],[99.252899,14.9948052],[99.2504189,14.9960639],[99.2496434,14.9994338],[99.235247,15.0091642],[99.2332372,15.0124789],[99.228623,15.0102642],[99.2228877,15.0115162],[99.2200177,15.0098463],[99.2176473,15.0127676],[99.2137096,15.0120279],[99.2081103,15.0144912],[99.2037907,15.0143056],[99.2008248,15.0182586],[99.1979757,15.0189025],[99.1927158,15.0239215],[99.1932129,15.0262534],[99.1905742,15.0275238],[99.1841922,15.0264368],[99.1802493,15.0189078],[99.1760523,15.0164154],[99.1723918,15.0169124],[99.1692115,15.0140237],[99.1620431,15.0152892],[99.1574942,15.0178869],[99.1565314,15.0223847],[99.1489306,15.023823],[99.1449402,15.0270913],[99.1424452,15.0349349],[99.1353152,15.037452],[99.1355161,15.0406825],[99.1377909,15.0433596],[99.1468577,15.0473301],[99.1431952,15.0517781],[99.129955,15.0492729],[99.1246008,15.0510142],[99.1226,15.053989],[99.1186177,15.054822],[99.1140557,15.04446],[99.1109986,15.0472953],[99.102217,15.0441515],[99.1011933,15.0423848],[99.0929249,15.0424988],[99.0870135,15.0393256],[99.080905,15.0401839],[99.0780158,15.0385619],[99.0733814,15.0401815],[99.0679363,15.0474832],[99.0565552,15.0445126],[99.0427144,15.0457007],[99.0376075,15.049386],[99.0280672,15.0496279],[99.0245801,15.0545699],[99.0195511,15.0549202],[99.0186626,15.0579596],[99.0137125,15.0619942],[99.0086274,15.0703252],[98.9996613,15.0710002],[99.0067271,15.0784058],[99.005995,15.0796565],[99.0085104,15.0816643],[99.0087231,15.0842708],[99.0118738,15.0868105],[99.010412,15.0937667],[99.0065307,15.0988613],[99.0030665,15.1024947],[98.9998699,15.1024489],[98.9972716,15.1048584],[99.0008951,15.1204676],[98.9991884,15.1240762],[99.0002455,15.1310924],[99.001911,15.1329168],[98.999336,15.1357049],[99.0075634,15.1444249],[99.0031751,15.1498178],[99.000372,15.1637775],[98.9944228,15.1651658],[98.9889127,15.1769789],[98.9821493,15.1809266],[98.9720197,15.1905384],[98.970724,15.1977909],[98.9640592,15.2055347],[98.9629149,15.2218065],[98.9555275,15.239331],[98.9555577,15.2469974],[98.942633,15.2529289],[98.9387305,15.2502593],[98.9233317,15.2466717],[98.9196637,15.249773],[98.918251,15.2541756],[98.9150065,15.2564338],[98.9144348,15.2655423],[98.9102819,15.2683718],[98.9019205,15.2690327],[98.8978958,15.2732054],[98.8862612,15.2750668],[98.8914386,15.2904255],[98.8834807,15.3040459],[98.8818353,15.3097814],[98.8710147,15.3246283],[98.8617748,15.3302788],[98.8546157,15.3378352],[98.8402005,15.3480178],[98.8371435,15.3483177],[98.8332136,15.3450733],[98.8309929,15.34563],[98.8294331,15.3558312],[98.8228558,15.3613692],[98.8215307,15.365573],[98.8135434,15.3765513],[98.8035158,15.3844398],[98.8016756,15.3915396],[98.7978878,15.3932942],[98.7923258,15.4028089],[98.7832617,15.4084357],[98.7793834,15.4230756],[98.767938,15.4334045],[98.7635598,15.434899],[98.7627437,15.4375604],[98.7545524,15.4407381],[98.7569014,15.4465035],[98.7562505,15.4486992],[98.759208,15.4520334],[98.7547765,15.4584999],[98.7583906,15.4683885],[98.7607667,15.4700626],[98.7601753,15.4713671],[98.7519101,15.4768018],[98.7476785,15.482592],[98.7410426,15.4790437],[98.737293,15.4793806],[98.7320906,15.4832858],[98.729688,15.4885856],[98.7194049,15.4909217],[98.7061057,15.4976588],[98.7029921,15.5010083],[98.7008589,15.5048866],[98.7033192,15.5100523],[98.7123133,15.5048641],[98.7185098,15.5062475],[98.7197878,15.5095557],[98.7179187,15.5130055],[98.7237612,15.5175089],[98.7094756,15.531265],[98.6981604,15.5523499],[98.6752194,15.5788057],[98.6688878,15.5896494],[98.6676982,15.594984],[98.6613048,15.5983425],[98.6579368,15.6082462],[98.6541097,15.6128863],[98.653176,15.6240276],[98.6478384,15.6334075],[98.6402594,15.6381375],[98.6366534,15.6326185],[98.6323899,15.6296009],[98.6322947,15.6276207],[98.6255289,15.6265494],[98.6223846,15.6305481],[98.626768,15.638564],[98.6205136,15.6401125],[98.6132797,15.6448264],[98.6075292,15.6411213],[98.6002537,15.6451963],[98.5903003,15.6444287],[98.5880824,15.6469396],[98.5837053,15.6603566],[98.5757572,15.6604328],[98.5717343,15.6545265],[98.5577797,15.6524799],[98.562986,15.639746],[98.552899,15.601741],[98.585365,15.471216],[98.580282,15.375598],[98.559624,15.336037],[98.553944,15.335135],[98.549537,15.337568],[98.547401,15.342518],[98.550945,15.343587],[98.551059,15.345391],[98.54965,15.348936],[98.546992,15.349523],[98.544675,15.353802],[98.547719,15.35827],[98.541722,15.362968],[98.53745,15.371001],[98.527681,15.372089],[98.524346,15.370421],[98.521932,15.374388],[98.518195,15.375883],[98.515723,15.379045],[98.512503,15.37893],[98.509801,15.374963],[98.504742,15.383012],[98.50112,15.384737],[98.501638,15.387956],[98.49997,15.389278],[98.497728,15.388473],[98.489737,15.393533],[98.482781,15.391635],[98.480884,15.388646],[98.482321,15.37985],[98.481344,15.377435],[98.472663,15.375481],[98.470938,15.371226],[98.461279,15.377378],[98.459727,15.384966],[98.450069,15.383242],[98.449839,15.37962],[98.454956,15.370709],[98.454956,15.368122],[98.447827,15.369444],[98.448287,15.366685],[98.444607,15.36427],[98.435352,15.362603],[98.432017,15.363753],[98.430465,15.36772],[98.424198,15.364443],[98.41707,15.365362],[98.41546,15.363235],[98.414713,15.355474],[98.410803,15.352657],[98.407354,15.352887],[98.406894,15.35053],[98.400944,15.345694],[98.39426,15.342747],[98.393685,15.337932],[98.389589,15.334627],[98.389589,15.329237],[98.394045,15.327441],[98.400225,15.321045],[98.399506,15.314362],[98.401664,15.308157],[98.3888612,15.3040595],[98.3860329,15.3013176],[98.3867565,15.3000396],[98.400411,15.303536],[98.403628,15.301589],[98.407348,15.301958],[98.413376,15.292515],[98.41352,15.279149],[98.417544,15.272034],[98.415101,15.270382],[98.417256,15.266429],[98.401447,15.254069],[98.399291,15.256153],[98.399219,15.260896],[98.394189,15.262692],[98.388727,15.271963],[98.38535,15.269519],[98.383266,15.272609],[98.379816,15.272537],[98.376511,15.27649],[98.374211,15.284323],[98.366593,15.282598],[98.362138,15.28461],[98.357754,15.28921],[98.353299,15.289785],[98.353534,15.29336],[98.343877,15.292486],[98.338839,15.29378],[98.32699,15.303327],[98.323403,15.303077],[98.318982,15.305079],[98.30597,15.313504],[98.302133,15.31109],[98.297712,15.313504],[98.295877,15.312252],[98.29558,15.308433],[98.300466,15.303397],[98.294178,15.296613],[98.297891,15.293535],[98.299065,15.291122],[98.297966,15.288639],[98.30382,15.280852],[98.301092,15.279488],[98.300466,15.27486],[98.280921,15.270978],[98.280163,15.266012],[98.281491,15.263474],[98.273951,15.255592],[98.272966,15.250066],[98.267661,15.248053],[98.265731,15.244632],[98.266189,15.241837],[98.259875,15.235335],[98.258612,15.223653],[98.252824,15.225336],[98.243986,15.220875],[98.239158,15.221584],[98.235061,15.220132],[98.23144,15.223036],[98.220248,15.22496],[98.216773,15.233537],[98.212494,15.236542],[98.207779,15.234493],[98.2037863,15.2369567],[98.19812,15.234347],[98.200021,15.224488],[98.198202,15.220285],[98.201997,15.215066],[98.199802,15.211048],[98.209604,15.200479],[98.208397,15.189674],[98.212238,15.185824],[98.213371,15.182008],[98.208324,15.171],[98.201777,15.165935],[98.19929,15.155906],[98.192011,15.152935],[98.190402,15.150807],[98.188683,15.141758],[98.193361,15.135879],[98.186891,15.123894],[98.183379,15.121396],[98.183573,15.113778],[98.181697,15.108362],[98.184733,15.10387],[98.183678,15.096308],[98.190439,15.092424],[98.193466,15.087046],[98.193045,15.076838],[98.203533,15.078039],[98.209824,15.076317],[98.215969,15.067368],[98.215713,15.064633],[98.221491,15.05967],[98.220248,15.055111],[98.22471,15.052511],[98.225661,15.049641],[98.230123,15.046939],[98.231354,15.044423],[98.224015,15.026206],[98.218492,15.02526],[98.212786,15.020364],[98.210509,14.999912],[98.208918,14.997479],[98.208585,14.980466],[98.212515,14.979382],[98.217041,14.974436],[98.221171,14.975687],[98.226158,14.969571],[98.233259,14.966567],[98.23105,14.955298],[98.228201,14.950343],[98.228675,14.946901],[98.232285,14.942012],[98.243185,14.940061],[98.24328,14.922501],[98.250971,14.915984],[98.240739,14.89981],[98.232831,14.895885],[98.229768,14.889879],[98.233282,14.883235],[98.238934,14.880385],[98.244229,14.872055],[98.256978,14.863546],[98.259338,14.858468],[98.258456,14.843356],[98.254565,14.840769],[98.253864,14.836865],[98.249478,14.835245],[98.245773,14.831562],[98.250861,14.826029],[98.25107,14.820592],[98.253945,14.813849],[98.261458,14.81128],[98.261296,14.809546],[98.270547,14.79955],[98.276598,14.796981],[98.277828,14.788761],[98.282881,14.77622],[98.285912,14.774199],[98.290206,14.774536],[98.294416,14.769905],[98.294267,14.763137],[98.297249,14.749587],[98.301016,14.747547],[98.302429,14.742063],[98.306739,14.737516],[98.305181,14.732132],[98.315128,14.726882],[98.315504,14.722669],[98.32235,14.716315],[98.323582,14.709828],[98.330391,14.706117],[98.334158,14.711467],[98.337889,14.709929],[98.340641,14.70615],[98.340025,14.703542],[98.343756,14.702104],[98.345096,14.699696],[98.348646,14.700231],[98.361649,14.688527],[98.366647,14.666224],[98.372986,14.664151],[98.378709,14.65773],[98.378962,14.654553],[98.398811,14.640107],[98.404606,14.638168],[98.407541,14.633521],[98.41569,14.63108],[98.419059,14.624693],[98.420725,14.622954],[98.424202,14.622753],[98.425107,14.619442],[98.428837,14.61884],[98.433329,14.614192],[98.437168,14.613089],[98.436118,14.60834],[98.439051,14.605431],[98.444122,14.592725],[98.445933,14.592825],[98.451729,14.582492],[98.456148,14.582258],[98.459335,14.577309],[98.458466,14.560623],[98.455858,14.55661],[98.459625,14.548418],[98.458864,14.545743],[98.46053,14.543569],[98.461617,14.530862],[98.465746,14.531765],[98.469711,14.536504],[98.477191,14.536948],[98.479944,14.534674],[98.484943,14.534641],[98.488964,14.540392],[98.491861,14.540626],[98.496497,14.524342],[98.495411,14.52053],[98.498345,14.515079],[98.497548,14.511535],[98.503313,14.510959],[98.505282,14.508157],[98.504274,14.495903],[98.51038,14.489081],[98.508818,14.485657],[98.509404,14.482697],[98.512053,14.480328],[98.511411,14.477574],[98.513865,14.474124],[98.517183,14.473815],[98.517322,14.47034],[98.520417,14.469954],[98.524209,14.45528],[98.532379,14.44802],[98.53302,14.443181],[98.536422,14.442074],[98.542222,14.444442],[98.545846,14.440709],[98.546683,14.436822],[98.549527,14.433913],[98.547157,14.430772],[98.547965,14.42238],[98.554713,14.421891],[98.557585,14.419728],[98.558589,14.412288],[98.556832,14.408736],[98.55672,14.402969],[98.562882,14.39661],[98.564954,14.384916],[98.568877,14.383018],[98.570076,14.380418],[98.57345,14.380392],[98.576852,14.374548],[98.576935,14.368447],[98.5899,14.369914],[98.591936,14.375166],[98.593943,14.376196],[98.595477,14.369271],[98.597401,14.368164],[98.594194,14.360441],[98.593051,14.344016],[98.596955,14.336576],[98.595839,14.332277],[98.59715,14.327643],[98.601555,14.321671],[98.614632,14.312532],[98.618619,14.314077],[98.624893,14.31212],[98.630497,14.316007],[98.636102,14.307023],[98.642208,14.300947],[98.645777,14.301488],[98.656121,14.294074],[98.65746,14.291113],[98.663008,14.291165],[98.668362,14.287741],[98.676169,14.281949],[98.681243,14.273325],[98.68629,14.271523],[98.69209,14.274432],[98.699813,14.273762],[98.700036,14.259938],[98.705278,14.253039],[98.711273,14.251726],[98.716543,14.244389],[98.723095,14.24148],[98.724601,14.239163],[98.726552,14.238262],[98.73151,14.241091],[98.734527,14.238236],[98.735112,14.23525],[98.737566,14.234915],[98.740243,14.231491],[98.742808,14.233345],[98.744258,14.227836],[98.748356,14.22557],[98.756583,14.21378],[98.76091,14.215552],[98.761942,14.213383],[98.765409,14.212668],[98.767301,14.208568],[98.77607,14.207404],[98.777131,14.199705],[98.781401,14.198144],[98.782834,14.195895],[98.799455,14.192508],[98.800515,14.188355],[98.802779,14.188249],[98.805559,14.183963],[98.810173,14.181291],[98.813497,14.175444],[98.817881,14.173274],[98.822925,14.176687],[98.828341,14.175655],[98.834789,14.17203],[98.839632,14.163088],[98.844704,14.163617],[98.849806,14.160204],[98.851525,14.157135],[98.853961,14.156315],[98.85505,14.152161],[98.857257,14.15269],[98.862042,14.147214],[98.867316,14.14777],[98.875454,14.13134],[98.874193,14.129197],[98.875225,14.127345],[98.87915,14.123165],[98.88279,14.12335],[98.886516,14.121128],[98.890786,14.116127],[98.896402,14.113217],[98.899153,14.10909],[98.905171,14.111048],[98.908066,14.108878],[98.920589,14.10999],[98.928699,14.106206],[98.931393,14.102211],[98.935777,14.102634],[98.938271,14.096919],[98.945062,14.092872],[98.952771,14.094036],[98.957185,14.097237],[98.959019,14.096972],[98.960194,14.09139],[98.968934,14.080119],[98.968132,14.0716],[98.970281,14.057684],[98.968791,14.054112],[98.971542,14.05099],[98.970998,14.045487],[98.973692,14.039402],[98.970826,14.036783],[98.971284,14.034005],[98.987332,14.024771],[98.990427,14.020988],[98.998795,14.019242],[98.995786,14.013951],[98.998107,14.009162],[99.006385,13.999976],[99.004904,13.9963],[99.009364,13.993792],[99.012142,13.980385],[99.014842,13.974928],[99.014842,13.960681],[99.020506,13.953045],[99.020783,13.945622],[99.023407,13.944212],[99.030228,13.945209],[99.037281,13.944084],[99.039904,13.94179],[99.043778,13.941747],[99.053778,13.93052],[99.059349,13.929294],[99.060614,13.923396],[99.065768,13.917199],[99.065892,13.907425],[99.072096,13.904419],[99.076185,13.899732],[99.07725,13.894047],[99.08279,13.894232],[99.085151,13.891312],[99.090661,13.891454],[99.094102,13.889474],[99.104874,13.895059],[99.107729,13.893235],[99.110907,13.867376],[99.110414,13.865396],[99.106772,13.865097],[99.100985,13.854953],[99.10171,13.851163],[99.099503,13.837728],[99.107822,13.83069],[99.114411,13.830732],[99.115584,13.825262],[99.11455,13.819805],[99.116371,13.816285],[99.121402,13.813578],[99.122482,13.800243],[99.119396,13.798904],[99.117482,13.795342],[99.119596,13.786281],[99.118316,13.784087],[99.122127,13.776578],[99.121417,13.77303],[99.12725,13.767488],[99.132806,13.767232],[99.141726,13.757472],[99.14651,13.758028],[99.15401,13.755221],[99.153825,13.751275],[99.15509,13.750264],[99.153416,13.745177],[99.154126,13.736045],[99.158385,13.733266],[99.161163,13.726271],[99.1675307,13.7264943],[99.1673299,13.7360636],[99.1726091,13.7408696],[99.1746173,13.7405861],[99.1766155,13.7373333],[99.1814844,13.7377723],[99.1837499,13.7336656],[99.1895617,13.7355299],[99.1962159,13.7305714],[99.2038269,13.7352567],[99.2118611,13.737014],[99.211212,13.7422806],[99.2162166,13.7423943],[99.2224873,13.7483023],[99.2273717,13.7474458],[99.2316761,13.7491832],[99.2350541,13.7469148],[99.2401621,13.7514579],[99.2433526,13.7480869],[99.2509939,13.7461951],[99.2521458,13.743783],[99.2552171,13.746646],[99.258523,13.7441742],[99.2623949,13.7449107],[99.2658985,13.743455],[99.273319,13.7498843],[99.2731207,13.7547494],[99.2769561,13.7562204],[99.2783219,13.7596005],[99.2802444,13.760936],[99.2862114,13.7605764],[99.2918442,13.7672792],[99.2950687,13.7690479],[99.2986302,13.7685392],[99.303558,13.7759522],[99.3067888,13.7771293],[99.3123949,13.7695156],[99.3171103,13.7660993],[99.3399303,13.7558038],[99.3485294,13.7551918],[99.3569596,13.7524212],[99.3664198,13.7540953],[99.3691046,13.7559654],[99.378847,13.7549618],[99.3828528,13.7585178],[99.3852298,13.7585064],[99.3899753,13.7633462],[99.397724,13.7626099],[99.4002358,13.76451],[99.4010077,13.7678707],[99.4097279,13.7681327],[99.4129462,13.7713131],[99.413597,13.7746278],[99.4191398,13.7742894],[99.4305992,13.7784871],[99.4487978,13.780779],[99.4507117,13.7841281],[99.4539282,13.783432],[99.4537966,13.7822324],[99.4552375,13.7829231],[99.4586184,13.7863459],[99.4573008,13.7871656],[99.4622467,13.7943436],[99.4635378,13.7936364],[99.4698551,13.8030307],[99.4704369,13.8066836],[99.4724788,13.804391],[99.4752453,13.8056578],[99.4794617,13.8026105],[99.4799699,13.7984036],[99.4832556,13.7968819],[99.4866681,13.7833359],[99.4919064,13.7806398],[99.493495,13.7776141],[99.4961489,13.7772905],[99.4985034,13.7725891],[99.5022923,13.7718131],[99.5046169,13.7667639],[99.508868,13.7652177],[99.5085337,13.763662],[99.5178987,13.7610004],[99.5388081,13.7613401],[99.5530518,13.7556241],[99.5565045,13.7563941],[99.5612604,13.7519953],[99.5664764,13.7522604],[99.5694042,13.7506356],[99.5703112,13.7579472],[99.5789432,13.7618025],[99.5870371,13.773278],[99.5956131,13.7702445],[99.5959259,13.7717965],[99.5940107,13.7730431],[99.5949112,13.7746351],[99.5962645,13.7732074],[99.5978953,13.7761858],[99.6023063,13.7760858],[99.6071662,13.7801465],[99.6131621,13.7799363],[99.6151466,13.7838477],[99.6148206,13.7880711],[99.6184069,13.7871999],[99.6203306,13.8017304],[99.6333817,13.8142567],[99.6389795,13.8222313],[99.635295,13.8243079],[99.6370881,13.828635],[99.6396765,13.8267308],[99.646013,13.8309162],[99.6473708,13.8346599],[99.6520888,13.8331427],[99.6527459,13.8461085],[99.661647,13.8471461],[99.6613274,13.8510872],[99.6630458,13.8483624],[99.6731726,13.8525352],[99.6847826,13.8535253],[99.694041,13.8427807],[99.6954546,13.8440784],[99.6973492,13.8402184],[99.701949,13.8417804],[99.7160661,13.8411429],[99.7192105,13.8382055],[99.7193154,13.8315477],[99.7241915,13.8318957],[99.725306,13.8300056],[99.7373154,13.82904],[99.7526371,13.8331978],[99.7521059,13.831762],[99.7568351,13.8299578],[99.7561501,13.8279654],[99.7594175,13.8220255],[99.7625211,13.8207767],[99.7637364,13.8184048],[99.7760972,13.8233947],[99.7836405,13.8215737],[99.7834087,13.8188896],[99.7860473,13.8183649],[99.7876809,13.82037],[99.7846431,13.8218831],[99.7854355,13.8249847],[99.7833981,13.8251967],[99.7841801,13.8269394],[99.7867573,13.8269809],[99.7875698,13.8239338],[99.7907073,13.8237804],[99.7904919,13.8267646],[99.7949519,13.8275088],[99.7982076,13.8259551],[99.7970469,13.8217186],[99.7988717,13.819893],[99.805384,13.8174897],[99.8063312,13.8149629],[99.8091633,13.8151108],[99.8097494,13.8186256],[99.8052124,13.8214775],[99.8031095,13.8208471],[99.7991758,13.8276064],[99.7996943,13.8304327],[99.8025153,13.8325908],[99.8008882,13.8356705],[99.8045081,13.8375797],[99.8028223,13.840182],[99.8069719,13.8470624],[99.8079331,13.8522982],[99.8107971,13.8558583],[99.8209345,13.8581885],[99.8190262,13.8661327],[99.8256095,13.8721237],[99.8299354,13.8710341],[99.8305933,13.8695683],[99.8308209,13.874108],[99.8366247,13.8724581],[99.8399477,13.8791839],[99.8380717,13.8807502],[99.8360662,13.8787813],[99.8344358,13.8796698],[99.8358178,13.8843392],[99.8382604,13.8865238],[99.8416713,13.8849018],[99.8435469,13.8857567],[99.8446495,13.893699],[99.8486904,13.8957287],[99.8480821,13.904033],[99.8441893,13.9069864],[99.8450534,13.9176751],[99.8498919,13.9216647],[99.853969,13.9215872],[99.8531,13.9248324],[99.8558254,13.9255719],[99.8568323,13.9299213],[99.8623921,13.9285483],[99.8631068,13.931859],[99.8657224,13.9313872],[99.8740476,13.9443369],[99.8733409,13.9459823],[99.8793002,13.9507755],[99.8742598,13.9578175],[99.8761768,13.9592085],[99.8754817,13.9616194],[99.8684666,13.9633546],[99.8642805,13.9663615],[99.8573817,13.9648284],[99.8525681,13.9659276],[99.8496757,13.973027],[99.8459237,13.9758654],[99.8436044,13.9832632],[99.8405921,13.9836252],[99.831311,13.9917384],[99.8319031,13.9974641]]]}}]}