{"type":"FeatureCollection","features":[{"type":"Feature","properties":{"provinceCode":"45","nameTh":"ร้อยเอ็ด","nameEn":"Roi Et"},"geometry":{"type":"Polygon","coordinates":[[[104.1854993,16.1491255],[104.1889667,16.1466688],[104.1962025,16.1512232],[104.1981241,16.150418],[104.1995066,16.1523754],[104.1981626,16.1550144],[104.1999485,16.1581562],[104.2029459,16.1588523],[104.2018204,16.1594418],[104.2029794,16.1611446],[104.2060567,16.1617172],[104.2073937,16.1641954],[104.2092331,16.1633742],[104.208609,16.1604019],[104.2106118,16.1575495],[104.2133517,16.1571577],[104.2203364,16.1600139],[104.2205094,16.1625726],[104.2277761,16.1662257],[104.2270724,16.1671165],[104.2301086,16.1692098],[104.2289528,16.1719574],[104.2368884,16.1803414],[104.2383095,16.1873045],[104.2472568,16.1934321],[104.2471482,16.1971051],[104.2453888,16.1991236],[104.2493733,16.2041653],[104.2499727,16.2190203],[104.258132,16.2246214],[104.2689843,16.227],[104.2735072,16.2256668],[104.2769862,16.2265216],[104.2853416,16.2339594],[104.2982961,16.2397466],[104.2969286,16.2528547],[104.3056022,16.2573515],[104.3107341,16.2554455],[104.3120416,16.2587866],[104.3225836,16.2649227],[104.3285147,16.2709953],[104.3309708,16.2782254],[104.3354833,16.2811255],[104.33951,16.287749],[104.3437656,16.291438],[104.3407556,16.2985306],[104.3446159,16.3110562],[104.3440471,16.3155287],[104.3470752,16.3189978],[104.3480046,16.3232112],[104.344828,16.3241106],[104.3456367,16.3272665],[104.3422277,16.3259263],[104.3253869,16.3341699],[104.327903,16.3416835],[104.3263645,16.3547151],[104.3214842,16.3641522],[104.3198526,16.3733917],[104.3181558,16.3751887],[104.3181504,16.3836295],[104.3151054,16.3934192],[104.319496,16.4221174],[104.3141562,16.4302854],[104.3140167,16.4407391],[104.3104551,16.4540908],[104.3063159,16.4603494],[104.2954055,16.4712489],[104.2911889,16.4728115],[104.2895722,16.4716169],[104.2842134,16.4498833],[104.2738548,16.4438679],[104.269564,16.4384233],[104.2660633,16.4367653],[104.2564964,16.4369361],[104.2502385,16.4336707],[104.2461817,16.4362171],[104.2378579,16.4285722],[104.2340372,16.4283863],[104.2272798,16.4333172],[104.2269058,16.4353547],[104.217878,16.4377692],[104.2127174,16.4337935],[104.2081826,16.4331031],[104.2030236,16.4298902],[104.1997778,16.431414],[104.1938729,16.4301574],[104.1911838,16.4317099],[104.1897676,16.4299883],[104.1893317,16.4316001],[104.1879398,16.430576],[104.1831606,16.434927],[104.1820708,16.4388782],[104.1806371,16.4387951],[104.1789746,16.4422885],[104.1767538,16.4433986],[104.1742129,16.4421976],[104.1727334,16.4456511],[104.1707356,16.446111],[104.1648667,16.4425376],[104.1586316,16.4426711],[104.1559406,16.4398312],[104.1536805,16.4406336],[104.1532544,16.4381669],[104.1508165,16.4388609],[104.1488601,16.4371761],[104.1465961,16.4384337],[104.1446329,16.4364572],[104.1453959,16.4290266],[104.1375775,16.427056],[104.1365554,16.424096],[104.1287587,16.4287416],[104.1255215,16.4262824],[104.1213369,16.4264568],[104.1188445,16.4248079],[104.1170202,16.4257407],[104.1111019,16.4225244],[104.108923,16.4236434],[104.1055261,16.4211875],[104.0982499,16.4215881],[104.095286,16.4157442],[104.0902835,16.4142846],[104.0868737,16.4153633],[104.087551,16.4115619],[104.0857499,16.4113971],[104.0848053,16.4092072],[104.0811142,16.4109831],[104.0773864,16.4106756],[104.0750478,16.4083672],[104.071068,16.4100507],[104.0698426,16.408051],[104.0678253,16.4080482],[104.0682015,16.4042299],[104.0670172,16.4032736],[104.0682698,16.4006942],[104.0653647,16.3975628],[104.060667,16.3962344],[104.0559166,16.3971187],[104.0535003,16.3947647],[104.0501646,16.3956808],[104.0501496,16.3937136],[104.0454713,16.3908804],[104.0392257,16.3961431],[104.0413061,16.4012901],[104.0391233,16.4040308],[104.040414,16.4059096],[104.0390509,16.4091099],[104.0407138,16.4110264],[104.0402168,16.4143933],[104.0354941,16.4158056],[104.0386893,16.4235171],[104.0379971,16.4260863],[104.0396858,16.4274067],[104.0378472,16.4365963],[104.0364401,16.438217],[104.035185,16.4361673],[104.0340475,16.4405661],[104.0300314,16.44345],[104.0179701,16.4407687],[104.0005154,16.4454912],[103.9983839,16.4436184],[103.9928873,16.4434698],[103.985356,16.4336451],[103.9759726,16.4308891],[103.9704202,16.4315618],[103.9677581,16.4343867],[103.9646071,16.43474],[103.9627114,16.4376443],[103.9614567,16.4359492],[103.9579658,16.4383309],[103.9560848,16.4378359],[103.9550283,16.4405185],[103.9495914,16.4414018],[103.9479365,16.4440243],[103.9457847,16.4424513],[103.9426363,16.4429214],[103.9358675,16.4375281],[103.9285118,16.4343212],[103.9210375,16.4398086],[103.9187411,16.4384632],[103.9144561,16.4391787],[103.9145395,16.4456018],[103.9101643,16.4533253],[103.907707,16.4523841],[103.9043153,16.4473651],[103.8994747,16.4481925],[103.8968274,16.4517916],[103.8851811,16.4537931],[103.8832359,16.4594916],[103.872204,16.4656239],[103.8704951,16.46897],[103.8664053,16.4711418],[103.8607822,16.4702945],[103.8519907,16.4643615],[103.8441779,16.4621003],[103.8314451,16.4655623],[103.8269361,16.4707052],[103.8164189,16.4688481],[103.810404,16.4637763],[103.810358,16.4603239],[103.8063331,16.4542536],[103.7990752,16.449098],[103.7942505,16.4481755],[103.7905955,16.4439597],[103.7861696,16.4436891],[103.7823794,16.4369501],[103.7738527,16.4355162],[103.7698487,16.4317968],[103.7685308,16.424958],[103.7588564,16.4217919],[103.7584204,16.4199189],[103.7415477,16.4106696],[103.726949,16.4060035],[103.7144862,16.3867344],[103.7059653,16.3863152],[103.7001529,16.3740587],[103.7077414,16.3670314],[103.7150132,16.3565145],[103.7268702,16.3452406],[103.7279675,16.345637],[103.7289454,16.3406252],[103.7229387,16.3303341],[103.7478827,16.3094182],[103.7560766,16.3001143],[103.7552976,16.292884],[103.7524185,16.2911565],[103.750434,16.2871519],[103.7544741,16.2779257],[103.7519987,16.2739641],[103.7550473,16.2711026],[103.7548412,16.2693779],[103.7512405,16.2602469],[103.7454231,16.2553226],[103.7425771,16.2551265],[103.7416255,16.2528883],[103.7378421,16.2517222],[103.7339161,16.2474902],[103.7347343,16.2395488],[103.7310897,16.2343188],[103.7326139,16.2329651],[103.7314348,16.2315053],[103.7339475,16.2230465],[103.7236635,16.2226608],[103.7230322,16.2208412],[103.713362,16.218456],[103.6910043,16.2255405],[103.6903241,16.2226734],[103.6966039,16.2197256],[103.6970347,16.2162928],[103.6944382,16.214458],[103.689651,16.2172273],[103.6880434,16.212028],[103.6859486,16.2107813],[103.6838986,16.2123186],[103.6854721,16.2176531],[103.6770464,16.2161173],[103.6746104,16.2117938],[103.6691378,16.2149152],[103.6707402,16.2201245],[103.6648561,16.2215023],[103.6607031,16.2155628],[103.6630704,16.2092091],[103.6667139,16.2114675],[103.667447,16.2063706],[103.6756982,16.204375],[103.6758069,16.2016149],[103.6693075,16.1973286],[103.6657243,16.1998161],[103.6645097,16.1949804],[103.6613613,16.1926417],[103.6560754,16.1937883],[103.6553453,16.2027667],[103.6530609,16.2040246],[103.651207,16.1885429],[103.6438848,16.193487],[103.6417112,16.1923944],[103.6395242,16.1879179],[103.6369122,16.1868473],[103.6314296,16.1895732],[103.6288735,16.2031348],[103.6173624,16.2175788],[103.6097832,16.2186278],[103.6002906,16.2152921],[103.6015189,16.2123906],[103.6127728,16.2151312],[103.6126326,16.2087176],[103.6184837,16.2065325],[103.6194347,16.2045272],[103.6179765,16.2018116],[103.6127684,16.1989048],[103.607195,16.2006204],[103.6064711,16.1946647],[103.599004,16.1925457],[103.5973001,16.1943834],[103.598681,16.2009834],[103.5957974,16.2024082],[103.5940151,16.1963074],[103.5892397,16.194389],[103.5680417,16.2019126],[103.5507748,16.2035933],[103.5490228,16.2082371],[103.5543647,16.2090321],[103.5603076,16.2179499],[103.5563838,16.219259],[103.5531889,16.2137308],[103.544073,16.2137111],[103.5371775,16.211432],[103.5351337,16.2140436],[103.5413675,16.2187771],[103.539901,16.2224608],[103.5323118,16.2192016],[103.5295317,16.2099911],[103.525268,16.2069601],[103.525727,16.2018371],[103.52145,16.201431],[103.5213391,16.1958577],[103.5166112,16.1952114],[103.5136165,16.2002698],[103.5095804,16.1977427],[103.5022814,16.1996505],[103.5011124,16.1975999],[103.5022311,16.1951045],[103.5011836,16.1936819],[103.4983076,16.1940988],[103.4987193,16.1919121],[103.4974526,16.1931305],[103.4965181,16.192784],[103.4972695,16.1899641],[103.4948502,16.188689],[103.4912938,16.1910911],[103.4880203,16.1877302],[103.4879968,16.185248],[103.4853484,16.1847642],[103.48636,16.182198],[103.489058,16.1822453],[103.489958,16.1783282],[103.4874759,16.1756143],[103.4902958,16.1708701],[103.4834164,16.1634151],[103.4840211,16.1590267],[103.4816817,16.1548044],[103.4834542,16.1530007],[103.4808208,16.1522816],[103.4803791,16.1456821],[103.4784851,16.1433404],[103.473802,16.1439834],[103.4711518,16.1349938],[103.4680613,16.1361309],[103.4667555,16.1350633],[103.4664018,16.1315234],[103.4627843,16.1290471],[103.4629493,16.1273117],[103.4598961,16.1264956],[103.4577087,16.122305],[103.4583407,16.1060025],[103.4534195,16.0851773],[103.4576734,16.0745735],[103.4647083,16.0668677],[103.4631117,16.0619742],[103.4667519,16.0573045],[103.4664769,16.0526762],[103.4705673,16.0461005],[103.4678437,16.0344553],[103.4626409,16.0254023],[103.4604315,16.0242142],[103.4635114,16.0114242],[103.463013,16.0078348],[103.4603668,16.005336],[103.4614468,16.0038232],[103.4598285,15.997145],[103.4619718,15.9941281],[103.463054,15.9716696],[103.4662075,15.9676556],[103.4667926,15.9622111],[103.4700112,15.9601027],[103.4695666,15.9573923],[103.4740508,15.9503312],[103.474198,15.9474477],[103.4780708,15.9475802],[103.4779874,15.9434483],[103.4814252,15.9365163],[103.4882531,15.9313833],[103.4572814,15.9082279],[103.4585493,15.899312],[103.4576829,15.8943719],[103.4546315,15.8925284],[103.454648,15.8880269],[103.4510604,15.8821831],[103.4507634,15.8757904],[103.4457503,15.8725771],[103.4441183,15.8688487],[103.4427383,15.8479842],[103.4407545,15.8461918],[103.4406388,15.8416937],[103.4373996,15.8386695],[103.437028,15.834394],[103.4410715,15.8310726],[103.4412298,15.828351],[103.4378053,15.822926],[103.4402871,15.8217681],[103.4403343,15.8158403],[103.4378711,15.8092508],[103.4363341,15.8100712],[103.4340636,15.808524],[103.4361772,15.8053377],[103.4355281,15.8035591],[103.439934,15.8003064],[103.4285048,15.7825823],[103.4255793,15.7731941],[103.4083502,15.7663983],[103.4063747,15.7612482],[103.4002886,15.7599948],[103.4019355,15.7571444],[103.406417,15.757],[103.4100572,15.744659],[103.4207113,15.7397525],[103.4203423,15.7370174],[103.4238102,15.734196],[103.4233531,15.7283248],[103.4183928,15.7177048],[103.4160274,15.716996],[103.4131024,15.7124898],[103.40746,15.7125406],[103.4051197,15.7098155],[103.4017891,15.7122423],[103.3986444,15.7089461],[103.3881326,15.7097994],[103.3845103,15.7131177],[103.3775522,15.7140767],[103.3750805,15.7167418],[103.3517004,15.7257639],[103.3493368,15.7219801],[103.3456219,15.7198305],[103.3423544,15.7101305],[103.3390679,15.7103034],[103.3273024,15.6983805],[103.3240335,15.697652],[103.3211143,15.6995534],[103.3169188,15.7083977],[103.3010302,15.7063852],[103.3081729,15.7028249],[103.3083726,15.6935755],[103.3005948,15.6927614],[103.3004321,15.6911882],[103.2956369,15.6933746],[103.291858,15.6925513],[103.2919662,15.6896517],[103.2947151,15.6860174],[103.2985341,15.6845057],[103.285432,15.6742888],[103.2842233,15.6635209],[103.2811199,15.6587676],[103.2768169,15.6541628],[103.267474,15.6520926],[103.2669274,15.6506409],[103.2677289,15.6494825],[103.2989622,15.6488528],[103.2870759,15.6173137],[103.2835136,15.6177917],[103.2833702,15.6139268],[103.2804362,15.6116012],[103.2755657,15.6111627],[103.275938,15.6071112],[103.2737279,15.6018547],[103.2746051,15.5999754],[103.2821608,15.5929746],[103.285112,15.5932452],[103.2888124,15.5967596],[103.293888,15.5932277],[103.2971513,15.5871665],[103.2944295,15.5828685],[103.2943778,15.5775722],[103.2977909,15.57396],[103.3011658,15.5747964],[103.3033512,15.5735716],[103.3006792,15.5679945],[103.3026752,15.5622231],[103.3057039,15.5611406],[103.3090864,15.5622135],[103.3096702,15.559166],[103.3136848,15.5549148],[103.3207679,15.5554848],[103.3229613,15.5519848],[103.3243641,15.5526945],[103.3306216,15.5471771],[103.3357666,15.5477576],[103.3404963,15.5458036],[103.3415122,15.5472377],[103.3441753,15.5467444],[103.3454801,15.5447625],[103.347922,15.5452147],[103.3546835,15.5414024],[103.3553995,15.5375193],[103.3594104,15.5318525],[103.3587506,15.5288923],[103.3602313,15.5262512],[103.3651659,15.5276759],[103.3658857,15.5294544],[103.3695058,15.5282082],[103.3712747,15.5312099],[103.3739596,15.5308919],[103.3752276,15.5368001],[103.3801556,15.5349316],[103.3841346,15.5385807],[103.3863228,15.5373102],[103.3911384,15.5391037],[103.395077,15.5365671],[103.3983345,15.5386021],[103.3984983,15.5362127],[103.4036488,15.5358829],[103.4072766,15.5386351],[103.4100989,15.5378686],[103.4112735,15.5401482],[103.4135935,15.5388654],[103.4140586,15.5357026],[103.4163055,15.5352761],[103.4183943,15.5369678],[103.4243431,15.5329209],[103.423084,15.5307061],[103.4266909,15.5248897],[103.4210403,15.5241576],[103.4209059,15.5058774],[103.4115313,15.4805765],[103.4076141,15.4596332],[103.4029349,15.4470293],[103.4007965,15.4450186],[103.4032678,15.4364525],[103.4228061,15.4454466],[103.4263341,15.4494497],[103.4309401,15.4492285],[103.4332321,15.4548511],[103.4359546,15.4529129],[103.4380617,15.454317],[103.4369003,15.4550228],[103.4389816,15.4554534],[103.440214,15.4538305],[103.4455167,15.4562454],[103.4469588,15.4540665],[103.4484081,15.455964],[103.4496614,15.4540587],[103.4520585,15.4553423],[103.4629742,15.4523437],[103.4706311,15.4535604],[103.4781519,15.4526109],[103.4789186,15.451214],[103.4801552,15.4521713],[103.4857558,15.4489965],[103.4860212,15.4431166],[103.4922199,15.4382172],[103.4964855,15.437605],[103.5033662,15.4393122],[103.5126852,15.4319428],[103.514546,15.4319405],[103.513587,15.4304321],[103.5160443,15.4285857],[103.5176469,15.4308886],[103.5208479,15.4283325],[103.5245636,15.4291918],[103.5323965,15.4264419],[103.532716,15.4279534],[103.5370625,15.4290036],[103.5372212,15.4310846],[103.5421926,15.4357082],[103.5429218,15.4395464],[103.5458817,15.440553],[103.5500467,15.4383619],[103.5507067,15.441789],[103.5486158,15.4406967],[103.5486177,15.4432543],[103.5525059,15.4470685],[103.5519119,15.4488536],[103.5553942,15.4544718],[103.5558524,15.4526299],[103.5616968,15.4523579],[103.5618436,15.4561502],[103.5633453,15.4564699],[103.5637278,15.4587594],[103.5658025,15.4600436],[103.5707161,15.459558],[103.5743224,15.4635389],[103.5793625,15.4658317],[103.5837171,15.4635959],[103.5856361,15.4652744],[103.5843271,15.4671285],[103.5906637,15.4645832],[103.592105,15.4675869],[103.6007177,15.464998],[103.6011763,15.4681293],[103.6061895,15.4673762],[103.6067236,15.4688547],[103.6098473,15.466259],[103.6118329,15.4685127],[103.6123451,15.4653751],[103.6139443,15.4654385],[103.6158409,15.4685902],[103.6166764,15.4665381],[103.6199651,15.4662257],[103.6177524,15.4645927],[103.6229359,15.4667715],[103.6268926,15.4619279],[103.624775,15.4599466],[103.6296244,15.4587033],[103.6293729,15.457501],[103.6331333,15.4585191],[103.633761,15.456742],[103.6354071,15.4578928],[103.6378036,15.4569813],[103.6396804,15.4575617],[103.6403863,15.4600709],[103.6412393,15.4564369],[103.6485955,15.458036],[103.6484916,15.4555381],[103.6500569,15.4565161],[103.6535356,15.4512717],[103.6597601,15.449426],[103.6628622,15.452615],[103.6643405,15.4500682],[103.6674028,15.4488745],[103.6674843,15.4461979],[103.6710736,15.4460692],[103.6716683,15.4441917],[103.6744594,15.444874],[103.6753861,15.4480795],[103.6798606,15.4474471],[103.6804768,15.445518],[103.6813136,15.4472308],[103.684558,15.4479754],[103.6865187,15.4458334],[103.6883982,15.4491882],[103.6886731,15.4457013],[103.691664,15.4447541],[103.6916565,15.4464901],[103.6936899,15.4467724],[103.6960156,15.4431367],[103.7010751,15.4452755],[103.7037969,15.4417095],[103.7090733,15.4433445],[103.7080353,15.4473073],[103.7140874,15.4431077],[103.7153062,15.4470038],[103.7238888,15.4379788],[103.726292,15.4412214],[103.7303862,15.4388475],[103.7324289,15.4445963],[103.7351751,15.4417762],[103.7385488,15.4418502],[103.7419107,15.4436036],[103.743939,15.4477236],[103.7462395,15.4448944],[103.7479776,15.4459242],[103.7516868,15.4410549],[103.7572669,15.4374322],[103.7619017,15.4374322],[103.7645807,15.4398822],[103.7682051,15.4371349],[103.7703819,15.4392131],[103.7745292,15.437667],[103.7741284,15.4347873],[103.7752142,15.4360521],[103.7782612,15.4352827],[103.7783553,15.4377112],[103.7800636,15.4367554],[103.7793059,15.4397488],[103.7813055,15.4392439],[103.7808377,15.4419699],[103.7840591,15.4405738],[103.7867818,15.4428802],[103.7886295,15.4418559],[103.7903692,15.4440917],[103.7941957,15.4412437],[103.797766,15.4451484],[103.799197,15.4427441],[103.8011823,15.4446945],[103.8021748,15.4430993],[103.8026731,15.4453662],[103.8043924,15.4449349],[103.8036899,15.4477157],[103.8048444,15.4460738],[103.8070915,15.4463781],[103.806896,15.449544],[103.8082247,15.4471557],[103.8106382,15.4464957],[103.8135433,15.4482824],[103.8129685,15.4494406],[103.8162944,15.4470872],[103.8179577,15.4508537],[103.8199935,15.4506565],[103.8199852,15.4529235],[103.8213324,15.4511984],[103.8229632,15.4518478],[103.8231824,15.4501728],[103.8245468,15.4508674],[103.8234871,15.4532252],[103.8285973,15.4516113],[103.8287401,15.4579013],[103.8327033,15.4607512],[103.837179,15.4606109],[103.8462924,15.4562882],[103.8529443,15.4663392],[103.855133,15.4660083],[103.8578974,15.4621537],[103.8576006,15.4513235],[103.8596177,15.4491105],[103.8647675,15.4514476],[103.8658769,15.4618473],[103.8732727,15.4638546],[103.8778952,15.4684462],[103.8829506,15.4654682],[103.8841346,15.4556994],[103.8865555,15.4542015],[103.8915718,15.4611412],[103.8890017,15.4674121],[103.8906368,15.4687088],[103.8923652,15.4674949],[103.9001114,15.4497006],[103.8991458,15.4418008],[103.9053256,15.4424792],[103.9073351,15.4372515],[103.9096729,15.435934],[103.9174632,15.4394026],[103.9231612,15.4387728],[103.9295685,15.4323919],[103.9341143,15.4359599],[103.9452197,15.4386901],[103.9475425,15.436629],[103.9478633,15.4333465],[103.9424388,15.4301849],[103.9418391,15.4270078],[103.9503063,15.4130804],[103.9523995,15.4129977],[103.9573959,15.416688],[103.9626316,15.4143557],[103.9621123,15.4231521],[103.9740427,15.4258825],[103.9758312,15.4246146],[103.9762572,15.4208685],[103.9711234,15.4105091],[103.9720343,15.4070173],[103.9817847,15.4049651],[103.9890006,15.4069784],[103.9913989,15.4131609],[103.9944451,15.4416157],[103.9966815,15.4490873],[104.0023167,15.4537105],[104.0102266,15.4556875],[104.0163985,15.4615575],[104.0224637,15.4784813],[104.0315591,15.4892316],[104.055939,15.4988178],[104.059976,15.5024193],[104.0564264,15.5085483],[104.0555062,15.5153962],[104.0589771,15.5169531],[104.0598691,15.515692],[104.0597692,15.517907],[104.0618764,15.5173021],[104.0617198,15.5200584],[104.0644364,15.5197524],[104.063773,15.521384],[104.0662761,15.5237817],[104.0740641,15.5224791],[104.0780392,15.5325055],[104.0768538,15.5347228],[104.0754271,15.5342618],[104.0763858,15.5364941],[104.0737593,15.5370735],[104.0739029,15.5398065],[104.0769066,15.5411101],[104.0789719,15.5449017],[104.0822597,15.5432543],[104.0820825,15.5477846],[104.0829976,15.5465426],[104.0855293,15.5505178],[104.0872008,15.5491569],[104.0885377,15.5510353],[104.0899852,15.5497526],[104.0922016,15.5516768],[104.0931412,15.5500778],[104.0952949,15.5505535],[104.0944961,15.5484991],[104.0979487,15.5482441],[104.1007123,15.5457737],[104.1056241,15.5466838],[104.1039248,15.5538766],[104.1017524,15.5536082],[104.1015048,15.5571439],[104.0991883,15.5591346],[104.097956,15.5644586],[104.0994266,15.5673034],[104.1068849,15.5682656],[104.1162271,15.5612813],[104.1197271,15.5615105],[104.1235714,15.5670792],[104.1213527,15.5743219],[104.1220287,15.5777959],[104.1611365,15.6028479],[104.1745885,15.6039545],[104.1835932,15.6028759],[104.1862817,15.6035656],[104.1875714,15.6061758],[104.2094581,15.6089594],[104.2133139,15.6143542],[104.2129801,15.6168404],[104.2093483,15.6182301],[104.1938277,15.613585],[104.1873408,15.6090026],[104.1883826,15.615637],[104.1835019,15.6182239],[104.1820216,15.6213071],[104.1833941,15.6238599],[104.191428,15.6288542],[104.1906147,15.6330256],[104.1880599,15.63372],[104.1787532,15.6307214],[104.1700527,15.6325296],[104.1703038,15.6352087],[104.1770054,15.6369019],[104.1787293,15.6391045],[104.1739361,15.6463543],[104.1719321,15.6601615],[104.1748485,15.6615453],[104.1805683,15.65693],[104.1840758,15.6566902],[104.1871262,15.6593028],[104.1875317,15.6654536],[104.1839136,15.6683028],[104.1752054,15.6640367],[104.1767654,15.6716702],[104.1690476,15.6725795],[104.1678527,15.6781648],[104.1628974,15.6869251],[104.1520798,15.6907404],[104.1512134,15.6980756],[104.1438925,15.7026396],[104.1421111,15.7055581],[104.1430471,15.7090408],[104.1472528,15.7099084],[104.1482992,15.7121557],[104.1391274,15.7112765],[104.1351465,15.7034663],[104.1281983,15.696048],[104.1239098,15.696181],[104.1181033,15.7021872],[104.1198492,15.7057824],[104.1303509,15.7053541],[104.1279656,15.7107361],[104.1275564,15.7199553],[104.1335387,15.7355398],[104.132391,15.7434164],[104.1342055,15.7461667],[104.140053,15.7480881],[104.141802,15.7514629],[104.1402817,15.75419],[104.1331318,15.7540609],[104.1274694,15.7684076],[104.1331695,15.7739896],[104.1342854,15.7795209],[104.1395158,15.7841118],[104.1363003,15.7966693],[104.1334705,15.8006242],[104.1109898,15.8069776],[104.1042612,15.8173039],[104.0968194,15.8250182],[104.0743394,15.8394015],[104.0702468,15.8369699],[104.0698956,15.8280917],[104.0727891,15.824639],[104.0793149,15.8251469],[104.0782726,15.8199913],[104.0668136,15.8129184],[104.0598601,15.811893],[104.0347102,15.7961354],[104.0250633,15.7991057],[104.0091983,15.7943147],[104.0011567,15.7950698],[104.0000402,15.7974937],[104.0023377,15.8011654],[104.0026441,15.8057246],[104.0010023,15.810056],[103.9974702,15.8130226],[103.9991021,15.8149632],[104.0053855,15.811739],[104.0069582,15.8143487],[104.0049957,15.8172612],[104.014147,15.817418],[104.0092244,15.8215043],[104.0107604,15.8271025],[104.0072627,15.831176],[104.0090587,15.8321661],[104.0134372,15.8301354],[104.0172623,15.8303549],[104.0167973,15.8330988],[104.012216,15.8367019],[104.0137282,15.8391051],[104.0117325,15.840116],[104.0126851,15.8447904],[104.0146963,15.8441135],[104.0159968,15.8382219],[104.0212098,15.8396326],[104.0186256,15.8480356],[104.0271253,15.8509523],[104.0260533,15.8554386],[104.0291587,15.8593172],[104.0281987,15.8609447],[104.0251676,15.8605329],[104.0201207,15.8639172],[104.0198553,15.867341],[104.025293,15.8643282],[104.0366141,15.8677872],[104.0351711,15.8708068],[104.0296241,15.8680661],[104.0236211,15.8702601],[104.0245081,15.8728997],[104.0318198,15.8736977],[104.0322354,15.8750671],[104.0240399,15.8788113],[104.0209906,15.877993],[104.0223307,15.8811609],[104.0208264,15.8836075],[104.015047,15.8860518],[104.0174994,15.889484],[104.0212667,15.8911409],[104.0197351,15.8928081],[104.0178085,15.8911121],[104.0149962,15.8924769],[104.0167765,15.9016547],[104.0194751,15.906204],[104.014127,15.9109719],[104.0237151,15.9117683],[104.0238428,15.9151754],[104.0283485,15.9196722],[104.0263258,15.9232053],[104.029263,15.9243785],[104.0296211,15.9277846],[104.0329707,15.9296],[104.0350606,15.9348136],[104.0328297,15.9364993],[104.0360776,15.9396069],[104.0353143,15.9415159],[104.0337542,15.9396768],[104.032852,15.9417983],[104.0340912,15.9428215],[104.0322209,15.9460354],[104.0330784,15.9480499],[104.0294135,15.9488584],[104.0290896,15.9515265],[104.0307395,15.9530303],[104.0279262,15.9540998],[104.0302446,15.9571847],[104.0280175,15.9565508],[104.0265018,15.9611341],[104.0242378,15.9611096],[104.0254776,15.9594014],[104.0201106,15.9556902],[104.0206917,15.9513671],[104.0188009,15.9516851],[104.0191255,15.9532883],[104.0167664,15.9530205],[104.0172311,15.9508733],[104.0155164,15.9490938],[104.0140558,15.9508224],[104.014924,15.9525679],[104.0118845,15.9538073],[104.0118382,15.9598221],[104.0154756,15.9603003],[104.0144892,15.9616784],[104.015636,15.9657484],[104.0179715,15.966358],[104.0175186,15.9677017],[104.0220242,15.9723347],[104.0201944,15.9764768],[104.0228656,15.97526],[104.0232445,15.9784884],[104.0250367,15.9767969],[104.0271698,15.9772876],[104.0295787,15.9799918],[104.0284384,15.9843796],[104.0303209,15.9819144],[104.0360283,15.9842156],[104.0488648,15.9835398],[104.0482672,15.9848691],[104.0508098,15.987113],[104.0516394,15.9854707],[104.0545983,15.9859629],[104.0570475,15.9842743],[104.0583551,15.9870007],[104.0611428,15.9860181],[104.0612772,15.9882304],[104.0662708,15.9833704],[104.0705457,15.9822565],[104.0724211,15.984776],[104.0761617,15.9815279],[104.0793335,15.9836732],[104.0819648,15.9784297],[104.0887155,15.9792107],[104.0946383,15.9769746],[104.093932,15.9793299],[104.097933,15.9802767],[104.0991918,15.9833109],[104.1028834,15.9841641],[104.1030872,15.9871923],[104.106873,15.9909955],[104.1056322,15.9926412],[104.1071969,15.9936154],[104.1073399,15.9974556],[104.1041955,15.9985412],[104.1043944,16.0023137],[104.1023113,16.0062605],[104.1105727,16.0175794],[104.1092324,16.0201197],[104.1116569,16.0214644],[104.1094551,16.0289184],[104.1101066,16.030962],[104.1121829,16.0305861],[104.1138042,16.0322932],[104.1141031,16.0354578],[104.1128096,16.0416029],[104.1097039,16.0423425],[104.1090068,16.0460334],[104.1051886,16.0475756],[104.1038036,16.0506768],[104.1018927,16.049534],[104.1009037,16.0560231],[104.0982187,16.0587037],[104.0978672,16.069091],[104.0992249,16.0696482],[104.0956489,16.0723005],[104.0965959,16.0736092],[104.0952158,16.0749952],[104.0975255,16.0771328],[104.1004419,16.0853804],[104.1027163,16.0868843],[104.1004383,16.0941679],[104.1073839,16.0978359],[104.1066929,16.1026102],[104.108859,16.1040374],[104.1087476,16.107158],[104.1111464,16.106752],[104.1132039,16.1091102],[104.1155083,16.1153394],[104.1228624,16.1169279],[104.1257742,16.112191],[104.1268966,16.1138294],[104.1325017,16.1131423],[104.1332048,16.114348],[104.1377116,16.1097498],[104.1402519,16.1112334],[104.140465,16.1137366],[104.1422459,16.1128172],[104.1476019,16.1171434],[104.1517631,16.1177866],[104.1554018,16.1261355],[104.1541092,16.1294712],[104.1561635,16.1294836],[104.1575144,16.1316131],[104.1632176,16.1317211],[104.166188,16.1383759],[104.165952,16.1427116],[104.1725239,16.1459591],[104.174875,16.1488249],[104.175216,16.1469791],[104.1787159,16.149371],[104.1809343,16.1483536],[104.1814006,16.1502415],[104.1839111,16.1484722],[104.1854993,16.1491255]]]}}]}