{"type":"FeatureCollection","features":[{"type":"Feature","properties":{"id":"TH-LAO-4450102","nameTh":"ร้อยเอ็ด","type":"town_municipality"},"geometry":{"type":"Polygon","coordinates":[[[103.6249446,16.0612275],[103.6246623,16.0640711],[103.6253268,16.0647564],[103.6252782,16.0657324],[103.6260075,16.0656701],[103.6268611,16.0661114],[103.6274824,16.0658362],[103.6280497,16.0665527],[103.6287142,16.0657636],[103.6291788,16.0662412],[103.6295299,16.0661841],[103.6296866,16.065395],[103.6303943,16.0651873],[103.6314748,16.0655248],[103.6337384,16.0646059],[103.63678,16.0646059],[103.6375202,16.0639725],[103.6376822,16.0632665],[103.6423284,16.0616986],[103.6434737,16.0619634],[103.6456077,16.0641127],[103.6491193,16.0640037],[103.6488511,16.065777],[103.656861,16.0672587],[103.6583953,16.0674145],[103.6593947,16.0670199],[103.661237,16.0649226],[103.6615449,16.064014],[103.6616043,16.0598141],[103.6608912,16.0549339],[103.6637221,16.0546224],[103.6734843,16.0561903],[103.6739111,16.0525976],[103.6637977,16.0510712],[103.6638248,16.0497888],[103.7007398,16.0245702],[103.6969094,16.0206186],[103.6602753,16.0455158],[103.6567205,16.0445086],[103.6579415,16.0412895],[103.6475309,16.0411649],[103.644981,16.0310037],[103.6413073,16.0318396],[103.643733,16.0414349],[103.6393462,16.0413726],[103.635867,16.0549339],[103.6234629,16.0599127],[103.6249446,16.0612275]]]}}]}